{"type":"FeatureCollection","features":[{"type":"Feature","properties":{"Ward_No":"1","Zone":"Zone 1","Zone no":1,"Zone name":"Tiruvottiyur","City":"Chennai"},"geometry":{"type":"Polygon","coordinates":[[[80.3161,13.2266],[80.3176,13.2312],[80.3235,13.2326],[80.3271,13.2352],[80.3329,13.2347],[80.3269,13.218],[80.3232,13.2184],[80.3228,13.2216],[80.3191,13.2224],[80.3161,13.2266]]]}},{"type":"Feature","properties":{"Ward_No":"2","Zone":"Zone 1","Zone no":1,"Zone name":"Tiruvottiyur","City":"Chennai"},"geometry":{"type":"Polygon","coordinates":[[[80.3088,13.2072],[80.3081,13.2108],[80.3161,13.2266],[80.3191,13.2224],[80.3228,13.2216],[80.3232,13.2184],[80.3269,13.218],[80.3227,13.2047],[80.312,13.2075],[80.3088,13.2072]]]}},{"type":"Feature","properties":{"Ward_No":"3","Zone":"Zone 1","Zone no":1,"Zone name":"Tiruvottiyur","City":"Chennai"},"geometry":{"type":"Polygon","coordinates":[[[80.3091,13.187],[80.3117,13.193],[80.3033,13.1954],[80.3088,13.2072],[80.312,13.2075],[80.3227,13.2047],[80.3187,13.1887],[80.3135,13.1899],[80.3126,13.1864],[80.3091,13.187]]]}},{"type":"Feature","properties":{"Ward_No":"4","Zone":"Zone 1","Zone no":1,"Zone name":"Tiruvottiyur","City":"Chennai"},"geometry":{"type":"Polygon","coordinates":[[[80.2972,13.1858],[80.3035,13.1838],[80.3033,13.1823],[80.3017,13.183],[80.2993,13.1794],[80.3006,13.179],[80.2998,13.1768],[80.3038,13.1756],[80.3117,13.193],[80.3033,13.1954],[80.3024,13.192],[80.2972,13.1858]]]}},{"type":"Feature","properties":{"Ward_No":"5","Zone":"Zone 1","Zone no":1,"Zone name":"Tiruvottiyur","City":"Chennai"},"geometry":{"type":"Polygon","coordinates":[[[80.3127,13.1674],[80.3083,13.1682],[80.3076,13.167],[80.3046,13.1681],[80.3042,13.1672],[80.3032,13.1674],[80.3031,13.1694],[80.3011,13.1698],[80.3091,13.187],[80.3126,13.1864],[80.3135,13.1899],[80.3187,13.1887],[80.3157,13.1743],[80.3127,13.1674]]]}},{"type":"Feature","properties":{"Ward_No":"6","Zone":"Zone 1","Zone no":1,"Zone name":"Tiruvottiyur","City":"Chennai"},"geometry":{"type":"Polygon","coordinates":[[[80.3038,13.1756],[80.2998,13.1768],[80.3006,13.179],[80.2993,13.1794],[80.3017,13.183],[80.3033,13.1823],[80.3035,13.1838],[80.2972,13.1858],[80.2939,13.1805],[80.2862,13.182],[80.2867,13.1751],[80.2906,13.1749],[80.2903,13.1732],[80.3016,13.1708],[80.3038,13.1756]]]}},{"type":"Feature","properties":{"Ward_No":"7","Zone":"Zone 1","Zone no":1,"Zone name":"Tiruvottiyur","City":"Chennai"},"geometry":{"type":"Polygon","coordinates":[[[80.3016,13.1708],[80.2898,13.1447],[80.2859,13.1462],[80.2785,13.1422],[80.265,13.1415],[80.2657,13.1454],[80.2684,13.149],[80.2662,13.1495],[80.2685,13.1614],[80.2775,13.16],[80.2795,13.1607],[80.2826,13.1637],[80.2867,13.1751],[80.2906,13.1749],[80.2903,13.1732],[80.3016,13.1708]]]}},{"type":"Feature","properties":{"Ward_No":"8","Zone":"Zone 1","Zone no":1,"Zone name":"Tiruvottiyur","City":"Chennai"},"geometry":{"type":"Polygon","coordinates":[[[80.3127,13.1674],[80.3117,13.1632],[80.3047,13.1652],[80.3036,13.1643],[80.3007,13.1663],[80.3017,13.1696],[80.3031,13.1694],[80.3032,13.1674],[80.3042,13.1672],[80.3046,13.1681],[80.3076,13.167],[80.3083,13.1682],[80.3127,13.1674]]]}},{"type":"Feature","properties":{"Ward_No":"9","Zone":"Zone 1","Zone no":1,"Zone name":"Tiruvottiyur","City":"Chennai"},"geometry":{"type":"Polygon","coordinates":[[[80.3107,13.1595],[80.3026,13.1606],[80.303,13.1617],[80.3011,13.1621],[80.3007,13.1663],[80.3036,13.1643],[80.3047,13.1652],[80.3117,13.1632],[80.3107,13.1595]]]}},{"type":"Feature","properties":{"Ward_No":"10","Zone":"Zone 1","Zone no":1,"Zone name":"Tiruvottiyur","City":"Chennai"},"geometry":{"type":"Polygon","coordinates":[[[80.3007,13.1663],[80.3011,13.1698],[80.296,13.1584],[80.3,13.1565],[80.3004,13.1582],[80.3018,13.1578],[80.303,13.1617],[80.3011,13.1621],[80.3007,13.1663]]]}},{"type":"Feature","properties":{"Ward_No":"11","Zone":"Zone 1","Zone no":1,"Zone name":"Tiruvottiyur","City":"Chennai"},"geometry":{"type":"Polygon","coordinates":[[[80.3107,13.1595],[80.3074,13.1491],[80.2981,13.1529],[80.2986,13.1549],[80.2947,13.1556],[80.296,13.1584],[80.3,13.1565],[80.3004,13.1582],[80.3018,13.1578],[80.3026,13.1606],[80.3107,13.1595]]]}},{"type":"Feature","properties":{"Ward_No":"12","Zone":"Zone 1","Zone no":1,"Zone name":"Tiruvottiyur","City":"Chennai"},"geometry":{"type":"Polygon","coordinates":[[[80.2929,13.1514],[80.2947,13.1556],[80.2986,13.1549],[80.2981,13.1529],[80.3004,13.1523],[80.2976,13.1471],[80.2958,13.1478],[80.2976,13.1502],[80.2929,13.1514]]]}},{"type":"Feature","properties":{"Ward_No":"13","Zone":"Zone 1","Zone no":1,"Zone name":"Tiruvottiyur","City":"Chennai"},"geometry":{"type":"Polygon","coordinates":[[[80.2898,13.1447],[80.2968,13.1452],[80.2976,13.1471],[80.2958,13.1478],[80.2976,13.1502],[80.2929,13.1514],[80.2898,13.1447]]]}},{"type":"Feature","properties":{"Ward_No":"14","Zone":"Zone 1","Zone no":1,"Zone name":"Tiruvottiyur","City":"Chennai"},"geometry":{"type":"Polygon","coordinates":[[[80.3002,13.1431],[80.3046,13.1422],[80.3074,13.1491],[80.3004,13.1523],[80.2968,13.1452],[80.2954,13.1455],[80.2951,13.1445],[80.3002,13.1431]]]}},{"type":"Feature","properties":{"Ward_No":"127","Zone":"Zone 10","Zone no":10,"Zone name":"Kodambakkam","City":"Chennai"},"geometry":{"type":"Polygon","coordinates":[[[80.1896,13.0581],[80.1915,13.0628],[80.1899,13.0645],[80.1916,13.0673],[80.1907,13.0738],[80.1926,13.0755],[80.1977,13.0759],[80.1982,13.0792],[80.2004,13.08],[80.2027,13.0779],[80.2034,13.0739],[80.2103,13.0724],[80.209,13.0697],[80.2089,13.0629],[80.2073,13.0611],[80.2003,13.061],[80.1987,13.055],[80.1971,13.055],[80.1968,13.0572],[80.1943,13.0569],[80.1933,13.0553],[80.1896,13.0553],[80.1896,13.0581]]]}},{"type":"Feature","properties":{"Ward_No":"128","Zone":"Zone 10","Zone no":10,"Zone name":"Kodambakkam","City":"Chennai"},"geometry":{"type":"Polygon","coordinates":[[[80.1858,13.0515],[80.1889,13.0347],[80.194,13.0345],[80.1945,13.0374],[80.1928,13.038],[80.1938,13.0443],[80.1926,13.0466],[80.1971,13.0474],[80.1968,13.0572],[80.1943,13.0569],[80.1933,13.0553],[80.1869,13.0548],[80.1858,13.0515]]]}},{"type":"Feature","properties":{"Ward_No":"129","Zone":"Zone 10","Zone no":10,"Zone name":"Kodambakkam","City":"Chennai"},"geometry":{"type":"Polygon","coordinates":[[[80.2094,13.0464],[80.2036,13.044],[80.2038,13.0478],[80.1971,13.0474],[80.1971,13.055],[80.1988,13.0554],[80.2003,13.061],[80.2037,13.0618],[80.2094,13.0603],[80.2093,13.0549],[80.2077,13.055],[80.2075,13.0493],[80.2086,13.0492],[80.2094,13.0464]]]}},{"type":"Feature","properties":{"Ward_No":"130","Zone":"Zone 10","Zone no":10,"Zone name":"Kodambakkam","City":"Chennai"},"geometry":{"type":"Polygon","coordinates":[[[80.2095,13.047],[80.2085,13.047],[80.2086,13.0492],[80.2075,13.0491],[80.2077,13.055],[80.2093,13.0549],[80.2094,13.0603],[80.213,13.0583],[80.218,13.0587],[80.2183,13.0543],[80.2168,13.0513],[80.2122,13.0499],[80.2147,13.0505],[80.2145,13.0473],[80.2095,13.047]]]}},{"type":"Feature","properties":{"Ward_No":"131","Zone":"Zone 10","Zone no":10,"Zone name":"Kodambakkam","City":"Chennai"},"geometry":{"type":"Polygon","coordinates":[[[80.2094,13.0464],[80.2036,13.044],[80.2038,13.0478],[80.1971,13.0474],[80.1965,13.044],[80.2025,13.0431],[80.2021,13.0406],[80.2007,13.0408],[80.2001,13.0366],[80.1978,13.037],[80.1972,13.0345],[80.2012,13.0351],[80.2014,13.0364],[80.208,13.0355],[80.2094,13.0464]]]}},{"type":"Feature","properties":{"Ward_No":"132","Zone":"Zone 10","Zone no":10,"Zone name":"Kodambakkam","City":"Chennai"},"geometry":{"type":"Polygon","coordinates":[[[80.2095,13.047],[80.208,13.0355],[80.21,13.035],[80.2094,13.0311],[80.2169,13.0304],[80.217,13.0315],[80.2159,13.0313],[80.2167,13.0402],[80.2159,13.0416],[80.2174,13.0437],[80.2148,13.0445],[80.2145,13.0473],[80.2095,13.047]]]}},{"type":"Feature","properties":{"Ward_No":"133","Zone":"Zone 10","Zone no":10,"Zone name":"Kodambakkam","City":"Chennai"},"geometry":{"type":"Polygon","coordinates":[[[80.2168,13.0513],[80.2122,13.0499],[80.2147,13.0505],[80.2148,13.0445],[80.2174,13.0437],[80.2159,13.0416],[80.2167,13.0402],[80.2159,13.0313],[80.22,13.0322],[80.2206,13.0334],[80.2207,13.0343],[80.2188,13.0346],[80.2192,13.0398],[80.2196,13.0413],[80.2216,13.041],[80.2229,13.0475],[80.2184,13.0468],[80.219,13.052],[80.2168,13.0513]]]}},{"type":"Feature","properties":{"Ward_No":"134","Zone":"Zone 10","Zone no":10,"Zone name":"Kodambakkam","City":"Chennai"},"geometry":{"type":"Polygon","coordinates":[[[80.219,13.052],[80.2307,13.0541],[80.2306,13.0477],[80.2293,13.0438],[80.2226,13.0456],[80.2229,13.0475],[80.2184,13.0468],[80.219,13.052]]]}},{"type":"Feature","properties":{"Ward_No":"135","Zone":"Zone 10","Zone no":10,"Zone name":"Kodambakkam","City":"Chennai"},"geometry":{"type":"Polygon","coordinates":[[[80.227,13.0353],[80.2188,13.0346],[80.2196,13.0413],[80.2216,13.041],[80.2226,13.0456],[80.2293,13.0438],[80.227,13.0353]]]}},{"type":"Feature","properties":{"Ward_No":"136","Zone":"Zone 10","Zone no":10,"Zone name":"Kodambakkam","City":"Chennai"},"geometry":{"type":"Polygon","coordinates":[[[80.2376,13.0345],[80.2393,13.0355],[80.24,13.0404],[80.2439,13.0399],[80.2446,13.0433],[80.241,13.0439],[80.2396,13.0462],[80.2302,13.0476],[80.227,13.0353],[80.2376,13.0345]]]}},{"type":"Feature","properties":{"Ward_No":"137","Zone":"Zone 10","Zone no":10,"Zone name":"Kodambakkam","City":"Chennai"},"geometry":{"type":"Polygon","coordinates":[[[80.1901,13.0242],[80.1885,13.0247],[80.1889,13.0347],[80.194,13.0345],[80.1945,13.0374],[80.1928,13.038],[80.1938,13.0443],[80.1926,13.0466],[80.1971,13.0474],[80.1965,13.044],[80.2025,13.0431],[80.2021,13.0406],[80.2007,13.0408],[80.2001,13.0366],[80.1978,13.037],[80.1969,13.0323],[80.1979,13.0289],[80.1939,13.0278],[80.1901,13.0242]]]}},{"type":"Feature","properties":{"Ward_No":"138","Zone":"Zone 10","Zone no":10,"Zone name":"Kodambakkam","City":"Chennai"},"geometry":{"type":"Polygon","coordinates":[[[80.2092,13.0262],[80.2109,13.0297],[80.2091,13.0302],[80.2098,13.0352],[80.2014,13.0364],[80.2012,13.0351],[80.1972,13.0345],[80.1979,13.0289],[80.2092,13.0262]]]}},{"type":"Feature","properties":{"Ward_No":"139","Zone":"Zone 10","Zone no":10,"Zone name":"Kodambakkam","City":"Chennai"},"geometry":{"type":"Polygon","coordinates":[[[80.2198,13.0275],[80.2201,13.0294],[80.2169,13.0304],[80.2094,13.0311],[80.2091,13.0302],[80.2109,13.0297],[80.2092,13.0262],[80.2111,13.0227],[80.2164,13.0227],[80.2165,13.0272],[80.2198,13.0275]]]}},{"type":"Feature","properties":{"Ward_No":"140","Zone":"Zone 10","Zone no":10,"Zone name":"Kodambakkam","City":"Chennai"},"geometry":{"type":"Polygon","coordinates":[[[80.2207,13.0343],[80.2261,13.0355],[80.2258,13.0306],[80.224,13.0283],[80.2244,13.0253],[80.2198,13.0249],[80.2201,13.0294],[80.2169,13.0298],[80.217,13.0315],[80.22,13.0322],[80.2207,13.0343]]]}},{"type":"Feature","properties":{"Ward_No":"141","Zone":"Zone 10","Zone no":10,"Zone name":"Kodambakkam","City":"Chennai"},"geometry":{"type":"Polygon","coordinates":[[[80.2392,13.0319],[80.2376,13.0345],[80.2261,13.0355],[80.2255,13.0312],[80.2306,13.0307],[80.2314,13.0261],[80.2392,13.0319]]]}},{"type":"Feature","properties":{"Ward_No":"142","Zone":"Zone 10","Zone no":10,"Zone name":"Kodambakkam","City":"Chennai"},"geometry":{"type":"Polygon","coordinates":[[[80.225,13.0173],[80.2243,13.0195],[80.2287,13.025],[80.2198,13.0249],[80.2198,13.0275],[80.2168,13.0275],[80.2164,13.0227],[80.2111,13.0227],[80.2119,13.0201],[80.2197,13.0194],[80.2191,13.0164],[80.2231,13.0157],[80.225,13.0173]]]}},{"type":"Feature","properties":{"Ward_No":"143","Zone":"Zone 11","Zone no":11,"Zone name":"Valasaravakkam","City":"Chennai"},"geometry":{"type":"Polygon","coordinates":[[[80.1613,13.0797],[80.163,13.0835],[80.1673,13.0819],[80.1725,13.0818],[80.1774,13.072],[80.1747,13.0703],[80.1721,13.0664],[80.1628,13.0638],[80.1631,13.0669],[80.1621,13.0672],[80.1631,13.0704],[80.1604,13.0735],[80.1603,13.0789],[80.1613,13.0797]]]}},{"type":"Feature","properties":{"Ward_No":"144","Zone":"Zone 11","Zone no":11,"Zone name":"Valasaravakkam","City":"Chennai"},"geometry":{"type":"Polygon","coordinates":[[[80.1678,13.0658],[80.1721,13.0664],[80.1757,13.0712],[80.1814,13.0727],[80.1787,13.0629],[80.1784,13.0566],[80.1729,13.0575],[80.1729,13.0596],[80.1743,13.0598],[80.1747,13.0652],[80.1682,13.064],[80.1678,13.0658]]]}},{"type":"Feature","properties":{"Ward_No":"145","Zone":"Zone 11","Zone no":11,"Zone name":"Valasaravakkam","City":"Chennai"},"geometry":{"type":"Polygon","coordinates":[[[80.1896,13.0581],[80.1915,13.0628],[80.1899,13.0645],[80.1916,13.0673],[80.1907,13.0738],[80.1814,13.0727],[80.1786,13.0622],[80.1827,13.0612],[80.1826,13.0583],[80.1896,13.0581]]]}},{"type":"Feature","properties":{"Ward_No":"146","Zone":"Zone 11","Zone no":11,"Zone name":"Valasaravakkam","City":"Chennai"},"geometry":{"type":"Polygon","coordinates":[[[80.1608,13.0411],[80.1626,13.0475],[80.1615,13.0507],[80.1619,13.0635],[80.1678,13.0658],[80.1682,13.064],[80.1639,13.0613],[80.1664,13.0588],[80.1665,13.0496],[80.1636,13.0421],[80.1635,13.0381],[80.1609,13.0387],[80.1608,13.0411]]]}},{"type":"Feature","properties":{"Ward_No":"147","Zone":"Zone 11","Zone no":11,"Zone name":"Valasaravakkam","City":"Chennai"},"geometry":{"type":"Polygon","coordinates":[[[80.1702,13.043],[80.1723,13.0492],[80.1742,13.0496],[80.1748,13.053],[80.1781,13.0529],[80.1784,13.0566],[80.1729,13.0575],[80.1729,13.0596],[80.1743,13.0598],[80.1747,13.0652],[80.1682,13.064],[80.1639,13.0613],[80.1664,13.0588],[80.1665,13.0496],[80.1636,13.0421],[80.1635,13.0381],[80.1695,13.0391],[80.1702,13.043]]]}},{"type":"Feature","properties":{"Ward_No":"148","Zone":"Zone 11","Zone no":11,"Zone name":"Valasaravakkam","City":"Chennai"},"geometry":{"type":"Polygon","coordinates":[[[80.1896,13.0581],[80.1895,13.0551],[80.1869,13.0548],[80.1858,13.0515],[80.1786,13.0518],[80.1788,13.0623],[80.1827,13.0612],[80.1826,13.0583],[80.1896,13.0581]]]}},{"type":"Feature","properties":{"Ward_No":"149","Zone":"Zone 11","Zone no":11,"Zone name":"Valasaravakkam","City":"Chennai"},"geometry":{"type":"Polygon","coordinates":[[[80.1858,13.0515],[80.187,13.0456],[80.186,13.0448],[80.1807,13.0422],[80.1744,13.0412],[80.1702,13.043],[80.1723,13.0492],[80.1742,13.0496],[80.1748,13.053],[80.1858,13.0515]]]}},{"type":"Feature","properties":{"Ward_No":"150","Zone":"Zone 11","Zone no":11,"Zone name":"Valasaravakkam","City":"Chennai"},"geometry":{"type":"Polygon","coordinates":[[[80.1609,13.0387],[80.1608,13.0411],[80.1506,13.041],[80.1503,13.0397],[80.1486,13.0413],[80.1465,13.0413],[80.1462,13.034],[80.1557,13.0343],[80.1609,13.0387]]]}},{"type":"Feature","properties":{"Ward_No":"151","Zone":"Zone 11","Zone no":11,"Zone name":"Valasaravakkam","City":"Chennai"},"geometry":{"type":"Polygon","coordinates":[[[80.156,13.0347],[80.1615,13.0388],[80.1632,13.0381],[80.1695,13.0391],[80.1699,13.0376],[80.1737,13.036],[80.1725,13.0352],[80.173,13.0327],[80.1707,13.0248],[80.1677,13.0254],[80.1675,13.0244],[80.1656,13.0254],[80.1659,13.0312],[80.1604,13.0343],[80.156,13.0347]]]}},{"type":"Feature","properties":{"Ward_No":"152","Zone":"Zone 11","Zone no":11,"Zone name":"Valasaravakkam","City":"Chennai"},"geometry":{"type":"Polygon","coordinates":[[[80.1887,13.038],[80.1827,13.0373],[80.179,13.0355],[80.172,13.0362],[80.1695,13.0391],[80.1702,13.043],[80.1744,13.0412],[80.1796,13.042],[80.187,13.0456],[80.1887,13.038]]]}},{"type":"Feature","properties":{"Ward_No":"153","Zone":"Zone 11","Zone no":11,"Zone name":"Valasaravakkam","City":"Chennai"},"geometry":{"type":"Polygon","coordinates":[[[80.1479,13.0339],[80.1474,13.0318],[80.1454,13.0316],[80.1453,13.0246],[80.1517,13.0258],[80.1597,13.0246],[80.1614,13.0231],[80.1642,13.0246],[80.1664,13.0218],[80.1675,13.0244],[80.1656,13.0254],[80.1653,13.0317],[80.1597,13.0344],[80.1479,13.0339]]]}},{"type":"Feature","properties":{"Ward_No":"154","Zone":"Zone 11","Zone no":11,"Zone name":"Valasaravakkam","City":"Chennai"},"geometry":{"type":"Polygon","coordinates":[[[80.1707,13.0248],[80.1747,13.0249],[80.1768,13.0236],[80.1832,13.0241],[80.1829,13.0269],[80.1781,13.0279],[80.1785,13.0319],[80.1768,13.0326],[80.178,13.0329],[80.1786,13.036],[80.1725,13.0352],[80.173,13.0327],[80.1707,13.0248]]]}},{"type":"Feature","properties":{"Ward_No":"155","Zone":"Zone 11","Zone no":11,"Zone name":"Valasaravakkam","City":"Chennai"},"geometry":{"type":"Polygon","coordinates":[[[80.1901,13.0242],[80.1885,13.0247],[80.1887,13.038],[80.1827,13.0373],[80.179,13.0355],[80.1768,13.0326],[80.1785,13.0319],[80.1781,13.0279],[80.1829,13.0269],[80.1832,13.0241],[80.1856,13.0243],[80.1879,13.0222],[80.1901,13.0242]]]}},{"type":"Feature","properties":{"Ward_No":"156","Zone":"Zone 12","Zone no":12,"Zone name":"Alandur","City":"Chennai"},"geometry":{"type":"Polygon","coordinates":[[[80.1675,13.0244],[80.1662,13.0215],[80.1652,13.0243],[80.1629,13.0246],[80.1622,13.0231],[80.1607,13.0232],[80.1597,13.0246],[80.1517,13.0258],[80.1453,13.0246],[80.1449,13.0215],[80.1474,13.0209],[80.1476,13.0171],[80.1515,13.017],[80.1559,13.0132],[80.1588,13.015],[80.1628,13.0141],[80.1724,13.0158],[80.1745,13.0174],[80.1771,13.0239],[80.1677,13.0254],[80.1675,13.0244]]]}},{"type":"Feature","properties":{"Ward_No":"157","Zone":"Zone 12","Zone no":12,"Zone name":"Alandur","City":"Chennai"},"geometry":{"type":"Polygon","coordinates":[[[80.1894,13.0231],[80.1879,13.0222],[80.184,13.0248],[80.1829,13.0239],[80.1775,13.0244],[80.1757,13.0192],[80.1724,13.0158],[80.1617,13.0145],[80.1614,13.0116],[80.1594,13.0106],[80.1591,13.0068],[80.1634,13.0063],[80.1636,13.0039],[80.1667,13.0056],[80.1702,13.0021],[80.1776,13.0009],[80.182,13.005],[80.1801,13.0064],[80.1826,13.0174],[80.1872,13.019],[80.1894,13.0231]]]}},{"type":"Feature","properties":{"Ward_No":"158","Zone":"Zone 12","Zone no":12,"Zone name":"Alandur","City":"Chennai"},"geometry":{"type":"Polygon","coordinates":[[[80.1901,13.0242],[80.1872,13.019],[80.1826,13.0174],[80.1801,13.0064],[80.182,13.005],[80.1886,13.0094],[80.1936,13.0088],[80.1948,13.027],[80.1939,13.0278],[80.1901,13.0242]]]}},{"type":"Feature","properties":{"Ward_No":"159","Zone":"Zone 12","Zone no":12,"Zone name":"Alandur","City":"Chennai"},"geometry":{"type":"Polygon","coordinates":[[[80.1786,12.9887],[80.1743,12.9914],[80.1775,12.9953],[80.1763,12.9996],[80.1776,13.0009],[80.1702,13.0021],[80.1667,13.0056],[80.1636,13.0039],[80.1605,12.9988],[80.1663,12.984],[80.1654,12.9812],[80.1737,12.98],[80.1742,12.9822],[80.1765,12.9824],[80.1786,12.9887]]]}},{"type":"Feature","properties":{"Ward_No":"160","Zone":"Zone 12","Zone no":12,"Zone name":"Alandur","City":"Chennai"},"geometry":{"type":"Polygon","coordinates":[[[80.2076,12.999],[80.2117,13.0073],[80.2152,13.0101],[80.204,13.0071],[80.2021,13.0054],[80.203,13.0034],[80.2011,12.9984],[80.2066,13.0027],[80.2063,12.9998],[80.2076,12.999]]]}},{"type":"Feature","properties":{"Ward_No":"161","Zone":"Zone 12","Zone no":12,"Zone name":"Alandur","City":"Chennai"},"geometry":{"type":"Polygon","coordinates":[[[80.2076,12.999],[80.2063,12.9998],[80.2066,13.0027],[80.2017,12.9986],[80.2006,13.0003],[80.2007,12.9986],[80.1987,12.9985],[80.1968,12.991],[80.1985,12.9907],[80.2005,12.9951],[80.2028,12.9958],[80.2028,12.9927],[80.2059,12.9919],[80.2076,12.999]]]}},{"type":"Feature","properties":{"Ward_No":"162","Zone":"Zone 12","Zone no":12,"Zone name":"Alandur","City":"Chennai"},"geometry":{"type":"Polygon","coordinates":[[[80.1971,12.9856],[80.1902,12.9884],[80.1883,12.9871],[80.1856,12.9883],[80.1861,12.9941],[80.1909,12.9962],[80.1987,12.9972],[80.1985,12.995],[80.197,12.9942],[80.1968,12.991],[80.1985,12.9907],[80.1971,12.9856]]]}},{"type":"Feature","properties":{"Ward_No":"163","Zone":"Zone 12","Zone no":12,"Zone name":"Alandur","City":"Chennai"},"geometry":{"type":"Polygon","coordinates":[[[80.205,12.9887],[80.2059,12.9919],[80.2028,12.9927],[80.2028,12.9958],[80.2005,12.9951],[80.1971,12.9856],[80.198,12.9872],[80.1984,12.986],[80.2019,12.9858],[80.2022,12.9894],[80.205,12.9887]]]}},{"type":"Feature","properties":{"Ward_No":"164","Zone":"Zone 12","Zone no":12,"Zone name":"Alandur","City":"Chennai"},"geometry":{"type":"Polygon","coordinates":[[[80.1861,12.9941],[80.1853,12.9896],[80.1812,12.9873],[80.1807,12.9858],[80.1846,12.9863],[80.1842,12.9835],[80.1827,12.9831],[80.1835,12.9815],[80.185,12.9813],[80.1859,12.9862],[80.1886,12.9856],[80.1883,12.981],[80.1897,12.9807],[80.1921,12.9823],[80.1932,12.9873],[80.1902,12.9884],[80.1883,12.9871],[80.1856,12.9883],[80.1861,12.9941]]]}},{"type":"Feature","properties":{"Ward_No":"165","Zone":"Zone 12","Zone no":12,"Zone name":"Alandur","City":"Chennai"},"geometry":{"type":"Polygon","coordinates":[[[80.2014,12.9785],[80.2048,12.9763],[80.2074,12.9796],[80.2034,12.984],[80.2036,12.9881],[80.205,12.9887],[80.2022,12.9894],[80.2019,12.9858],[80.1984,12.986],[80.198,12.9872],[80.1971,12.9856],[80.1932,12.9873],[80.1921,12.9823],[80.2014,12.9785]]]}},{"type":"Feature","properties":{"Ward_No":"166","Zone":"Zone 12","Zone no":12,"Zone name":"Alandur","City":"Chennai"},"geometry":{"type":"Polygon","coordinates":[[[80.182,12.968],[80.1765,12.9711],[80.1763,12.9778],[80.1737,12.98],[80.1742,12.9822],[80.1765,12.9824],[80.1786,12.9887],[80.1812,12.9873],[80.181,12.9856],[80.1846,12.9863],[80.183,12.9823],[80.1787,12.9822],[80.1836,12.9738],[80.182,12.968]]]}},{"type":"Feature","properties":{"Ward_No":"167","Zone":"Zone 12","Zone no":12,"Zone name":"Alandur","City":"Chennai"},"geometry":{"type":"Polygon","coordinates":[[[80.182,12.968],[80.1836,12.9738],[80.1787,12.9822],[80.1793,12.983],[80.1854,12.9813],[80.1866,12.9864],[80.1886,12.9856],[80.1883,12.981],[80.1897,12.9807],[80.1907,12.9771],[80.1891,12.971],[80.194,12.9692],[80.1938,12.9681],[80.1877,12.9696],[80.182,12.968]]]}},{"type":"Feature","properties":{"Ward_No":"170","Zone":"Zone 13","Zone no":13,"Zone name":"Adyar","City":"Chennai"},"geometry":{"type":"Polygon","coordinates":[[[80.225,13.0173],[80.2251,13.0153],[80.2212,13.0122],[80.204,13.0071],[80.204,13.0125],[80.1982,13.015],[80.2005,13.0287],[80.21,13.0257],[80.2119,13.0201],[80.2195,13.0195],[80.2191,13.0164],[80.2231,13.0157],[80.225,13.0173]]]}},{"type":"Feature","properties":{"Ward_No":"171","Zone":"Zone 13","Zone no":13,"Zone name":"Adyar","City":"Chennai"},"geometry":{"type":"Polygon","coordinates":[[[80.2392,13.0319],[80.2393,13.0268],[80.2377,13.0215],[80.2388,13.0187],[80.2412,13.0181],[80.2404,13.0068],[80.2374,13.0062],[80.2212,13.0122],[80.2251,13.0153],[80.2243,13.0195],[80.229,13.0248],[80.2243,13.0255],[80.224,13.0283],[80.2255,13.0306],[80.2306,13.0307],[80.2314,13.0261],[80.2392,13.0319]]]}},{"type":"Feature","properties":{"Ward_No":"172","Zone":"Zone 13","Zone no":13,"Zone name":"Adyar","City":"Chennai"},"geometry":{"type":"Polygon","coordinates":[[[80.2496,12.9949],[80.2474,13.0049],[80.2482,13.0154],[80.2495,13.0177],[80.2478,13.0216],[80.2445,13.0246],[80.2393,13.0268],[80.2377,13.0215],[80.2388,13.0187],[80.2412,13.0181],[80.2404,13.0068],[80.2435,13.0065],[80.2432,12.9954],[80.2496,12.9949]]]}},{"type":"Feature","properties":{"Ward_No":"173","Zone":"Zone 13","Zone no":13,"Zone name":"Adyar","City":"Chennai"},"geometry":{"type":"Polygon","coordinates":[[[80.2529,13.0227],[80.2593,13.0256],[80.2645,13.0241],[80.266,13.0262],[80.2663,13.0252],[80.2739,13.024],[80.2783,13.0221],[80.2767,13.0126],[80.2593,13.0132],[80.2513,13.015],[80.2495,13.0177],[80.2529,13.0227]]]}},{"type":"Feature","properties":{"Ward_No":"174","Zone":"Zone 13","Zone no":13,"Zone name":"Adyar","City":"Chennai"},"geometry":{"type":"Polygon","coordinates":[[[80.2432,12.9954],[80.2413,12.9958],[80.241,12.9858],[80.2363,12.984],[80.2356,12.9826],[80.2316,12.9835],[80.2324,12.9868],[80.2228,12.9872],[80.2207,12.9888],[80.2183,12.9875],[80.2161,12.9884],[80.2162,12.9921],[80.2145,12.9954],[80.2071,12.9968],[80.2117,13.0073],[80.2152,13.0101],[80.2212,13.0122],[80.2374,13.0062],[80.2435,13.0065],[80.2432,12.9954]]]}},{"type":"Feature","properties":{"Ward_No":"175","Zone":"Zone 13","Zone no":13,"Zone name":"Adyar","City":"Chennai"},"geometry":{"type":"Polygon","coordinates":[[[80.2496,12.9949],[80.2474,13.0049],[80.2482,13.0154],[80.2495,13.0177],[80.2513,13.015],[80.2593,13.0132],[80.2594,13.0104],[80.257,13.0041],[80.256,12.9903],[80.2518,12.9903],[80.2507,12.9946],[80.2496,12.9949]]]}},{"type":"Feature","properties":{"Ward_No":"176","Zone":"Zone 13","Zone no":13,"Zone name":"Adyar","City":"Chennai"},"geometry":{"type":"Polygon","coordinates":[[[80.2593,13.0132],[80.2559,12.9969],[80.2698,12.9954],[80.272,12.9962],[80.2713,13.0007],[80.2737,13.0023],[80.2767,13.0126],[80.2593,13.0132]]]}},{"type":"Feature","properties":{"Ward_No":"177","Zone":"Zone 13","Zone no":13,"Zone name":"Adyar","City":"Chennai"},"geometry":{"type":"Polygon","coordinates":[[[80.2183,12.9875],[80.2186,12.9793],[80.2076,12.9781],[80.2075,12.9803],[80.2034,12.984],[80.2036,12.9881],[80.2049,12.9884],[80.2071,12.9968],[80.2145,12.9954],[80.2162,12.9921],[80.2155,12.9888],[80.2183,12.9875]]]}},{"type":"Feature","properties":{"Ward_No":"178","Zone":"Zone 13","Zone no":13,"Zone name":"Adyar","City":"Chennai"},"geometry":{"type":"Polygon","coordinates":[[[80.2176,12.9677],[80.2121,12.9716],[80.211,12.9748],[80.2094,12.9753],[80.2093,12.9777],[80.2188,12.9794],[80.2183,12.9875],[80.2207,12.9888],[80.223,12.9872],[80.2232,12.985],[80.2212,12.9813],[80.2213,12.976],[80.2176,12.9677]]]}},{"type":"Feature","properties":{"Ward_No":"179","Zone":"Zone 13","Zone no":13,"Zone name":"Adyar","City":"Chennai"},"geometry":{"type":"Polygon","coordinates":[[[80.2286,12.9727],[80.2329,12.9766],[80.2331,12.9817],[80.2343,12.9814],[80.2346,12.9828],[80.2316,12.9835],[80.2324,12.9868],[80.223,12.9872],[80.2232,12.985],[80.2212,12.9813],[80.2213,12.976],[80.2176,12.9677],[80.2245,12.9682],[80.2286,12.9727]]]}},{"type":"Feature","properties":{"Ward_No":"180","Zone":"Zone 13","Zone no":13,"Zone name":"Adyar","City":"Chennai"},"geometry":{"type":"Polygon","coordinates":[[[80.256,12.9903],[80.2518,12.9903],[80.2507,12.9946],[80.2413,12.9958],[80.241,12.9858],[80.2363,12.984],[80.2341,12.9813],[80.2331,12.9817],[80.2333,12.9792],[80.2431,12.9788],[80.2437,12.9813],[80.2526,12.9799],[80.2527,12.9815],[80.2546,12.9827],[80.256,12.9903]]]}},{"type":"Feature","properties":{"Ward_No":"181","Zone":"Zone 13","Zone no":13,"Zone name":"Adyar","City":"Chennai"},"geometry":{"type":"Polygon","coordinates":[[[80.2684,12.983],[80.2621,12.9847],[80.2597,12.9873],[80.2558,12.9876],[80.2559,12.9969],[80.2698,12.9954],[80.272,12.9962],[80.2684,12.983]]]}},{"type":"Feature","properties":{"Ward_No":"182","Zone":"Zone 13","Zone no":13,"Zone name":"Adyar","City":"Chennai"},"geometry":{"type":"Polygon","coordinates":[[[80.2663,12.9736],[80.2537,12.9757],[80.2536,12.9819],[80.2558,12.9876],[80.2597,12.9873],[80.2621,12.9847],[80.2684,12.983],[80.2663,12.9736]]]}},{"type":"Feature","properties":{"Ward_No":"168","Zone":"Zone 14","Zone no":14,"Zone name":"Perungudi","City":"Chennai"},"geometry":{"type":"Polygon","coordinates":[[[80.1921,12.9823],[80.2014,12.979],[80.2009,12.9762],[80.1975,12.9756],[80.1972,12.9737],[80.1936,12.9733],[80.1908,12.9745],[80.1897,12.9809],[80.1921,12.9823]]]}},{"type":"Feature","properties":{"Ward_No":"169","Zone":"Zone 14","Zone no":14,"Zone name":"Perungudi","City":"Chennai"},"geometry":{"type":"Polygon","coordinates":[[[80.2159,12.9686],[80.2121,12.9716],[80.2074,12.9796],[80.2048,12.9763],[80.2014,12.9785],[80.2009,12.9762],[80.1975,12.9756],[80.1972,12.9737],[80.1936,12.9733],[80.192,12.9746],[80.1894,12.9733],[80.1893,12.9707],[80.194,12.9692],[80.1937,12.968],[80.1961,12.9672],[80.1961,12.9648],[80.1967,12.9673],[80.1982,12.9675],[80.2016,12.9668],[80.2015,12.9653],[80.2114,12.9646],[80.2114,12.9632],[80.2137,12.9629],[80.2159,12.9686]]]}},{"type":"Feature","properties":{"Ward_No":"183","Zone":"Zone 14","Zone no":14,"Zone name":"Perungudi","City":"Chennai"},"geometry":{"type":"Polygon","coordinates":[[[80.2647,12.9653],[80.2663,12.9736],[80.2539,12.9755],[80.2536,12.9819],[80.2524,12.9798],[80.2433,12.9811],[80.2427,12.9767],[80.2457,12.9753],[80.2464,12.9725],[80.2479,12.9719],[80.2475,12.9651],[80.2493,12.9681],[80.2647,12.9653]]]}},{"type":"Feature","properties":{"Ward_No":"184","Zone":"Zone 14","Zone no":14,"Zone name":"Perungudi","City":"Chennai"},"geometry":{"type":"Polygon","coordinates":[[[80.2477,12.9651],[80.2471,12.9639],[80.2442,12.9636],[80.2439,12.9624],[80.2398,12.9634],[80.2385,12.9626],[80.2396,12.9635],[80.239,12.9657],[80.2333,12.968],[80.2345,12.9635],[80.2339,12.9596],[80.2308,12.9599],[80.2309,12.9682],[80.2297,12.9683],[80.2286,12.9727],[80.2326,12.9761],[80.2333,12.9792],[80.2431,12.9788],[80.2427,12.9767],[80.2457,12.9753],[80.2464,12.9725],[80.2479,12.9719],[80.2477,12.9651]]]}},{"type":"Feature","properties":{"Ward_No":"185","Zone":"Zone 14","Zone no":14,"Zone name":"Perungudi","City":"Chennai"},"geometry":{"type":"Polygon","coordinates":[[[80.2477,12.9651],[80.2493,12.9681],[80.2647,12.9653],[80.2625,12.9563],[80.2497,12.9573],[80.2433,12.9601],[80.2442,12.9636],[80.2471,12.9639],[80.2477,12.9651]]]}},{"type":"Feature","properties":{"Ward_No":"186","Zone":"Zone 14","Zone no":14,"Zone name":"Perungudi","City":"Chennai"},"geometry":{"type":"Polygon","coordinates":[[[80.2439,12.9624],[80.2433,12.9601],[80.2459,12.9592],[80.2466,12.9498],[80.2388,12.9533],[80.2331,12.9533],[80.2308,12.9599],[80.2339,12.9596],[80.2345,12.9635],[80.2333,12.968],[80.239,12.9657],[80.2396,12.9635],[80.2385,12.9626],[80.2398,12.9634],[80.2439,12.9624]]]}},{"type":"Feature","properties":{"Ward_No":"187","Zone":"Zone 14","Zone no":14,"Zone name":"Perungudi","City":"Chennai"},"geometry":{"type":"Polygon","coordinates":[[[80.1964,12.9648],[80.196,12.9673],[80.1912,12.9686],[80.1894,12.9594],[80.1877,12.9583],[80.1956,12.9571],[80.1968,12.9624],[80.1981,12.9625],[80.1981,12.9648],[80.1964,12.9648]]]}},{"type":"Feature","properties":{"Ward_No":"188","Zone":"Zone 14","Zone no":14,"Zone name":"Perungudi","City":"Chennai"},"geometry":{"type":"Polygon","coordinates":[[[80.2053,12.9389],[80.2083,12.9433],[80.2171,12.9656],[80.2176,12.9677],[80.2159,12.9686],[80.2137,12.9629],[80.2114,12.9632],[80.2114,12.9646],[80.2015,12.9653],[80.2016,12.9668],[80.1967,12.9673],[80.1964,12.9648],[80.1981,12.9648],[80.1981,12.9625],[80.1968,12.9624],[80.1964,12.9584],[80.1956,12.9571],[80.1907,12.9563],[80.1905,12.9545],[80.1921,12.9541],[80.1932,12.9515],[80.1947,12.9533],[80.2013,12.9528],[80.2015,12.949],[80.199,12.948],[80.2004,12.9437],[80.1994,12.9409],[80.2053,12.9389]]]}},{"type":"Feature","properties":{"Ward_No":"189","Zone":"Zone 14","Zone no":14,"Zone name":"Perungudi","City":"Chennai"},"geometry":{"type":"Polygon","coordinates":[[[80.2308,12.9599],[80.2309,12.9682],[80.2297,12.9683],[80.2286,12.9727],[80.2245,12.9682],[80.2176,12.9677],[80.2083,12.9433],[80.2053,12.9389],[80.2036,12.9322],[80.2117,12.931],[80.2102,12.9269],[80.2168,12.9243],[80.2181,12.9226],[80.2275,12.9215],[80.2299,12.9382],[80.233,12.9455],[80.2334,12.9526],[80.2308,12.9599]]]}},{"type":"Feature","properties":{"Ward_No":"190","Zone":"Zone 14","Zone no":14,"Zone name":"Perungudi","City":"Chennai"},"geometry":{"type":"Polygon","coordinates":[[[80.2141,12.9093],[80.2194,12.9155],[80.2263,12.9137],[80.2275,12.9215],[80.2181,12.9226],[80.2168,12.9243],[80.2104,12.9267],[80.2117,12.931],[80.2036,12.9322],[80.2053,12.9389],[80.1994,12.9409],[80.1961,12.9366],[80.1928,12.9352],[80.1957,12.934],[80.1957,12.9316],[80.194,12.9309],[80.1957,12.9307],[80.1953,12.9246],[80.1976,12.9237],[80.1974,12.9219],[80.2022,12.9282],[80.2031,12.9259],[80.2051,12.9257],[80.2045,12.9217],[80.2063,12.9216],[80.207,12.924],[80.2101,12.9241],[80.2093,12.9184],[80.207,12.9143],[80.2094,12.9142],[80.2088,12.9096],[80.2141,12.9093]]]}},{"type":"Feature","properties":{"Ward_No":"191","Zone":"Zone 14","Zone no":14,"Zone name":"Perungudi","City":"Chennai"},"geometry":{"type":"Polygon","coordinates":[[[80.2088,12.9096],[80.2094,12.9142],[80.207,12.9143],[80.2093,12.9184],[80.2102,12.924],[80.207,12.924],[80.2063,12.9216],[80.2045,12.9217],[80.2051,12.9257],[80.2031,12.9259],[80.2022,12.9282],[80.1969,12.9209],[80.1971,12.9174],[80.1948,12.9099],[80.2088,12.9096]]]}},{"type":"Feature","properties":{"Ward_No":"192","Zone":"Zone 15","Zone no":15,"Zone name":"Sholinganallur","City":"Chennai"},"geometry":{"type":"Polygon","coordinates":[[[80.2599,12.9382],[80.2625,12.9563],[80.2502,12.9577],[80.2478,12.947],[80.2501,12.9405],[80.2599,12.9382]]]}},{"type":"Feature","properties":{"Ward_No":"193","Zone":"Zone 15","Zone no":15,"Zone name":"Sholinganallur","City":"Chennai"},"geometry":{"type":"Polygon","coordinates":[[[80.2459,12.9587],[80.2467,12.9499],[80.2388,12.9533],[80.2331,12.9533],[80.2322,12.9424],[80.2371,12.9439],[80.2444,12.9422],[80.2456,12.9305],[80.2501,12.9405],[80.2478,12.947],[80.2497,12.9573],[80.2459,12.9587]]]}},{"type":"Feature","properties":{"Ward_No":"194","Zone":"Zone 15","Zone no":15,"Zone name":"Sholinganallur","City":"Chennai"},"geometry":{"type":"Polygon","coordinates":[[[80.2456,12.9305],[80.2442,12.928],[80.2402,12.932],[80.2365,12.9302],[80.2305,12.9317],[80.2293,12.9332],[80.2299,12.9382],[80.2322,12.9424],[80.2371,12.9439],[80.2444,12.9422],[80.2456,12.9305]]]}},{"type":"Feature","properties":{"Ward_No":"195","Zone":"Zone 15","Zone no":15,"Zone name":"Sholinganallur","City":"Chennai"},"geometry":{"type":"Polygon","coordinates":[[[80.2416,12.9236],[80.2399,12.9234],[80.2379,12.9199],[80.2351,12.9194],[80.2323,12.9206],[80.2318,12.9224],[80.2274,12.9239],[80.2293,12.9332],[80.2314,12.9313],[80.2362,12.9302],[80.2386,12.932],[80.2408,12.9316],[80.2442,12.928],[80.2416,12.9236]]]}},{"type":"Feature","properties":{"Ward_No":"196","Zone":"Zone 15","Zone no":15,"Zone name":"Sholinganallur","City":"Chennai"},"geometry":{"type":"Polygon","coordinates":[[[80.2559,12.9043],[80.2599,12.9382],[80.2501,12.9405],[80.2416,12.9236],[80.2434,12.9186],[80.2426,12.9076],[80.2449,12.9053],[80.2559,12.9043]]]}},{"type":"Feature","properties":{"Ward_No":"197","Zone":"Zone 15","Zone no":15,"Zone name":"Sholinganallur","City":"Chennai"},"geometry":{"type":"Polygon","coordinates":[[[80.2416,12.9236],[80.2436,12.9133],[80.2426,12.9076],[80.2406,12.9079],[80.2387,12.8963],[80.2395,12.8913],[80.2297,12.8893],[80.2129,12.8913],[80.2141,12.9093],[80.2153,12.9109],[80.2194,12.9155],[80.2263,12.9137],[80.2279,12.9238],[80.2318,12.9224],[80.2323,12.9206],[80.2351,12.9194],[80.2379,12.9199],[80.2399,12.9234],[80.2416,12.9236]]]}},{"type":"Feature","properties":{"Ward_No":"198","Zone":"Zone 15","Zone no":15,"Zone name":"Sholinganallur","City":"Chennai"},"geometry":{"type":"Polygon","coordinates":[[[80.2527,12.8788],[80.2559,12.9043],[80.2449,12.9053],[80.2406,12.9079],[80.2387,12.8963],[80.2395,12.8913],[80.2297,12.8893],[80.2129,12.8913],[80.2102,12.8797],[80.2405,12.8743],[80.2387,12.878],[80.2395,12.8813],[80.2527,12.8788]]]}},{"type":"Feature","properties":{"Ward_No":"199","Zone":"Zone 15","Zone no":15,"Zone name":"Sholinganallur","City":"Chennai"},"geometry":{"type":"Polygon","coordinates":[[[80.2499,12.8566],[80.2527,12.8788],[80.2395,12.8813],[80.2387,12.878],[80.2406,12.8726],[80.2431,12.8721],[80.2432,12.8678],[80.2364,12.8673],[80.2344,12.8652],[80.236,12.859],[80.2499,12.8566]]]}},{"type":"Feature","properties":{"Ward_No":"200","Zone":"Zone 15","Zone no":15,"Zone name":"Sholinganallur","City":"Chennai"},"geometry":{"type":"Polygon","coordinates":[[[80.236,12.859],[80.2344,12.8652],[80.2364,12.8673],[80.2432,12.8678],[80.2431,12.8721],[80.2406,12.8726],[80.2405,12.8743],[80.2102,12.8797],[80.2077,12.8754],[80.2119,12.8636],[80.2173,12.8564],[80.2166,12.8539],[80.2182,12.8526],[80.2321,12.852],[80.236,12.859]]]}},{"type":"Feature","properties":{"Ward_No":"15","Zone":"Zone 2","Zone no":2,"Zone name":"Manali","City":"Chennai"},"geometry":{"type":"Polygon","coordinates":[[[80.313,13.2202],[80.3063,13.2115],[80.3008,13.2111],[80.2983,13.2138],[80.2977,13.2172],[80.2937,13.2203],[80.289,13.2211],[80.2839,13.2274],[80.2735,13.2267],[80.2669,13.2238],[80.2704,13.2204],[80.2724,13.2158],[80.2699,13.2036],[80.2772,13.2044],[80.3037,13.1979],[80.3088,13.2072],[80.3081,13.2108],[80.313,13.2202]]]}},{"type":"Feature","properties":{"Ward_No":"16","Zone":"Zone 2","Zone no":2,"Zone name":"Manali","City":"Chennai"},"geometry":{"type":"Polygon","coordinates":[[[80.3042,13.198],[80.3024,13.192],[80.2939,13.1805],[80.2801,13.1837],[80.2736,13.1828],[80.2721,13.1841],[80.273,13.1863],[80.2689,13.1874],[80.2691,13.1922],[80.2549,13.1917],[80.2541,13.1945],[80.2493,13.1967],[80.2499,13.2061],[80.2664,13.2036],[80.2772,13.2044],[80.3042,13.198]]]}},{"type":"Feature","properties":{"Ward_No":"17","Zone":"Zone 2","Zone no":2,"Zone name":"Manali","City":"Chennai"},"geometry":{"type":"Polygon","coordinates":[[[80.2088,13.1747],[80.2105,13.1752],[80.2116,13.1802],[80.2135,13.1804],[80.2134,13.1778],[80.2145,13.1773],[80.2176,13.1787],[80.2232,13.1771],[80.2234,13.1803],[80.22,13.1809],[80.2199,13.1819],[80.222,13.186],[80.23,13.1843],[80.2315,13.1849],[80.2316,13.1895],[80.2284,13.1974],[80.2387,13.1962],[80.2392,13.1991],[80.2495,13.1987],[80.2493,13.1967],[80.2543,13.1943],[80.2549,13.1917],[80.25,13.1901],[80.2494,13.1827],[80.2475,13.1816],[80.243,13.1818],[80.2414,13.1799],[80.2363,13.1776],[80.2327,13.1792],[80.2293,13.1754],[80.2286,13.1722],[80.2268,13.1714],[80.2251,13.1718],[80.2197,13.1687],[80.2174,13.1722],[80.2088,13.1747]]]}},{"type":"Feature","properties":{"Ward_No":"18","Zone":"Zone 2","Zone no":2,"Zone name":"Manali","City":"Chennai"},"geometry":{"type":"Polygon","coordinates":[[[80.2494,13.1827],[80.2533,13.1807],[80.2536,13.1727],[80.2572,13.1705],[80.2583,13.168],[80.2636,13.1671],[80.2636,13.165],[80.2691,13.1664],[80.2723,13.1691],[80.2847,13.1685],[80.2868,13.1735],[80.2862,13.182],[80.2801,13.1837],[80.2736,13.1828],[80.2721,13.1841],[80.273,13.1863],[80.2689,13.1874],[80.2691,13.1922],[80.2613,13.1927],[80.2515,13.1911],[80.25,13.1901],[80.2494,13.1827]]]}},{"type":"Feature","properties":{"Ward_No":"19","Zone":"Zone 2","Zone no":2,"Zone name":"Manali","City":"Chennai"},"geometry":{"type":"Polygon","coordinates":[[[80.2268,13.1714],[80.2257,13.1636],[80.2309,13.1642],[80.2324,13.1668],[80.2392,13.1653],[80.2449,13.167],[80.2506,13.1668],[80.2528,13.1737],[80.2533,13.1807],[80.2494,13.1827],[80.2475,13.1816],[80.243,13.1818],[80.2414,13.1799],[80.2363,13.1776],[80.2327,13.1792],[80.2293,13.1754],[80.2286,13.1722],[80.2268,13.1714]]]}},{"type":"Feature","properties":{"Ward_No":"20","Zone":"Zone 2","Zone no":2,"Zone name":"Manali","City":"Chennai"},"geometry":{"type":"Polygon","coordinates":[[[80.2528,13.1737],[80.2572,13.1705],[80.2583,13.168],[80.2586,13.166],[80.2559,13.1657],[80.2556,13.1642],[80.2506,13.1668],[80.2528,13.1737]]]}},{"type":"Feature","properties":{"Ward_No":"21","Zone":"Zone 2","Zone no":2,"Zone name":"Manali","City":"Chennai"},"geometry":{"type":"Polygon","coordinates":[[[80.2685,13.1614],[80.2789,13.1603],[80.2826,13.1637],[80.2847,13.1685],[80.2723,13.1691],[80.2691,13.1664],[80.2636,13.165],[80.2636,13.1671],[80.2583,13.168],[80.2586,13.166],[80.2559,13.1657],[80.2565,13.1639],[80.2685,13.1614]]]}},{"type":"Feature","properties":{"Ward_No":"22","Zone":"Zone 3","Zone no":3,"Zone name":"Madhavaram","City":"Chennai"},"geometry":{"type":"Polygon","coordinates":[[[80.2088,13.1747],[80.2025,13.1762],[80.2007,13.1794],[80.1981,13.1739],[80.1944,13.1758],[80.1917,13.1754],[80.1903,13.1678],[80.1935,13.1649],[80.192,13.164],[80.1919,13.159],[80.2033,13.1618],[80.2037,13.1645],[80.2093,13.1648],[80.2142,13.1672],[80.2179,13.1678],[80.2181,13.1648],[80.2257,13.1648],[80.2268,13.1714],[80.2251,13.1718],[80.2197,13.1687],[80.2174,13.1722],[80.2088,13.1747]]]}},{"type":"Feature","properties":{"Ward_No":"23","Zone":"Zone 3","Zone no":3,"Zone name":"Madhavaram","City":"Chennai"},"geometry":{"type":"Polygon","coordinates":[[[80.2232,13.1606],[80.2252,13.161],[80.2257,13.1648],[80.2181,13.1648],[80.2179,13.1678],[80.2093,13.1648],[80.2041,13.1646],[80.2033,13.1618],[80.1919,13.159],[80.1944,13.1585],[80.1948,13.1563],[80.1931,13.1547],[80.2001,13.1539],[80.2,13.1503],[80.2027,13.1533],[80.209,13.1534],[80.2118,13.1596],[80.2232,13.1606]]]}},{"type":"Feature","properties":{"Ward_No":"24","Zone":"Zone 3","Zone no":3,"Zone name":"Madhavaram","City":"Chennai"},"geometry":{"type":"Polygon","coordinates":[[[80.2003,13.1291],[80.1947,13.1285],[80.1915,13.1353],[80.1889,13.1354],[80.1894,13.1371],[80.1882,13.1391],[80.1826,13.1353],[80.177,13.1377],[80.1786,13.1392],[80.1768,13.1488],[80.1833,13.1466],[80.1931,13.1547],[80.1996,13.1543],[80.1999,13.1501],[80.1963,13.1484],[80.1936,13.1432],[80.1953,13.1417],[80.206,13.139],[80.2055,13.1351],[80.2018,13.1329],[80.2003,13.1291]]]}},{"type":"Feature","properties":{"Ward_No":"25","Zone":"Zone 3","Zone no":3,"Zone name":"Madhavaram","City":"Chennai"},"geometry":{"type":"Polygon","coordinates":[[[80.2179,13.1605],[80.2165,13.1491],[80.2063,13.1487],[80.2074,13.1455],[80.2054,13.1398],[80.1953,13.1417],[80.1936,13.1432],[80.1977,13.1499],[80.1998,13.1499],[80.2027,13.1533],[80.209,13.1534],[80.2118,13.1596],[80.2167,13.1592],[80.2179,13.1605]]]}},{"type":"Feature","properties":{"Ward_No":"26","Zone":"Zone 3","Zone no":3,"Zone name":"Madhavaram","City":"Chennai"},"geometry":{"type":"Polygon","coordinates":[[[80.2179,13.1605],[80.2232,13.1606],[80.2298,13.1472],[80.2243,13.1422],[80.2217,13.138],[80.223,13.137],[80.2222,13.1338],[80.2207,13.1332],[80.2206,13.13],[80.2139,13.1303],[80.2144,13.1322],[80.2119,13.1323],[80.2086,13.1363],[80.2058,13.1364],[80.2054,13.1398],[80.2074,13.1455],[80.2063,13.1487],[80.2165,13.1491],[80.2179,13.1605]]]}},{"type":"Feature","properties":{"Ward_No":"27","Zone":"Zone 3","Zone no":3,"Zone name":"Madhavaram","City":"Chennai"},"geometry":{"type":"Polygon","coordinates":[[[80.2232,13.1606],[80.2252,13.161],[80.2257,13.1636],[80.2309,13.1642],[80.2324,13.1668],[80.2392,13.1653],[80.2467,13.1669],[80.2465,13.1639],[80.2401,13.1496],[80.2277,13.1512],[80.2232,13.1606]]]}},{"type":"Feature","properties":{"Ward_No":"28","Zone":"Zone 3","Zone no":3,"Zone name":"Madhavaram","City":"Chennai"},"geometry":{"type":"Polygon","coordinates":[[[80.2401,13.1496],[80.2396,13.1466],[80.243,13.1456],[80.2476,13.146],[80.2491,13.1479],[80.2553,13.1474],[80.2579,13.159],[80.2561,13.1621],[80.2565,13.1639],[80.2506,13.1668],[80.2467,13.1669],[80.2465,13.1639],[80.2401,13.1496]]]}},{"type":"Feature","properties":{"Ward_No":"29","Zone":"Zone 3","Zone no":3,"Zone name":"Madhavaram","City":"Chennai"},"geometry":{"type":"Polygon","coordinates":[[[80.2685,13.1614],[80.2662,13.1495],[80.2684,13.149],[80.2665,13.1454],[80.2553,13.1474],[80.2579,13.159],[80.2561,13.1621],[80.2565,13.1639],[80.2685,13.1614]]]}},{"type":"Feature","properties":{"Ward_No":"30","Zone":"Zone 3","Zone no":3,"Zone name":"Madhavaram","City":"Chennai"},"geometry":{"type":"Polygon","coordinates":[[[80.2401,13.1496],[80.2277,13.1512],[80.2314,13.1441],[80.2362,13.142],[80.2368,13.1438],[80.2393,13.1439],[80.2397,13.1456],[80.243,13.1456],[80.2396,13.1466],[80.2401,13.1496]]]}},{"type":"Feature","properties":{"Ward_No":"31","Zone":"Zone 3","Zone no":3,"Zone name":"Madhavaram","City":"Chennai"},"geometry":{"type":"Polygon","coordinates":[[[80.2417,13.1297],[80.2425,13.1353],[80.2391,13.1362],[80.2404,13.1425],[80.2393,13.1439],[80.2368,13.1438],[80.2362,13.142],[80.2314,13.1441],[80.2298,13.1472],[80.2243,13.1422],[80.2417,13.1297]]]}},{"type":"Feature","properties":{"Ward_No":"32","Zone":"Zone 3","Zone no":3,"Zone name":"Madhavaram","City":"Chennai"},"geometry":{"type":"Polygon","coordinates":[[[80.2003,13.1291],[80.2087,13.1288],[80.2123,13.1308],[80.2139,13.1303],[80.2144,13.1322],[80.2119,13.1323],[80.2086,13.1363],[80.2058,13.1364],[80.2041,13.1336],[80.2018,13.1329],[80.2003,13.1291]]]}},{"type":"Feature","properties":{"Ward_No":"33","Zone":"Zone 3","Zone no":3,"Zone name":"Madhavaram","City":"Chennai"},"geometry":{"type":"Polygon","coordinates":[[[80.2206,13.13],[80.2207,13.1332],[80.2222,13.1338],[80.223,13.137],[80.2217,13.138],[80.224,13.1418],[80.2415,13.1289],[80.2424,13.1225],[80.2333,13.123],[80.2333,13.1263],[80.2258,13.1261],[80.2245,13.1296],[80.2206,13.13]]]}},{"type":"Feature","properties":{"Ward_No":"34","Zone":"Zone 4","Zone no":4,"Zone name":"Tondiarpet","City":"Chennai"},"geometry":{"type":"Polygon","coordinates":[[[80.2604,13.1459],[80.2581,13.1363],[80.2435,13.1385],[80.2417,13.1297],[80.2425,13.1353],[80.2391,13.1362],[80.2404,13.1425],[80.2397,13.1456],[80.2458,13.1455],[80.2479,13.1462],[80.2485,13.1477],[80.2512,13.148],[80.2604,13.1459]]]}},{"type":"Feature","properties":{"Ward_No":"35","Zone":"Zone 4","Zone no":4,"Zone name":"Tondiarpet","City":"Chennai"},"geometry":{"type":"Polygon","coordinates":[[[80.2588,13.1314],[80.2525,13.1316],[80.2499,13.13],[80.2483,13.1219],[80.2457,13.1225],[80.2429,13.1278],[80.2415,13.1269],[80.2435,13.1385],[80.2581,13.1363],[80.2588,13.1314]]]}},{"type":"Feature","properties":{"Ward_No":"36","Zone":"Zone 4","Zone no":4,"Zone name":"Tondiarpet","City":"Chennai"},"geometry":{"type":"Polygon","coordinates":[[[80.2528,13.1172],[80.2528,13.1164],[80.2559,13.1167],[80.2571,13.1188],[80.2594,13.1183],[80.2588,13.1314],[80.2525,13.1316],[80.2498,13.1298],[80.2483,13.1219],[80.2511,13.1206],[80.2515,13.122],[80.2528,13.1172]]]}},{"type":"Feature","properties":{"Ward_No":"37","Zone":"Zone 4","Zone no":4,"Zone name":"Tondiarpet","City":"Chennai"},"geometry":{"type":"Polygon","coordinates":[[[80.2722,13.1202],[80.2734,13.1252],[80.2694,13.127],[80.2716,13.1307],[80.2747,13.1306],[80.2785,13.1422],[80.265,13.1415],[80.2657,13.1454],[80.2604,13.1459],[80.2581,13.1363],[80.2594,13.1183],[80.2614,13.118],[80.2617,13.1196],[80.2722,13.1202]]]}},{"type":"Feature","properties":{"Ward_No":"38","Zone":"Zone 4","Zone no":4,"Zone name":"Tondiarpet","City":"Chennai"},"geometry":{"type":"Polygon","coordinates":[[[80.2808,13.1198],[80.2841,13.1245],[80.2861,13.1348],[80.2898,13.1447],[80.2868,13.1462],[80.2785,13.1422],[80.2735,13.1264],[80.2772,13.126],[80.2772,13.1243],[80.2786,13.1285],[80.2822,13.1281],[80.2787,13.1207],[80.2808,13.1198]]]}},{"type":"Feature","properties":{"Ward_No":"39","Zone":"Zone 4","Zone no":4,"Zone name":"Tondiarpet","City":"Chennai"},"geometry":{"type":"Polygon","coordinates":[[[80.2975,13.1316],[80.2922,13.1324],[80.2935,13.1388],[80.2883,13.1397],[80.2898,13.1447],[80.3002,13.1431],[80.2975,13.1316]]]}},{"type":"Feature","properties":{"Ward_No":"40","Zone":"Zone 4","Zone no":4,"Zone name":"Tondiarpet","City":"Chennai"},"geometry":{"type":"Polygon","coordinates":[[[80.2922,13.1324],[80.2901,13.1271],[80.285,13.1284],[80.2883,13.1397],[80.2935,13.1388],[80.2922,13.1324]]]}},{"type":"Feature","properties":{"Ward_No":"41","Zone":"Zone 4","Zone no":4,"Zone name":"Tondiarpet","City":"Chennai"},"geometry":{"type":"Polygon","coordinates":[[[80.2722,13.1202],[80.2734,13.1252],[80.2694,13.127],[80.2716,13.1307],[80.2747,13.1306],[80.2735,13.1264],[80.2772,13.126],[80.2772,13.1243],[80.2786,13.1285],[80.2822,13.1281],[80.278,13.119],[80.2722,13.1202]]]}},{"type":"Feature","properties":{"Ward_No":"42","Zone":"Zone 4","Zone no":4,"Zone name":"Tondiarpet","City":"Chennai"},"geometry":{"type":"Polygon","coordinates":[[[80.285,13.1284],[80.2901,13.1271],[80.2839,13.1167],[80.2836,13.1186],[80.2804,13.1182],[80.285,13.1284]]]}},{"type":"Feature","properties":{"Ward_No":"43","Zone":"Zone 4","Zone no":4,"Zone name":"Tondiarpet","City":"Chennai"},"geometry":{"type":"Polygon","coordinates":[[[80.2877,13.1234],[80.2955,13.121],[80.3,13.1211],[80.2968,13.1244],[80.2985,13.1294],[80.2975,13.1316],[80.2922,13.1324],[80.2877,13.1234]]]}},{"type":"Feature","properties":{"Ward_No":"44","Zone":"Zone 4","Zone no":4,"Zone name":"Tondiarpet","City":"Chennai"},"geometry":{"type":"Polygon","coordinates":[[[80.2459,13.1224],[80.2499,13.1207],[80.2515,13.122],[80.2512,13.1206],[80.253,13.1196],[80.2528,13.1172],[80.2515,13.1164],[80.2525,13.1146],[80.2479,13.1153],[80.2483,13.1128],[80.2438,13.1132],[80.2448,13.119],[80.2461,13.1195],[80.2451,13.1201],[80.2459,13.1224]]]}},{"type":"Feature","properties":{"Ward_No":"45","Zone":"Zone 4","Zone no":4,"Zone name":"Tondiarpet","City":"Chennai"},"geometry":{"type":"Polygon","coordinates":[[[80.2594,13.1183],[80.2619,13.1177],[80.2614,13.1142],[80.2635,13.1142],[80.2656,13.1107],[80.2651,13.1098],[80.2524,13.1088],[80.2527,13.1143],[80.2515,13.1168],[80.2559,13.1167],[80.2572,13.1188],[80.2594,13.1183]]]}},{"type":"Feature","properties":{"Ward_No":"46","Zone":"Zone 4","Zone no":4,"Zone name":"Tondiarpet","City":"Chennai"},"geometry":{"type":"Polygon","coordinates":[[[80.2722,13.1202],[80.2699,13.1104],[80.2712,13.1045],[80.2635,13.1142],[80.2614,13.1142],[80.2614,13.118],[80.2617,13.1196],[80.2722,13.1202]]]}},{"type":"Feature","properties":{"Ward_No":"47","Zone":"Zone 4","Zone no":4,"Zone name":"Tondiarpet","City":"Chennai"},"geometry":{"type":"Polygon","coordinates":[[[80.2781,13.1141],[80.2808,13.1198],[80.2787,13.1207],[80.2777,13.1189],[80.2722,13.1202],[80.2699,13.1104],[80.2737,13.1104],[80.2757,13.1154],[80.2781,13.1141]]]}},{"type":"Feature","properties":{"Ward_No":"48","Zone":"Zone 4","Zone no":4,"Zone name":"Tondiarpet","City":"Chennai"},"geometry":{"type":"Polygon","coordinates":[[[80.2855,13.1183],[80.2869,13.1178],[80.2849,13.1115],[80.2779,13.1125],[80.2804,13.1182],[80.2836,13.1186],[80.2839,13.1167],[80.2855,13.1183]]]}},{"type":"Feature","properties":{"Ward_No":"49","Zone":"Zone 5","Zone no":5,"Zone name":"Royapuram","City":"Chennai"},"geometry":{"type":"Polygon","coordinates":[[[80.2855,13.1183],[80.2869,13.1178],[80.287,13.1146],[80.2887,13.114],[80.2881,13.1117],[80.2921,13.1118],[80.2939,13.1218],[80.2875,13.1233],[80.2855,13.1183]]]}},{"type":"Feature","properties":{"Ward_No":"50","Zone":"Zone 5","Zone no":5,"Zone name":"Royapuram","City":"Chennai"},"geometry":{"type":"Polygon","coordinates":[[[80.3001,13.1211],[80.3021,13.1167],[80.2984,13.1042],[80.293,13.1061],[80.2939,13.1087],[80.2914,13.1093],[80.2938,13.1214],[80.3001,13.1211]]]}},{"type":"Feature","properties":{"Ward_No":"51","Zone":"Zone 5","Zone no":5,"Zone name":"Royapuram","City":"Chennai"},"geometry":{"type":"Polygon","coordinates":[[[80.2881,13.1117],[80.2865,13.109],[80.2813,13.1104],[80.2815,13.1121],[80.2849,13.1115],[80.2863,13.1165],[80.2875,13.1159],[80.2871,13.1145],[80.2887,13.114],[80.2881,13.1117]]]}},{"type":"Feature","properties":{"Ward_No":"52","Zone":"Zone 5","Zone no":5,"Zone name":"Royapuram","City":"Chennai"},"geometry":{"type":"Polygon","coordinates":[[[80.2984,13.1042],[80.2975,13.1021],[80.28,13.1055],[80.2822,13.1078],[80.2804,13.1096],[80.2813,13.1104],[80.2865,13.109],[80.2887,13.1122],[80.2921,13.1118],[80.2915,13.1091],[80.2939,13.1087],[80.293,13.1061],[80.2984,13.1042]]]}},{"type":"Feature","properties":{"Ward_No":"53","Zone":"Zone 5","Zone no":5,"Zone name":"Royapuram","City":"Chennai"},"geometry":{"type":"Polygon","coordinates":[[[80.2813,13.1104],[80.2815,13.1121],[80.2779,13.1125],[80.2781,13.1141],[80.2757,13.1154],[80.2737,13.1104],[80.2699,13.1104],[80.2713,13.1043],[80.2711,13.0973],[80.2751,13.0974],[80.2745,13.1014],[80.2762,13.1012],[80.2768,13.1041],[80.28,13.1055],[80.2802,13.1068],[80.2815,13.1065],[80.2822,13.1078],[80.2804,13.1096],[80.2813,13.1104]]]}},{"type":"Feature","properties":{"Ward_No":"54","Zone":"Zone 5","Zone no":5,"Zone name":"Royapuram","City":"Chennai"},"geometry":{"type":"Polygon","coordinates":[[[80.274,13.0945],[80.2737,13.0974],[80.2751,13.0974],[80.2745,13.1014],[80.2762,13.1012],[80.2768,13.1041],[80.28,13.1055],[80.2796,13.0943],[80.275,13.0958],[80.274,13.0945]]]}},{"type":"Feature","properties":{"Ward_No":"55","Zone":"Zone 5","Zone no":5,"Zone name":"Royapuram","City":"Chennai"},"geometry":{"type":"Polygon","coordinates":[[[80.2798,13.0951],[80.2808,13.0967],[80.2824,13.0965],[80.2821,13.0947],[80.2862,13.094],[80.2866,13.0976],[80.2834,13.0979],[80.2847,13.105],[80.28,13.1055],[80.2798,13.0951]]]}},{"type":"Feature","properties":{"Ward_No":"56","Zone":"Zone 5","Zone no":5,"Zone name":"Royapuram","City":"Chennai"},"geometry":{"type":"Polygon","coordinates":[[[80.2906,13.1027],[80.2847,13.105],[80.2834,13.0979],[80.2907,13.0961],[80.2906,13.1027]]]}},{"type":"Feature","properties":{"Ward_No":"57","Zone":"Zone 5","Zone no":5,"Zone name":"Royapuram","City":"Chennai"},"geometry":{"type":"Polygon","coordinates":[[[80.2738,13.0908],[80.275,13.0906],[80.275,13.0892],[80.2783,13.0899],[80.2853,13.0884],[80.2862,13.094],[80.2821,13.0947],[80.2824,13.0965],[80.2808,13.0967],[80.2796,13.0943],[80.2746,13.0957],[80.2738,13.0908]]]}},{"type":"Feature","properties":{"Ward_No":"58","Zone":"Zone 5","Zone no":5,"Zone name":"Royapuram","City":"Chennai"},"geometry":{"type":"Polygon","coordinates":[[[80.2559,13.0861],[80.2566,13.0838],[80.2546,13.0789],[80.2652,13.0807],[80.2659,13.0763],[80.2674,13.0794],[80.2706,13.0795],[80.2709,13.0808],[80.2746,13.0816],[80.2738,13.0908],[80.2706,13.0924],[80.2694,13.0907],[80.2654,13.0901],[80.257,13.0908],[80.2576,13.0887],[80.2559,13.0861]]]}},{"type":"Feature","properties":{"Ward_No":"59","Zone":"Zone 5","Zone no":5,"Zone name":"Royapuram","City":"Chennai"},"geometry":{"type":"Polygon","coordinates":[[[80.2853,13.0884],[80.2847,13.0856],[80.2809,13.0812],[80.2821,13.0789],[80.2751,13.0723],[80.2806,13.0687],[80.2795,13.0645],[80.2737,13.0668],[80.274,13.0645],[80.2708,13.0647],[80.2713,13.068],[80.2747,13.0726],[80.2738,13.0771],[80.2706,13.0795],[80.2709,13.0808],[80.2746,13.0816],[80.2738,13.0908],[80.275,13.0906],[80.275,13.0892],[80.2783,13.0899],[80.2853,13.0884]]]}},{"type":"Feature","properties":{"Ward_No":"60","Zone":"Zone 5","Zone no":5,"Zone name":"Royapuram","City":"Chennai"},"geometry":{"type":"Polygon","coordinates":[[[80.2975,13.1021],[80.2981,13.1003],[80.3032,13.0984],[80.3037,13.0966],[80.2895,13.0672],[80.2791,13.0694],[80.2751,13.0723],[80.2821,13.0789],[80.2809,13.0812],[80.2847,13.0856],[80.2865,13.0968],[80.2907,13.0961],[80.2906,13.1027],[80.2975,13.1021]]]}},{"type":"Feature","properties":{"Ward_No":"61","Zone":"Zone 5","Zone no":5,"Zone name":"Royapuram","City":"Chennai"},"geometry":{"type":"Polygon","coordinates":[[[80.2546,13.0789],[80.2652,13.0807],[80.2654,13.0747],[80.2672,13.0721],[80.2649,13.071],[80.2648,13.0669],[80.2612,13.0655],[80.2581,13.061],[80.256,13.0623],[80.2547,13.067],[80.249,13.0715],[80.2506,13.0719],[80.2503,13.0739],[80.2523,13.0742],[80.253,13.0788],[80.2546,13.0789]]]}},{"type":"Feature","properties":{"Ward_No":"62","Zone":"Zone 5","Zone no":5,"Zone name":"Royapuram","City":"Chennai"},"geometry":{"type":"Polygon","coordinates":[[[80.2706,13.0795],[80.2738,13.0771],[80.2747,13.0732],[80.2724,13.0694],[80.2689,13.0706],[80.2658,13.0747],[80.2674,13.0794],[80.2706,13.0795]]]}},{"type":"Feature","properties":{"Ward_No":"63","Zone":"Zone 5","Zone no":5,"Zone name":"Royapuram","City":"Chennai"},"geometry":{"type":"Polygon","coordinates":[[[80.2659,13.0763],[80.2656,13.0739],[80.2672,13.0721],[80.2649,13.071],[80.2648,13.0669],[80.2617,13.0659],[80.2606,13.0639],[80.2637,13.0626],[80.2654,13.0583],[80.2676,13.0582],[80.2714,13.06],[80.2697,13.0612],[80.2704,13.0637],[80.2715,13.0637],[80.271,13.067],[80.2724,13.0694],[80.2689,13.0706],[80.2661,13.0739],[80.2659,13.0763]]]}},{"type":"Feature","properties":{"Ward_No":"64","Zone":"Zone 6","Zone no":6,"Zone name":"Thiru.Vi.Ka.Nagar","City":"Chennai"},"geometry":{"type":"Polygon","coordinates":[[[80.2206,13.13],[80.2153,13.131],[80.2068,13.1261],[80.2069,13.1222],[80.2086,13.1221],[80.2087,13.1186],[80.2115,13.1167],[80.2188,13.1181],[80.2231,13.1169],[80.2249,13.1291],[80.2206,13.13]]]}},{"type":"Feature","properties":{"Ward_No":"65","Zone":"Zone 6","Zone no":6,"Zone name":"Thiru.Vi.Ka.Nagar","City":"Chennai"},"geometry":{"type":"Polygon","coordinates":[[[80.2016,13.1288],[80.2021,13.1199],[80.2027,13.1187],[80.2065,13.1188],[80.2066,13.11],[80.2136,13.1101],[80.2138,13.1116],[80.2189,13.1112],[80.2195,13.1181],[80.2115,13.1167],[80.2084,13.1189],[80.2086,13.1221],[80.2069,13.1222],[80.2068,13.1261],[80.2139,13.1303],[80.2123,13.1308],[80.2059,13.1284],[80.2016,13.1288]]]}},{"type":"Feature","properties":{"Ward_No":"66","Zone":"Zone 6","Zone no":6,"Zone name":"Thiru.Vi.Ka.Nagar","City":"Chennai"},"geometry":{"type":"Polygon","coordinates":[[[80.2197,13.1138],[80.2195,13.1181],[80.2231,13.1169],[80.2239,13.1187],[80.2249,13.1269],[80.2329,13.1265],[80.2317,13.116],[80.2308,13.1166],[80.2306,13.1155],[80.2314,13.1101],[80.2197,13.1138]]]}},{"type":"Feature","properties":{"Ward_No":"67","Zone":"Zone 6","Zone no":6,"Zone name":"Thiru.Vi.Ka.Nagar","City":"Chennai"},"geometry":{"type":"Polygon","coordinates":[[[80.2172,13.1097],[80.2136,13.1101],[80.2138,13.1116],[80.2189,13.1112],[80.2197,13.1138],[80.2314,13.1101],[80.2308,13.1166],[80.2355,13.1138],[80.2352,13.1125],[80.2356,13.1136],[80.238,13.1123],[80.2367,13.1113],[80.237,13.1078],[80.2172,13.1097]]]}},{"type":"Feature","properties":{"Ward_No":"68","Zone":"Zone 6","Zone no":6,"Zone name":"Thiru.Vi.Ka.Nagar","City":"Chennai"},"geometry":{"type":"Polygon","coordinates":[[[80.2317,13.116],[80.2355,13.1138],[80.2352,13.1125],[80.2356,13.1136],[80.238,13.1123],[80.2388,13.1152],[80.2426,13.1162],[80.2392,13.1183],[80.24,13.1216],[80.2426,13.1214],[80.2424,13.1225],[80.2333,13.123],[80.2329,13.1265],[80.2317,13.116]]]}},{"type":"Feature","properties":{"Ward_No":"69","Zone":"Zone 6","Zone no":6,"Zone name":"Thiru.Vi.Ka.Nagar","City":"Chennai"},"geometry":{"type":"Polygon","coordinates":[[[80.2459,13.1224],[80.2428,13.1278],[80.2415,13.1265],[80.2427,13.1215],[80.24,13.1216],[80.2392,13.1183],[80.2426,13.1162],[80.2388,13.1152],[80.2378,13.1114],[80.2367,13.1113],[80.2372,13.1021],[80.2359,13.0985],[80.2421,13.0973],[80.2433,13.1021],[80.2419,13.1097],[80.244,13.1097],[80.2435,13.113],[80.2448,13.119],[80.2461,13.1195],[80.2451,13.1201],[80.2459,13.1224]]]}},{"type":"Feature","properties":{"Ward_No":"70","Zone":"Zone 6","Zone no":6,"Zone name":"Thiru.Vi.Ka.Nagar","City":"Chennai"},"geometry":{"type":"Polygon","coordinates":[[[80.2598,13.1093],[80.2524,13.1088],[80.2527,13.1143],[80.2509,13.1155],[80.2479,13.1153],[80.2483,13.1128],[80.2437,13.1134],[80.244,13.1097],[80.2419,13.1097],[80.242,13.1086],[80.2467,13.1077],[80.2462,13.1054],[80.2471,13.1049],[80.2529,13.1031],[80.2534,13.1048],[80.2604,13.1021],[80.2611,13.1043],[80.2598,13.1093]]]}},{"type":"Feature","properties":{"Ward_No":"71","Zone":"Zone 6","Zone no":6,"Zone name":"Thiru.Vi.Ka.Nagar","City":"Chennai"},"geometry":{"type":"Polygon","coordinates":[[[80.2511,13.0981],[80.2421,13.0973],[80.2433,13.1021],[80.242,13.1086],[80.2464,13.1079],[80.2463,13.1053],[80.2529,13.1031],[80.2511,13.0981]]]}},{"type":"Feature","properties":{"Ward_No":"72","Zone":"Zone 6","Zone no":6,"Zone name":"Thiru.Vi.Ka.Nagar","City":"Chennai"},"geometry":{"type":"Polygon","coordinates":[[[80.2712,13.1045],[80.2656,13.1107],[80.2598,13.1093],[80.2606,13.1026],[80.2673,13.1003],[80.2686,13.0956],[80.2737,13.0958],[80.2737,13.0974],[80.2711,13.0973],[80.2712,13.1045]]]}},{"type":"Feature","properties":{"Ward_No":"73","Zone":"Zone 6","Zone no":6,"Zone name":"Thiru.Vi.Ka.Nagar","City":"Chennai"},"geometry":{"type":"Polygon","coordinates":[[[80.2543,13.0977],[80.2572,13.0975],[80.2573,13.0988],[80.2595,13.0987],[80.2598,13.0999],[80.2684,13.0981],[80.2673,13.1003],[80.2655,13.1003],[80.2657,13.1017],[80.2604,13.1021],[80.2534,13.1048],[80.2511,13.0981],[80.2543,13.0977]]]}},{"type":"Feature","properties":{"Ward_No":"74","Zone":"Zone 6","Zone no":6,"Zone name":"Thiru.Vi.Ka.Nagar","City":"Chennai"},"geometry":{"type":"Polygon","coordinates":[[[80.2416,13.0958],[80.2411,13.0895],[80.2452,13.0867],[80.249,13.0911],[80.2511,13.0981],[80.2421,13.0973],[80.2416,13.0958]]]}},{"type":"Feature","properties":{"Ward_No":"75","Zone":"Zone 6","Zone no":6,"Zone name":"Thiru.Vi.Ka.Nagar","City":"Chennai"},"geometry":{"type":"Polygon","coordinates":[[[80.2543,13.0977],[80.2547,13.0912],[80.249,13.0911],[80.2511,13.0981],[80.2543,13.0977]]]}},{"type":"Feature","properties":{"Ward_No":"76","Zone":"Zone 6","Zone no":6,"Zone name":"Thiru.Vi.Ka.Nagar","City":"Chennai"},"geometry":{"type":"Polygon","coordinates":[[[80.2543,13.0977],[80.2572,13.0975],[80.2573,13.0988],[80.2605,13.0998],[80.2602,13.0985],[80.2632,13.0967],[80.2628,13.0935],[80.2545,13.0941],[80.2543,13.0977]]]}},{"type":"Feature","properties":{"Ward_No":"77","Zone":"Zone 6","Zone no":6,"Zone name":"Thiru.Vi.Ka.Nagar","City":"Chennai"},"geometry":{"type":"Polygon","coordinates":[[[80.2628,13.0935],[80.2667,13.0939],[80.2666,13.0929],[80.2738,13.0908],[80.2737,13.0958],[80.2686,13.0956],[80.2684,13.0981],[80.2605,13.0998],[80.2602,13.0985],[80.2632,13.0967],[80.2628,13.0935]]]}},{"type":"Feature","properties":{"Ward_No":"78","Zone":"Zone 6","Zone no":6,"Zone name":"Thiru.Vi.Ka.Nagar","City":"Chennai"},"geometry":{"type":"Polygon","coordinates":[[[80.2696,13.0923],[80.2694,13.0907],[80.2654,13.0901],[80.257,13.0908],[80.257,13.0866],[80.2556,13.086],[80.2541,13.094],[80.2648,13.0931],[80.2649,13.0942],[80.2696,13.0923]]]}},{"type":"Feature","properties":{"Ward_No":"79","Zone":"Zone 7","Zone no":7,"Zone name":"Ambattur","City":"Chennai"},"geometry":{"type":"Polygon","coordinates":[[[80.1525,13.125],[80.1475,13.1225],[80.1437,13.1244],[80.1477,13.1276],[80.1454,13.1386],[80.1495,13.1379],[80.1502,13.1397],[80.154,13.1416],[80.1602,13.1403],[80.1584,13.1349],[80.1565,13.1344],[80.1579,13.1332],[80.1582,13.1305],[80.1525,13.125]]]}},{"type":"Feature","properties":{"Ward_No":"80","Zone":"Zone 7","Zone no":7,"Zone name":"Ambattur","City":"Chennai"},"geometry":{"type":"Polygon","coordinates":[[[80.1598,13.1229],[80.1631,13.1238],[80.1641,13.1288],[80.1662,13.1296],[80.1645,13.1302],[80.1646,13.1347],[80.1602,13.1403],[80.1584,13.1349],[80.1565,13.1344],[80.1579,13.1332],[80.1582,13.1305],[80.154,13.1275],[80.1521,13.124],[80.1557,13.1224],[80.1598,13.1229]]]}},{"type":"Feature","properties":{"Ward_No":"81","Zone":"Zone 7","Zone no":7,"Zone name":"Ambattur","City":"Chennai"},"geometry":{"type":"Polygon","coordinates":[[[80.1525,13.125],[80.1522,13.1237],[80.1542,13.1226],[80.1598,13.1229],[80.1611,13.118],[80.1594,13.1183],[80.1591,13.1166],[80.1567,13.1173],[80.1547,13.1143],[80.1418,13.115],[80.1437,13.1244],[80.1475,13.1225],[80.1525,13.125]]]}},{"type":"Feature","properties":{"Ward_No":"82","Zone":"Zone 7","Zone no":7,"Zone name":"Ambattur","City":"Chennai"},"geometry":{"type":"Polygon","coordinates":[[[80.1646,13.1347],[80.1664,13.1359],[80.1689,13.1421],[80.1704,13.1424],[80.1826,13.1353],[80.1831,13.127],[80.1786,13.1288],[80.1748,13.1275],[80.1749,13.1219],[80.1785,13.1193],[80.1745,13.1174],[80.1748,13.1146],[80.1547,13.1143],[80.1567,13.1173],[80.1591,13.1166],[80.1594,13.1183],[80.1611,13.118],[80.1598,13.1229],[80.1631,13.1238],[80.1641,13.1288],[80.1661,13.1288],[80.1645,13.1302],[80.1646,13.1347]]]}},{"type":"Feature","properties":{"Ward_No":"83","Zone":"Zone 7","Zone no":7,"Zone name":"Ambattur","City":"Chennai"},"geometry":{"type":"Polygon","coordinates":[[[80.2003,13.1291],[80.1947,13.1285],[80.1915,13.1353],[80.1889,13.1354],[80.1894,13.1371],[80.1882,13.1391],[80.1855,13.1381],[80.1826,13.1353],[80.1831,13.127],[80.1786,13.1288],[80.1748,13.1275],[80.1749,13.1219],[80.1785,13.1193],[80.1745,13.1174],[80.1741,13.1157],[80.1748,13.1146],[80.1799,13.1142],[80.1799,13.1084],[80.1961,13.1079],[80.1974,13.1119],[80.1994,13.1126],[80.2028,13.1191],[80.2016,13.1288],[80.2003,13.1291]]]}},{"type":"Feature","properties":{"Ward_No":"84","Zone":"Zone 7","Zone no":7,"Zone name":"Ambattur","City":"Chennai"},"geometry":{"type":"Polygon","coordinates":[[[80.1853,13.0995],[80.1943,13.102],[80.1961,13.1079],[80.1799,13.1084],[80.1799,13.1142],[80.1641,13.1146],[80.1632,13.1064],[80.1743,13.1055],[80.1726,13.1013],[80.1811,13.0983],[80.1853,13.0995]]]}},{"type":"Feature","properties":{"Ward_No":"85","Zone":"Zone 7","Zone no":7,"Zone name":"Ambattur","City":"Chennai"},"geometry":{"type":"Polygon","coordinates":[[[80.1418,13.115],[80.1641,13.1146],[80.1632,13.1064],[80.1743,13.1055],[80.1742,13.1034],[80.1711,13.1034],[80.1698,13.1],[80.1604,13.1017],[80.1564,13.1041],[80.1558,13.1008],[80.1515,13.1008],[80.1504,13.1034],[80.1469,13.0978],[80.1404,13.0979],[80.1402,13.1057],[80.1418,13.115]]]}},{"type":"Feature","properties":{"Ward_No":"86","Zone":"Zone 7","Zone no":7,"Zone name":"Ambattur","City":"Chennai"},"geometry":{"type":"Polygon","coordinates":[[[80.1811,13.0983],[80.1765,13.0969],[80.1771,13.0882],[80.1614,13.0892],[80.1613,13.0797],[80.1541,13.0822],[80.1503,13.0864],[80.1461,13.0871],[80.1436,13.0956],[80.1404,13.0979],[80.1469,13.0978],[80.1504,13.1034],[80.1512,13.1009],[80.1558,13.1008],[80.1564,13.1041],[80.1604,13.1017],[80.1698,13.1],[80.1711,13.1034],[80.1727,13.1035],[80.1726,13.1013],[80.1811,13.0983]]]}},{"type":"Feature","properties":{"Ward_No":"87","Zone":"Zone 7","Zone no":7,"Zone name":"Ambattur","City":"Chennai"},"geometry":{"type":"Polygon","coordinates":[[[80.1853,13.0995],[80.1765,13.0969],[80.1771,13.0925],[80.1796,13.0936],[80.18,13.0925],[80.1818,13.0925],[80.1815,13.0942],[80.183,13.0943],[80.1829,13.0912],[80.1872,13.0904],[80.1877,13.0945],[80.1867,13.0956],[80.189,13.0961],[80.1885,13.0986],[80.1852,13.0979],[80.1853,13.0995]]]}},{"type":"Feature","properties":{"Ward_No":"88","Zone":"Zone 7","Zone no":7,"Zone name":"Ambattur","City":"Chennai"},"geometry":{"type":"Polygon","coordinates":[[[80.1943,13.102],[80.1954,13.0967],[80.1914,13.0953],[80.1907,13.0903],[80.1901,13.0916],[80.1872,13.0904],[80.1877,13.0945],[80.1867,13.0956],[80.189,13.0961],[80.1885,13.0986],[80.1852,13.0979],[80.1853,13.0995],[80.1943,13.102]]]}},{"type":"Feature","properties":{"Ward_No":"89","Zone":"Zone 7","Zone no":7,"Zone name":"Ambattur","City":"Chennai"},"geometry":{"type":"Polygon","coordinates":[[[80.189,13.0871],[80.1779,13.0875],[80.1771,13.0925],[80.1796,13.0936],[80.18,13.0925],[80.1818,13.0925],[80.1815,13.0942],[80.183,13.0943],[80.1829,13.0912],[80.1884,13.0902],[80.1888,13.0916],[80.1901,13.0916],[80.1907,13.0903],[80.1913,13.0951],[80.1926,13.0953],[80.1919,13.0871],[80.189,13.0871]]]}},{"type":"Feature","properties":{"Ward_No":"90","Zone":"Zone 7","Zone no":7,"Zone name":"Ambattur","City":"Chennai"},"geometry":{"type":"Polygon","coordinates":[[[80.1982,13.0792],[80.1987,13.0825],[80.1972,13.0833],[80.1966,13.0873],[80.1987,13.0875],[80.1987,13.0908],[80.1962,13.0914],[80.1954,13.0967],[80.1934,13.0967],[80.1919,13.0871],[80.189,13.0871],[80.1887,13.0799],[80.1979,13.0765],[80.1982,13.0792]]]}},{"type":"Feature","properties":{"Ward_No":"91","Zone":"Zone 7","Zone no":7,"Zone name":"Ambattur","City":"Chennai"},"geometry":{"type":"Polygon","coordinates":[[[80.1614,13.0819],[80.1637,13.0835],[80.1673,13.0819],[80.1725,13.0818],[80.1738,13.0807],[80.1745,13.0765],[80.1813,13.0735],[80.1804,13.0804],[80.1762,13.082],[80.1747,13.0849],[80.1722,13.0848],[80.1719,13.0886],[80.1614,13.0892],[80.1614,13.0819]]]}},{"type":"Feature","properties":{"Ward_No":"92","Zone":"Zone 7","Zone no":7,"Zone name":"Ambattur","City":"Chennai"},"geometry":{"type":"Polygon","coordinates":[[[80.1852,13.0872],[80.1719,13.0886],[80.1722,13.0848],[80.1747,13.0849],[80.1762,13.082],[80.1804,13.0804],[80.1813,13.078],[80.1813,13.0735],[80.1745,13.0765],[80.1774,13.072],[80.1816,13.0727],[80.1816,13.0776],[80.1858,13.0782],[80.1837,13.0845],[80.1853,13.0853],[80.1852,13.0872]]]}},{"type":"Feature","properties":{"Ward_No":"93","Zone":"Zone 7","Zone no":7,"Zone name":"Ambattur","City":"Chennai"},"geometry":{"type":"Polygon","coordinates":[[[80.1979,13.0765],[80.1887,13.0799],[80.189,13.0871],[80.1852,13.0872],[80.1853,13.0853],[80.1837,13.0845],[80.1858,13.0782],[80.1816,13.0776],[80.1815,13.0732],[80.1863,13.0729],[80.1979,13.0765]]]}},{"type":"Feature","properties":{"Ward_No":"94","Zone":"Zone 8","Zone no":8,"Zone name":"Anna_Nagar","City":"Chennai"},"geometry":{"type":"Polygon","coordinates":[[[80.2027,13.1187],[80.2065,13.1188],[80.2066,13.11],[80.2104,13.1096],[80.21,13.1055],[80.2082,13.1057],[80.2076,13.1033],[80.2055,13.104],[80.1943,13.102],[80.1974,13.1119],[80.1994,13.1126],[80.2027,13.1187]]]}},{"type":"Feature","properties":{"Ward_No":"95","Zone":"Zone 8","Zone no":8,"Zone name":"Anna_Nagar","City":"Chennai"},"geometry":{"type":"Polygon","coordinates":[[[80.2172,13.1097],[80.2104,13.1096],[80.21,13.1055],[80.2082,13.1057],[80.2076,13.1033],[80.2055,13.104],[80.1943,13.102],[80.1956,13.0932],[80.2088,13.0926],[80.2079,13.0956],[80.2021,13.0979],[80.202,13.0993],[80.2068,13.1018],[80.2139,13.0985],[80.2172,13.1097]]]}},{"type":"Feature","properties":{"Ward_No":"96","Zone":"Zone 8","Zone no":8,"Zone name":"Anna_Nagar","City":"Chennai"},"geometry":{"type":"Polygon","coordinates":[[[80.2334,13.097],[80.2252,13.0989],[80.2214,13.0957],[80.2139,13.0985],[80.2172,13.1097],[80.237,13.1078],[80.2371,13.1016],[80.2356,13.0986],[80.2421,13.0973],[80.2416,13.0958],[80.2334,13.097]]]}},{"type":"Feature","properties":{"Ward_No":"97","Zone":"Zone 8","Zone no":8,"Zone name":"Anna_Nagar","City":"Chennai"},"geometry":{"type":"Polygon","coordinates":[[[80.2314,13.0886],[80.2314,13.0926],[80.2329,13.0931],[80.2321,13.094],[80.2334,13.097],[80.2252,13.0989],[80.2247,13.0976],[80.2215,13.0964],[80.2314,13.0886]]]}},{"type":"Feature","properties":{"Ward_No":"98","Zone":"Zone 8","Zone no":8,"Zone name":"Anna_Nagar","City":"Chennai"},"geometry":{"type":"Polygon","coordinates":[[[80.2448,13.0866],[80.2421,13.0881],[80.2408,13.0905],[80.2416,13.0958],[80.2334,13.097],[80.2321,13.094],[80.2329,13.0931],[80.2314,13.0926],[80.2314,13.0886],[80.2387,13.0854],[80.2448,13.0866]]]}},{"type":"Feature","properties":{"Ward_No":"99","Zone":"Zone 8","Zone no":8,"Zone name":"Anna_Nagar","City":"Chennai"},"geometry":{"type":"Polygon","coordinates":[[[80.2088,13.0926],[80.1956,13.0932],[80.1962,13.0914],[80.1987,13.0908],[80.1987,13.0875],[80.1966,13.0873],[80.1972,13.0833],[80.1987,13.0825],[80.1982,13.0792],[80.203,13.08],[80.2031,13.0829],[80.2056,13.0828],[80.2057,13.085],[80.2102,13.0849],[80.2106,13.0926],[80.2088,13.0926]]]}},{"type":"Feature","properties":{"Ward_No":"100","Zone":"Zone 8","Zone no":8,"Zone name":"Anna_Nagar","City":"Chennai"},"geometry":{"type":"Polygon","coordinates":[[[80.2004,13.08],[80.203,13.08],[80.2031,13.0829],[80.2056,13.0828],[80.2057,13.085],[80.2102,13.0849],[80.2103,13.086],[80.2106,13.0926],[80.2088,13.0926],[80.2079,13.0956],[80.2021,13.0979],[80.202,13.0993],[80.2068,13.1018],[80.2191,13.0964],[80.2185,13.0945],[80.2158,13.0934],[80.2154,13.0847],[80.2179,13.0846],[80.218,13.075],[80.2115,13.0771],[80.2031,13.0764],[80.2004,13.08]]]}},{"type":"Feature","properties":{"Ward_No":"101","Zone":"Zone 8","Zone no":8,"Zone name":"Anna_Nagar","City":"Chennai"},"geometry":{"type":"Polygon","coordinates":[[[80.2191,13.0964],[80.2251,13.0936],[80.2237,13.0921],[80.2234,13.0864],[80.2255,13.0832],[80.2253,13.08],[80.2243,13.0777],[80.222,13.078],[80.2218,13.0743],[80.218,13.075],[80.2179,13.0846],[80.2154,13.0847],[80.2158,13.0934],[80.2185,13.0945],[80.2191,13.0964]]]}},{"type":"Feature","properties":{"Ward_No":"102","Zone":"Zone 8","Zone no":8,"Zone name":"Anna_Nagar","City":"Chennai"},"geometry":{"type":"Polygon","coordinates":[[[80.2314,13.0886],[80.2346,13.0879],[80.2346,13.0866],[80.2337,13.0835],[80.2307,13.083],[80.2304,13.0747],[80.2218,13.0743],[80.222,13.078],[80.2243,13.0777],[80.2253,13.08],[80.2255,13.0832],[80.2234,13.0864],[80.2237,13.0921],[80.2251,13.0936],[80.2314,13.0886]]]}},{"type":"Feature","properties":{"Ward_No":"103","Zone":"Zone 8","Zone no":8,"Zone name":"Anna_Nagar","City":"Chennai"},"geometry":{"type":"Polygon","coordinates":[[[80.2448,13.0866],[80.2478,13.0894],[80.2494,13.086],[80.2505,13.086],[80.25,13.0787],[80.2304,13.0747],[80.2307,13.083],[80.2338,13.0837],[80.2346,13.0879],[80.2349,13.0866],[80.2387,13.0854],[80.2448,13.0866]]]}},{"type":"Feature","properties":{"Ward_No":"104","Zone":"Zone 8","Zone no":8,"Zone name":"Anna_Nagar","City":"Chennai"},"geometry":{"type":"Polygon","coordinates":[[[80.2546,13.0789],[80.2566,13.0838],[80.2542,13.0914],[80.249,13.0911],[80.2478,13.0894],[80.2494,13.086],[80.2505,13.086],[80.2502,13.0789],[80.2408,13.0772],[80.2407,13.0734],[80.2533,13.0768],[80.253,13.0788],[80.2546,13.0789]]]}},{"type":"Feature","properties":{"Ward_No":"105","Zone":"Zone 8","Zone no":8,"Zone name":"Anna_Nagar","City":"Chennai"},"geometry":{"type":"Polygon","coordinates":[[[80.216,13.0752],[80.2115,13.0771],[80.2031,13.0764],[80.2034,13.0739],[80.2103,13.0724],[80.209,13.0697],[80.2089,13.0629],[80.2073,13.0611],[80.2115,13.0587],[80.2117,13.0625],[80.215,13.0625],[80.2144,13.0688],[80.2153,13.0688],[80.216,13.0752]]]}},{"type":"Feature","properties":{"Ward_No":"106","Zone":"Zone 8","Zone no":8,"Zone name":"Anna_Nagar","City":"Chennai"},"geometry":{"type":"Polygon","coordinates":[[[80.2218,13.0743],[80.216,13.0752],[80.2153,13.0688],[80.223,13.0671],[80.228,13.0676],[80.2302,13.0746],[80.2218,13.0743]]]}},{"type":"Feature","properties":{"Ward_No":"107","Zone":"Zone 8","Zone no":8,"Zone name":"Anna_Nagar","City":"Chennai"},"geometry":{"type":"Polygon","coordinates":[[[80.2317,13.0682],[80.2324,13.0704],[80.2437,13.0685],[80.2506,13.0719],[80.2503,13.0739],[80.2523,13.0742],[80.2521,13.0765],[80.2407,13.0734],[80.2408,13.0772],[80.2302,13.0746],[80.228,13.0676],[80.2317,13.0682]]]}},{"type":"Feature","properties":{"Ward_No":"108","Zone":"Zone 8","Zone no":8,"Zone name":"Anna_Nagar","City":"Chennai"},"geometry":{"type":"Polygon","coordinates":[[[80.223,13.0671],[80.2198,13.0686],[80.2144,13.0688],[80.215,13.0625],[80.2117,13.0625],[80.2115,13.0587],[80.2207,13.0596],[80.223,13.0671]]]}},{"type":"Feature","properties":{"Ward_No":"109","Zone":"Zone 9","Zone no":9,"Zone name":"Teynampet","City":"Chennai"},"geometry":{"type":"Polygon","coordinates":[[[80.228,13.0676],[80.2332,13.0678],[80.233,13.0663],[80.2314,13.0665],[80.2297,13.0577],[80.2279,13.0587],[80.2222,13.0582],[80.2226,13.0598],[80.2214,13.0604],[80.2232,13.0676],[80.228,13.0676]]]}},{"type":"Feature","properties":{"Ward_No":"110","Zone":"Zone 9","Zone no":9,"Zone name":"Teynampet","City":"Chennai"},"geometry":{"type":"Polygon","coordinates":[[[80.2319,13.0541],[80.2332,13.0678],[80.2317,13.0682],[80.2324,13.0704],[80.2423,13.0693],[80.2435,13.0636],[80.2454,13.0617],[80.2383,13.0605],[80.2428,13.0569],[80.2417,13.0527],[80.2319,13.0541]]]}},{"type":"Feature","properties":{"Ward_No":"111","Zone":"Zone 9","Zone no":9,"Zone name":"Teynampet","City":"Chennai"},"geometry":{"type":"Polygon","coordinates":[[[80.2427,13.0681],[80.2498,13.071],[80.2548,13.0669],[80.2568,13.0612],[80.2588,13.0614],[80.2606,13.0639],[80.2651,13.061],[80.2654,13.0583],[80.258,13.0567],[80.257,13.0459],[80.2541,13.0476],[80.2554,13.051],[80.2539,13.0528],[80.2517,13.0516],[80.251,13.0523],[80.2471,13.0612],[80.2435,13.0636],[80.2427,13.0681]]]}},{"type":"Feature","properties":{"Ward_No":"112","Zone":"Zone 9","Zone no":9,"Zone name":"Teynampet","City":"Chennai"},"geometry":{"type":"Polygon","coordinates":[[[80.2214,13.0604],[80.218,13.0587],[80.2183,13.0543],[80.2168,13.0513],[80.2313,13.0541],[80.233,13.0663],[80.2314,13.0665],[80.2296,13.0576],[80.2279,13.0587],[80.2222,13.0582],[80.2226,13.0598],[80.2214,13.0604]]]}},{"type":"Feature","properties":{"Ward_No":"113","Zone":"Zone 9","Zone no":9,"Zone name":"Teynampet","City":"Chennai"},"geometry":{"type":"Polygon","coordinates":[[[80.2319,13.0541],[80.2312,13.0516],[80.2459,13.0482],[80.251,13.0523],[80.2476,13.0604],[80.2454,13.062],[80.2432,13.0618],[80.2428,13.0606],[80.2383,13.0605],[80.2428,13.0569],[80.2417,13.0527],[80.2319,13.0541]]]}},{"type":"Feature","properties":{"Ward_No":"114","Zone":"Zone 9","Zone no":9,"Zone name":"Teynampet","City":"Chennai"},"geometry":{"type":"Polygon","coordinates":[[[80.2895,13.0672],[80.2859,13.0572],[80.2702,13.0593],[80.2714,13.06],[80.2698,13.0605],[80.2704,13.0637],[80.274,13.0645],[80.2737,13.0668],[80.2795,13.0645],[80.2806,13.0687],[80.2895,13.0672]]]}},{"type":"Feature","properties":{"Ward_No":"115","Zone":"Zone 9","Zone no":9,"Zone name":"Teynampet","City":"Chennai"},"geometry":{"type":"Polygon","coordinates":[[[80.2708,13.059],[80.258,13.0567],[80.2579,13.0546],[80.2738,13.0528],[80.2742,13.0589],[80.2708,13.059]]]}},{"type":"Feature","properties":{"Ward_No":"116","Zone":"Zone 9","Zone no":9,"Zone name":"Teynampet","City":"Chennai"},"geometry":{"type":"Polygon","coordinates":[[[80.2825,13.0576],[80.2814,13.0503],[80.2738,13.0528],[80.2742,13.0589],[80.2825,13.0576]]]}},{"type":"Feature","properties":{"Ward_No":"117","Zone":"Zone 9","Zone no":9,"Zone name":"Teynampet","City":"Chennai"},"geometry":{"type":"Polygon","coordinates":[[[80.247,13.0394],[80.2458,13.0394],[80.242,13.033],[80.2391,13.032],[80.2376,13.0345],[80.2393,13.0355],[80.24,13.0404],[80.2439,13.0399],[80.2446,13.0433],[80.241,13.0439],[80.2396,13.0462],[80.2304,13.0479],[80.2307,13.0541],[80.2319,13.0541],[80.2312,13.0516],[80.2459,13.0482],[80.2503,13.0518],[80.247,13.0394]]]}},{"type":"Feature","properties":{"Ward_No":"118","Zone":"Zone 9","Zone no":9,"Zone name":"Teynampet","City":"Chennai"},"geometry":{"type":"Polygon","coordinates":[[[80.247,13.0394],[80.2565,13.038],[80.261,13.0472],[80.2584,13.0477],[80.2587,13.0491],[80.2618,13.0487],[80.264,13.054],[80.258,13.0545],[80.257,13.0459],[80.2541,13.0476],[80.2554,13.051],[80.2539,13.0528],[80.2503,13.0518],[80.247,13.0394]]]}},{"type":"Feature","properties":{"Ward_No":"119","Zone":"Zone 9","Zone no":9,"Zone name":"Teynampet","City":"Chennai"},"geometry":{"type":"Polygon","coordinates":[[[80.257,13.0388],[80.261,13.0472],[80.2584,13.0477],[80.2587,13.0491],[80.2618,13.0487],[80.264,13.054],[80.2713,13.0533],[80.2705,13.0442],[80.2635,13.0446],[80.2632,13.0426],[80.266,13.0391],[80.257,13.0388]]]}},{"type":"Feature","properties":{"Ward_No":"120","Zone":"Zone 9","Zone no":9,"Zone name":"Teynampet","City":"Chennai"},"geometry":{"type":"Polygon","coordinates":[[[80.2809,13.0463],[80.2814,13.0503],[80.2713,13.0533],[80.271,13.0474],[80.2727,13.0473],[80.2728,13.0488],[80.2746,13.0485],[80.2746,13.0469],[80.2809,13.0463]]]}},{"type":"Feature","properties":{"Ward_No":"121","Zone":"Zone 9","Zone no":9,"Zone name":"Teynampet","City":"Chennai"},"geometry":{"type":"Polygon","coordinates":[[[80.2807,13.0432],[80.2715,13.043],[80.2693,13.0393],[80.2666,13.0391],[80.2632,13.0426],[80.2635,13.0446],[80.2705,13.0442],[80.2706,13.0474],[80.2727,13.0473],[80.2728,13.0488],[80.2746,13.0485],[80.2746,13.0469],[80.2809,13.0463],[80.2807,13.0432]]]}},{"type":"Feature","properties":{"Ward_No":"122","Zone":"Zone 9","Zone no":9,"Zone name":"Teynampet","City":"Chennai"},"geometry":{"type":"Polygon","coordinates":[[[80.2545,13.0351],[80.2498,13.0288],[80.2538,13.0272],[80.2529,13.0227],[80.2495,13.0177],[80.2478,13.0216],[80.2445,13.0246],[80.2393,13.0268],[80.2391,13.032],[80.242,13.033],[80.2458,13.0394],[80.2469,13.0392],[80.2462,13.0356],[80.2545,13.0351]]]}},{"type":"Feature","properties":{"Ward_No":"123","Zone":"Zone 9","Zone no":9,"Zone name":"Teynampet","City":"Chennai"},"geometry":{"type":"Polygon","coordinates":[[[80.2529,13.0227],[80.2597,13.0263],[80.2614,13.0308],[80.2678,13.0361],[80.2677,13.0393],[80.2636,13.0397],[80.2565,13.038],[80.247,13.0394],[80.2462,13.0356],[80.2545,13.0351],[80.2498,13.0288],[80.2538,13.0272],[80.2529,13.0227]]]}},{"type":"Feature","properties":{"Ward_No":"124","Zone":"Zone 9","Zone no":9,"Zone name":"Teynampet","City":"Chennai"},"geometry":{"type":"Polygon","coordinates":[[[80.2746,13.029],[80.2742,13.0316],[80.271,13.032],[80.2712,13.0365],[80.2738,13.0362],[80.2745,13.0423],[80.2732,13.0424],[80.2707,13.0416],[80.2693,13.0393],[80.2678,13.0396],[80.2678,13.0361],[80.2607,13.0293],[80.2746,13.029]]]}},{"type":"Feature","properties":{"Ward_No":"125","Zone":"Zone 9","Zone no":9,"Zone name":"Teynampet","City":"Chennai"},"geometry":{"type":"Polygon","coordinates":[[[80.2738,13.0362],[80.2712,13.0365],[80.271,13.032],[80.2742,13.0316],[80.2746,13.029],[80.2791,13.0278],[80.2807,13.0432],[80.2715,13.043],[80.2745,13.0423],[80.2738,13.0362]]]}},{"type":"Feature","properties":{"Ward_No":"126","Zone":"Zone 9","Zone no":9,"Zone name":"Teynampet","City":"Chennai"},"geometry":{"type":"Polygon","coordinates":[[[80.2783,13.0221],[80.272,13.0248],[80.2663,13.0252],[80.266,13.0262],[80.2645,13.0241],[80.2587,13.0253],[80.2617,13.0297],[80.2756,13.0289],[80.2791,13.0278],[80.2783,13.0221]]]}}]}