{"type":"FeatureCollection","features":[{"type":"Feature","properties":{"Name":"Suraram","Ward_No":129,"Zone":"Greater Hyderabad Municipal Corporation North Zone","Mandal":"Quthbullapur mandal","City":"Hyderabad"},"geometry":{"type":"Polygon","coordinates":[[[78.4476,17.5111],[78.4421,17.5129],[78.4348,17.5196],[78.4365,17.5212],[78.4342,17.5229],[78.4344,17.5242],[78.4323,17.5245],[78.432,17.5283],[78.4293,17.5284],[78.4283,17.5297],[78.4284,17.5322],[78.4264,17.5332],[78.4264,17.5376],[78.4231,17.5363],[78.4219,17.5336],[78.4149,17.5344],[78.4138,17.5375],[78.4106,17.5397],[78.4084,17.5459],[78.4136,17.5503],[78.4165,17.5591],[78.4212,17.5607],[78.4337,17.5537],[78.4337,17.5513],[78.4365,17.5495],[78.4358,17.5411],[78.4339,17.5409],[78.4345,17.5359],[78.4386,17.5278],[78.4461,17.5192],[78.4476,17.5111]]]}},{"type":"Feature","properties":{"Name":"Sanath Nagar","Ward_No":100,"Zone":"Greater Hyderabad Municipal Corporation Central Zone","Mandal":"Khairatabad","City":"Hyderabad"},"geometry":{"type":"Polygon","coordinates":[[[78.4383,17.4476],[78.4313,17.4622],[78.4468,17.4611],[78.4491,17.4597],[78.4511,17.4499],[78.4501,17.4502],[78.4497,17.4484],[78.4475,17.4488],[78.4468,17.4453],[78.4383,17.4476]]]}},{"type":"Feature","properties":{"Name":"Bholakpur","Ward_No":88,"Zone":"Greater Hyderabad Municipal Corporation Central Zone","Mandal":"Khairatabad","City":"Hyderabad"},"geometry":{"type":"Polygon","coordinates":[[[78.4881,17.4201],[78.4888,17.4155],[78.496,17.4139],[78.4977,17.414],[78.4983,17.4159],[78.5018,17.4147],[78.5012,17.4204],[78.4945,17.4234],[78.4933,17.4218],[78.4916,17.422],[78.4919,17.4196],[78.4881,17.4201]]]}},{"type":"Feature","properties":{"Name":"Erragadda","Ward_No":101,"Zone":"Greater Hyderabad Municipal Corporation Central Zone","Mandal":"Khairatabad","City":"Hyderabad"},"geometry":{"type":"Polygon","coordinates":[[[78.4184,17.4506],[78.4232,17.4489],[78.4233,17.4473],[78.4248,17.4472],[78.4235,17.446],[78.4282,17.4459],[78.4262,17.4501],[78.4381,17.4479],[78.4316,17.4615],[78.4287,17.4613],[78.4279,17.457],[78.4266,17.4547],[78.4254,17.4548],[78.4254,17.453],[78.4268,17.4529],[78.4266,17.4503],[78.4247,17.4506],[78.4241,17.4545],[78.4183,17.4539],[78.4184,17.4506]]]}},{"type":"Feature","properties":{"Name":"Rahmath Nagar","Ward_No":102,"Zone":"Greater Hyderabad Municipal Corporation Central Zone","Mandal":"Khairatabad","City":"Hyderabad"},"geometry":{"type":"Polygon","coordinates":[[[78.4121,17.4459],[78.4174,17.4449],[78.4191,17.4411],[78.4215,17.4389],[78.424,17.4393],[78.4235,17.446],[78.4248,17.4472],[78.4233,17.4473],[78.4232,17.4489],[78.4163,17.451],[78.4126,17.4482],[78.4121,17.4459]]]}},{"type":"Feature","properties":{"Name":"Borabanda","Ward_No":103,"Zone":"Greater Hyderabad Municipal Corporation Central Zone","Mandal":"Khairatabad","City":"Hyderabad"},"geometry":{"type":"Polygon","coordinates":[[[78.4121,17.4459],[78.4126,17.4482],[78.4163,17.451],[78.4184,17.4506],[78.4183,17.4539],[78.4106,17.4554],[78.4053,17.4505],[78.4044,17.4484],[78.4062,17.4458],[78.4121,17.4459]]]}},{"type":"Feature","properties":{"Name":"Begum Bazar","Ward_No":50,"Zone":"Greater Hyderabad Municipal Corporation Central Zone","Mandal":"Khairatabad","City":"Hyderabad"},"geometry":{"type":"Polygon","coordinates":[[[78.4764,17.3713],[78.4818,17.3737],[78.4802,17.375],[78.4815,17.3787],[78.4719,17.3803],[78.4714,17.3773],[78.4694,17.3756],[78.4635,17.3772],[78.4624,17.3706],[78.4688,17.3715],[78.4689,17.3697],[78.4764,17.3713]]]}},{"type":"Feature","properties":{"Name":"Goshamahal","Ward_No":51,"Zone":"Greater Hyderabad Municipal Corporation Central Zone","Mandal":"Khairatabad","City":"Hyderabad"},"geometry":{"type":"Polygon","coordinates":[[[78.4583,17.3675],[78.4689,17.3697],[78.4688,17.3715],[78.4624,17.3706],[78.4628,17.375],[78.4635,17.3772],[78.4694,17.3756],[78.4714,17.3773],[78.4719,17.3803],[78.4681,17.3814],[78.4674,17.3829],[78.4617,17.3824],[78.4583,17.3675]]]}},{"type":"Feature","properties":{"Name":"Ziaguda","Ward_No":62,"Zone":"Greater Hyderabad Municipal Corporation Central Zone","Mandal":"Khairatabad","City":"Hyderabad"},"geometry":{"type":"Polygon","coordinates":[[[78.4556,17.3637],[78.4583,17.3675],[78.4577,17.3687],[78.4511,17.3695],[78.4497,17.3709],[78.4485,17.3696],[78.4462,17.3697],[78.447,17.3716],[78.4458,17.3724],[78.4409,17.3727],[78.4401,17.3712],[78.4491,17.3599],[78.4522,17.3603],[78.4556,17.3637]]]}},{"type":"Feature","properties":{"Name":"Mangalhat","Ward_No":63,"Zone":"Greater Hyderabad Municipal Corporation Central Zone","Mandal":"Khairatabad","City":"Hyderabad"},"geometry":{"type":"Polygon","coordinates":[[[78.4635,17.3826],[78.4617,17.3824],[78.4577,17.3687],[78.4535,17.3693],[78.4536,17.3716],[78.4545,17.371],[78.4566,17.3737],[78.4571,17.3772],[78.4545,17.3777],[78.4539,17.3798],[78.4556,17.3849],[78.4566,17.3855],[78.4599,17.3835],[78.4635,17.3841],[78.4635,17.3826]]]}},{"type":"Feature","properties":{"Name":"Dattatreya Nagar","Ward_No":64,"Zone":"Greater Hyderabad Municipal Corporation Central Zone","Mandal":"Khairatabad","City":"Hyderabad"},"geometry":{"type":"Polygon","coordinates":[[[78.4478,17.3777],[78.448,17.3735],[78.4506,17.3721],[78.4545,17.371],[78.4566,17.3737],[78.4571,17.3772],[78.4545,17.3777],[78.4537,17.3815],[78.4507,17.3803],[78.4501,17.3815],[78.4485,17.3813],[78.4478,17.3777]]]}},{"type":"Feature","properties":{"Name":"Karwan","Ward_No":65,"Zone":"Greater Hyderabad Municipal Corporation Central Zone","Mandal":"Khairatabad","City":"Hyderabad"},"geometry":{"type":"Polygon","coordinates":[[[78.4536,17.3716],[78.448,17.3735],[78.4478,17.3777],[78.445,17.378],[78.4411,17.3758],[78.4392,17.3775],[78.4383,17.3763],[78.4359,17.3767],[78.4361,17.3794],[78.4379,17.3786],[78.4379,17.3796],[78.4364,17.3825],[78.4345,17.3832],[78.4298,17.3825],[78.4294,17.3809],[78.4256,17.3799],[78.427,17.3723],[78.4339,17.3748],[78.4401,17.3699],[78.4409,17.3727],[78.4458,17.3724],[78.447,17.3716],[78.4462,17.3697],[78.4485,17.3696],[78.4497,17.3709],[78.4535,17.3693],[78.4536,17.3716]]]}},{"type":"Feature","properties":{"Name":"Langar Houz","Ward_No":66,"Zone":"Greater Hyderabad Municipal Corporation Central Zone","Mandal":"Khairatabad","City":"Hyderabad"},"geometry":{"type":"Polygon","coordinates":[[[78.3991,17.3881],[78.4034,17.384],[78.4124,17.3794],[78.4257,17.3773],[78.427,17.3723],[78.4172,17.3712],[78.4015,17.3732],[78.3984,17.3711],[78.389,17.3711],[78.3753,17.3764],[78.3796,17.382],[78.3789,17.3835],[78.3801,17.3853],[78.3797,17.3877],[78.3815,17.3874],[78.3828,17.3939],[78.3828,17.3885],[78.3847,17.3855],[78.3875,17.386],[78.393,17.3901],[78.3938,17.3926],[78.3998,17.3923],[78.396,17.39],[78.3965,17.3882],[78.3991,17.3881]]]}},{"type":"Feature","properties":{"Name":"Golconda","Ward_No":67,"Zone":"Greater Hyderabad Municipal Corporation Central Zone","Mandal":"Khairatabad","City":"Hyderabad"},"geometry":{"type":"Polygon","coordinates":[[[78.4256,17.3799],[78.4257,17.3773],[78.4124,17.3794],[78.4034,17.384],[78.3991,17.3881],[78.3996,17.3889],[78.4029,17.3863],[78.4028,17.3873],[78.4053,17.3872],[78.404,17.3899],[78.4086,17.3884],[78.4117,17.3851],[78.4151,17.3868],[78.4164,17.3901],[78.4144,17.3908],[78.4163,17.3911],[78.4144,17.3937],[78.4172,17.3947],[78.4175,17.3966],[78.4203,17.3943],[78.4185,17.3914],[78.4233,17.3918],[78.4231,17.3873],[78.4259,17.3869],[78.4247,17.3821],[78.4256,17.3799]]]}},{"type":"Feature","properties":{"Name":"Tolichowki","Ward_No":68,"Zone":"Greater Hyderabad Municipal Corporation Central Zone","Mandal":"Khairatabad","City":"Hyderabad"},"geometry":{"type":"Polygon","coordinates":[[[78.4188,17.3957],[78.4175,17.3966],[78.4172,17.3947],[78.4148,17.3944],[78.4147,17.3925],[78.4163,17.3911],[78.4144,17.3908],[78.4164,17.3901],[78.4151,17.3868],[78.4117,17.3851],[78.4086,17.3884],[78.404,17.3899],[78.4053,17.3872],[78.4028,17.3873],[78.4029,17.3863],[78.3996,17.3889],[78.3965,17.3882],[78.396,17.39],[78.3998,17.3923],[78.4006,17.3974],[78.4081,17.3997],[78.4185,17.3983],[78.4188,17.3957]]]}},{"type":"Feature","properties":{"Name":"Nanal Nagar","Ward_No":69,"Zone":"Greater Hyderabad Municipal Corporation Central Zone","Mandal":"Khairatabad","City":"Hyderabad"},"geometry":{"type":"Polygon","coordinates":[[[78.4191,17.4084],[78.4178,17.4075],[78.4175,17.4015],[78.4155,17.3986],[78.4193,17.3978],[78.4188,17.3957],[78.4203,17.3943],[78.4185,17.3914],[78.4233,17.3918],[78.4231,17.3873],[78.4294,17.3848],[78.4298,17.3873],[78.4268,17.3913],[78.4276,17.3958],[78.4395,17.3948],[78.4426,17.3964],[78.4434,17.3982],[78.4381,17.3989],[78.4374,17.4002],[78.4276,17.4029],[78.4272,17.4063],[78.4191,17.4084]]]}},{"type":"Feature","properties":{"Name":"Mehdipatnam","Ward_No":70,"Zone":"Greater Hyderabad Municipal Corporation Central Zone","Mandal":"Khairatabad","City":"Hyderabad"},"geometry":{"type":"Polygon","coordinates":[[[78.4366,17.3878],[78.4384,17.3878],[78.4387,17.3864],[78.4462,17.3874],[78.4474,17.3921],[78.4395,17.3948],[78.4276,17.3958],[78.4268,17.3932],[78.4314,17.3938],[78.4309,17.3904],[78.4351,17.3899],[78.4366,17.3878]]]}},{"type":"Feature","properties":{"Name":"Gudimalkapur","Ward_No":71,"Zone":"Greater Hyderabad Municipal Corporation Central Zone","Mandal":"Khairatabad","City":"Hyderabad"},"geometry":{"type":"Polygon","coordinates":[[[78.4476,17.3799],[78.4478,17.3777],[78.445,17.378],[78.4411,17.3758],[78.4392,17.3775],[78.4383,17.3763],[78.4358,17.3769],[78.4361,17.3794],[78.4379,17.3786],[78.4379,17.3796],[78.4364,17.3825],[78.4345,17.3832],[78.4298,17.3825],[78.4294,17.3809],[78.4256,17.3799],[78.4247,17.3821],[78.4257,17.3862],[78.4294,17.3848],[78.4298,17.3873],[78.4268,17.3913],[78.4268,17.3932],[78.4314,17.3938],[78.4309,17.3904],[78.4351,17.3899],[78.4367,17.3883],[78.4352,17.387],[78.4357,17.384],[78.439,17.3824],[78.443,17.3824],[78.4428,17.3804],[78.4476,17.3799]]]}},{"type":"Feature","properties":{"Name":"Asif Nagar","Ward_No":72,"Zone":"Greater Hyderabad Municipal Corporation Central Zone","Mandal":"Khairatabad","City":"Hyderabad"},"geometry":{"type":"Polygon","coordinates":[[[78.4556,17.3849],[78.4522,17.3808],[78.4428,17.3804],[78.443,17.3824],[78.439,17.3824],[78.4357,17.384],[78.4352,17.387],[78.4497,17.3873],[78.4556,17.3849]]]}},{"type":"Feature","properties":{"Name":"Vijay Nagar Colony","Ward_No":73,"Zone":"Greater Hyderabad Municipal Corporation Central Zone","Mandal":"Khairatabad","City":"Hyderabad"},"geometry":{"type":"Polygon","coordinates":[[[78.4539,17.386],[78.4533,17.3879],[78.4554,17.3884],[78.4565,17.3917],[78.4539,17.3949],[78.4575,17.3951],[78.4572,17.3988],[78.4597,17.3988],[78.4556,17.404],[78.453,17.4034],[78.454,17.3976],[78.4506,17.3966],[78.45,17.3989],[78.4453,17.3988],[78.4395,17.3948],[78.4474,17.3921],[78.4462,17.3874],[78.4539,17.386]]]}},{"type":"Feature","properties":{"Name":"Ahmed Nagar","Ward_No":74,"Zone":"Greater Hyderabad Municipal Corporation Central Zone","Mandal":"Khairatabad","City":"Hyderabad"},"geometry":{"type":"Polygon","coordinates":[[[78.4513,17.4072],[78.4485,17.4052],[78.4388,17.4035],[78.4355,17.4044],[78.4345,17.4066],[78.4335,17.4058],[78.4319,17.4067],[78.433,17.4051],[78.4281,17.4054],[78.4276,17.4029],[78.4374,17.4002],[78.4381,17.3989],[78.45,17.3989],[78.4506,17.3966],[78.454,17.3976],[78.4513,17.4072]]]}},{"type":"Feature","properties":{"Name":"Red Hills","Ward_No":75,"Zone":"Greater Hyderabad Municipal Corporation Central Zone","Mandal":"Khairatabad","City":"Hyderabad"},"geometry":{"type":"Polygon","coordinates":[[[78.4681,17.4027],[78.4643,17.4042],[78.4614,17.4026],[78.459,17.4029],[78.4578,17.4092],[78.4513,17.4072],[78.4522,17.404],[78.4556,17.404],[78.4576,17.4026],[78.4597,17.3988],[78.4572,17.3988],[78.4575,17.3951],[78.4539,17.3949],[78.4553,17.3932],[78.4571,17.3929],[78.4597,17.3947],[78.4636,17.3935],[78.4658,17.3911],[78.4701,17.3921],[78.4707,17.3997],[78.4681,17.4027]],[[78.4648,17.3924],[78.4626,17.3942],[78.4627,17.3973],[78.4658,17.3961],[78.4648,17.3924]]]}},{"type":"Feature","properties":{"Name":"Mallepally","Ward_No":76,"Zone":"Greater Hyderabad Municipal Corporation Central Zone","Mandal":"Khairatabad","City":"Hyderabad"},"geometry":{"type":"Polygon","coordinates":[[[78.4556,17.3849],[78.4566,17.3855],[78.4599,17.3835],[78.4635,17.3841],[78.4617,17.3883],[78.4658,17.3911],[78.4617,17.3944],[78.4553,17.3932],[78.4565,17.3917],[78.4554,17.3884],[78.4533,17.3879],[78.4556,17.3849]]]}},{"type":"Feature","properties":{"Name":"Jambagh","Ward_No":77,"Zone":"Greater Hyderabad Municipal Corporation Central Zone","Mandal":"Khairatabad","City":"Hyderabad"},"geometry":{"type":"Polygon","coordinates":[[[78.4794,17.3794],[78.4845,17.3851],[78.4796,17.3857],[78.4808,17.3878],[78.4802,17.39],[78.4742,17.3886],[78.4691,17.3923],[78.4676,17.3908],[78.4638,17.3907],[78.4617,17.3883],[78.4635,17.3826],[78.4674,17.3829],[78.4681,17.3814],[78.4719,17.3803],[78.4782,17.3797],[78.4785,17.3787],[78.4794,17.3794]]]}},{"type":"Feature","properties":{"Name":"Gunfoundry","Ward_No":78,"Zone":"Greater Hyderabad Municipal Corporation Central Zone","Mandal":"Khairatabad","City":"Hyderabad"},"geometry":{"type":"Polygon","coordinates":[[[78.4701,17.3921],[78.4707,17.3997],[78.4681,17.4027],[78.4673,17.4065],[78.4684,17.4078],[78.4755,17.4087],[78.4771,17.4067],[78.4755,17.401],[78.4791,17.3981],[78.4801,17.3937],[78.4833,17.3939],[78.4855,17.3902],[78.4891,17.3907],[78.4886,17.388],[78.4899,17.3843],[78.4918,17.3838],[78.4918,17.3799],[78.488,17.3794],[78.488,17.3807],[78.4842,17.3806],[78.4815,17.3787],[78.4794,17.3794],[78.4845,17.3851],[78.4796,17.3857],[78.4808,17.3878],[78.4802,17.39],[78.4742,17.3886],[78.4701,17.3921]]]}},{"type":"Feature","properties":{"Name":"Himayath Nagar","Ward_No":79,"Zone":"Greater Hyderabad Municipal Corporation Central Zone","Mandal":"Khairatabad","City":"Hyderabad"},"geometry":{"type":"Polygon","coordinates":[[[78.4771,17.4067],[78.4814,17.4064],[78.4879,17.4028],[78.4923,17.4021],[78.4945,17.3988],[78.49,17.3949],[78.4891,17.3907],[78.4855,17.3902],[78.4833,17.3939],[78.4801,17.3937],[78.4791,17.3981],[78.4755,17.401],[78.4771,17.4067]]]}},{"type":"Feature","properties":{"Name":"Kachiguda","Ward_No":80,"Zone":"Greater Hyderabad Municipal Corporation Central Zone","Mandal":"Khairatabad","City":"Hyderabad"},"geometry":{"type":"Polygon","coordinates":[[[78.4945,17.3988],[78.49,17.3949],[78.4883,17.3894],[78.4899,17.3843],[78.4918,17.3838],[78.4917,17.3809],[78.5038,17.3938],[78.4973,17.3956],[78.4945,17.3988]]]}},{"type":"Feature","properties":{"Name":"Nallakunta","Ward_No":81,"Zone":"Greater Hyderabad Municipal Corporation Central Zone","Mandal":"Khairatabad","City":"Hyderabad"},"geometry":{"type":"Polygon","coordinates":[[[78.5109,17.3913],[78.5047,17.3894],[78.5045,17.3936],[78.4973,17.3956],[78.4992,17.396],[78.5008,17.399],[78.5063,17.3995],[78.5118,17.4046],[78.5154,17.4053],[78.5109,17.3947],[78.5109,17.3913]]]}},{"type":"Feature","properties":{"Name":"Golnaka","Ward_No":82,"Zone":"Greater Hyderabad Municipal Corporation Central Zone","Mandal":"Khairatabad","City":"Hyderabad"},"geometry":{"type":"Polygon","coordinates":[[[78.5038,17.3938],[78.495,17.3836],[78.4936,17.3835],[78.4918,17.3799],[78.5031,17.386],[78.5109,17.3859],[78.517,17.38],[78.5182,17.3816],[78.5163,17.3921],[78.5047,17.3894],[78.5038,17.3938]]]}},{"type":"Feature","properties":{"Name":"Amberpet","Ward_No":83,"Zone":"Greater Hyderabad Municipal Corporation Central Zone","Mandal":"Khairatabad","City":"Hyderabad"},"geometry":{"type":"Polygon","coordinates":[[[78.5289,17.3962],[78.5163,17.3921],[78.5182,17.3816],[78.517,17.38],[78.5186,17.3786],[78.5252,17.3763],[78.5284,17.381],[78.5268,17.3863],[78.5289,17.3962]]]}},{"type":"Feature","properties":{"Name":"Bagh Amberpet","Ward_No":84,"Zone":"Greater Hyderabad Municipal Corporation Central Zone","Mandal":"Khairatabad","City":"Hyderabad"},"geometry":{"type":"Polygon","coordinates":[[[78.5282,17.3974],[78.5252,17.3958],[78.5215,17.3984],[78.5226,17.4012],[78.5219,17.4033],[78.5154,17.4053],[78.5109,17.3947],[78.5109,17.3913],[78.5203,17.3926],[78.5289,17.3962],[78.5282,17.3974]]]}},{"type":"Feature","properties":{"Name":"Adikmet","Ward_No":85,"Zone":"Greater Hyderabad Municipal Corporation Central Zone","Mandal":"Khairatabad","City":"Hyderabad"},"geometry":{"type":"Polygon","coordinates":[[[78.5026,17.3992],[78.5081,17.4007],[78.5154,17.4065],[78.5179,17.4106],[78.5072,17.411],[78.5026,17.3992]]]}},{"type":"Feature","properties":{"Name":"Musheerabad","Ward_No":86,"Zone":"Greater Hyderabad Municipal Corporation Central Zone","Mandal":"Khairatabad","City":"Hyderabad"},"geometry":{"type":"Polygon","coordinates":[[[78.5012,17.4204],[78.5018,17.4147],[78.5047,17.4142],[78.5079,17.4103],[78.5084,17.4111],[78.5114,17.4101],[78.5124,17.4115],[78.5139,17.4113],[78.5122,17.4144],[78.5101,17.4156],[78.5088,17.421],[78.5053,17.4198],[78.5012,17.4204]]]}},{"type":"Feature","properties":{"Name":"Ramnagar","Ward_No":87,"Zone":"Greater Hyderabad Municipal Corporation Central Zone","Mandal":"Khairatabad","City":"Hyderabad"},"geometry":{"type":"Polygon","coordinates":[[[78.4945,17.3988],[78.4975,17.4085],[78.4983,17.4159],[78.5047,17.4142],[78.5072,17.411],[78.5026,17.3992],[78.5008,17.399],[78.4992,17.396],[78.4973,17.3956],[78.4945,17.3988]]]}},{"type":"Feature","properties":{"Name":"Gandhinagar","Ward_No":89,"Zone":"Greater Hyderabad Municipal Corporation Central Zone","Mandal":"Khairatabad","City":"Hyderabad"},"geometry":{"type":"Polygon","coordinates":[[[78.4945,17.3988],[78.4923,17.4021],[78.4879,17.4028],[78.4872,17.4042],[78.4888,17.4155],[78.4977,17.414],[78.4975,17.4085],[78.4945,17.3988]]]}},{"type":"Feature","properties":{"Name":"Kavadiguda","Ward_No":90,"Zone":"Greater Hyderabad Municipal Corporation Central Zone","Mandal":"Khairatabad","City":"Hyderabad"},"geometry":{"type":"Polygon","coordinates":[[[78.4771,17.4067],[78.4814,17.4064],[78.4879,17.4028],[78.4889,17.4176],[78.4881,17.4201],[78.4919,17.4196],[78.4916,17.422],[78.4933,17.4218],[78.4945,17.4234],[78.4863,17.4254],[78.4755,17.4087],[78.4771,17.4067]]]}},{"type":"Feature","properties":{"Name":"Khairatabad","Ward_No":91,"Zone":"Greater Hyderabad Municipal Corporation Central Zone","Mandal":"Khairatabad","City":"Hyderabad"},"geometry":{"type":"Polygon","coordinates":[[[78.464,17.4319],[78.467,17.4366],[78.4712,17.4377],[78.4743,17.4361],[78.4728,17.4343],[78.4724,17.4288],[78.4775,17.4301],[78.4787,17.4318],[78.4784,17.4343],[78.4854,17.4319],[78.4867,17.4295],[78.4836,17.4266],[78.4843,17.4248],[78.486,17.4251],[78.4858,17.4239],[78.4755,17.4087],[78.4676,17.4071],[78.4681,17.4027],[78.4643,17.4042],[78.4614,17.4026],[78.459,17.4029],[78.4578,17.4092],[78.4606,17.4121],[78.4601,17.4131],[78.4553,17.4111],[78.454,17.4113],[78.4534,17.4133],[78.4501,17.4131],[78.448,17.4195],[78.4494,17.4225],[78.4486,17.4252],[78.4547,17.4288],[78.4571,17.4277],[78.4578,17.424],[78.4624,17.4228],[78.4622,17.42],[78.4653,17.4187],[78.4651,17.4223],[78.4621,17.4275],[78.464,17.4319]]]}},{"type":"Feature","properties":{"Name":"Venkateshwara Colony","Ward_No":92,"Zone":"Greater Hyderabad Municipal Corporation Central Zone","Mandal":"Khairatabad","City":"Hyderabad"},"geometry":{"type":"Polygon","coordinates":[[[78.4524,17.4268],[78.4501,17.4299],[78.4369,17.4301],[78.4363,17.4291],[78.44,17.4272],[78.4262,17.4231],[78.4173,17.4263],[78.415,17.426],[78.4134,17.4233],[78.4115,17.4228],[78.411,17.4203],[78.4132,17.4177],[78.423,17.4143],[78.4261,17.4156],[78.4409,17.4127],[78.4423,17.4154],[78.444,17.4159],[78.4497,17.4149],[78.448,17.4195],[78.4494,17.4225],[78.4481,17.424],[78.4524,17.4268]]]}},{"type":"Feature","properties":{"Name":"Banjara Hills","Ward_No":93,"Zone":"Greater Hyderabad Municipal Corporation Central Zone","Mandal":"Khairatabad","City":"Hyderabad"},"geometry":{"type":"Polygon","coordinates":[[[78.4191,17.4084],[78.4206,17.4095],[78.4201,17.4119],[78.4216,17.4149],[78.4245,17.4142],[78.4261,17.4156],[78.4409,17.4127],[78.4423,17.4154],[78.444,17.4159],[78.4497,17.4149],[78.4501,17.4131],[78.4534,17.4133],[78.454,17.4113],[78.4601,17.4131],[78.4606,17.4121],[78.4578,17.4092],[78.4532,17.4085],[78.4485,17.4052],[78.4388,17.4035],[78.4355,17.4044],[78.4345,17.4066],[78.4335,17.4058],[78.4319,17.4067],[78.433,17.4051],[78.4273,17.4054],[78.4191,17.4084]]]}},{"type":"Feature","properties":{"Name":"Shaikpet","Ward_No":94,"Zone":"Greater Hyderabad Municipal Corporation Central Zone","Mandal":"Khairatabad","City":"Hyderabad"},"geometry":{"type":"Polygon","coordinates":[[[78.3991,17.4134],[78.3972,17.4112],[78.3949,17.4129],[78.3948,17.4103],[78.3915,17.4104],[78.3899,17.4078],[78.3869,17.4079],[78.3906,17.4043],[78.3904,17.4019],[78.3916,17.4023],[78.3911,17.3962],[78.3923,17.3942],[78.391,17.3924],[78.3998,17.3923],[78.4006,17.3974],[78.4081,17.3997],[78.4155,17.3986],[78.4175,17.4015],[78.4178,17.4075],[78.4149,17.407],[78.4141,17.4083],[78.4074,17.4093],[78.402,17.4116],[78.4023,17.4132],[78.3991,17.4134]]]}},{"type":"Feature","properties":{"Name":"Jubilee Hills","Ward_No":95,"Zone":"Greater Hyderabad Municipal Corporation Central Zone","Mandal":"Khairatabad","City":"Hyderabad"},"geometry":{"type":"Polygon","coordinates":[[[78.4121,17.4459],[78.4156,17.4424],[78.4159,17.4343],[78.4203,17.4319],[78.4196,17.4307],[78.4369,17.4301],[78.4363,17.4291],[78.44,17.4272],[78.4262,17.4231],[78.4173,17.4263],[78.415,17.426],[78.4134,17.4233],[78.4115,17.4228],[78.411,17.4203],[78.4132,17.4177],[78.4216,17.4149],[78.4201,17.4119],[78.4206,17.4095],[78.4174,17.4072],[78.4074,17.4093],[78.402,17.4116],[78.4023,17.4132],[78.3991,17.4134],[78.3977,17.4176],[78.399,17.4181],[78.3983,17.4247],[78.3944,17.4267],[78.3952,17.4286],[78.3934,17.4297],[78.3993,17.4321],[78.3973,17.4371],[78.3954,17.4371],[78.3961,17.4395],[78.3992,17.4385],[78.4066,17.4421],[78.4062,17.4458],[78.4121,17.4459]]]}},{"type":"Feature","properties":{"Name":"Yousufguda","Ward_No":96,"Zone":"Greater Hyderabad Municipal Corporation Central Zone","Mandal":"Khairatabad","City":"Hyderabad"},"geometry":{"type":"Polygon","coordinates":[[[78.4121,17.4459],[78.4156,17.4424],[78.4159,17.4343],[78.4203,17.4319],[78.4196,17.4307],[78.4223,17.4314],[78.4258,17.4298],[78.4318,17.4297],[78.4338,17.4347],[78.4397,17.4333],[78.4406,17.4352],[78.4281,17.4362],[78.4285,17.4371],[78.424,17.4393],[78.4215,17.4389],[78.4191,17.4411],[78.4174,17.4449],[78.4121,17.4459]]]}},{"type":"Feature","properties":{"Name":"Somajiguda","Ward_No":97,"Zone":"Greater Hyderabad Municipal Corporation Central Zone","Mandal":"Khairatabad","City":"Hyderabad"},"geometry":{"type":"Polygon","coordinates":[[[78.4369,17.4301],[78.4501,17.4299],[78.4524,17.4268],[78.4536,17.4285],[78.4561,17.4285],[78.4575,17.4271],[78.4578,17.424],[78.4624,17.4228],[78.4622,17.42],[78.4653,17.4187],[78.4651,17.4223],[78.4623,17.4262],[78.463,17.4302],[78.4562,17.4321],[78.4554,17.4352],[78.4523,17.4361],[78.4457,17.434],[78.4428,17.4394],[78.4412,17.4391],[78.4397,17.4333],[78.4338,17.4347],[78.4318,17.4297],[78.4369,17.4301]]]}},{"type":"Feature","properties":{"Name":"Ameerpet","Ward_No":98,"Zone":"Greater Hyderabad Municipal Corporation Central Zone","Mandal":"Khairatabad","City":"Hyderabad"},"geometry":{"type":"Polygon","coordinates":[[[78.463,17.4302],[78.4646,17.4352],[78.461,17.4381],[78.4556,17.4397],[78.4534,17.4426],[78.4511,17.4499],[78.4501,17.4502],[78.4497,17.4484],[78.4475,17.4488],[78.4468,17.4453],[78.4383,17.4476],[78.4457,17.434],[78.4538,17.4358],[78.4554,17.4352],[78.4562,17.4321],[78.463,17.4302]]]}},{"type":"Feature","properties":{"Name":"Vengal Rao Nagar","Ward_No":99,"Zone":"Greater Hyderabad Municipal Corporation Central Zone","Mandal":"Khairatabad","City":"Hyderabad"},"geometry":{"type":"Polygon","coordinates":[[[78.4381,17.4479],[78.4428,17.4394],[78.4412,17.4391],[78.4406,17.4352],[78.4336,17.4365],[78.4316,17.4352],[78.424,17.4393],[78.4235,17.446],[78.4282,17.4459],[78.4262,17.4501],[78.4381,17.4479]]]}},{"type":"Feature","properties":{"Name":"Uppal","Ward_No":10,"Zone":"Greater Hyderabad Municipal Corporation East Zone","Mandal":"Uppal","City":"Hyderabad"},"geometry":{"type":"Polygon","coordinates":[[[78.5601,17.4016],[78.5455,17.4011],[78.5463,17.3906],[78.5431,17.3912],[78.5432,17.3837],[78.552,17.3804],[78.563,17.386],[78.5819,17.3894],[78.5803,17.3954],[78.5819,17.4039],[78.5777,17.405],[78.5655,17.4117],[78.5644,17.4112],[78.5645,17.406],[78.5622,17.4015],[78.5601,17.4016]]]}},{"type":"Feature","properties":{"Name":"Nagole","Ward_No":11,"Zone":"Greater Hyderabad Municipal Corporation East Zone","Mandal":"Uppal","City":"Hyderabad"},"geometry":{"type":"Polygon","coordinates":[[[78.5819,17.3894],[78.5876,17.3868],[78.5876,17.3837],[78.581,17.3822],[78.5811,17.3782],[78.5855,17.3762],[78.5843,17.3731],[78.58,17.3696],[78.5809,17.3667],[78.5773,17.3655],[78.5799,17.3601],[78.5852,17.3568],[78.5858,17.3505],[78.5762,17.3489],[78.5661,17.3504],[78.5659,17.3557],[78.5633,17.3546],[78.5627,17.3528],[78.5557,17.3531],[78.5577,17.3597],[78.5583,17.3831],[78.563,17.386],[78.5819,17.3894]]]}},{"type":"Feature","properties":{"Name":"Mansoorabad","Ward_No":12,"Zone":"Greater Hyderabad Municipal Corporation East Zone","Mandal":"Uppal","City":"Hyderabad"},"geometry":{"type":"Polygon","coordinates":[[[78.6212,17.3385],[78.6204,17.3409],[78.6104,17.3466],[78.6025,17.3464],[78.5983,17.345],[78.5859,17.3467],[78.5858,17.3505],[78.5762,17.3489],[78.5661,17.3504],[78.5659,17.3557],[78.5633,17.3546],[78.5627,17.3528],[78.5557,17.3531],[78.551,17.3465],[78.5584,17.3414],[78.5643,17.3405],[78.5737,17.3368],[78.584,17.3353],[78.5941,17.3299],[78.6065,17.3265],[78.6091,17.3244],[78.6119,17.3283],[78.6076,17.3303],[78.6082,17.3314],[78.611,17.3325],[78.6142,17.336],[78.6212,17.3385]]]}},{"type":"Feature","properties":{"Name":"Hayath Nagar","Ward_No":13,"Zone":"Greater Hyderabad Municipal Corporation East Zone","Mandal":"Uppal","City":"Hyderabad"},"geometry":{"type":"Polygon","coordinates":[[[78.5935,17.3028],[78.5888,17.322],[78.581,17.3223],[78.5797,17.3227],[78.5794,17.325],[78.576,17.325],[78.5746,17.3267],[78.5754,17.3319],[78.5737,17.3368],[78.584,17.3353],[78.5941,17.3299],[78.6065,17.3265],[78.6091,17.3244],[78.6119,17.3283],[78.6076,17.3303],[78.6082,17.3314],[78.611,17.3325],[78.6142,17.336],[78.6224,17.3389],[78.6169,17.3301],[78.6167,17.3245],[78.619,17.3236],[78.6188,17.3201],[78.62,17.3199],[78.6214,17.3157],[78.6208,17.3115],[78.6172,17.3115],[78.6018,17.3042],[78.5935,17.3028]]]}},{"type":"Feature","properties":{"Name":"BN Reddy Nagar","Ward_No":14,"Zone":"Greater Hyderabad Municipal Corporation East Zone","Mandal":"Uppal","City":"Hyderabad"},"geometry":{"type":"Polygon","coordinates":[[[78.5573,17.3252],[78.562,17.3252],[78.5633,17.3296],[78.5753,17.3286],[78.5746,17.3267],[78.576,17.325],[78.5794,17.325],[78.5797,17.3227],[78.5888,17.322],[78.5935,17.3028],[78.576,17.3026],[78.5713,17.3044],[78.5659,17.3102],[78.5586,17.3106],[78.5583,17.3128],[78.5531,17.3146],[78.5498,17.3172],[78.552,17.3207],[78.5536,17.3198],[78.5562,17.3232],[78.558,17.3226],[78.5573,17.3252]]]}},{"type":"Feature","properties":{"Name":"Vanasthalipuram","Ward_No":15,"Zone":"Greater Hyderabad Municipal Corporation East Zone","Mandal":"Uppal","City":"Hyderabad"},"geometry":{"type":"Polygon","coordinates":[[[78.5737,17.3368],[78.5643,17.3405],[78.5584,17.3414],[78.551,17.3465],[78.5467,17.3422],[78.5518,17.3358],[78.5532,17.3302],[78.5573,17.3252],[78.562,17.3252],[78.5633,17.3296],[78.5753,17.3286],[78.5737,17.3368]]]}},{"type":"Feature","properties":{"Name":"Hasthinapuram","Ward_No":16,"Zone":"Greater Hyderabad Municipal Corporation East Zone","Mandal":"Uppal","City":"Hyderabad"},"geometry":{"type":"Polygon","coordinates":[[[78.5573,17.3252],[78.558,17.3226],[78.5562,17.3232],[78.5536,17.3198],[78.552,17.3207],[78.5498,17.3172],[78.5371,17.3242],[78.5366,17.3262],[78.5333,17.3245],[78.5337,17.3265],[78.5351,17.3268],[78.5346,17.3344],[78.5374,17.3348],[78.5361,17.3375],[78.5419,17.3383],[78.5467,17.3422],[78.5518,17.3358],[78.5532,17.3302],[78.5573,17.3252]],[[78.5056,17.3162],[78.5082,17.3168],[78.5077,17.3188],[78.5052,17.3187],[78.5056,17.3162]],[[78.4937,17.3179],[78.4968,17.3169],[78.4966,17.3198],[78.4936,17.3189],[78.4937,17.3179]],[[78.5185,17.3335],[78.519,17.3317],[78.517,17.3316],[78.5172,17.3338],[78.5185,17.3335]],[[78.5273,17.3366],[78.5248,17.3369],[78.5256,17.3381],[78.5273,17.3366]],[[78.519,17.3413],[78.5216,17.3386],[78.518,17.3397],[78.5176,17.3382],[78.5193,17.3369],[78.5226,17.3374],[78.5238,17.3397],[78.519,17.3413]],[[78.5183,17.3267],[78.5128,17.3271],[78.5127,17.3304],[78.5156,17.3312],[78.5149,17.3289],[78.5183,17.3267]],[[78.5265,17.332],[78.5264,17.3349],[78.5284,17.3334],[78.5282,17.3321],[78.5266,17.3329],[78.5265,17.332]]]}},{"type":"Feature","properties":{"Name":"Champapet","Ward_No":17,"Zone":"Greater Hyderabad Municipal Corporation East Zone","Mandal":"Uppal","City":"Hyderabad"},"geometry":{"type":"Polygon","coordinates":[[[78.519,17.3413],[78.5069,17.3436],[78.51,17.3507],[78.5138,17.3492],[78.5144,17.351],[78.5171,17.3503],[78.5166,17.3465],[78.5189,17.3438],[78.5263,17.3439],[78.5254,17.3452],[78.5467,17.3422],[78.5419,17.3383],[78.5337,17.3371],[78.519,17.3413]]]}},{"type":"Feature","properties":{"Name":"Lingojiguda","Ward_No":18,"Zone":"Greater Hyderabad Municipal Corporation East Zone","Mandal":"Uppal","City":"Hyderabad"},"geometry":{"type":"Polygon","coordinates":[[[78.5541,17.3506],[78.5518,17.3524],[78.547,17.3511],[78.5463,17.3527],[78.542,17.353],[78.5407,17.3505],[78.5305,17.3556],[78.5309,17.3509],[78.5281,17.3489],[78.528,17.3518],[78.5266,17.3543],[78.5252,17.3541],[78.5249,17.3462],[78.5254,17.3452],[78.5467,17.3422],[78.5541,17.3506]]]}},{"type":"Feature","properties":{"Name":"Saroornagar","Ward_No":19,"Zone":"Greater Hyderabad Municipal Corporation East Zone","Mandal":"Uppal","City":"Hyderabad"},"geometry":{"type":"Polygon","coordinates":[[[78.5403,17.3705],[78.5363,17.3642],[78.5361,17.3619],[78.5341,17.3624],[78.5327,17.3587],[78.5305,17.3588],[78.5303,17.3566],[78.5322,17.3544],[78.5407,17.3505],[78.542,17.353],[78.5463,17.3527],[78.5427,17.3652],[78.5457,17.3671],[78.5464,17.3726],[78.5403,17.3705]]]}},{"type":"Feature","properties":{"Name":"Kapra","Ward_No":1,"Zone":"Greater Hyderabad Municipal Corporation East Zone","Mandal":"Uppal","City":"Hyderabad"},"geometry":{"type":"Polygon","coordinates":[[[78.5488,17.4832],[78.5392,17.4892],[78.5341,17.4945],[78.536,17.4951],[78.5365,17.4983],[78.5391,17.4988],[78.539,17.4965],[78.5418,17.4953],[78.5435,17.4968],[78.5448,17.4954],[78.5466,17.4991],[78.5479,17.4974],[78.5506,17.4977],[78.5564,17.5039],[78.5567,17.5069],[78.5541,17.5073],[78.5624,17.5072],[78.5637,17.5052],[78.5665,17.5044],[78.5743,17.5079],[78.5759,17.5055],[78.5862,17.5004],[78.5825,17.4987],[78.5765,17.4928],[78.567,17.4878],[78.5637,17.4797],[78.5574,17.4837],[78.556,17.483],[78.5551,17.4858],[78.5526,17.4848],[78.5515,17.4817],[78.5488,17.4832]]]}},{"type":"Feature","properties":{"Name":"RK Puram","Ward_No":20,"Zone":"Greater Hyderabad Municipal Corporation East Zone","Mandal":"Uppal","City":"Hyderabad"},"geometry":{"type":"Polygon","coordinates":[[[78.5464,17.3726],[78.5492,17.3736],[78.5494,17.3721],[78.5569,17.3644],[78.5572,17.3621],[78.553,17.3543],[78.5538,17.3528],[78.5506,17.3525],[78.5504,17.3514],[78.5466,17.3516],[78.5427,17.3652],[78.5457,17.3671],[78.5464,17.3726]]]}},{"type":"Feature","properties":{"Name":"Kothapet","Ward_No":21,"Zone":"Greater Hyderabad Municipal Corporation East Zone","Mandal":"Uppal","City":"Hyderabad"},"geometry":{"type":"Polygon","coordinates":[[[78.5431,17.3827],[78.5432,17.3837],[78.5471,17.3828],[78.552,17.3804],[78.5583,17.3831],[78.5577,17.3597],[78.5541,17.3506],[78.5518,17.3524],[78.5538,17.3528],[78.553,17.3543],[78.5572,17.3621],[78.5553,17.3668],[78.5494,17.3721],[78.5492,17.3736],[78.539,17.371],[78.5383,17.3745],[78.5392,17.3745],[78.539,17.3766],[78.5426,17.3755],[78.5431,17.3827]]]}},{"type":"Feature","properties":{"Name":"Chaitanyapuri","Ward_No":22,"Zone":"Greater Hyderabad Municipal Corporation East Zone","Mandal":"Uppal","City":"Hyderabad"},"geometry":{"type":"Polygon","coordinates":[[[78.5403,17.3705],[78.539,17.371],[78.5383,17.3745],[78.5392,17.3745],[78.539,17.3766],[78.5426,17.3755],[78.5432,17.3837],[78.5389,17.383],[78.5282,17.3758],[78.5252,17.3763],[78.5235,17.3698],[78.5247,17.3698],[78.5245,17.3686],[78.5382,17.3681],[78.5403,17.3705]]]}},{"type":"Feature","properties":{"Name":"Gaddiannaram","Ward_No":23,"Zone":"Greater Hyderabad Municipal Corporation East Zone","Mandal":"Uppal","City":"Hyderabad"},"geometry":{"type":"Polygon","coordinates":[[[78.5243,17.3595],[78.5303,17.3566],[78.5305,17.3588],[78.5327,17.3587],[78.5341,17.3624],[78.5361,17.3619],[78.5382,17.3681],[78.5231,17.3686],[78.5229,17.3668],[78.5247,17.3653],[78.5233,17.3621],[78.5222,17.362],[78.5243,17.3595]]]}},{"type":"Feature","properties":{"Name":"Dr A S Rao Nagar","Ward_No":2,"Zone":"Greater Hyderabad Municipal Corporation East Zone","Mandal":"Uppal","City":"Hyderabad"},"geometry":{"type":"Polygon","coordinates":[[[78.5515,17.4817],[78.5526,17.4848],[78.5551,17.4858],[78.556,17.483],[78.5574,17.4837],[78.5637,17.4797],[78.567,17.4878],[78.5765,17.4928],[78.5825,17.4987],[78.5862,17.5004],[78.5884,17.4968],[78.5881,17.4912],[78.585,17.4908],[78.5849,17.4881],[78.5832,17.4881],[78.5828,17.4868],[78.5776,17.4883],[78.5771,17.4864],[78.5751,17.4865],[78.5743,17.4834],[78.5717,17.4838],[78.5709,17.4783],[78.5743,17.4769],[78.5708,17.476],[78.5702,17.4723],[78.5761,17.4637],[78.5714,17.4612],[78.5661,17.4622],[78.5644,17.4676],[78.5659,17.4694],[78.562,17.4719],[78.5568,17.4732],[78.5539,17.4773],[78.5545,17.4804],[78.5515,17.4817]]]}},{"type":"Feature","properties":{"Name":"Cherlapally","Ward_No":3,"Zone":"Greater Hyderabad Municipal Corporation East Zone","Mandal":"Uppal","City":"Hyderabad"},"geometry":{"type":"Polygon","coordinates":[[[78.5881,17.4912],[78.5874,17.4866],[78.5896,17.4788],[78.5937,17.4771],[78.5985,17.4783],[78.6035,17.4761],[78.6048,17.4783],[78.618,17.4764],[78.6148,17.4658],[78.6163,17.4629],[78.6159,17.4608],[78.6147,17.4588],[78.6121,17.4585],[78.6107,17.4488],[78.6085,17.4455],[78.5952,17.4453],[78.5901,17.4487],[78.5895,17.4525],[78.5904,17.4533],[78.5908,17.4594],[78.5836,17.4603],[78.5837,17.4626],[78.5802,17.463],[78.5779,17.461],[78.5702,17.4723],[78.5708,17.476],[78.5743,17.4769],[78.5709,17.4783],[78.5717,17.4838],[78.5743,17.4834],[78.5751,17.4865],[78.5771,17.4864],[78.5776,17.4883],[78.5828,17.4868],[78.5832,17.4881],[78.5849,17.4881],[78.585,17.4908],[78.5881,17.4912]]]}},{"type":"Feature","properties":{"Name":"Meerpet H.B Colony","Ward_No":4,"Zone":"Greater Hyderabad Municipal Corporation East Zone","Mandal":"Uppal","City":"Hyderabad"},"geometry":{"type":"Polygon","coordinates":[[[78.5761,17.4637],[78.5696,17.4612],[78.5661,17.4622],[78.5656,17.4642],[78.5644,17.4642],[78.5602,17.4481],[78.5634,17.4497],[78.5667,17.4497],[78.5693,17.4489],[78.5693,17.4475],[78.5746,17.4465],[78.5755,17.4485],[78.5815,17.4502],[78.5815,17.4555],[78.5791,17.457],[78.5761,17.4637]]]}},{"type":"Feature","properties":{"Name":"Mallapur","Ward_No":5,"Zone":"Greater Hyderabad Municipal Corporation East Zone","Mandal":"Uppal","City":"Hyderabad"},"geometry":{"type":"Polygon","coordinates":[[[78.5779,17.461],[78.5802,17.463],[78.5837,17.4626],[78.5836,17.4603],[78.5908,17.4594],[78.5904,17.4533],[78.5895,17.4525],[78.5901,17.4487],[78.5952,17.4453],[78.584,17.4402],[78.5776,17.4332],[78.5784,17.432],[78.5774,17.4298],[78.5759,17.4299],[78.5734,17.4275],[78.5697,17.4269],[78.5684,17.434],[78.5652,17.4415],[78.5555,17.4369],[78.5546,17.4342],[78.5525,17.4352],[78.5518,17.4337],[78.5486,17.4345],[78.5487,17.4376],[78.5575,17.4387],[78.5531,17.4413],[78.5577,17.4443],[78.5574,17.4466],[78.5634,17.4497],[78.5667,17.4497],[78.5693,17.4489],[78.5693,17.4475],[78.5746,17.4465],[78.5755,17.4485],[78.5815,17.4502],[78.5815,17.4555],[78.5791,17.457],[78.5779,17.461]]]}},{"type":"Feature","properties":{"Name":"Nacharam","Ward_No":6,"Zone":"Greater Hyderabad Municipal Corporation East Zone","Mandal":"Uppal","City":"Hyderabad"},"geometry":{"type":"Polygon","coordinates":[[[78.5359,17.4247],[78.5382,17.4267],[78.5408,17.4242],[78.5447,17.4274],[78.5459,17.4316],[78.5471,17.4313],[78.5468,17.434],[78.5518,17.4337],[78.5525,17.4352],[78.5546,17.4342],[78.5555,17.4369],[78.5652,17.4415],[78.5684,17.434],[78.5697,17.4269],[78.5676,17.4273],[78.5619,17.4251],[78.5625,17.4239],[78.5581,17.4216],[78.5558,17.4165],[78.5535,17.4177],[78.5487,17.4151],[78.5455,17.4155],[78.5359,17.4247]]]}},{"type":"Feature","properties":{"Name":"Chilka Nagar","Ward_No":7,"Zone":"Greater Hyderabad Municipal Corporation East Zone","Mandal":"Uppal","City":"Hyderabad"},"geometry":{"type":"Polygon","coordinates":[[[78.5601,17.4016],[78.5455,17.4155],[78.5487,17.4151],[78.5535,17.4177],[78.5558,17.4165],[78.5581,17.4216],[78.5625,17.4239],[78.5667,17.4164],[78.5671,17.4117],[78.5644,17.4112],[78.5645,17.406],[78.5622,17.4015],[78.5601,17.4016]]]}},{"type":"Feature","properties":{"Name":"Habsiguda","Ward_No":8,"Zone":"Greater Hyderabad Municipal Corporation East Zone","Mandal":"Uppal","City":"Hyderabad"},"geometry":{"type":"Polygon","coordinates":[[[78.5359,17.4247],[78.5332,17.4255],[78.5324,17.4215],[78.5346,17.42],[78.5354,17.416],[78.5326,17.4011],[78.5282,17.3974],[78.5294,17.3953],[78.5284,17.3949],[78.5268,17.3863],[78.5284,17.381],[78.5252,17.3763],[78.5308,17.3827],[78.5315,17.3887],[78.5328,17.3886],[78.5328,17.3978],[78.5455,17.4011],[78.5601,17.4016],[78.5359,17.4247]]]}},{"type":"Feature","properties":{"Name":"Ramanthapur","Ward_No":9,"Zone":"Greater Hyderabad Municipal Corporation East Zone","Mandal":"Uppal","City":"Hyderabad"},"geometry":{"type":"Polygon","coordinates":[[[78.5455,17.4011],[78.5328,17.3978],[78.5328,17.3886],[78.5315,17.3887],[78.5308,17.3827],[78.5252,17.3763],[78.5282,17.3758],[78.5389,17.383],[78.5432,17.3837],[78.5431,17.3912],[78.5463,17.3906],[78.5455,17.4011]]]}},{"type":"Feature","properties":{"Name":"Gajularamaram","Ward_No":125,"Zone":"Greater Hyderabad Municipal Corporation North Zone","Mandal":"Quthbullapur","City":"Hyderabad"},"geometry":{"type":"Polygon","coordinates":[[[78.4084,17.5459],[78.4106,17.5397],[78.4138,17.5375],[78.4149,17.5344],[78.4219,17.5336],[78.4231,17.5363],[78.4264,17.5376],[78.4264,17.5332],[78.4284,17.5322],[78.4283,17.5297],[78.4293,17.5284],[78.432,17.5283],[78.4323,17.5245],[78.4344,17.5242],[78.4342,17.5229],[78.4365,17.5212],[78.4348,17.5196],[78.4374,17.5167],[78.4367,17.5158],[78.4324,17.5126],[78.4314,17.5147],[78.4299,17.5128],[78.424,17.5146],[78.4196,17.5127],[78.4083,17.514],[78.3986,17.5173],[78.3979,17.5195],[78.3964,17.5199],[78.3966,17.5226],[78.3952,17.5251],[78.3936,17.5407],[78.3953,17.5402],[78.4023,17.5453],[78.4084,17.5459]]]}},{"type":"Feature","properties":{"Name":"Bansilapet","Ward_No":147,"Zone":"Greater Hyderabad Municipal Corporation North Zone","Mandal":"Quthbullapur","City":"Hyderabad"},"geometry":{"type":"Polygon","coordinates":[[[78.4922,17.4241],[78.5053,17.4198],[78.51,17.4218],[78.5116,17.4284],[78.5066,17.4298],[78.5061,17.4331],[78.504,17.4317],[78.4927,17.4313],[78.4922,17.4241]]]}},{"type":"Feature","properties":{"Name":"Jagathgirigutta","Ward_No":126,"Zone":"Greater Hyderabad Municipal Corporation North Zone","Mandal":"Quthbullapur","City":"Hyderabad"},"geometry":{"type":"Polygon","coordinates":[[[78.4204,17.5028],[78.4266,17.5014],[78.4275,17.4987],[78.4291,17.4993],[78.433,17.4978],[78.4301,17.5035],[78.4324,17.5126],[78.4314,17.5147],[78.4299,17.5128],[78.424,17.5146],[78.4196,17.5127],[78.4137,17.5136],[78.4127,17.5094],[78.4167,17.5082],[78.4173,17.5043],[78.4204,17.5028]]]}},{"type":"Feature","properties":{"Name":"Rangareddy Nagar","Ward_No":127,"Zone":"Greater Hyderabad Municipal Corporation North Zone","Mandal":"Quthbullapur","City":"Hyderabad"},"geometry":{"type":"Polygon","coordinates":[[[78.4267,17.4909],[78.4285,17.4909],[78.4282,17.4897],[78.436,17.4831],[78.4445,17.4807],[78.4459,17.483],[78.4492,17.4821],[78.4502,17.4876],[78.4459,17.4887],[78.4451,17.4951],[78.438,17.4971],[78.4356,17.4964],[78.433,17.4978],[78.4315,17.4943],[78.4267,17.4937],[78.4267,17.4909]]]}},{"type":"Feature","properties":{"Name":"Chintal","Ward_No":128,"Zone":"Greater Hyderabad Municipal Corporation North Zone","Mandal":"Quthbullapur","City":"Hyderabad"},"geometry":{"type":"Polygon","coordinates":[[[78.4324,17.5126],[78.4301,17.5035],[78.433,17.4978],[78.4356,17.4964],[78.438,17.4971],[78.4451,17.4951],[78.4459,17.4887],[78.4502,17.4876],[78.4522,17.496],[78.4476,17.5111],[78.4421,17.5129],[78.4374,17.5167],[78.4324,17.5126]]]}},{"type":"Feature","properties":{"Name":"Subash Nagar","Ward_No":130,"Zone":"Greater Hyderabad Municipal Corporation North Zone","Mandal":"Quthbullapur","City":"Hyderabad"},"geometry":{"type":"Polygon","coordinates":[[[78.4546,17.5088],[78.4499,17.5112],[78.4476,17.5111],[78.4461,17.5192],[78.4386,17.5278],[78.4345,17.5359],[78.4339,17.5409],[78.4358,17.5411],[78.4365,17.5495],[78.4337,17.5513],[78.4337,17.5537],[78.4422,17.5525],[78.4443,17.5346],[78.4565,17.5322],[78.4591,17.5328],[78.4604,17.532],[78.4585,17.5303],[78.4651,17.529],[78.4653,17.5227],[78.4669,17.5221],[78.4649,17.5161],[78.4649,17.5117],[78.4683,17.5056],[78.4647,17.5078],[78.4597,17.5077],[78.4556,17.5116],[78.4546,17.5088]]]}},{"type":"Feature","properties":{"Name":"Quthbullapur","Ward_No":131,"Zone":"Greater Hyderabad Municipal Corporation North Zone","Mandal":"Quthbullapur","City":"Hyderabad"},"geometry":{"type":"Polygon","coordinates":[[[78.4546,17.5088],[78.4499,17.5112],[78.4476,17.5111],[78.4522,17.496],[78.4492,17.4821],[78.4558,17.4821],[78.4602,17.4846],[78.4703,17.4958],[78.468,17.4977],[78.4643,17.4981],[78.465,17.5013],[78.4626,17.5018],[78.4613,17.5008],[78.4558,17.503],[78.4553,17.5047],[78.4565,17.5064],[78.4546,17.5088]]]}},{"type":"Feature","properties":{"Name":"Jeedimetla","Ward_No":132,"Zone":"Greater Hyderabad Municipal Corporation North Zone","Mandal":"Quthbullapur","City":"Hyderabad"},"geometry":{"type":"Polygon","coordinates":[[[78.4546,17.5088],[78.4565,17.5064],[78.4553,17.5047],[78.4558,17.503],[78.4613,17.5008],[78.4626,17.5018],[78.465,17.5013],[78.4643,17.4981],[78.468,17.4977],[78.4703,17.4958],[78.4789,17.4946],[78.4852,17.5094],[78.4853,17.5205],[78.4939,17.5217],[78.4949,17.5232],[78.5006,17.5229],[78.5022,17.5259],[78.5005,17.5274],[78.493,17.5273],[78.491,17.5316],[78.4889,17.5316],[78.4841,17.5247],[78.4786,17.5248],[78.4651,17.529],[78.4653,17.5227],[78.4669,17.5221],[78.4649,17.5161],[78.4649,17.5117],[78.4683,17.5056],[78.4647,17.5078],[78.4597,17.5077],[78.4556,17.5116],[78.4546,17.5088]]]}},{"type":"Feature","properties":{"Name":"Macha Bolarum","Ward_No":133,"Zone":"Greater Hyderabad Municipal Corporation North Zone","Mandal":"Quthbullapur","City":"Hyderabad"},"geometry":{"type":"Polygon","coordinates":[[[78.5397,17.5156],[78.5388,17.5172],[78.5369,17.5173],[78.5382,17.5237],[78.536,17.5231],[78.5335,17.5248],[78.5323,17.5322],[78.5331,17.5374],[78.5366,17.5381],[78.5443,17.5353],[78.5498,17.5412],[78.5522,17.5391],[78.5472,17.5338],[78.5474,17.5308],[78.5497,17.5291],[78.5473,17.5265],[78.5474,17.5233],[78.5456,17.5199],[78.544,17.5184],[78.5406,17.5183],[78.5397,17.5156]],[[78.5005,17.5274],[78.5064,17.5368],[78.5065,17.5463],[78.5178,17.5435],[78.5179,17.5419],[78.5161,17.5406],[78.5171,17.5379],[78.5221,17.536],[78.5164,17.5268],[78.5136,17.5274],[78.5162,17.5159],[78.5145,17.508],[78.5101,17.5089],[78.5099,17.5106],[78.4989,17.5069],[78.4899,17.5057],[78.4823,17.5016],[78.4852,17.5094],[78.4853,17.5205],[78.4939,17.5217],[78.4949,17.5232],[78.5006,17.5229],[78.5022,17.5259],[78.5005,17.5274]]]}},{"type":"Feature","properties":{"Name":"Alwal","Ward_No":134,"Zone":"Greater Hyderabad Municipal Corporation North Zone","Mandal":"Quthbullapur","City":"Hyderabad"},"geometry":{"type":"Polygon","coordinates":[[[78.4922,17.4929],[78.4935,17.497],[78.4919,17.5048],[78.4818,17.5007],[78.4823,17.5016],[78.4899,17.5057],[78.4989,17.5069],[78.5099,17.5106],[78.5101,17.5089],[78.5145,17.508],[78.515,17.5037],[78.5126,17.4913],[78.5072,17.4919],[78.5077,17.4928],[78.5061,17.493],[78.5066,17.4948],[78.5052,17.4957],[78.5071,17.4969],[78.5062,17.4998],[78.5021,17.5012],[78.5005,17.4987],[78.4959,17.5003],[78.496,17.4963],[78.4974,17.4942],[78.4958,17.4903],[78.4922,17.4929]]]}},{"type":"Feature","properties":{"Name":"Venkatapuram","Ward_No":135,"Zone":"Greater Hyderabad Municipal Corporation North Zone","Mandal":"Quthbullapur","City":"Hyderabad"},"geometry":{"type":"Polygon","coordinates":[[[78.4868,17.4878],[78.4907,17.4861],[78.4907,17.4899],[78.4922,17.4929],[78.4958,17.4903],[78.4974,17.4942],[78.496,17.4963],[78.4959,17.5003],[78.4972,17.5006],[78.4981,17.4991],[78.5005,17.4987],[78.5021,17.5012],[78.5062,17.4998],[78.5071,17.4969],[78.5052,17.4963],[78.5066,17.4948],[78.5061,17.493],[78.5094,17.4917],[78.5088,17.4896],[78.5071,17.49],[78.5048,17.4884],[78.5039,17.4854],[78.4999,17.4831],[78.5019,17.4818],[78.4976,17.4784],[78.4998,17.4716],[78.4953,17.4747],[78.497,17.4821],[78.4958,17.4818],[78.4954,17.4836],[78.4936,17.4799],[78.488,17.48],[78.4848,17.4838],[78.4847,17.4869],[78.4857,17.4863],[78.4868,17.4878]]]}},{"type":"Feature","properties":{"Name":"Neredmet","Ward_No":136,"Zone":"Greater Hyderabad Municipal Corporation North Zone","Mandal":"Quthbullapur","City":"Hyderabad"},"geometry":{"type":"Polygon","coordinates":[[[78.5365,17.4983],[78.5309,17.5016],[78.5304,17.5105],[78.5317,17.512],[78.5404,17.5104],[78.5406,17.5183],[78.544,17.5184],[78.5456,17.5199],[78.5447,17.5167],[78.5476,17.5152],[78.5481,17.5082],[78.5567,17.5069],[78.5564,17.5039],[78.5506,17.4977],[78.5479,17.4974],[78.5466,17.4991],[78.5448,17.4954],[78.5435,17.4968],[78.5418,17.4953],[78.539,17.4965],[78.5391,17.4988],[78.5365,17.4983]],[[78.5341,17.4945],[78.5346,17.4924],[78.5272,17.485],[78.5258,17.4852],[78.5233,17.4793],[78.5259,17.4767],[78.5284,17.4772],[78.5311,17.4701],[78.5342,17.4703],[78.5353,17.4738],[78.5375,17.4753],[78.5369,17.4787],[78.544,17.479],[78.5445,17.4828],[78.5488,17.4832],[78.5392,17.4892],[78.5341,17.4945]]]}},{"type":"Feature","properties":{"Name":"Vinayak Nagar","Ward_No":137,"Zone":"Greater Hyderabad Municipal Corporation North Zone","Mandal":"Quthbullapur","City":"Hyderabad"},"geometry":{"type":"Polygon","coordinates":[[[78.5415,17.4549],[78.5437,17.4583],[78.5422,17.4604],[78.5447,17.4608],[78.5468,17.4633],[78.543,17.4653],[78.5438,17.4674],[78.5458,17.4677],[78.5474,17.477],[78.5493,17.4777],[78.5488,17.4791],[78.5504,17.4792],[78.5506,17.4821],[78.5488,17.4832],[78.5445,17.4828],[78.544,17.479],[78.5369,17.4787],[78.5375,17.4753],[78.5406,17.4708],[78.539,17.4708],[78.5386,17.4649],[78.5354,17.4604],[78.5375,17.4586],[78.5389,17.4615],[78.5403,17.4607],[78.5415,17.4549]]]}},{"type":"Feature","properties":{"Name":"Moula Ali","Ward_No":138,"Zone":"Greater Hyderabad Municipal Corporation North Zone","Mandal":"Quthbullapur","City":"Hyderabad"},"geometry":{"type":"Polygon","coordinates":[[[78.5651,17.4643],[78.5644,17.4676],[78.5659,17.4694],[78.562,17.4719],[78.5568,17.4732],[78.5539,17.4773],[78.5545,17.4804],[78.5506,17.4821],[78.5504,17.4792],[78.5488,17.4791],[78.5493,17.4777],[78.5474,17.477],[78.5458,17.4677],[78.5438,17.4674],[78.543,17.4653],[78.5468,17.4633],[78.5482,17.4638],[78.5469,17.4616],[78.5491,17.4605],[78.5584,17.4581],[78.5596,17.4609],[78.5584,17.4615],[78.5608,17.4627],[78.5631,17.4617],[78.5651,17.4643]]]}},{"type":"Feature","properties":{"Name":"East Anand Bagh","Ward_No":139,"Zone":"Greater Hyderabad Municipal Corporation North Zone","Mandal":"Quthbullapur","City":"Hyderabad"},"geometry":{"type":"Polygon","coordinates":[[[78.5602,17.4481],[78.5631,17.4617],[78.5608,17.4627],[78.5584,17.4615],[78.5596,17.4609],[78.5589,17.4589],[78.557,17.4582],[78.5469,17.4616],[78.5485,17.4628],[78.5473,17.464],[78.5447,17.4608],[78.5422,17.4604],[78.5437,17.4583],[78.5415,17.4549],[78.5451,17.4508],[78.5454,17.4474],[78.5407,17.4476],[78.5402,17.4492],[78.5364,17.4484],[78.5355,17.4457],[78.5311,17.4412],[78.5384,17.4393],[78.5412,17.4435],[78.5432,17.443],[78.5442,17.4447],[78.5472,17.4429],[78.5462,17.4401],[78.5476,17.4403],[78.5487,17.4376],[78.5511,17.4386],[78.5538,17.4375],[78.5575,17.4387],[78.5531,17.4413],[78.5577,17.4443],[78.5574,17.4466],[78.5602,17.4481]]]}},{"type":"Feature","properties":{"Name":"Malkajgiri","Ward_No":140,"Zone":"Greater Hyderabad Municipal Corporation North Zone","Mandal":"Quthbullapur","City":"Hyderabad"},"geometry":{"type":"Polygon","coordinates":[[[78.5311,17.4701],[78.5342,17.4703],[78.5353,17.4738],[78.5375,17.4753],[78.5406,17.4708],[78.539,17.4708],[78.5386,17.4649],[78.5354,17.4604],[78.5375,17.4586],[78.5389,17.4615],[78.5403,17.4607],[78.5415,17.4549],[78.5451,17.4508],[78.5454,17.4474],[78.5407,17.4476],[78.5402,17.4492],[78.5364,17.4484],[78.5358,17.45],[78.5324,17.4503],[78.5351,17.4547],[78.5321,17.4572],[78.5331,17.4626],[78.5311,17.4701]]]}},{"type":"Feature","properties":{"Name":"Gautham Nagar","Ward_No":141,"Zone":"Greater Hyderabad Municipal Corporation North Zone","Mandal":"Quthbullapur","City":"Hyderabad"},"geometry":{"type":"Polygon","coordinates":[[[78.5196,17.4457],[78.5235,17.4493],[78.5253,17.4552],[78.5331,17.4622],[78.5321,17.4572],[78.5351,17.4547],[78.5324,17.4503],[78.5358,17.45],[78.5365,17.4488],[78.5333,17.4429],[78.5311,17.4412],[78.5264,17.4415],[78.5212,17.443],[78.5216,17.4451],[78.5196,17.4457]]]}},{"type":"Feature","properties":{"Name":"Addagutta","Ward_No":142,"Zone":"Greater Hyderabad Municipal Corporation North Zone","Mandal":"Quthbullapur","City":"Hyderabad"},"geometry":{"type":"Polygon","coordinates":[[[78.5058,17.4342],[78.5125,17.4355],[78.5164,17.4387],[78.5211,17.4394],[78.5362,17.4334],[78.5365,17.4359],[78.5386,17.4374],[78.5384,17.4393],[78.5212,17.443],[78.5216,17.4451],[78.5184,17.4461],[78.5171,17.4439],[78.515,17.4453],[78.5136,17.4422],[78.5094,17.4419],[78.5082,17.4381],[78.505,17.4393],[78.5058,17.4342]]]}},{"type":"Feature","properties":{"Name":"Tarnaka","Ward_No":143,"Zone":"Greater Hyderabad Municipal Corporation North Zone","Mandal":"Quthbullapur","City":"Hyderabad"},"geometry":{"type":"Polygon","coordinates":[[[78.5359,17.4247],[78.5382,17.4267],[78.5408,17.4242],[78.5447,17.4274],[78.5459,17.4316],[78.5471,17.4313],[78.5468,17.434],[78.5486,17.4345],[78.5487,17.4376],[78.5476,17.4403],[78.5462,17.4401],[78.5472,17.4429],[78.5453,17.4444],[78.5435,17.4448],[78.5432,17.443],[78.5412,17.4435],[78.5385,17.4407],[78.5386,17.4374],[78.5358,17.4341],[78.538,17.4334],[78.5311,17.4268],[78.5359,17.4247]],[[78.5207,17.4268],[78.5205,17.4207],[78.5238,17.4193],[78.5245,17.4225],[78.5218,17.4244],[78.5243,17.426],[78.5207,17.4268]]]}},{"type":"Feature","properties":{"Name":"Mettuguda","Ward_No":144,"Zone":"Greater Hyderabad Municipal Corporation North Zone","Mandal":"Quthbullapur","City":"Hyderabad"},"geometry":{"type":"Polygon","coordinates":[[[78.5103,17.429],[78.5108,17.4306],[78.5152,17.4295],[78.518,17.4272],[78.5281,17.4241],[78.538,17.4334],[78.5352,17.4334],[78.5237,17.439],[78.5179,17.439],[78.5125,17.4355],[78.5058,17.4342],[78.5066,17.4298],[78.5103,17.429]]]}},{"type":"Feature","properties":{"Name":"Seethaphalmandi","Ward_No":145,"Zone":"Greater Hyderabad Municipal Corporation North Zone","Mandal":"Quthbullapur","City":"Hyderabad"},"geometry":{"type":"Polygon","coordinates":[[[78.5092,17.4205],[78.5116,17.4284],[78.5103,17.429],[78.5108,17.4306],[78.5207,17.4268],[78.5201,17.4193],[78.5092,17.4205]]]}},{"type":"Feature","properties":{"Name":"Boudha Nagar","Ward_No":146,"Zone":"Greater Hyderabad Municipal Corporation North Zone","Mandal":"Quthbullapur","City":"Hyderabad"},"geometry":{"type":"Polygon","coordinates":[[[78.5179,17.4106],[78.5139,17.4113],[78.5122,17.4144],[78.5101,17.4156],[78.5092,17.4205],[78.5201,17.4193],[78.5179,17.4106]]]}},{"type":"Feature","properties":{"Name":"Ramgopalpet","Ward_No":148,"Zone":"Greater Hyderabad Municipal Corporation North Zone","Mandal":"Quthbullapur","City":"Hyderabad"},"geometry":{"type":"Polygon","coordinates":[[[78.4927,17.4313],[78.4954,17.4404],[78.4933,17.4409],[78.492,17.4385],[78.4883,17.4395],[78.4876,17.4419],[78.4852,17.4399],[78.4793,17.4404],[78.4852,17.4337],[78.4826,17.4333],[78.4864,17.4307],[78.4865,17.4288],[78.4836,17.4266],[78.4843,17.4248],[78.4922,17.4241],[78.4927,17.4313]]]}},{"type":"Feature","properties":{"Name":"Begumpet","Ward_No":149,"Zone":"Greater Hyderabad Municipal Corporation North Zone","Mandal":"Quthbullapur","City":"Hyderabad"},"geometry":{"type":"Polygon","coordinates":[[[78.4826,17.4333],[78.4784,17.4343],[78.4787,17.4318],[78.4775,17.4301],[78.4724,17.4288],[78.4728,17.4343],[78.4743,17.4361],[78.4736,17.4368],[78.4712,17.4377],[78.467,17.4366],[78.464,17.4319],[78.4646,17.4352],[78.4626,17.4372],[78.4556,17.4397],[78.4516,17.4475],[78.454,17.4505],[78.4551,17.4599],[78.4659,17.4543],[78.4681,17.451],[78.4686,17.4467],[78.47,17.4464],[78.4707,17.444],[78.4984,17.443],[78.4986,17.4416],[78.4961,17.4404],[78.4933,17.4409],[78.492,17.4385],[78.4883,17.4395],[78.4876,17.4419],[78.4852,17.4399],[78.4793,17.4404],[78.4852,17.4337],[78.4826,17.4333]]]}},{"type":"Feature","properties":{"Name":"Monda Market","Ward_No":150,"Zone":"Greater Hyderabad Municipal Corporation North Zone","Mandal":"Quthbullapur","City":"Hyderabad"},"geometry":{"type":"Polygon","coordinates":[[[78.4927,17.4313],[78.4954,17.4404],[78.4986,17.4416],[78.4984,17.443],[78.5014,17.4428],[78.5017,17.4462],[78.5054,17.451],[78.5087,17.4481],[78.5182,17.4457],[78.5171,17.4439],[78.515,17.4453],[78.5136,17.4422],[78.5094,17.4419],[78.5082,17.4381],[78.505,17.4393],[78.5061,17.4331],[78.5048,17.4319],[78.4927,17.4313]]]}},{"type":"Feature","properties":{"Name":"Saidabad","Ward_No":24,"Zone":"Greater Hyderabad Municipal Corporation South Zone","Mandal":"Bahadurpura","City":"Hyderabad"},"geometry":{"type":"Polygon","coordinates":[[[78.5141,17.37],[78.5191,17.3689],[78.5243,17.3595],[78.5189,17.3577],[78.5055,17.3565],[78.5037,17.363],[78.5057,17.3619],[78.51,17.3623],[78.5104,17.3653],[78.5122,17.3656],[78.5122,17.3684],[78.5136,17.3679],[78.5141,17.37]]]}},{"type":"Feature","properties":{"Name":"Moosarambagh","Ward_No":25,"Zone":"Greater Hyderabad Municipal Corporation South Zone","Mandal":"Bahadurpura","City":"Hyderabad"},"geometry":{"type":"Polygon","coordinates":[[[78.5141,17.37],[78.5073,17.3728],[78.5082,17.3758],[78.5106,17.3767],[78.5112,17.3791],[78.5129,17.3798],[78.5154,17.3782],[78.517,17.38],[78.5252,17.3763],[78.5235,17.3698],[78.5247,17.3698],[78.5245,17.3686],[78.5231,17.3686],[78.5229,17.3668],[78.5247,17.3653],[78.5233,17.3621],[78.5222,17.362],[78.5191,17.3689],[78.5141,17.37]]]}},{"type":"Feature","properties":{"Name":"Old Malakpet","Ward_No":26,"Zone":"Greater Hyderabad Municipal Corporation South Zone","Mandal":"Bahadurpura","City":"Hyderabad"},"geometry":{"type":"Polygon","coordinates":[[[78.4981,17.3753],[78.4953,17.3773],[78.4949,17.3807],[78.5031,17.386],[78.5109,17.3859],[78.517,17.38],[78.5154,17.3782],[78.5129,17.3798],[78.5112,17.3791],[78.5106,17.3767],[78.5082,17.3758],[78.5073,17.3728],[78.4981,17.3753]]]}},{"type":"Feature","properties":{"Name":"Akbarbagh","Ward_No":27,"Zone":"Greater Hyderabad Municipal Corporation South Zone","Mandal":"Bahadurpura","City":"Hyderabad"},"geometry":{"type":"Polygon","coordinates":[[[78.5141,17.37],[78.4981,17.3753],[78.4962,17.3708],[78.4985,17.3697],[78.5,17.3714],[78.5017,17.3683],[78.5012,17.3643],[78.5057,17.3619],[78.51,17.3623],[78.5104,17.3653],[78.5122,17.3656],[78.5122,17.3684],[78.5136,17.3679],[78.5141,17.37]]]}},{"type":"Feature","properties":{"Name":"Azampura","Ward_No":28,"Zone":"Greater Hyderabad Municipal Corporation South Zone","Mandal":"Bahadurpura","City":"Hyderabad"},"geometry":{"type":"Polygon","coordinates":[[[78.488,17.3787],[78.4882,17.3703],[78.4871,17.3675],[78.4935,17.3668],[78.4969,17.3678],[78.4985,17.3697],[78.4962,17.3708],[78.4981,17.3753],[78.4953,17.3773],[78.4949,17.3807],[78.488,17.3787]]]}},{"type":"Feature","properties":{"Name":"Chawni","Ward_No":29,"Zone":"Greater Hyderabad Municipal Corporation South Zone","Mandal":"Bahadurpura","City":"Hyderabad"},"geometry":{"type":"Polygon","coordinates":[[[78.5037,17.363],[78.4976,17.3615],[78.4957,17.3581],[78.4924,17.3611],[78.4899,17.3669],[78.4969,17.3678],[78.5,17.3714],[78.5017,17.3683],[78.5012,17.3643],[78.5037,17.363]]]}},{"type":"Feature","properties":{"Name":"Dabeerpura","Ward_No":30,"Zone":"Greater Hyderabad Municipal Corporation South Zone","Mandal":"Bahadurpura","City":"Hyderabad"},"geometry":{"type":"Polygon","coordinates":[[[78.4924,17.3611],[78.4899,17.3669],[78.4871,17.3675],[78.4882,17.3703],[78.488,17.3807],[78.4842,17.3806],[78.4815,17.3787],[78.4802,17.375],[78.4828,17.373],[78.4813,17.3677],[78.4839,17.3672],[78.4844,17.3619],[78.4925,17.3599],[78.4924,17.3611]]]}},{"type":"Feature","properties":{"Name":"Patthergatti","Ward_No":32,"Zone":"Greater Hyderabad Municipal Corporation South Zone","Mandal":"Bahadurpura","City":"Hyderabad"},"geometry":{"type":"Polygon","coordinates":[[[78.4817,17.357],[78.4792,17.3585],[78.4789,17.3567],[78.4738,17.3578],[78.4764,17.3713],[78.4818,17.3737],[78.4828,17.373],[78.4813,17.3677],[78.4839,17.3672],[78.4837,17.3644],[78.4846,17.3642],[78.4832,17.359],[78.4897,17.357],[78.4883,17.3546],[78.4817,17.357]]]}},{"type":"Feature","properties":{"Name":"Moghalpura","Ward_No":33,"Zone":"Greater Hyderabad Municipal Corporation South Zone","Mandal":"Bahadurpura","City":"Hyderabad"},"geometry":{"type":"Polygon","coordinates":[[[78.4725,17.3508],[78.4738,17.3578],[78.4789,17.3567],[78.4792,17.3585],[78.4817,17.357],[78.4802,17.3535],[78.4838,17.3526],[78.4838,17.3481],[78.4788,17.3488],[78.4774,17.3505],[78.4725,17.3508]]]}},{"type":"Feature","properties":{"Name":"Talab Chanchalam","Ward_No":34,"Zone":"Greater Hyderabad Municipal Corporation South Zone","Mandal":"Bahadurpura","City":"Hyderabad"},"geometry":{"type":"Polygon","coordinates":[[[78.4866,17.346],[78.4897,17.3502],[78.4906,17.3542],[78.4833,17.3556],[78.4817,17.357],[78.4802,17.3535],[78.4838,17.3526],[78.4838,17.3481],[78.4866,17.346]]]}},{"type":"Feature","properties":{"Name":"Gowlipura","Ward_No":35,"Zone":"Greater Hyderabad Municipal Corporation South Zone","Mandal":"Bahadurpura","City":"Hyderabad"},"geometry":{"type":"Polygon","coordinates":[[[78.4806,17.3373],[78.4821,17.3378],[78.4826,17.3391],[78.4808,17.3388],[78.4866,17.346],[78.4852,17.3476],[78.4788,17.3488],[78.4774,17.3505],[78.4725,17.3508],[78.4701,17.3457],[78.4753,17.3466],[78.4806,17.3373]]]}},{"type":"Feature","properties":{"Name":"Lalithabagh","Ward_No":36,"Zone":"Greater Hyderabad Municipal Corporation South Zone","Mandal":"Bahadurpura","City":"Hyderabad"},"geometry":{"type":"Polygon","coordinates":[[[78.4908,17.3391],[78.4898,17.3411],[78.4836,17.3423],[78.489,17.3489],[78.4906,17.3542],[78.4957,17.3504],[78.4941,17.3425],[78.4912,17.3418],[78.4908,17.3391]]]}},{"type":"Feature","properties":{"Name":"Kurmaguda","Ward_No":37,"Zone":"Greater Hyderabad Municipal Corporation South Zone","Mandal":"Bahadurpura","City":"Hyderabad"},"geometry":{"type":"Polygon","coordinates":[[[78.5055,17.3565],[78.5067,17.3523],[78.5024,17.3502],[78.502,17.3528],[78.499,17.3528],[78.499,17.355],[78.495,17.3551],[78.4931,17.3532],[78.4916,17.3553],[78.4963,17.3561],[78.4957,17.3581],[78.4976,17.3615],[78.504,17.3623],[78.5055,17.3565]]]}},{"type":"Feature","properties":{"Name":"Rein Bazar","Ward_No":31,"Zone":"Greater Hyderabad Municipal Corporation South Zone","Mandal":"Bahadurpura","City":"Hyderabad"},"geometry":{"type":"Polygon","coordinates":[[[78.4919,17.3538],[78.4916,17.3553],[78.4963,17.3561],[78.4957,17.3581],[78.4924,17.3611],[78.4925,17.3599],[78.4835,17.362],[78.4832,17.359],[78.4897,17.357],[78.4883,17.3546],[78.4919,17.3538]]]}},{"type":"Feature","properties":{"Name":"IS Sadan","Ward_No":38,"Zone":"Greater Hyderabad Municipal Corporation South Zone","Mandal":"Bahadurpura","City":"Hyderabad"},"geometry":{"type":"Polygon","coordinates":[[[78.5254,17.3452],[78.5252,17.3541],[78.5233,17.3542],[78.5243,17.3595],[78.5189,17.3577],[78.5055,17.3565],[78.5086,17.3485],[78.5097,17.3485],[78.51,17.3507],[78.5138,17.3492],[78.5144,17.351],[78.5171,17.3503],[78.5166,17.3465],[78.5189,17.3438],[78.5263,17.3439],[78.5254,17.3452]]]}},{"type":"Feature","properties":{"Name":"Santhosh Nagar","Ward_No":39,"Zone":"Greater Hyderabad Municipal Corporation South Zone","Mandal":"Bahadurpura","City":"Hyderabad"},"geometry":{"type":"Polygon","coordinates":[[[78.5047,17.3422],[78.5019,17.3442],[78.5017,17.3467],[78.497,17.3491],[78.4931,17.3532],[78.495,17.3551],[78.499,17.355],[78.499,17.3528],[78.502,17.3528],[78.5024,17.3502],[78.5067,17.3523],[78.5086,17.348],[78.5076,17.3441],[78.5047,17.3422]]]}},{"type":"Feature","properties":{"Name":"Riyasat Nagar","Ward_No":40,"Zone":"Greater Hyderabad Municipal Corporation South Zone","Mandal":"Bahadurpura","City":"Hyderabad"},"geometry":{"type":"Polygon","coordinates":[[[78.493,17.3341],[78.5009,17.3397],[78.5001,17.3437],[78.5019,17.3442],[78.5017,17.3467],[78.4957,17.3504],[78.4941,17.3425],[78.4912,17.3418],[78.4915,17.3351],[78.493,17.3341]]]}},{"type":"Feature","properties":{"Name":"Kanchanbagh","Ward_No":41,"Zone":"Greater Hyderabad Municipal Corporation South Zone","Mandal":"Bahadurpura","City":"Hyderabad"},"geometry":{"type":"Polygon","coordinates":[[[78.4915,17.3328],[78.4926,17.3287],[78.4914,17.323],[78.4888,17.323],[78.4872,17.3246],[78.4868,17.3211],[78.4852,17.3213],[78.4865,17.3199],[78.4843,17.3199],[78.4866,17.3176],[78.4831,17.3169],[78.4833,17.3125],[78.4898,17.3143],[78.4898,17.3173],[78.4966,17.3198],[78.4968,17.3169],[78.4949,17.3175],[78.4962,17.314],[78.5061,17.3138],[78.5052,17.3187],[78.5077,17.3188],[78.5091,17.3168],[78.5097,17.3222],[78.5082,17.3238],[78.5071,17.3349],[78.505,17.3364],[78.5047,17.3422],[78.5019,17.3442],[78.5001,17.3437],[78.5009,17.3397],[78.4915,17.3328]]]}},{"type":"Feature","properties":{"Name":"Barkas","Ward_No":42,"Zone":"Greater Hyderabad Municipal Corporation South Zone","Mandal":"Bahadurpura","City":"Hyderabad"},"geometry":{"type":"Polygon","coordinates":[[[78.4675,17.314],[78.4708,17.3142],[78.4682,17.3161],[78.467,17.3203],[78.4698,17.3198],[78.48,17.3226],[78.4828,17.3185],[78.4832,17.3132],[78.4787,17.3143],[78.477,17.3118],[78.4709,17.3085],[78.4675,17.314]]]}},{"type":"Feature","properties":{"Name":"Chandrayangutta","Ward_No":43,"Zone":"Greater Hyderabad Municipal Corporation South Zone","Mandal":"Bahadurpura","City":"Hyderabad"},"geometry":{"type":"Polygon","coordinates":[[[78.4798,17.3279],[78.4915,17.3328],[78.4921,17.3318],[78.4925,17.3274],[78.4911,17.3255],[78.4914,17.323],[78.4888,17.323],[78.4872,17.3246],[78.4868,17.3211],[78.4852,17.3213],[78.4865,17.3199],[78.4843,17.3199],[78.4866,17.3176],[78.4831,17.3169],[78.48,17.3226],[78.4779,17.3228],[78.4698,17.3198],[78.467,17.3203],[78.4682,17.3161],[78.4708,17.3142],[78.4675,17.314],[78.4659,17.3174],[78.4669,17.322],[78.4798,17.3279]]]}},{"type":"Feature","properties":{"Name":"Uppuguda","Ward_No":44,"Zone":"Greater Hyderabad Municipal Corporation South Zone","Mandal":"Bahadurpura","City":"Hyderabad"},"geometry":{"type":"Polygon","coordinates":[[[78.493,17.3341],[78.4798,17.3279],[78.4806,17.3373],[78.4826,17.3391],[78.4808,17.3388],[78.4836,17.3423],[78.4898,17.3411],[78.4915,17.3351],[78.493,17.3341]]]}},{"type":"Feature","properties":{"Name":"Jangammet","Ward_No":45,"Zone":"Greater Hyderabad Municipal Corporation South Zone","Mandal":"Bahadurpura","City":"Hyderabad"},"geometry":{"type":"Polygon","coordinates":[[[78.4798,17.3279],[78.4806,17.3373],[78.4759,17.3459],[78.4732,17.3423],[78.4746,17.3391],[78.4732,17.339],[78.4736,17.3367],[78.468,17.3367],[78.4709,17.3298],[78.4758,17.3265],[78.4798,17.3279]]]}},{"type":"Feature","properties":{"Name":"Falaknuma","Ward_No":46,"Zone":"Greater Hyderabad Municipal Corporation South Zone","Mandal":"Bahadurpura","City":"Hyderabad"},"geometry":{"type":"Polygon","coordinates":[[[78.4758,17.3265],[78.4674,17.3214],[78.4656,17.3241],[78.4615,17.3209],[78.4569,17.3198],[78.4576,17.3288],[78.4624,17.3313],[78.4641,17.3341],[78.4686,17.3342],[78.4709,17.3298],[78.4758,17.3265]]]}},{"type":"Feature","properties":{"Name":"Nawab Saheb Kunta","Ward_No":47,"Zone":"Greater Hyderabad Municipal Corporation South Zone","Mandal":"Bahadurpura","City":"Hyderabad"},"geometry":{"type":"Polygon","coordinates":[[[78.468,17.3367],[78.4686,17.3342],[78.4641,17.3341],[78.4624,17.3313],[78.4576,17.3288],[78.4547,17.3294],[78.4549,17.3329],[78.4575,17.3349],[78.4592,17.3401],[78.4647,17.3403],[78.4642,17.3388],[78.468,17.3367]]]}},{"type":"Feature","properties":{"Name":"Shalibanda","Ward_No":48,"Zone":"Greater Hyderabad Municipal Corporation South Zone","Mandal":"Bahadurpura","City":"Hyderabad"},"geometry":{"type":"Polygon","coordinates":[[[78.4647,17.3403],[78.4642,17.3388],[78.468,17.3367],[78.4736,17.3367],[78.4732,17.339],[78.4746,17.3391],[78.4732,17.3423],[78.4759,17.3459],[78.4701,17.3457],[78.473,17.3539],[78.4697,17.3539],[78.4675,17.3554],[78.4656,17.3541],[78.4659,17.3416],[78.4647,17.3403]]]}},{"type":"Feature","properties":{"Name":"Ghansi Bazar","Ward_No":49,"Zone":"Greater Hyderabad Municipal Corporation South Zone","Mandal":"Bahadurpura","City":"Hyderabad"},"geometry":{"type":"Polygon","coordinates":[[[78.4738,17.3578],[78.473,17.3539],[78.4697,17.3539],[78.4675,17.3554],[78.4687,17.3628],[78.46,17.3655],[78.4583,17.3675],[78.4764,17.3713],[78.4738,17.3578]]]}},{"type":"Feature","properties":{"Name":"Puranapool","Ward_No":52,"Zone":"Greater Hyderabad Municipal Corporation South Zone","Mandal":"Bahadurpura","City":"Hyderabad"},"geometry":{"type":"Polygon","coordinates":[[[78.4556,17.3637],[78.4583,17.3675],[78.46,17.3655],[78.4687,17.3628],[78.4675,17.3554],[78.4656,17.3541],[78.4647,17.3572],[78.4606,17.3613],[78.4556,17.3637]]]}},{"type":"Feature","properties":{"Name":"Doodh Bowli","Ward_No":53,"Zone":"Greater Hyderabad Municipal Corporation South Zone","Mandal":"Bahadurpura","City":"Hyderabad"},"geometry":{"type":"Polygon","coordinates":[[[78.4653,17.3517],[78.462,17.3521],[78.4603,17.3476],[78.4573,17.3469],[78.4567,17.3521],[78.4598,17.3558],[78.457,17.3548],[78.4545,17.3556],[78.4556,17.3637],[78.4587,17.3628],[78.4647,17.3572],[78.4653,17.3517]]]}},{"type":"Feature","properties":{"Name":"Jahanuma","Ward_No":54,"Zone":"Greater Hyderabad Municipal Corporation South Zone","Mandal":"Bahadurpura","City":"Hyderabad"},"geometry":{"type":"Polygon","coordinates":[[[78.4549,17.3329],[78.4537,17.3364],[78.4492,17.3367],[78.4505,17.3377],[78.4503,17.3413],[78.4526,17.3424],[78.4545,17.3416],[78.4588,17.3447],[78.462,17.3521],[78.4653,17.3517],[78.4656,17.341],[78.4592,17.3401],[78.4575,17.3349],[78.4549,17.3329]]]}},{"type":"Feature","properties":{"Name":"Ramnaspura","Ward_No":55,"Zone":"Greater Hyderabad Municipal Corporation South Zone","Mandal":"Bahadurpura","City":"Hyderabad"},"geometry":{"type":"Polygon","coordinates":[[[78.4546,17.3562],[78.457,17.3548],[78.4598,17.3558],[78.4567,17.3521],[78.4573,17.3469],[78.4592,17.3468],[78.4588,17.3447],[78.4545,17.3416],[78.4526,17.3424],[78.4503,17.3413],[78.4505,17.3377],[78.4483,17.336],[78.4487,17.3397],[78.4458,17.3459],[78.4417,17.3475],[78.4373,17.3522],[78.4388,17.356],[78.441,17.3554],[78.4408,17.3543],[78.4431,17.3544],[78.4438,17.3526],[78.4448,17.3551],[78.4461,17.3553],[78.4452,17.359],[78.4546,17.3562]]]}},{"type":"Feature","properties":{"Name":"Kishanbagh","Ward_No":56,"Zone":"Greater Hyderabad Municipal Corporation South Zone","Mandal":"Bahadurpura","City":"Hyderabad"},"geometry":{"type":"Polygon","coordinates":[[[78.4546,17.3562],[78.456,17.3622],[78.4491,17.3599],[78.4401,17.3699],[78.437,17.36],[78.44,17.3569],[78.4365,17.3562],[78.4365,17.3527],[78.4384,17.3537],[78.4388,17.356],[78.441,17.3554],[78.4408,17.3543],[78.4431,17.3544],[78.4438,17.3526],[78.4448,17.3551],[78.4461,17.3553],[78.4452,17.359],[78.4546,17.3562]]]}},{"type":"Feature","properties":{"Name":"Suleman Nagar","Ward_No":57,"Zone":"Greater Hyderabad Municipal Corporation South Zone","Mandal":"Bahadurpura","City":"Hyderabad"},"geometry":{"type":"Polygon","coordinates":[[[78.4363,17.3296],[78.4412,17.3346],[78.4433,17.335],[78.4433,17.3368],[78.4371,17.3406],[78.4397,17.3428],[78.4396,17.3446],[78.4367,17.3452],[78.436,17.344],[78.4321,17.3435],[78.4307,17.34],[78.4274,17.3414],[78.4294,17.3426],[78.4304,17.3454],[78.4317,17.3449],[78.4318,17.3464],[78.433,17.3466],[78.4308,17.3495],[78.4325,17.3536],[78.4286,17.3518],[78.4196,17.3515],[78.4167,17.3493],[78.4157,17.3454],[78.4173,17.3436],[78.4231,17.342],[78.4257,17.3378],[78.4274,17.3376],[78.4323,17.3327],[78.432,17.3317],[78.4363,17.3296]]]}},{"type":"Feature","properties":{"Name":"Shastripuram","Ward_No":58,"Zone":"Greater Hyderabad Municipal Corporation South Zone","Mandal":"Bahadurpura","City":"Hyderabad"},"geometry":{"type":"Polygon","coordinates":[[[78.4321,17.3215],[78.4331,17.3209],[78.4414,17.3247],[78.4542,17.3203],[78.4534,17.3164],[78.4564,17.3155],[78.4564,17.3133],[78.4556,17.3049],[78.4542,17.3041],[78.4565,17.3022],[78.4592,17.3041],[78.4595,17.3089],[78.4623,17.3085],[78.4615,17.3145],[78.4659,17.3158],[78.4669,17.322],[78.4656,17.3241],[78.4615,17.3209],[78.4569,17.3198],[78.4576,17.3288],[78.4547,17.3294],[78.4537,17.3364],[78.4464,17.3364],[78.4447,17.3398],[78.4425,17.3395],[78.4406,17.341],[78.4396,17.3446],[78.4397,17.3428],[78.4371,17.3406],[78.4415,17.3386],[78.4433,17.3368],[78.4433,17.335],[78.4412,17.3346],[78.4358,17.329],[78.4321,17.3215]]]}},{"type":"Feature","properties":{"Name":"Mailardevpally","Ward_No":59,"Zone":"Greater Hyderabad Municipal Corporation South Zone","Mandal":"Bahadurpura","City":"Hyderabad"},"geometry":{"type":"Polygon","coordinates":[[[78.4083,17.3014],[78.4296,17.2916],[78.4332,17.3024],[78.4399,17.3025],[78.4402,17.3013],[78.4484,17.3006],[78.4512,17.3022],[78.4514,17.3042],[78.4556,17.3049],[78.4564,17.3155],[78.4534,17.3164],[78.4542,17.3203],[78.4414,17.3247],[78.4331,17.3209],[78.4255,17.3266],[78.4196,17.327],[78.4171,17.3292],[78.4142,17.3296],[78.4142,17.3277],[78.4168,17.3243],[78.4141,17.3218],[78.4158,17.3197],[78.4142,17.3117],[78.4155,17.3098],[78.414,17.3082],[78.4105,17.3087],[78.4071,17.3129],[78.406,17.3098],[78.4083,17.3014]]]}},{"type":"Feature","properties":{"Name":"Rajendra Nagar","Ward_No":60,"Zone":"Greater Hyderabad Municipal Corporation South Zone","Mandal":"Bahadurpura","City":"Hyderabad"},"geometry":{"type":"Polygon","coordinates":[[[78.4083,17.3014],[78.3963,17.3003],[78.3965,17.3033],[78.3954,17.3042],[78.3759,17.313],[78.3752,17.328],[78.3814,17.3283],[78.389,17.3312],[78.3951,17.3311],[78.3966,17.3321],[78.4009,17.3495],[78.398,17.3506],[78.3984,17.354],[78.4007,17.3548],[78.4015,17.3573],[78.4071,17.3573],[78.4099,17.3594],[78.41,17.3608],[78.4075,17.363],[78.4074,17.366],[78.4102,17.3721],[78.4122,17.3715],[78.4123,17.3662],[78.4208,17.365],[78.4232,17.3596],[78.4247,17.3587],[78.4174,17.3516],[78.4157,17.3454],[78.4173,17.3436],[78.4231,17.342],[78.4257,17.3378],[78.4274,17.3376],[78.4323,17.3327],[78.432,17.3317],[78.4363,17.3296],[78.4321,17.3215],[78.4255,17.3266],[78.4196,17.327],[78.4171,17.3292],[78.4142,17.3296],[78.4142,17.3277],[78.4168,17.3243],[78.4141,17.3218],[78.4158,17.3197],[78.4142,17.3117],[78.4155,17.3098],[78.414,17.3082],[78.4105,17.3087],[78.4071,17.3129],[78.406,17.3098],[78.4083,17.3014]]]}},{"type":"Feature","properties":{"Name":"Attapur","Ward_No":61,"Zone":"Greater Hyderabad Municipal Corporation South Zone","Mandal":"Bahadurpura","City":"Hyderabad"},"geometry":{"type":"Polygon","coordinates":[[[78.4325,17.3536],[78.4286,17.3518],[78.4196,17.3515],[78.4167,17.3493],[78.4174,17.3516],[78.4247,17.3587],[78.4232,17.3596],[78.4208,17.365],[78.4123,17.3662],[78.4122,17.3715],[78.4257,17.3719],[78.4339,17.3748],[78.4367,17.3735],[78.4401,17.3699],[78.437,17.36],[78.44,17.3569],[78.4365,17.3562],[78.436,17.3522],[78.4325,17.3536]]]}},{"type":"Feature","properties":{"Name":"Kondapur","Ward_No":104,"Zone":"Greater Hyderabad Municipal Corporation West Zone","Mandal":"Kukatpally","City":"Hyderabad"},"geometry":{"type":"Polygon","coordinates":[[[78.3497,17.4823],[78.3606,17.4824],[78.3665,17.4678],[78.3659,17.459],[78.3759,17.4573],[78.3862,17.4455],[78.388,17.4416],[78.3939,17.4409],[78.3961,17.4395],[78.3954,17.4371],[78.3973,17.4371],[78.3993,17.4321],[78.3934,17.4297],[78.3952,17.4286],[78.3944,17.4267],[78.3983,17.4247],[78.399,17.4181],[78.3977,17.4176],[78.3991,17.4134],[78.3972,17.4112],[78.3817,17.4226],[78.3637,17.4385],[78.3627,17.4417],[78.3638,17.4555],[78.3474,17.4635],[78.3491,17.4681],[78.3497,17.4823]]]}},{"type":"Feature","properties":{"Name":"Gachibowli","Ward_No":105,"Zone":"Greater Hyderabad Municipal Corporation West Zone","Mandal":"Kukatpally","City":"Hyderabad"},"geometry":{"type":"Polygon","coordinates":[[[78.3904,17.4096],[78.3883,17.4097],[78.3882,17.4136],[78.3814,17.4178],[78.378,17.4174],[78.3764,17.4146],[78.3744,17.4157],[78.3719,17.4122],[78.3678,17.4137],[78.3657,17.4122],[78.3536,17.4164],[78.3518,17.4135],[78.3483,17.4125],[78.3437,17.4149],[78.3422,17.412],[78.3353,17.4156],[78.3276,17.4157],[78.3166,17.4187],[78.2942,17.4326],[78.2894,17.4273],[78.2829,17.4238],[78.273,17.4336],[78.2718,17.4416],[78.2833,17.4538],[78.2834,17.4557],[78.2871,17.4562],[78.2899,17.463],[78.2965,17.473],[78.295,17.4766],[78.3072,17.4807],[78.3196,17.4794],[78.3199,17.4777],[78.3237,17.4778],[78.3446,17.4515],[78.3545,17.4434],[78.3637,17.4385],[78.3817,17.4226],[78.3941,17.414],[78.3948,17.4103],[78.3904,17.4096]]]}},{"type":"Feature","properties":{"Name":"Serilingampally","Ward_No":106,"Zone":"Greater Hyderabad Municipal Corporation West Zone","Mandal":"Kukatpally","City":"Hyderabad"},"geometry":{"type":"Polygon","coordinates":[[[78.3277,17.4869],[78.3399,17.4886],[78.3462,17.4834],[78.3497,17.4823],[78.3491,17.4681],[78.3474,17.4635],[78.3638,17.4555],[78.3627,17.4417],[78.3637,17.4385],[78.3545,17.4434],[78.3437,17.4524],[78.3237,17.4778],[78.3199,17.4777],[78.3196,17.4794],[78.3108,17.4801],[78.3152,17.493],[78.316,17.4933],[78.3168,17.4909],[78.3199,17.4885],[78.3205,17.4847],[78.3277,17.4869]]]}},{"type":"Feature","properties":{"Name":"Madhapur","Ward_No":107,"Zone":"Greater Hyderabad Municipal Corporation West Zone","Mandal":"Kukatpally","City":"Hyderabad"},"geometry":{"type":"Polygon","coordinates":[[[78.3783,17.4769],[78.3764,17.4728],[78.3827,17.4693],[78.3931,17.4555],[78.3992,17.4536],[78.401,17.4508],[78.4053,17.4505],[78.4044,17.4484],[78.4055,17.4479],[78.4066,17.4421],[78.3992,17.4385],[78.3939,17.4409],[78.388,17.4416],[78.3862,17.4455],[78.3759,17.4573],[78.3659,17.459],[78.3665,17.4678],[78.3612,17.4794],[78.3604,17.484],[78.3638,17.4833],[78.3636,17.4859],[78.3598,17.4895],[78.36,17.4921],[78.3581,17.4959],[78.3727,17.4964],[78.3657,17.4829],[78.3722,17.4816],[78.3753,17.4791],[78.3771,17.4875],[78.3801,17.4917],[78.3824,17.4908],[78.3783,17.4769]]]}},{"type":"Feature","properties":{"Name":"Miyapur","Ward_No":108,"Zone":"Greater Hyderabad Municipal Corporation West Zone","Mandal":"Kukatpally","City":"Hyderabad"},"geometry":{"type":"Polygon","coordinates":[[[78.3581,17.4959],[78.3739,17.4971],[78.3753,17.507],[78.3733,17.5074],[78.3732,17.5129],[78.3709,17.5147],[78.3707,17.5191],[78.366,17.5189],[78.3625,17.5211],[78.3603,17.5195],[78.3513,17.5213],[78.3422,17.5209],[78.3416,17.518],[78.3461,17.5165],[78.3491,17.5132],[78.3422,17.5046],[78.3425,17.4991],[78.3485,17.4984],[78.3479,17.4942],[78.3581,17.4959]]]}},{"type":"Feature","properties":{"Name":"Hafeezpet","Ward_No":109,"Zone":"Greater Hyderabad Municipal Corporation West Zone","Mandal":"Kukatpally","City":"Hyderabad"},"geometry":{"type":"Polygon","coordinates":[[[78.3606,17.4824],[78.3604,17.484],[78.3638,17.4833],[78.3636,17.4859],[78.3598,17.4895],[78.36,17.4921],[78.3581,17.4959],[78.3493,17.4939],[78.3346,17.4952],[78.3262,17.495],[78.3246,17.4938],[78.3245,17.4914],[78.3276,17.491],[78.3277,17.4869],[78.3399,17.4886],[78.3474,17.4829],[78.3606,17.4824]]]}},{"type":"Feature","properties":{"Name":"Chandanagar","Ward_No":110,"Zone":"Greater Hyderabad Municipal Corporation West Zone","Mandal":"Kukatpally","City":"Hyderabad"},"geometry":{"type":"Polygon","coordinates":[[[78.3479,17.4942],[78.3262,17.495],[78.3246,17.4938],[78.3245,17.4914],[78.3276,17.491],[78.3277,17.4869],[78.3205,17.4847],[78.3199,17.4885],[78.3162,17.4919],[78.317,17.4969],[78.3142,17.5036],[78.3081,17.508],[78.3163,17.5084],[78.3166,17.5062],[78.3209,17.5059],[78.3226,17.5062],[78.3226,17.5084],[78.3242,17.5085],[78.3276,17.508],[78.3314,17.5054],[78.3346,17.5071],[78.3342,17.5122],[78.3371,17.516],[78.3339,17.5171],[78.3367,17.5173],[78.337,17.5182],[78.3461,17.5165],[78.3491,17.5132],[78.3422,17.5046],[78.3425,17.4991],[78.3485,17.4984],[78.3479,17.4942]]]}},{"type":"Feature","properties":{"Name":"Bharati Nagar","Ward_No":111,"Zone":"Greater Hyderabad Municipal Corporation West Zone","Mandal":"Kukatpally","City":"Hyderabad"},"geometry":{"type":"Polygon","coordinates":[[[78.3108,17.4801],[78.3128,17.4857],[78.2951,17.4841],[78.2953,17.4788],[78.2977,17.478],[78.3043,17.4803],[78.3108,17.4801]],[[78.3001,17.5081],[78.2989,17.5057],[78.3068,17.5023],[78.3068,17.5057],[78.3001,17.5081]],[[78.2828,17.5119],[78.2817,17.508],[78.285,17.5069],[78.2851,17.5027],[78.2909,17.5026],[78.2891,17.508],[78.2829,17.5093],[78.2828,17.5119]],[[78.2807,17.4845],[78.284,17.4839],[78.289,17.4795],[78.2808,17.4812],[78.2807,17.4845]]]}},{"type":"Feature","properties":{"Name":"Ramachandrapuram","Ward_No":112,"Zone":"Greater Hyderabad Municipal Corporation West Zone","Mandal":"Kukatpally","City":"Hyderabad"},"geometry":{"type":"Polygon","coordinates":[[[78.3081,17.508],[78.3064,17.5108],[78.3031,17.5103],[78.3003,17.5127],[78.2909,17.5143],[78.2873,17.5244],[78.2859,17.524],[78.2812,17.5172],[78.2814,17.5154],[78.2831,17.5141],[78.2829,17.5093],[78.2891,17.508],[78.288,17.5105],[78.2891,17.5113],[78.2914,17.5104],[78.2931,17.5072],[78.2952,17.509],[78.3038,17.5075],[78.3108,17.5034],[78.316,17.4933],[78.317,17.4969],[78.3142,17.5036],[78.3081,17.508]]]}},{"type":"Feature","properties":{"Name":"Patancheruvu","Ward_No":113,"Zone":"Greater Hyderabad Municipal Corporation West Zone","Mandal":"Kukatpally","City":"Hyderabad"},"geometry":{"type":"Polygon","coordinates":[[[78.2814,17.5154],[78.28,17.515],[78.2779,17.5183],[78.2716,17.5202],[78.2671,17.5233],[78.2629,17.5179],[78.261,17.5083],[78.2574,17.5074],[78.2518,17.5112],[78.2528,17.5127],[78.2526,17.5156],[78.2508,17.517],[78.2524,17.5184],[78.2512,17.5199],[78.2524,17.5214],[78.2519,17.5259],[78.2465,17.5261],[78.2457,17.5272],[78.2447,17.5257],[78.2436,17.5262],[78.2448,17.5295],[78.2423,17.5294],[78.2393,17.5348],[78.2387,17.541],[78.2466,17.539],[78.2491,17.5395],[78.252,17.5455],[78.2515,17.5481],[78.249,17.5493],[78.2493,17.5514],[78.2536,17.5495],[78.2573,17.5501],[78.2588,17.5521],[78.2622,17.5523],[78.2621,17.549],[78.2642,17.5476],[78.2685,17.5513],[78.2796,17.5541],[78.2811,17.5512],[78.2805,17.5479],[78.2802,17.5487],[78.2804,17.539],[78.2853,17.5364],[78.2854,17.5339],[78.2884,17.5303],[78.2869,17.5272],[78.2873,17.5244],[78.2859,17.524],[78.2812,17.5172],[78.2814,17.5154]]]}},{"type":"Feature","properties":{"Name":"KPHB Colony","Ward_No":114,"Zone":"Greater Hyderabad Municipal Corporation West Zone","Mandal":"Kukatpally","City":"Hyderabad"},"geometry":{"type":"Polygon","coordinates":[[[78.3854,17.4703],[78.384,17.4731],[78.3783,17.4769],[78.3826,17.4896],[78.3815,17.4914],[78.3801,17.4917],[78.3771,17.4875],[78.3753,17.4791],[78.3722,17.4816],[78.3657,17.4829],[78.3727,17.4964],[78.3825,17.4994],[78.3901,17.4985],[78.3973,17.4958],[78.3946,17.4929],[78.3933,17.4888],[78.3951,17.487],[78.3934,17.4828],[78.3956,17.477],[78.3915,17.4697],[78.3871,17.4713],[78.3854,17.4703]]]}},{"type":"Feature","properties":{"Name":"Balaji Nagar","Ward_No":115,"Zone":"Greater Hyderabad Municipal Corporation West Zone","Mandal":"Kukatpally","City":"Hyderabad"},"geometry":{"type":"Polygon","coordinates":[[[78.3973,17.4958],[78.3946,17.4929],[78.3933,17.4888],[78.3951,17.487],[78.3934,17.4828],[78.3956,17.477],[78.3915,17.4697],[78.3871,17.4713],[78.3854,17.4703],[78.3866,17.4661],[78.3899,17.464],[78.396,17.4641],[78.4035,17.4601],[78.4052,17.4632],[78.4143,17.4627],[78.4173,17.4594],[78.4166,17.4654],[78.4182,17.4685],[78.4276,17.4697],[78.4236,17.4757],[78.4126,17.4838],[78.4067,17.4916],[78.3973,17.4958]]]}},{"type":"Feature","properties":{"Name":"Allapur","Ward_No":116,"Zone":"Greater Hyderabad Municipal Corporation West Zone","Mandal":"Kukatpally","City":"Hyderabad"},"geometry":{"type":"Polygon","coordinates":[[[78.4053,17.4505],[78.401,17.4508],[78.3992,17.4536],[78.3931,17.4555],[78.3827,17.4693],[78.3764,17.4728],[78.3783,17.4769],[78.384,17.4731],[78.3866,17.4661],[78.3899,17.464],[78.396,17.4641],[78.4035,17.4601],[78.4052,17.4632],[78.4143,17.4627],[78.4157,17.4613],[78.4165,17.4593],[78.4152,17.4585],[78.415,17.4549],[78.4163,17.4564],[78.4198,17.454],[78.4106,17.4554],[78.4053,17.4505]]]}},{"type":"Feature","properties":{"Name":"Moosapet","Ward_No":117,"Zone":"Greater Hyderabad Municipal Corporation West Zone","Mandal":"Kukatpally","City":"Hyderabad"},"geometry":{"type":"Polygon","coordinates":[[[78.4198,17.454],[78.4241,17.4545],[78.4247,17.4506],[78.4266,17.4503],[78.4268,17.4529],[78.4254,17.453],[78.4254,17.4548],[78.4266,17.4547],[78.4279,17.457],[78.4287,17.4613],[78.4316,17.4615],[78.427,17.4638],[78.4273,17.465],[78.4257,17.4659],[78.4276,17.4697],[78.4182,17.4685],[78.4166,17.4654],[78.4173,17.4594],[78.4152,17.4585],[78.415,17.4549],[78.4163,17.4564],[78.4198,17.454]]]}},{"type":"Feature","properties":{"Name":"Fateh Nagar","Ward_No":118,"Zone":"Greater Hyderabad Municipal Corporation West Zone","Mandal":"Kukatpally","City":"Hyderabad"},"geometry":{"type":"Polygon","coordinates":[[[78.4516,17.4475],[78.454,17.4505],[78.4547,17.4595],[78.4596,17.4578],[78.4627,17.4623],[78.4528,17.4637],[78.4236,17.4757],[78.4276,17.4697],[78.4257,17.4659],[78.4273,17.465],[78.427,17.4638],[78.4313,17.4622],[78.4468,17.4611],[78.4491,17.4597],[78.4516,17.4475]]]}},{"type":"Feature","properties":{"Name":"Old Bowenpally","Ward_No":119,"Zone":"Greater Hyderabad Municipal Corporation West Zone","Mandal":"Kukatpally","City":"Hyderabad"},"geometry":{"type":"Polygon","coordinates":[[[78.4868,17.4878],[78.4857,17.4863],[78.4847,17.4869],[78.4848,17.4838],[78.488,17.48],[78.4936,17.4799],[78.4954,17.4836],[78.4958,17.4818],[78.497,17.4821],[78.494,17.4696],[78.482,17.4718],[78.4757,17.4763],[78.4754,17.483],[78.4765,17.4861],[78.4795,17.4855],[78.4798,17.4894],[78.4843,17.4902],[78.4868,17.4878]]]}},{"type":"Feature","properties":{"Name":"Balanagar","Ward_No":120,"Zone":"Greater Hyderabad Municipal Corporation West Zone","Mandal":"Kukatpally","City":"Hyderabad"},"geometry":{"type":"Polygon","coordinates":[[[78.4627,17.4623],[78.4528,17.4637],[78.4282,17.4732],[78.4293,17.4806],[78.4281,17.4811],[78.4253,17.4882],[78.4267,17.4909],[78.4285,17.4909],[78.4282,17.4897],[78.436,17.4831],[78.4445,17.4807],[78.4459,17.483],[78.4558,17.4821],[78.4604,17.4858],[78.4644,17.4861],[78.465,17.4817],[78.463,17.4801],[78.4627,17.4623]]]}},{"type":"Feature","properties":{"Name":"Kukatpally","Ward_No":121,"Zone":"Greater Hyderabad Municipal Corporation West Zone","Mandal":"Kukatpally","City":"Hyderabad"},"geometry":{"type":"Polygon","coordinates":[[[78.4236,17.4757],[78.4125,17.484],[78.4148,17.4949],[78.4169,17.4964],[78.4204,17.4963],[78.4204,17.4978],[78.424,17.4994],[78.4291,17.4993],[78.433,17.4978],[78.4315,17.4943],[78.4267,17.4937],[78.4253,17.4882],[78.4281,17.4811],[78.4293,17.4806],[78.4282,17.4732],[78.4236,17.4757]]]}},{"type":"Feature","properties":{"Name":"Vivekananda Nagar Colony","Ward_No":122,"Zone":"Greater Hyderabad Municipal Corporation West Zone","Mandal":"Kukatpally","City":"Hyderabad"},"geometry":{"type":"Polygon","coordinates":[[[78.4045,17.4958],[78.4204,17.5028],[78.4272,17.5005],[78.4269,17.4988],[78.424,17.4994],[78.4204,17.4978],[78.4204,17.4963],[78.4169,17.4964],[78.4148,17.4949],[78.4125,17.484],[78.4067,17.4916],[78.404,17.4927],[78.4045,17.4958]]]}},{"type":"Feature","properties":{"Name":"Hydernagar","Ward_No":123,"Zone":"Greater Hyderabad Municipal Corporation West Zone","Mandal":"Kukatpally","City":"Hyderabad"},"geometry":{"type":"Polygon","coordinates":[[[78.4002,17.507],[78.3929,17.5086],[78.3894,17.5117],[78.3881,17.5117],[78.3856,17.5075],[78.3792,17.5095],[78.3791,17.5075],[78.3753,17.507],[78.3739,17.4971],[78.3727,17.4964],[78.3842,17.4992],[78.3915,17.4981],[78.404,17.4927],[78.4049,17.4946],[78.402,17.4978],[78.4002,17.507]]]}},{"type":"Feature","properties":{"Name":"Alwyn Colony","Ward_No":124,"Zone":"Greater Hyderabad Municipal Corporation West Zone","Mandal":"Kukatpally","City":"Hyderabad"},"geometry":{"type":"Polygon","coordinates":[[[78.4083,17.514],[78.4137,17.5136],[78.4127,17.5094],[78.4167,17.5082],[78.4173,17.5043],[78.4204,17.5028],[78.4045,17.4958],[78.402,17.4978],[78.4002,17.507],[78.4033,17.5134],[78.4083,17.514]]]}}]}