{"type":"FeatureCollection","features":[{"type":"Feature","properties":{"Name":"A Ward","Zone":"Zone 1","Part":"Mumbai Suburban","City":"MUMBAI"},"geometry":{"type":"Polygon","coordinates":[[[72.8468,18.948],[72.8429,18.9356],[72.8442,18.929],[72.843,18.9289],[72.8423,18.9331],[72.8413,18.9334],[72.84,18.9328],[72.8403,18.9309],[72.8362,18.9281],[72.8384,18.9268],[72.8404,18.9277],[72.8379,18.9265],[72.8404,18.9212],[72.8447,18.9261],[72.8446,18.9253],[72.8395,18.9203],[72.8343,18.9231],[72.8349,18.922],[72.8337,18.9218],[72.8328,18.9181],[72.8298,18.916],[72.8313,18.915],[72.8269,18.9112],[72.825,18.9073],[72.8223,18.9103],[72.8196,18.9072],[72.8179,18.9071],[72.8174,18.9023],[72.8188,18.9023],[72.8175,18.9023],[72.8132,18.8952],[72.8091,18.8941],[72.8045,18.8993],[72.804,18.9081],[72.8071,18.9135],[72.8219,18.9303],[72.8239,18.9358],[72.8235,18.9415],[72.8288,18.9433],[72.835,18.9485],[72.8468,18.948]]]}},{"type":"Feature","properties":{"Name":"B Ward","Zone":"Zone 1","Part":"Mumbai Suburban","City":"MUMBAI"},"geometry":{"type":"Polygon","coordinates":[[[72.8337,18.9475],[72.8378,18.9491],[72.8468,18.948],[72.8463,18.952],[72.848,18.9578],[72.8494,18.9573],[72.8495,18.9559],[72.8511,18.9588],[72.8496,18.9574],[72.848,18.958],[72.8494,18.9634],[72.8388,18.9651],[72.8374,18.9626],[72.832,18.9619],[72.8318,18.9539],[72.8337,18.9475]]]}},{"type":"Feature","properties":{"Name":"C Ward","Zone":"Zone 1","Part":"Mumbai Suburban","City":"MUMBAI"},"geometry":{"type":"Polygon","coordinates":[[[72.8189,18.9495],[72.8235,18.9415],[72.8288,18.9433],[72.8337,18.9475],[72.8318,18.9539],[72.832,18.9619],[72.8262,18.9617],[72.8254,18.9531],[72.8189,18.9495]]]}},{"type":"Feature","properties":{"Name":"D Ward","Zone":"Zone 1","Part":"Mumbai Suburban","City":"MUMBAI"},"geometry":{"type":"Polygon","coordinates":[[[72.8232,18.9804],[72.8186,18.969],[72.8252,18.9679],[72.8245,18.9618],[72.8262,18.9617],[72.8254,18.9531],[72.8189,18.9495],[72.8139,18.9535],[72.8081,18.955],[72.8023,18.9489],[72.7981,18.9475],[72.7956,18.9438],[72.7948,18.9397],[72.7927,18.9396],[72.7935,18.9435],[72.7916,18.9489],[72.7994,18.9625],[72.8018,18.9725],[72.8058,18.9793],[72.8117,18.978],[72.8232,18.9804]]]}},{"type":"Feature","properties":{"Name":"E Ward","Zone":"Zone 1","Part":"Mumbai Suburban","City":"MUMBAI"},"geometry":{"type":"Polygon","coordinates":[[[72.85,18.98],[72.8426,18.9832],[72.8414,18.9881],[72.8332,18.9881],[72.8271,18.9814],[72.8232,18.9804],[72.8186,18.969],[72.8252,18.9679],[72.8245,18.9618],[72.8373,18.9626],[72.8388,18.9651],[72.8494,18.9634],[72.8498,18.9663],[72.8523,18.9678],[72.8507,18.9694],[72.853,18.9697],[72.8508,18.97],[72.8497,18.973],[72.8537,18.972],[72.8542,18.9738],[72.8494,18.9753],[72.8554,18.9746],[72.8559,18.9754],[72.8495,18.9765],[72.8498,18.9778],[72.8553,18.9767],[72.8557,18.9778],[72.85,18.979],[72.85,18.98]]]}},{"type":"Feature","properties":{"Name":"Dharavi","Zone":"Zone 2","Part":"Mumbai Suburban","City":"MUMBAI"},"geometry":{"type":"Polygon","coordinates":[]}},{"type":"Feature","properties":{"Name":"F/N Ward","Zone":"Zone 2","Part":"Mumbai Suburban","City":"MUMBAI"},"geometry":{"type":"Polygon","coordinates":[[[72.8854,19.0079],[72.8839,19.0158],[72.8799,19.0194],[72.8773,19.0239],[72.8813,19.0369],[72.88,19.0469],[72.8675,19.0526],[72.8428,19.017],[72.8475,19.0132],[72.8563,19.0105],[72.8638,19.0152],[72.8698,19.0077],[72.8794,19.0117],[72.8854,19.0079]]]}},{"type":"Feature","properties":{"Name":"F/S Ward","Zone":"Zone 2","Part":"Mumbai Suburban","City":"MUMBAI"},"geometry":{"type":"Polygon","coordinates":[[[72.8428,19.017],[72.8475,19.0132],[72.8563,19.0105],[72.8638,19.0152],[72.8694,19.0087],[72.8698,19.0077],[72.8614,19.003],[72.8623,19.0019],[72.861,19.0022],[72.8599,18.9984],[72.862,18.9955],[72.861,18.9958],[72.8616,18.9943],[72.8569,18.9918],[72.8612,18.9816],[72.8577,18.9784],[72.8426,18.9832],[72.8414,18.9881],[72.8332,18.9881],[72.8342,19.0029],[72.8428,19.017]]]}},{"type":"Feature","properties":{"Name":"G/N Ward","Zone":"Zone 2","Part":"Mumbai Suburban","City":"MUMBAI"},"geometry":{"type":"Polygon","coordinates":[[[72.8636,19.0523],[72.8674,19.0524],[72.8366,19.0077],[72.8331,19.0094],[72.8269,19.0194],[72.8334,19.025],[72.8373,19.0328],[72.838,19.0373],[72.8365,19.0479],[72.8422,19.051],[72.8636,19.0523]]]}},{"type":"Feature","properties":{"Name":"G/S Ward","Zone":"Zone 2","Part":"Mumbai Suburban","City":"MUMBAI"},"geometry":{"type":"Polygon","coordinates":[[[72.8232,18.9804],[72.8271,18.9814],[72.8332,18.9881],[72.8333,18.9999],[72.8363,19.0074],[72.8331,19.0094],[72.8269,19.0194],[72.8227,19.0176],[72.8196,19.0187],[72.8192,19.0231],[72.8148,19.027],[72.8167,19.0127],[72.8114,19.0015],[72.8111,18.9899],[72.8058,18.9793],[72.8117,18.978],[72.8232,18.9804]]]}},{"type":"Feature","properties":{"Name":"CPWD Colony","Zone":"Zone 3","Part":"Mumbai Suburban","City":"MUMBAI"},"geometry":{"type":"Polygon","coordinates":[]}},{"type":"Feature","properties":{"Name":"Garib Nagar","Zone":"Zone 3","Part":"Mumbai Suburban","City":"MUMBAI"},"geometry":{"type":"Polygon","coordinates":[]}},{"type":"Feature","properties":{"Name":"H/E Ward","Zone":"Zone 3","Part":"Mumbai Suburban","City":"MUMBAI"},"geometry":{"type":"Polygon","coordinates":[[[72.8428,19.0904],[72.8409,19.0715],[72.8414,19.0564],[72.8432,19.051],[72.8636,19.0523],[72.8695,19.0574],[72.8729,19.0638],[72.8734,19.0713],[72.8711,19.0757],[72.8759,19.0789],[72.8649,19.0836],[72.8622,19.0817],[72.8598,19.0839],[72.8585,19.082],[72.8598,19.0874],[72.8577,19.0887],[72.8603,19.093],[72.8579,19.0944],[72.8494,19.0888],[72.8428,19.0904]]]}},{"type":"Feature","properties":{"Name":"H/W Ward","Zone":"Zone 3","Part":"Mumbai Suburban","City":"MUMBAI"},"geometry":{"type":"Polygon","coordinates":[[[72.8432,19.051],[72.8413,19.0574],[72.8409,19.0743],[72.8428,19.0904],[72.8416,19.0906],[72.8383,19.0897],[72.8381,19.0867],[72.8325,19.0864],[72.8322,19.0848],[72.8304,19.0854],[72.8259,19.0799],[72.8227,19.082],[72.8234,19.0793],[72.8215,19.0773],[72.8213,19.0738],[72.8227,19.0646],[72.8205,19.059],[72.8237,19.0559],[72.8172,19.043],[72.8192,19.0409],[72.8218,19.0417],[72.8225,19.0403],[72.8232,19.042],[72.8293,19.0449],[72.8338,19.0494],[72.8374,19.0493],[72.838,19.0482],[72.8432,19.051]]]}},{"type":"Feature","properties":{"Name":"K/E Ward","Zone":"Zone 3","Part":"Mumbai Suburban","City":"MUMBAI"},"geometry":{"type":"Polygon","coordinates":[[[72.8849,19.1287],[72.8886,19.1219],[72.8858,19.1186],[72.8873,19.1141],[72.8853,19.1116],[72.8871,19.1092],[72.8836,19.1038],[72.8804,19.1024],[72.8791,19.0998],[72.881,19.0967],[72.8783,19.0933],[72.8792,19.086],[72.8763,19.0862],[72.876,19.0847],[72.8701,19.0817],[72.8649,19.0836],[72.8617,19.0818],[72.8599,19.0839],[72.8585,19.082],[72.8598,19.0874],[72.8577,19.0887],[72.8603,19.093],[72.8593,19.0937],[72.8579,19.0944],[72.8494,19.0888],[72.8428,19.0904],[72.85,19.1436],[72.857,19.1416],[72.8625,19.142],[72.8754,19.1385],[72.8747,19.1376],[72.8783,19.1396],[72.8788,19.138],[72.8856,19.1376],[72.8907,19.1357],[72.8887,19.1312],[72.8849,19.1287]],[[72.8717,19.1379],[72.872,19.1377],[72.8721,19.1378],[72.8722,19.1377],[72.8719,19.1376],[72.8717,19.1378],[72.8717,19.1379]]]}},{"type":"Feature","properties":{"Name":"K/W","Zone":"Zone 3","Part":"Mumbai Suburban","City":"MUMBAI"},"geometry":{"type":"Polygon","coordinates":[]}},{"type":"Feature","properties":{"Name":"K/W Ward","Zone":"Zone 3","Part":"Mumbai Suburban","City":"MUMBAI"},"geometry":{"type":"Polygon","coordinates":[[[72.811,19.156],[72.806,19.1499],[72.8013,19.1386],[72.7982,19.1397],[72.7981,19.1428],[72.7961,19.142],[72.7914,19.1449],[72.7886,19.1447],[72.7872,19.1301],[72.7952,19.1316],[72.7949,19.1329],[72.8052,19.1388],[72.8131,19.1299],[72.8191,19.1199],[72.8229,19.1099],[72.8263,19.0964],[72.8265,19.0903],[72.8231,19.0824],[72.8259,19.0799],[72.8304,19.0854],[72.8322,19.0848],[72.8325,19.0864],[72.8381,19.0867],[72.8383,19.0897],[72.8428,19.0904],[72.85,19.1436],[72.8484,19.1438],[72.848,19.1458],[72.8459,19.1466],[72.8433,19.1502],[72.8329,19.1513],[72.828,19.154],[72.822,19.1505],[72.8198,19.156],[72.8182,19.1565],[72.8137,19.1533],[72.811,19.156]],[[72.7822,19.1325],[72.7804,19.1337],[72.7815,19.1353],[72.7836,19.1336],[72.7822,19.1325]]]}},{"type":"Feature","properties":{"Name":"P/N Ward","Zone":"Zone 4","Part":"Mumbai Suburban","City":"MUMBAI"},"geometry":{"type":"Polygon","coordinates":[[[72.7886,19.1447],[72.7881,19.1512],[72.7845,19.1544],[72.7838,19.1574],[72.7817,19.158],[72.7837,19.1607],[72.7811,19.1652],[72.7819,19.1671],[72.7861,19.1665],[72.7886,19.1698],[72.7932,19.1719],[72.7961,19.18],[72.7954,19.1907],[72.7966,19.1949],[72.7964,19.1962],[72.793,19.1956],[72.7897,19.1931],[72.7876,19.194],[72.7839,19.1932],[72.7817,19.1945],[72.7827,19.1999],[72.785,19.2008],[72.7858,19.2029],[72.7838,19.2062],[72.7801,19.2064],[72.7815,19.2139],[72.7801,19.2197],[72.7814,19.2202],[72.781,19.2228],[72.7829,19.2247],[72.7948,19.2256],[72.8041,19.2227],[72.8072,19.2193],[72.8044,19.2168],[72.8034,19.2135],[72.8079,19.2119],[72.8094,19.2086],[72.8111,19.2083],[72.8109,19.2065],[72.8143,19.2048],[72.8228,19.205],[72.8274,19.2016],[72.8307,19.1963],[72.8319,19.1992],[72.8359,19.201],[72.8426,19.1994],[72.8452,19.1954],[72.8475,19.1949],[72.8506,19.1948],[72.8512,19.1989],[72.8537,19.1989],[72.8537,19.1939],[72.8603,19.1947],[72.8598,19.1934],[72.8615,19.1916],[72.864,19.191],[72.8648,19.1934],[72.868,19.1939],[72.8871,19.1925],[72.8957,19.1905],[72.9002,19.1851],[72.8993,19.1761],[72.8923,19.1639],[72.8896,19.1626],[72.8769,19.167],[72.8746,19.1705],[72.874,19.176],[72.8595,19.1744],[72.8567,19.1775],[72.8514,19.1763],[72.8448,19.1789],[72.8368,19.1798],[72.8296,19.1785],[72.825,19.1696],[72.806,19.1499],[72.8013,19.1386],[72.7982,19.1397],[72.7981,19.1428],[72.7961,19.142],[72.7914,19.1449],[72.7886,19.1447]]]}},{"type":"Feature","properties":{"Name":"P/S Ward","Zone":"Zone 4","Part":"Mumbai Suburban","City":"MUMBAI"},"geometry":{"type":"Polygon","coordinates":[[[72.8923,19.1639],[72.8887,19.1626],[72.8774,19.1666],[72.8746,19.1705],[72.874,19.176],[72.8595,19.1744],[72.8568,19.1775],[72.8514,19.1763],[72.8448,19.1789],[72.8363,19.1798],[72.8296,19.1785],[72.825,19.1696],[72.811,19.156],[72.8137,19.1533],[72.8182,19.1565],[72.8198,19.156],[72.822,19.1505],[72.828,19.154],[72.8329,19.1513],[72.8433,19.1502],[72.8459,19.1466],[72.848,19.1458],[72.8484,19.1438],[72.8527,19.1425],[72.8625,19.142],[72.8754,19.1385],[72.8747,19.1376],[72.8783,19.1396],[72.8788,19.138],[72.8856,19.1376],[72.8907,19.1356],[72.8938,19.138],[72.8945,19.1395],[72.8933,19.1421],[72.8953,19.1452],[72.893,19.1507],[72.8935,19.1537],[72.8894,19.1568],[72.8923,19.1639]]]}},{"type":"Feature","properties":{"Name":"R/C Ward","Zone":"Zone 4","Part":"Mumbai Suburban","City":"MUMBAI"},"geometry":{"type":"Polygon","coordinates":[[[72.9024,19.2014],[72.909,19.2025],[72.9102,19.2076],[72.9075,19.2105],[72.911,19.226],[72.9088,19.2328],[72.901,19.2415],[72.8987,19.2479],[72.8936,19.2494],[72.8777,19.239],[72.8644,19.2385],[72.8642,19.2372],[72.8598,19.2394],[72.858,19.2371],[72.8496,19.2381],[72.835,19.2495],[72.8292,19.2472],[72.8272,19.245],[72.8174,19.2469],[72.8035,19.2582],[72.8008,19.2588],[72.7997,19.2623],[72.7899,19.2614],[72.7837,19.2649],[72.7842,19.2621],[72.7817,19.2597],[72.7829,19.2492],[72.7812,19.2405],[72.7791,19.237],[72.7806,19.231],[72.7763,19.2249],[72.7768,19.2222],[72.78,19.2179],[72.781,19.2185],[72.7802,19.2199],[72.7814,19.2202],[72.781,19.2228],[72.7829,19.2246],[72.7948,19.2256],[72.8066,19.2211],[72.8072,19.2193],[72.806,19.2172],[72.8046,19.217],[72.8036,19.2141],[72.8358,19.2154],[72.8463,19.2122],[72.8512,19.2139],[72.8574,19.2129],[72.8692,19.2146],[72.8782,19.2141],[72.8821,19.2173],[72.8863,19.2159],[72.8869,19.2116],[72.8953,19.2084],[72.8995,19.2049],[72.901,19.2011],[72.9024,19.2014]]]}},{"type":"Feature","properties":{"Name":"R/N Ward","Zone":"Zone 4","Part":"Mumbai Suburban","City":"MUMBAI"},"geometry":{"type":"Polygon","coordinates":[[[72.8936,19.2494],[72.8887,19.2499],[72.8787,19.2568],[72.8761,19.2604],[72.8698,19.2606],[72.8694,19.2621],[72.8689,19.2611],[72.8659,19.2647],[72.8662,19.2666],[72.8646,19.266],[72.8626,19.2678],[72.8612,19.2667],[72.8569,19.2686],[72.8568,19.2697],[72.854,19.2702],[72.8508,19.2699],[72.8471,19.2673],[72.8415,19.2674],[72.8387,19.266],[72.8358,19.2586],[72.8362,19.2551],[72.8386,19.252],[72.835,19.2495],[72.8489,19.2384],[72.858,19.2371],[72.8594,19.2394],[72.8642,19.2372],[72.8644,19.2385],[72.8777,19.239],[72.8936,19.2494]]]}},{"type":"Feature","properties":{"Name":"R/S Ward","Zone":"Zone 4","Part":"Mumbai Suburban","City":"MUMBAI"},"geometry":{"type":"Polygon","coordinates":[[[72.9024,19.2014],[72.9002,19.1851],[72.8957,19.1905],[72.8871,19.1925],[72.868,19.1939],[72.8648,19.1934],[72.864,19.191],[72.8615,19.1916],[72.8598,19.1934],[72.8603,19.1947],[72.8537,19.1939],[72.8537,19.1989],[72.8512,19.1989],[72.8506,19.1948],[72.8475,19.1949],[72.8452,19.1954],[72.8426,19.1994],[72.8359,19.201],[72.8319,19.1992],[72.8307,19.1963],[72.8274,19.2016],[72.8228,19.205],[72.8143,19.2048],[72.8109,19.2065],[72.8111,19.2083],[72.8094,19.2086],[72.8079,19.2119],[72.8034,19.2135],[72.821,19.2156],[72.8358,19.2154],[72.8463,19.2122],[72.8512,19.2139],[72.8574,19.2129],[72.8692,19.2146],[72.8782,19.2141],[72.8821,19.2173],[72.8863,19.2159],[72.8869,19.2116],[72.8953,19.2084],[72.8995,19.2049],[72.901,19.2011],[72.9024,19.2014]]]}},{"type":"Feature","properties":{"Name":"L Ward","Zone":"Zone 5","Part":"Mumbai Suburban","City":"MUMBAI"},"geometry":{"type":"Polygon","coordinates":[[[72.8782,19.0478],[72.8927,19.0682],[72.8911,19.0684],[72.8939,19.081],[72.8927,19.0851],[72.8944,19.0857],[72.8943,19.091],[72.895,19.0923],[72.8967,19.0916],[72.8996,19.0938],[72.8988,19.096],[72.8997,19.099],[72.908,19.1081],[72.9067,19.111],[72.9045,19.112],[72.9033,19.1175],[72.8961,19.121],[72.8957,19.1245],[72.8919,19.1255],[72.8864,19.1292],[72.8847,19.1283],[72.8865,19.1271],[72.8886,19.1219],[72.8858,19.1186],[72.8873,19.1141],[72.8853,19.1116],[72.887,19.1091],[72.8836,19.1038],[72.8804,19.1024],[72.8791,19.0998],[72.881,19.0967],[72.8783,19.0933],[72.8792,19.086],[72.8763,19.0862],[72.876,19.0847],[72.8701,19.0817],[72.8759,19.0789],[72.8711,19.0757],[72.8734,19.0713],[72.873,19.0642],[72.8695,19.0574],[72.8636,19.0523],[72.8675,19.0526],[72.8782,19.0478]]]}},{"type":"Feature","properties":{"Name":"M/E Ward","Zone":"Zone 5","Part":"Mumbai Suburban","City":"MUMBAI"},"geometry":{"type":"Polygon","coordinates":[[[72.9044,18.994],[72.9054,19.0068],[72.8985,19.0093],[72.8977,19.0275],[72.8939,19.0409],[72.8987,19.0447],[72.8988,19.0461],[72.9093,19.0458],[72.9124,19.0572],[72.9076,19.0603],[72.9116,19.065],[72.9192,19.0679],[72.9215,19.0746],[72.9257,19.076],[72.9291,19.0755],[72.9349,19.0712],[72.9413,19.0614],[72.9427,19.0565],[72.9493,19.0588],[72.9537,19.0634],[72.9577,19.063],[72.9605,19.0585],[72.9598,19.0481],[72.9583,19.0442],[72.9535,19.0383],[72.9549,19.0375],[72.9529,19.0357],[72.9515,19.0309],[72.9385,19.0248],[72.9372,19.0265],[72.9335,19.0253],[72.918,19.0029],[72.913,18.9974],[72.9044,18.994]]]}},{"type":"Feature","properties":{"Name":"M/W Ward","Zone":"Zone 5","Part":"Mumbai Suburban","City":"MUMBAI"},"geometry":{"type":"Polygon","coordinates":[[[72.9044,18.994],[72.8958,18.9952],[72.8913,18.9943],[72.8874,18.9917],[72.884,19.0154],[72.8784,19.0213],[72.8773,19.0246],[72.8814,19.0375],[72.88,19.0469],[72.8782,19.0478],[72.8952,19.0715],[72.9029,19.0736],[72.9093,19.0704],[72.9118,19.0649],[72.9076,19.0603],[72.9124,19.0572],[72.9096,19.0467],[72.9091,19.0457],[72.8988,19.0461],[72.8987,19.0447],[72.8939,19.0409],[72.8977,19.0275],[72.8985,19.0093],[72.9054,19.0068],[72.9044,18.994]]]}},{"type":"Feature","properties":{"Name":"N Ward","Zone":"Zone 6","Part":"Mumbai Suburban","City":"MUMBAI"},"geometry":{"type":"Polygon","coordinates":[[[72.9117,19.0651],[72.9093,19.0704],[72.9029,19.0736],[72.8953,19.0716],[72.8927,19.0682],[72.8911,19.0684],[72.8939,19.081],[72.8927,19.0851],[72.8944,19.0857],[72.895,19.0923],[72.8967,19.0916],[72.8992,19.0933],[72.8997,19.099],[72.9046,19.1033],[72.9068,19.1072],[72.9133,19.1107],[72.9152,19.1152],[72.9183,19.117],[72.9185,19.1108],[72.9155,19.1074],[72.9159,19.105],[72.9199,19.1024],[72.9255,19.1108],[72.9332,19.1088],[72.9363,19.1131],[72.9429,19.1148],[72.9477,19.1037],[72.9491,19.084],[72.9545,19.0726],[72.9563,19.0635],[72.9537,19.0634],[72.9493,19.0588],[72.9427,19.0565],[72.9413,19.0614],[72.9358,19.0701],[72.9306,19.0746],[72.9271,19.076],[72.9222,19.0751],[72.9192,19.0679],[72.9117,19.0651]]]}},{"type":"Feature","properties":{"Name":"S Ward","Zone":"Zone 6","Part":"Mumbai Suburban","City":"MUMBAI"},"geometry":{"type":"Polygon","coordinates":[[[72.8849,19.1287],[72.8864,19.1292],[72.8919,19.1255],[72.8957,19.1245],[72.8961,19.121],[72.9033,19.1175],[72.9045,19.112],[72.9067,19.111],[72.908,19.1081],[72.9133,19.1107],[72.9152,19.1152],[72.9183,19.117],[72.9185,19.1108],[72.9155,19.1074],[72.9159,19.105],[72.9199,19.1024],[72.9255,19.1108],[72.9332,19.1088],[72.9363,19.1131],[72.9441,19.1148],[72.9491,19.1113],[72.9518,19.1108],[72.9607,19.126],[72.9612,19.1286],[72.959,19.1323],[72.9613,19.1345],[72.9569,19.1394],[72.9567,19.1418],[72.9618,19.1474],[72.9612,19.1489],[72.9547,19.1513],[72.957,19.1547],[72.9472,19.157],[72.9464,19.1606],[72.931,19.1672],[72.9287,19.1665],[72.9287,19.1579],[72.9274,19.1539],[72.9248,19.152],[72.923,19.1463],[72.9184,19.1409],[72.9139,19.1418],[72.9127,19.1404],[72.9074,19.1393],[72.902,19.1413],[72.8998,19.1393],[72.8989,19.1409],[72.8945,19.1426],[72.8933,19.1421],[72.8945,19.1395],[72.8938,19.138],[72.8909,19.1361],[72.8887,19.1312],[72.8849,19.1287]]]}},{"type":"Feature","properties":{"Name":"T Ward","Zone":"Zone 6","Part":"Mumbai Suburban","City":"MUMBAI"},"geometry":{"type":"Polygon","coordinates":[[[72.8941,19.142],[72.8953,19.1452],[72.893,19.1507],[72.8935,19.1537],[72.8894,19.1568],[72.897,19.1736],[72.8993,19.1761],[72.9003,19.1915],[72.9024,19.2014],[72.909,19.2025],[72.9102,19.2076],[72.9135,19.2083],[72.9172,19.2162],[72.9223,19.2164],[72.9276,19.2117],[72.931,19.2112],[72.933,19.2071],[72.9355,19.2055],[72.9353,19.194],[72.9419,19.1874],[72.9467,19.188],[72.9513,19.1851],[72.955,19.1852],[72.9558,19.1833],[72.9583,19.1822],[72.9598,19.1789],[72.9617,19.1794],[72.9638,19.1767],[72.968,19.1779],[72.9685,19.176],[72.9702,19.1756],[72.9727,19.1785],[72.9797,19.1689],[72.9757,19.1527],[72.9681,19.1407],[72.9613,19.1345],[72.9568,19.1397],[72.9572,19.1433],[72.9619,19.1472],[72.9612,19.1489],[72.9547,19.1513],[72.957,19.1547],[72.9472,19.157],[72.9464,19.1606],[72.9312,19.1672],[72.9287,19.1665],[72.9287,19.1579],[72.9274,19.1539],[72.9248,19.152],[72.923,19.1463],[72.9184,19.1409],[72.9139,19.1418],[72.9127,19.1404],[72.9074,19.1393],[72.902,19.1413],[72.8998,19.1393],[72.8954,19.1426],[72.8941,19.142]]]}}]}