{"type":"FeatureCollection","features":[{"type":"Feature","geometry":{"type":"Polygon","coordinates":[[[79.1018,21.1474],[79.1008,21.1387],[79.1031,21.1381],[79.1035,21.1353],[79.1075,21.1328],[79.1083,21.1389],[79.1182,21.14],[79.1174,21.1427],[79.1122,21.1433],[79.1121,21.146],[79.1092,21.1475],[79.1018,21.1474]]]},"properties":{"objectid":119521,"statename":"Maharashtra","statecode":"27","districtname":"Nagpur","districtcode":"505","ulbname":"Nagpur","ulbcode":"802710","wardname":"18","wardcode":"18","id":null,"remark":"Ward 18 Ok","st_area(shape)":0.00013715336550052486,"st_perimeter(shape)":0.05803946261734772}},{"type":"Feature","geometry":{"type":"Polygon","coordinates":[[[79.1227,21.1572],[79.1245,21.1552],[79.125,21.1414],[79.1283,21.1421],[79.1279,21.1388],[79.1336,21.1388],[79.1339,21.1421],[79.1407,21.1422],[79.1413,21.1441],[79.1459,21.1466],[79.1471,21.1487],[79.1346,21.1564],[79.1227,21.1572]]]},"properties":{"objectid":119523,"statename":"Maharashtra","statecode":"27","districtname":"Nagpur","districtcode":"505","ulbname":"Nagpur","ulbcode":"802710","wardname":"23","wardcode":"23","id":null,"remark":"Ward 23 Ok","st_area(shape)":0.00028073935130204747,"st_perimeter(shape)":0.07647572010168827}},{"type":"Feature","geometry":{"type":"Polygon","coordinates":[[[79.0457,21.18],[79.0445,21.179],[79.0499,21.1766],[79.0656,21.1711],[79.0746,21.1706],[79.0786,21.1674],[79.0836,21.173],[79.0852,21.1721],[79.0836,21.188],[79.0698,21.1865],[79.0695,21.183],[79.0543,21.179],[79.0514,21.1839],[79.0457,21.18]]]},"properties":{"objectid":119574,"statename":"Maharashtra","statecode":"27","districtname":"Nagpur","districtcode":"505","ulbname":"Nagpur","ulbcode":"802710","wardname":"10","wardcode":"10","id":null,"remark":"Ward 10 Ok","st_area(shape)":0.00042216059130851196,"st_perimeter(shape)":0.1112514267900855}},{"type":"Feature","geometry":{"type":"Polygon","coordinates":[[[79.0984,21.1233],[79.1008,21.1221],[79.0994,21.1194],[79.1009,21.114],[79.1041,21.1136],[79.1025,21.1053],[79.1197,21.1075],[79.1129,21.1151],[79.1107,21.1157],[79.1113,21.1216],[79.1049,21.1214],[79.105,21.1233],[79.0984,21.1233]]]},"properties":{"objectid":119581,"statename":"Maharashtra","statecode":"27","districtname":"Nagpur","districtcode":"505","ulbname":"Nagpur","ulbcode":"802710","wardname":"32","wardcode":"32","id":null,"remark":"Ward 32 Ok","st_area(shape)":0.00020547633652099275,"st_perimeter(shape)":0.07774876128581391}},{"type":"Feature","geometry":{"type":"Polygon","coordinates":[[[79.0963,21.1621],[79.0916,21.1596],[79.0907,21.1534],[79.0995,21.1536],[79.0999,21.1568],[79.1044,21.1568],[79.1043,21.1595],[79.1001,21.1623],[79.0963,21.1621]]]},"properties":{"objectid":120617,"statename":"Maharashtra","statecode":"27","districtname":"Nagpur","districtcode":"505","ulbname":"Nagpur","ulbcode":"802710","wardname":"8","wardcode":"8","id":null,"remark":"Ward 8 Ok","st_area(shape)":8.722121352699862e-05,"st_perimeter(shape)":0.04097783383364823}},{"type":"Feature","geometry":{"type":"Polygon","coordinates":[[[79.0963,21.1621],[79.0916,21.1596],[79.0907,21.1534],[79.0995,21.1536],[79.0999,21.1568],[79.1044,21.1568],[79.1043,21.1595],[79.1001,21.1623],[79.0963,21.1621]]]},"properties":{"objectid":122179,"statename":"Maharashtra","statecode":"27","districtname":"Nagpur","districtcode":"505","ulbname":"Nagpur","ulbcode":"802710","wardname":"8","wardcode":null,"id":null,"remark":"--","st_area(shape)":8.722121352699862e-05,"st_perimeter(shape)":0.04097783383364823}},{"type":"Feature","geometry":{"type":"Polygon","coordinates":[[[79.0626,21.1303],[79.0575,21.1288],[79.0589,21.1249],[79.0613,21.1235],[79.061,21.1206],[79.0645,21.1199],[79.0651,21.1122],[79.0701,21.1107],[79.0672,21.0998],[79.0642,21.1002],[79.0616,21.0982],[79.0637,21.097],[79.0645,21.0926],[79.0672,21.0901],[79.0873,21.1377],[79.0858,21.1374],[79.0845,21.1348],[79.0788,21.1366],[79.0783,21.1351],[79.0626,21.1303]]]},"properties":{"objectid":122368,"statename":"Maharashtra","statecode":"27","districtname":"Nagpur","districtcode":"505","ulbname":"Nagpur","ulbcode":"802710","wardname":"16","wardcode":"16","id":null,"remark":"Ward 16 Ok","st_area(shape)":0.0005463438534086891,"st_perimeter(shape)":0.14064687099032266}},{"type":"Feature","geometry":{"type":"Polygon","coordinates":[[[79.0907,21.1534],[79.0902,21.149],[79.1052,21.1471],[79.1087,21.1476],[79.1109,21.1547],[79.104,21.1544],[79.1044,21.1568],[79.0999,21.1568],[79.0995,21.1536],[79.0907,21.1534]]]},"properties":{"objectid":122395,"statename":"Maharashtra","statecode":"27","districtname":"Nagpur","districtcode":"505","ulbname":"Nagpur","ulbcode":"802710","wardname":"19","wardcode":"19","id":null,"remark":"Ward 19 Ok","st_area(shape)":0.0001313425033773539,"st_perimeter(shape)":0.056638074267659544}},{"type":"Feature","geometry":{"type":"Polygon","coordinates":[[[79.0963,21.1621],[79.0916,21.1596],[79.0907,21.1534],[79.0995,21.1536],[79.0999,21.1568],[79.1044,21.1568],[79.1043,21.1595],[79.1001,21.1623],[79.0963,21.1621]]]},"properties":{"objectid":122520,"statename":"Maharashtra","statecode":"27","districtname":"Nagpur","districtcode":"505","ulbname":"Nagpur","ulbcode":"802710","wardname":"8","wardcode":null,"id":null,"remark":"--","st_area(shape)":8.722121352699862e-05,"st_perimeter(shape)":0.04097783383364823}},{"type":"Feature","geometry":{"type":"Polygon","coordinates":[[[79.0963,21.1621],[79.0916,21.1596],[79.0907,21.1534],[79.0995,21.1536],[79.0999,21.1568],[79.1044,21.1568],[79.1043,21.1595],[79.1001,21.1623],[79.0963,21.1621]]]},"properties":{"objectid":122914,"statename":"Maharashtra","statecode":"27","districtname":"Nagpur","districtcode":"505","ulbname":"Nagpur","ulbcode":"802710","wardname":"8","wardcode":null,"id":null,"remark":"--","st_area(shape)":8.722121352699862e-05,"st_perimeter(shape)":0.04097783383364823}},{"type":"Feature","geometry":{"type":"Polygon","coordinates":[[[79.0963,21.1621],[79.0916,21.1596],[79.0907,21.1534],[79.0995,21.1536],[79.0999,21.1568],[79.1044,21.1568],[79.1043,21.1595],[79.1001,21.1623],[79.0963,21.1621]]]},"properties":{"objectid":123678,"statename":"Maharashtra","statecode":"27","districtname":"Nagpur","districtcode":"505","ulbname":"Nagpur","ulbcode":"802710","wardname":"8","wardcode":null,"id":null,"remark":"--","st_area(shape)":8.722121352699862e-05,"st_perimeter(shape)":0.04097783383364823}},{"type":"Feature","geometry":{"type":"Polygon","coordinates":[[[79.0426,21.1664],[79.0429,21.1622],[79.0409,21.1615],[79.0431,21.1604],[79.0446,21.1565],[79.046,21.1564],[79.0447,21.1488],[79.0518,21.148],[79.0507,21.1447],[79.0565,21.1438],[79.0564,21.1461],[79.0613,21.1446],[79.0619,21.1468],[79.0676,21.1463],[79.0679,21.1495],[79.0761,21.1481],[79.0772,21.1486],[79.0768,21.1511],[79.0796,21.1504],[79.081,21.1528],[79.0817,21.1556],[79.0797,21.1573],[79.0796,21.1652],[79.0772,21.1694],[79.0746,21.1706],[79.0656,21.1712],[79.054,21.1751],[79.0538,21.167],[79.0525,21.1656],[79.0512,21.1653],[79.0509,21.1668],[79.0426,21.1664]]]},"properties":{"objectid":124896,"statename":"Maharashtra","statecode":"27","districtname":"Nagpur","districtcode":"505","ulbname":"Nagpur","ulbcode":"802710","wardname":"14","wardcode":"14","id":null,"remark":"Ward 14 Ok","st_area(shape)":0.0008307712260889092,"st_perimeter(shape)":0.1422890146821845}},{"type":"Feature","geometry":{"type":"Polygon","coordinates":[[[79.0998,21.1617],[79.1043,21.1596],[79.104,21.1544],[79.1109,21.1547],[79.1154,21.1649],[79.115,21.166],[79.1113,21.1656],[79.0998,21.1617]]]},"properties":{"objectid":124902,"statename":"Maharashtra","statecode":"27","districtname":"Nagpur","districtcode":"505","ulbname":"Nagpur","ulbcode":"802710","wardname":"20","wardcode":"20","id":null,"remark":"Ward 20 Ok","st_area(shape)":0.00010126510557102126,"st_perimeter(shape)":0.04623125051749356}},{"type":"Feature","geometry":{"type":"Polygon","coordinates":[[[79.079,21.1677],[79.0797,21.1572],[79.0817,21.1556],[79.0806,21.1482],[79.0896,21.145],[79.0907,21.1583],[79.0918,21.1593],[79.0911,21.1632],[79.0932,21.164],[79.0946,21.1699],[79.0996,21.1731],[79.0953,21.1739],[79.0938,21.1781],[79.0849,21.1755],[79.0852,21.172],[79.0836,21.173],[79.079,21.1677]]]},"properties":{"objectid":124906,"statename":"Maharashtra","statecode":"27","districtname":"Nagpur","districtcode":"505","ulbname":"Nagpur","ulbcode":"802710","wardname":"9","wardcode":"9","id":null,"remark":"Ward 9 Ok","st_area(shape)":0.0003522918762099148,"st_perimeter(shape)":0.09751635792462195}},{"type":"Feature","geometry":{"type":"Polygon","coordinates":[[[79.0909,21.1219],[79.0867,21.1125],[79.0898,21.1114],[79.0883,21.106],[79.1025,21.1053],[79.1041,21.1136],[79.1009,21.114],[79.1008,21.1166],[79.0942,21.1178],[79.0955,21.1201],[79.0909,21.1219]]]},"properties":{"objectid":124907,"statename":"Maharashtra","statecode":"27","districtname":"Nagpur","districtcode":"505","ulbname":"Nagpur","ulbcode":"802710","wardname":"33","wardcode":"33","id":null,"remark":"Ward 33 Ok","st_area(shape)":0.0001876333103253855,"st_perimeter(shape)":0.06339551384102937}},{"type":"Feature","geometry":{"type":"Polygon","coordinates":[[[79.0945,21.177],[79.0953,21.1739],[79.0997,21.173],[79.0947,21.1699],[79.0932,21.164],[79.091,21.1632],[79.0916,21.1596],[79.0963,21.1621],[79.1067,21.1643],[79.107,21.1689],[79.1046,21.1683],[79.1043,21.1701],[79.1046,21.1714],[79.1079,21.172],[79.1042,21.1793],[79.1012,21.1775],[79.0992,21.1803],[79.0984,21.1782],[79.0938,21.1781],[79.0945,21.177]]]},"properties":{"objectid":125300,"statename":"Maharashtra","statecode":"27","districtname":"Nagpur","districtcode":"505","ulbname":"Nagpur","ulbcode":"802710","wardname":"7","wardcode":"7","id":null,"remark":"Ward 7 Ok","st_area(shape)":0.00018619170822989288,"st_perimeter(shape)":0.08177491397267102}},{"type":"Feature","geometry":{"type":"Polygon","coordinates":[[[79.0977,21.1314],[79.1006,21.1271],[79.105,21.1243],[79.1049,21.1214],[79.1113,21.1216],[79.113,21.1253],[79.1131,21.1319],[79.1195,21.1307],[79.1196,21.1403],[79.1083,21.1389],[79.1075,21.1328],[79.1029,21.1363],[79.0977,21.1314]]]},"properties":{"objectid":125317,"statename":"Maharashtra","statecode":"27","districtname":"Nagpur","districtcode":"505","ulbname":"Nagpur","ulbcode":"802710","wardname":"31","wardcode":"31","id":null,"remark":"Ward 31 Ok","st_area(shape)":0.00022458460538021132,"st_perimeter(shape)":0.07932405189254116}},{"type":"Feature","geometry":{"type":"Polygon","coordinates":[[[79.0902,21.149],[79.0861,21.1328],[79.082,21.1251],[79.0955,21.1201],[79.0942,21.1178],[79.0996,21.1168],[79.0997,21.1207],[79.1006,21.1205],[79.1008,21.1221],[79.0984,21.1233],[79.105,21.1233],[79.0977,21.1314],[79.1032,21.1362],[79.1031,21.1381],[79.1007,21.1391],[79.1017,21.1474],[79.0902,21.149]]]},"properties":{"objectid":125350,"statename":"Maharashtra","statecode":"27","districtname":"Nagpur","districtcode":"505","ulbname":"Nagpur","ulbcode":"802710","wardname":"17","wardcode":"17","id":null,"remark":"Ward 17 Ok","st_area(shape)":0.00040749790013421705,"st_perimeter(shape)":0.11055298923879078}},{"type":"Feature","geometry":{"type":"Polygon","coordinates":[[[79.0447,21.1244],[79.0419,21.1213],[79.0426,21.1202],[79.0409,21.1149],[79.0458,21.1132],[79.0443,21.1073],[79.0494,21.1053],[79.0562,21.1048],[79.0568,21.1138],[79.0651,21.1123],[79.0645,21.1199],[79.061,21.1206],[79.0613,21.1235],[79.0589,21.1249],[79.0559,21.1211],[79.0482,21.1219],[79.0447,21.1244]]]},"properties":{"objectid":125361,"statename":"Maharashtra","statecode":"27","districtname":"Nagpur","districtcode":"505","ulbname":"Nagpur","ulbcode":"802710","wardname":"37","wardcode":"37","id":null,"remark":"Ward 37 Ok","st_area(shape)":0.00029130030997438235,"st_perimeter(shape)":0.08678639512069876}},{"type":"Feature","geometry":{"type":"Polygon","coordinates":[[[79.117,21.1839],[79.1248,21.1778],[79.1333,21.1683],[79.1354,21.1693],[79.1344,21.1855],[79.1326,21.1908],[79.1277,21.1916],[79.117,21.1839]]]},"properties":{"objectid":125703,"statename":"Maharashtra","statecode":"27","districtname":"Nagpur","districtcode":"505","ulbname":"Nagpur","ulbcode":"802710","wardname":"3","wardcode":"3","id":null,"remark":"Ward 3 Ok","st_area(shape)":0.00022735476824233377,"st_perimeter(shape)":0.0654720411346498}},{"type":"Feature","geometry":{"type":"Polygon","coordinates":[[[79.0419,21.1213],[79.0328,21.1166],[79.0359,21.112],[79.0318,21.1129],[79.0296,21.1114],[79.0389,21.0996],[79.0345,21.0992],[79.0342,21.0944],[79.0356,21.0919],[79.031,21.0914],[79.0312,21.0902],[79.0355,21.0904],[79.0362,21.0887],[79.0381,21.0896],[79.0396,21.0875],[79.0464,21.0852],[79.0469,21.0863],[79.0514,21.0814],[79.0607,21.0784],[79.0605,21.0757],[79.0672,21.0901],[79.0645,21.0926],[79.0637,21.0971],[79.0616,21.0982],[79.0642,21.1002],[79.0672,21.0998],[79.0701,21.1107],[79.0568,21.1138],[79.0562,21.1048],[79.0494,21.1053],[79.0443,21.1073],[79.0458,21.1132],[79.0409,21.1149],[79.0426,21.1203],[79.0419,21.1213]]]},"properties":{"objectid":125728,"statename":"Maharashtra","statecode":"27","districtname":"Nagpur","districtcode":"505","ulbname":"Nagpur","ulbcode":"802710","wardname":"36","wardcode":"36","id":null,"remark":"Ward 36 Ok","st_area(shape)":0.0009109335097205663,"st_perimeter(shape)":0.19418901629036003}},{"type":"Feature","geometry":{"type":"Polygon","coordinates":[[[79.1171,21.175],[79.1169,21.1656],[79.1252,21.1662],[79.1266,21.1629],[79.1268,21.1575],[79.1298,21.1584],[79.1355,21.1668],[79.1355,21.1693],[79.1333,21.1683],[79.1258,21.1767],[79.1205,21.1746],[79.1171,21.175]]]},"properties":{"objectid":126110,"statename":"Maharashtra","statecode":"27","districtname":"Nagpur","districtcode":"505","ulbname":"Nagpur","ulbcode":"802710","wardname":"5","wardcode":"5","id":null,"remark":"Ward 5 Ok","st_area(shape)":0.0001904848292052848,"st_perimeter(shape)":0.06688419608131696}},{"type":"Feature","geometry":{"type":"Polygon","coordinates":[[[79.0774,21.2062],[79.0781,21.1959],[79.0835,21.188],[79.0849,21.1755],[79.0948,21.1785],[79.0933,21.1835],[79.1008,21.1847],[79.1002,21.1918],[79.0981,21.1918],[79.0995,21.1934],[79.0991,21.1976],[79.1024,21.1994],[79.1011,21.205],[79.1019,21.2195],[79.0983,21.2205],[79.1008,21.2249],[79.1005,21.2267],[79.0956,21.2291],[79.0944,21.2284],[79.0945,21.2297],[79.087,21.2307],[79.0856,21.2238],[79.0813,21.2163],[79.0821,21.2148],[79.0834,21.2158],[79.0838,21.2136],[79.0807,21.2129],[79.079,21.2087],[79.0777,21.2089],[79.0774,21.2062]]]},"properties":{"objectid":126111,"statename":"Maharashtra","statecode":"27","districtname":"Nagpur","districtcode":"505","ulbname":"Nagpur","ulbcode":"802710","wardname":"1","wardcode":"1","id":null,"remark":"Ok","st_area(shape)":0.000944661574956819,"st_perimeter(shape)":0.1584260896336524}},{"type":"Feature","geometry":{"type":"Polygon","coordinates":[[[79.1268,21.1575],[79.1356,21.156],[79.1471,21.1487],[79.1459,21.1464],[79.1477,21.1463],[79.152,21.149],[79.1543,21.1487],[79.1554,21.1501],[79.1558,21.155],[79.1528,21.1546],[79.1515,21.1591],[79.1493,21.1577],[79.1494,21.1597],[79.148,21.161],[79.1499,21.162],[79.1487,21.1631],[79.1497,21.164],[79.1518,21.1637],[79.1524,21.1708],[79.1355,21.1678],[79.1314,21.16],[79.1268,21.1575]]]},"properties":{"objectid":126518,"statename":"Maharashtra","statecode":"27","districtname":"Nagpur","districtcode":"505","ulbname":"Nagpur","ulbcode":"802710","wardname":"24","wardcode":"24","id":null,"remark":"Ward 24 Ok","st_area(shape)":0.00033624377752014843,"st_perimeter(shape)":0.10515576299623404}},{"type":"Feature","geometry":{"type":"Polygon","coordinates":[[[79.0945,21.177],[79.0953,21.1739],[79.0997,21.173],[79.0947,21.1699],[79.0932,21.164],[79.091,21.1632],[79.0916,21.1596],[79.0963,21.1621],[79.1067,21.1643],[79.107,21.1689],[79.1046,21.1683],[79.1043,21.1701],[79.1046,21.1714],[79.1079,21.172],[79.1042,21.1793],[79.1012,21.1775],[79.0992,21.1803],[79.0984,21.1782],[79.0938,21.1781],[79.0945,21.177]]]},"properties":{"objectid":127812,"statename":"Maharashtra","statecode":"27","districtname":"Nagpur","districtcode":"505","ulbname":"Nagpur","ulbcode":"802710","wardname":"6","wardcode":"6","id":null,"remark":"Ward 6 Ok","st_area(shape)":0.00018619170822989288,"st_perimeter(shape)":0.08177491397267102}},{"type":"Feature","geometry":{"type":"Polygon","coordinates":[[[79.1197,21.1404],[79.1195,21.1307],[79.1131,21.1319],[79.1126,21.1235],[79.1181,21.1244],[79.1216,21.1217],[79.1224,21.1262],[79.1307,21.1339],[79.1284,21.1363],[79.1283,21.1421],[79.1197,21.1404]]]},"properties":{"objectid":130534,"statename":"Maharashtra","statecode":"27","districtname":"Nagpur","districtcode":"505","ulbname":"Nagpur","ulbcode":"802710","wardname":"27","wardcode":"27","id":null,"remark":"Ward 27 Ok","st_area(shape)":0.00018023530905094344,"st_perimeter(shape)":0.06984742434111176}},{"type":"Feature","geometry":{"type":"Polygon","coordinates":[[[79.1151,21.166],[79.1149,21.1629],[79.1109,21.1547],[79.1244,21.1535],[79.1227,21.1572],[79.1268,21.1571],[79.1266,21.1629],[79.1252,21.1662],[79.1151,21.166]]]},"properties":{"objectid":131339,"statename":"Maharashtra","statecode":"27","districtname":"Nagpur","districtcode":"505","ulbname":"Nagpur","ulbcode":"802710","wardname":"21","wardcode":"21","id":null,"remark":"Ward 21 Ok","st_area(shape)":0.00014357575140459472,"st_perimeter(shape)":0.05700381084997348}},{"type":"Feature","geometry":{"type":"Polygon","coordinates":[[[79.1109,21.1547],[79.1087,21.1476],[79.1121,21.146],[79.1122,21.1433],[79.1174,21.1426],[79.1182,21.14],[79.125,21.1415],[79.1244,21.1535],[79.1109,21.1547]]]},"properties":{"objectid":131340,"statename":"Maharashtra","statecode":"27","districtname":"Nagpur","districtcode":"505","ulbname":"Nagpur","ulbcode":"802710","wardname":"22","wardcode":"22","id":null,"remark":"Ward 22 Ok","st_area(shape)":0.00017466174099736454,"st_perimeter(shape)":0.05612956407105559}},{"type":"Feature","geometry":{"type":"Polygon","coordinates":[[[79.0558,21.141],[79.0537,21.138],[79.0574,21.1288],[79.0783,21.1351],[79.0788,21.1366],[79.0845,21.1348],[79.0858,21.1374],[79.0874,21.1377],[79.0886,21.1451],[79.081,21.1474],[79.0808,21.1524],[79.0796,21.1504],[79.0768,21.1511],[79.0774,21.1493],[79.0762,21.1481],[79.0679,21.1494],[79.0676,21.1463],[79.0619,21.1468],[79.0613,21.1446],[79.0564,21.1461],[79.0558,21.141]]]},"properties":{"objectid":131728,"statename":"Maharashtra","statecode":"27","districtname":"Nagpur","districtcode":"505","ulbname":"Nagpur","ulbcode":"802710","wardname":"15","wardcode":"15","id":null,"remark":"Ward 15 Ok","st_area(shape)":0.000465468235844002,"st_perimeter(shape)":0.10838964018544922}},{"type":"Feature","geometry":{"type":"Polygon","coordinates":[[[79.1114,21.1234],[79.1107,21.1157],[79.1129,21.1152],[79.1197,21.1075],[79.1289,21.1112],[79.1312,21.1141],[79.1182,21.1244],[79.1114,21.1234]]]},"properties":{"objectid":131732,"statename":"Maharashtra","statecode":"27","districtname":"Nagpur","districtcode":"505","ulbname":"Nagpur","ulbcode":"802710","wardname":"30","wardcode":"30","id":null,"remark":"Ward 30 Ok","st_area(shape)":0.00019849068691552796,"st_perimeter(shape)":0.0584200694382839}},{"type":"Feature","geometry":{"type":"Polygon","coordinates":[[[79.1036,21.2148],[79.1017,21.2147],[79.1012,21.2049],[79.1024,21.1994],[79.0991,21.1976],[79.0995,21.1934],[79.0981,21.1918],[79.1002,21.1918],[79.1009,21.1846],[79.0933,21.1835],[79.0951,21.178],[79.0983,21.1782],[79.0992,21.1803],[79.1012,21.1775],[79.1042,21.1794],[79.1058,21.1769],[79.1277,21.1917],[79.1325,21.1908],[79.1314,21.194],[79.1325,21.195],[79.1209,21.2011],[79.1206,21.205],[79.1172,21.2094],[79.1123,21.2123],[79.1036,21.2148]]]},"properties":{"objectid":152270,"statename":"Maharashtra","statecode":"27","districtname":"","districtcode":"505","ulbname":"Nagpur","ulbcode":"802710","wardname":"2","wardcode":"2","id":null,"remark":"Ok","st_area(shape)":0.0007521684816141177,"st_perimeter(shape)":0.14285990499050072}},{"type":"Feature","geometry":{"type":"Polygon","coordinates":[[[79.1493,21.1476],[79.151,21.1465],[79.1504,21.1447],[79.1518,21.1443],[79.1527,21.1455],[79.1657,21.1373],[79.1714,21.1448],[79.1718,21.1496],[79.1782,21.1581],[79.1786,21.1624],[79.1762,21.1655],[79.1747,21.1628],[79.1682,21.1626],[79.1649,21.1588],[79.1584,21.1563],[79.1582,21.1542],[79.1556,21.1547],[79.1543,21.1487],[79.1493,21.1476]]]},"properties":{"objectid":160713,"statename":"Maharashtra","statecode":"27","districtname":"","districtcode":"505","ulbname":"Nagpur","ulbcode":"802710","wardname":"25","wardcode":"25","id":null,"remark":"Ward 25 Ok","st_area(shape)":0.00037662389638104293,"st_perimeter(shape)":0.09791490885182108}},{"type":"Feature","geometry":{"type":"Polygon","coordinates":[[[79.1315,21.194],[79.1345,21.1854],[79.1355,21.1677],[79.1524,21.1708],[79.1518,21.1637],[79.1497,21.164],[79.1486,21.1631],[79.1499,21.162],[79.148,21.161],[79.1494,21.1597],[79.1493,21.1577],[79.1515,21.1591],[79.1528,21.1546],[79.1582,21.1542],[79.1584,21.1563],[79.165,21.1588],[79.1667,21.1616],[79.1747,21.1628],[79.1752,21.1648],[79.1769,21.1658],[79.1721,21.1687],[79.1689,21.1733],[79.1696,21.1819],[79.167,21.1861],[79.1606,21.1884],[79.1484,21.1848],[79.1421,21.191],[79.1381,21.1914],[79.1333,21.1948],[79.1315,21.194]]]},"properties":{"objectid":161095,"statename":"Maharashtra","statecode":"27","districtname":"","districtcode":"505","ulbname":"Nagpur","ulbcode":"802710","wardname":"4","wardcode":"4","id":null,"remark":"Ward 4 Ok","st_area(shape)":0.0009183026083284122,"st_perimeter(shape)":0.17225958350314155}},{"type":"Feature","geometry":{"type":"Polygon","coordinates":[[[79.0394,21.199],[79.0409,21.1924],[79.0365,21.1819],[79.0445,21.179],[79.0514,21.1838],[79.0543,21.179],[79.0695,21.183],[79.0698,21.1865],[79.0835,21.188],[79.0781,21.1959],[79.0764,21.208],[79.0663,21.2063],[79.0653,21.2051],[79.0547,21.2061],[79.0513,21.2107],[79.0439,21.2096],[79.0383,21.2029],[79.0394,21.199]]]},"properties":{"objectid":161103,"statename":"Maharashtra","statecode":"27","districtname":"","districtcode":"505","ulbname":"Nagpur","ulbcode":"802710","wardname":"11","wardcode":"11","id":null,"remark":"Ward 11 Ok","st_area(shape)":0.0009954035831504621,"st_perimeter(shape)":0.1465371352021637}},{"type":"Feature","geometry":{"type":"Polygon","coordinates":[[[79.0124,21.1223],[79.0182,21.1176],[79.0183,21.1132],[79.0135,21.1083],[79.0096,21.0979],[79.0095,21.0923],[79.0148,21.0864],[79.0175,21.075],[79.0251,21.0743],[79.0352,21.0802],[79.0432,21.0796],[79.0465,21.0779],[79.0485,21.0788],[79.0514,21.0815],[79.0478,21.0859],[79.0469,21.0863],[79.0464,21.0851],[79.0428,21.0862],[79.0396,21.0875],[79.0382,21.0896],[79.0363,21.0887],[79.0355,21.0904],[79.0311,21.0901],[79.031,21.0914],[79.0356,21.0918],[79.0341,21.0944],[79.0345,21.0992],[79.0389,21.0996],[79.0296,21.1115],[79.0317,21.1129],[79.0359,21.1119],[79.0328,21.1166],[79.0361,21.1191],[79.0406,21.1203],[79.0445,21.1248],[79.0344,21.1239],[79.0185,21.12],[79.0124,21.1223]]]},"properties":{"objectid":162279,"statename":"Maharashtra","statecode":"27","districtname":"","districtcode":"505","ulbname":"Nagpur","ulbcode":"802710","wardname":"38","wardcode":"38","id":null,"remark":"Ward 38 Ok","st_area(shape)":0.001093943326251677,"st_perimeter(shape)":0.21817253441045856}},{"type":"Feature","geometry":{"type":"Polygon","coordinates":[[[79.1284,21.1388],[79.1285,21.136],[79.1307,21.1339],[79.127,21.1304],[79.1373,21.1247],[79.1422,21.1237],[79.1531,21.1235],[79.1534,21.127],[79.1612,21.1263],[79.1642,21.1349],[79.1661,21.1371],[79.1527,21.1455],[79.1518,21.1443],[79.1504,21.1447],[79.151,21.1465],[79.1493,21.1476],[79.1419,21.1445],[79.1407,21.1423],[79.1339,21.1421],[79.1336,21.1388],[79.1309,21.1398],[79.1284,21.1388]]]},"properties":{"objectid":162671,"statename":"Maharashtra","statecode":"27","districtname":"","districtcode":"505","ulbname":"Nagpur","ulbcode":"802710","wardname":"26","wardcode":"26","id":null,"remark":"Ward 26 Ok","st_area(shape)":0.0006004546682881898,"st_perimeter(shape)":0.11418971622267188}},{"type":"Feature","geometry":{"type":"Polygon","coordinates":[[[78.995,21.1651],[78.9962,21.1623],[79.0076,21.1569],[79.0132,21.1597],[79.0213,21.1679],[79.0246,21.1664],[79.0282,21.1665],[79.03,21.1692],[79.0324,21.1695],[79.0347,21.1715],[79.036,21.1714],[79.0362,21.1682],[79.0434,21.1638],[79.0429,21.1666],[79.0509,21.1668],[79.0512,21.1653],[79.0524,21.1655],[79.0538,21.167],[79.0531,21.1677],[79.0541,21.1746],[79.034,21.1834],[79.0328,21.1819],[79.024,21.181],[79.019,21.1774],[79.0158,21.1801],[79.0156,21.1828],[79.0129,21.1803],[79.0105,21.1818],[79.0046,21.182],[79.0003,21.1797],[78.9982,21.1761],[78.995,21.1651]]]},"properties":{"objectid":163072,"statename":"Maharashtra","statecode":"27","districtname":"","districtcode":"505","ulbname":"Nagpur","ulbcode":"802710","wardname":"12","wardcode":"12","id":null,"remark":"Ward 12 Ok","st_area(shape)":0.0009021039080303484,"st_perimeter(shape)":0.16957328231728727}},{"type":"Feature","geometry":{"type":"Polygon","coordinates":[[[79.012,21.1589],[79.0083,21.1568],[79.0121,21.1548],[79.013,21.1496],[79.0097,21.1393],[79.0094,21.1338],[79.0124,21.1222],[79.0185,21.12],[79.0399,21.1249],[79.0445,21.1247],[79.0493,21.1217],[79.0564,21.1215],[79.0589,21.1249],[79.0537,21.138],[79.0565,21.1438],[79.0507,21.1447],[79.0518,21.148],[79.0447,21.1488],[79.046,21.1564],[79.0446,21.1565],[79.0431,21.1604],[79.0409,21.1615],[79.0429,21.1622],[79.0434,21.1638],[79.0362,21.1682],[79.036,21.1714],[79.0299,21.1692],[79.0282,21.1665],[79.0247,21.1663],[79.0213,21.1678],[79.012,21.1589]]]},"properties":{"objectid":163073,"statename":"Maharashtra","statecode":"27","districtname":"","districtcode":"505","ulbname":"Nagpur","ulbcode":"802710","wardname":"13","wardcode":"13","id":null,"remark":"Ward 13 Ok","st_area(shape)":0.0017458415962034325,"st_perimeter(shape)":0.19653390917324018}},{"type":"Feature","geometry":{"type":"Polygon","coordinates":[[[79.0883,21.106],[79.0876,21.1045],[79.0887,21.104],[79.0873,21.1036],[79.0848,21.0956],[79.093,21.0925],[79.1007,21.0873],[79.1048,21.0884],[79.1077,21.0911],[79.1123,21.0871],[79.116,21.0864],[79.1169,21.0881],[79.1189,21.0883],[79.119,21.0915],[79.1177,21.0926],[79.1168,21.0977],[79.1167,21.1069],[79.1011,21.1052],[79.0883,21.106]]]},"properties":{"objectid":163074,"statename":"Maharashtra","statecode":"27","districtname":"","districtcode":"505","ulbname":"Nagpur","ulbcode":"802710","wardname":"34","wardcode":"34","id":null,"remark":"Ward 34 Ok","st_area(shape)":0.00048773229328671663,"st_perimeter(shape)":0.10333603487475448}},{"type":"Feature","geometry":{"type":"Polygon","coordinates":[[[79.1168,21.1069],[79.1168,21.0976],[79.1177,21.0926],[79.119,21.0915],[79.1189,21.0879],[79.1229,21.0874],[79.124,21.0835],[79.1251,21.0674],[79.1356,21.0695],[79.1378,21.0708],[79.1394,21.0761],[79.1478,21.0772],[79.1465,21.08],[79.1464,21.0868],[79.1476,21.092],[79.1458,21.0951],[79.1377,21.1026],[79.1379,21.1041],[79.132,21.1046],[79.1282,21.109],[79.1255,21.1096],[79.1168,21.1069]]]},"properties":{"objectid":163076,"statename":"Maharashtra","statecode":"27","districtname":"","districtcode":"505","ulbname":"Nagpur","ulbcode":"802710","wardname":"29","wardcode":"29","id":null,"remark":"Ward 29 Ok","st_area(shape)":0.0008628321435531352,"st_perimeter(shape)":0.12825086826514095}},{"type":"Feature","geometry":{"type":"Polygon","coordinates":[[[79.1224,21.1263],[79.1216,21.1218],[79.1312,21.1141],[79.1289,21.1112],[79.1255,21.1096],[79.1282,21.109],[79.132,21.1046],[79.1379,21.1041],[79.1404,21.1085],[79.1423,21.1245],[79.1374,21.1246],[79.1269,21.1304],[79.1224,21.1263]]]},"properties":{"objectid":163468,"statename":"Maharashtra","statecode":"27","districtname":"","districtcode":"505","ulbname":"Nagpur","ulbcode":"802710","wardname":"28","wardcode":"28","id":null,"remark":"Ward 28 Ok","st_area(shape)":0.0003264982360866938,"st_perimeter(shape)":0.08478014523030611}},{"type":"Feature","geometry":{"type":"Polygon","coordinates":[[[79.082,21.1251],[79.0762,21.1098],[79.0605,21.0757],[79.0607,21.0785],[79.0514,21.0814],[79.0465,21.0779],[79.0531,21.0754],[79.0537,21.0725],[79.0504,21.0627],[79.05,21.0571],[79.0648,21.0544],[79.0701,21.0623],[79.0719,21.0707],[79.0694,21.0758],[79.0702,21.0816],[79.0793,21.086],[79.0825,21.0939],[79.0852,21.0967],[79.0873,21.1036],[79.0887,21.104],[79.0876,21.1045],[79.0898,21.1114],[79.0867,21.1125],[79.0909,21.1218],[79.082,21.1251]]]},"properties":{"objectid":163469,"statename":"Maharashtra","statecode":"27","districtname":"","districtcode":"505","ulbname":"Nagpur","ulbcode":"802710","wardname":"35","wardcode":"35","id":null,"remark":"Ward 35 Ok","st_area(shape)":0.0009850540107523291,"st_perimeter(shape)":0.20850917254405907}}]}