{"type":"FeatureCollection","features":[{"type":"Feature","geometry":{"type":"Polygon","coordinates":[[[73.0031,19.17],[73.0023,19.1728],[72.9987,19.1722],[72.9989,19.1659],[73.0022,19.1658],[73.0031,19.17]]]},"properties":{"objectid":37823,"statename":"Maharashtra","statecode":"27","districtname":"Thane","districtcode":"517","ulbname":"Navi Mumbai Municiple Corp.","ulbcode":"802788","wardname":"Chinchpada - Gavate Wadi","wardcode":"8","id":null,"remark":"","st_area(shape)":2.3814995116636262e-05,"st_perimeter(shape)":0.021113911325429547}},{"type":"Feature","geometry":{"type":"Polygon","coordinates":[[[73.012,19.1027],[73.0099,19.1089],[73.0063,19.1084],[73.0067,19.107],[73.0054,19.1067],[73.0064,19.1036],[73.0078,19.1049],[73.0098,19.102],[73.012,19.1027]]]},"properties":{"objectid":38246,"statename":"Maharashtra","statecode":"27","districtname":"Thane","districtcode":"517","ulbname":"Navi Mumbai Municiple Corp.","ulbcode":"802788","wardname":"Koparkhairane Node - 7","wardcode":"46","id":null,"remark":"","st_area(shape)":2.6668370181043923e-05,"st_perimeter(shape)":0.025706714602644606}},{"type":"Feature","geometry":{"type":"Polygon","coordinates":[[[72.9972,19.1767],[72.9958,19.1754],[72.9842,19.175],[72.9828,19.1689],[72.9908,19.1689],[72.9908,19.1712],[72.9987,19.1717],[72.9972,19.1767]]]},"properties":{"objectid":44166,"statename":"Maharashtra","statecode":"27","districtname":"Thane","districtcode":"517","ulbname":"Navi Mumbai Municiple Corp.","ulbcode":"802788","wardname":"Digha - 3","wardcode":"9","id":null,"remark":"Approved","st_area(shape)":7.87134238526076e-05,"st_perimeter(shape)":0.04487491790356196}},{"type":"Feature","geometry":{"type":"Polygon","coordinates":[[[73.0234,19.1512],[73.0202,19.1525],[73.0159,19.1521],[73.0135,19.1587],[73.0076,19.1508],[73.0082,19.1482],[73.0056,19.1495],[73.0033,19.145],[73.0012,19.1446],[73.0025,19.1385],[73.0157,19.1451],[73.0162,19.1466],[73.0234,19.1512]]]},"properties":{"objectid":44167,"statename":"Maharashtra","statecode":"27","districtname":"Thane","districtcode":"517","ulbname":"Navi Mumbai Municiple Corp.","ulbcode":"802788","wardname":"Bhim Nagar (Panchsheel Nagar)","wardcode":"20","id":null,"remark":"","st_area(shape)":0.0001740347257997156,"st_perimeter(shape)":0.07147205460153372}},{"type":"Feature","geometry":{"type":"Polygon","coordinates":[[[72.9773,19.107],[72.9974,19.1031],[72.9993,19.1036],[72.9995,19.1061],[72.9851,19.1123],[72.9837,19.1146],[72.9831,19.1202],[72.9806,19.1216],[72.9781,19.1186],[72.9773,19.107]]]},"properties":{"objectid":44168,"statename":"Maharashtra","statecode":"27","districtname":"Thane","districtcode":"517","ulbname":"Navi Mumbai Municiple Corp.","ulbcode":"802788","wardname":"Koparkhairane Gaon - 2","wardcode":"41","id":null,"remark":"","st_area(shape)":0.00016396826642570096,"st_perimeter(shape)":0.07017513969010201}},{"type":"Feature","geometry":{"type":"Polygon","coordinates":[[[73.0228,19.0859],[73.0277,19.0864],[73.0253,19.1005],[73.0227,19.1072],[73.0196,19.1064],[73.0178,19.1078],[73.0169,19.1061],[73.0167,19.1117],[73.0131,19.1127],[73.0143,19.1114],[73.0141,19.1083],[73.0106,19.1068],[73.0173,19.0922],[73.0167,19.0855],[73.0228,19.0859]]]},"properties":{"objectid":44169,"statename":"Maharashtra","statecode":"27","districtname":"Thane","districtcode":"517","ulbname":"Navi Mumbai Municiple Corp.","ulbcode":"802788","wardname":"Koparkhairane Midc (Pawane)","wardcode":"48","id":null,"remark":"","st_area(shape)":0.0002481812798279244,"st_perimeter(shape)":0.082331010354949}},{"type":"Feature","geometry":{"type":"Polygon","coordinates":[[[72.9828,19.1689],[72.9822,19.1654],[72.9903,19.1646],[72.9946,19.1655],[72.9947,19.163],[72.999,19.1647],[72.9987,19.1717],[72.9978,19.172],[72.9908,19.1712],[72.9908,19.1689],[72.9828,19.1689]]]},"properties":{"objectid":44549,"statename":"Maharashtra","statecode":"27","districtname":"Thane","districtcode":"517","ulbname":"Navi Mumbai Municiple Corp.","ulbcode":"802788","wardname":"Airoli Node-1","wardcode":"10","id":null,"remark":"","st_area(shape)":8.579182436321452e-05,"st_perimeter(shape)":0.05215648607997381}},{"type":"Feature","geometry":{"type":"Polygon","coordinates":[[[73.0024,19.0865],[72.999,19.0814],[73.0006,19.0794],[73.0017,19.081],[73.0031,19.0801],[73.006,19.0845],[73.0024,19.0865]]]},"properties":{"objectid":44550,"statename":"Maharashtra","statecode":"27","districtname":"Thane","districtcode":"517","ulbname":"Navi Mumbai Municiple Corp.","ulbcode":"802788","wardname":"Vashi Node 2","wardcode":"58","id":null,"remark":"","st_area(shape)":2.4424127406046015e-05,"st_perimeter(shape)":0.022797905920890694}},{"type":"Feature","geometry":{"type":"Polygon","coordinates":[[[73.004,19.1507],[73.0076,19.1528],[73.0085,19.1564],[73.0069,19.1713],[73.0029,19.1728],[73.0052,19.1575],[73.004,19.1507]]]},"properties":{"objectid":44719,"statename":"Maharashtra","statecode":"27","districtname":"Thane","districtcode":"517","ulbname":"Navi Mumbai Municiple Corp.","ulbcode":"802788","wardname":"Yadav Nagar","wardcode":"6","id":null,"remark":"","st_area(shape)":6.758950696819906e-05,"st_perimeter(shape)":0.051710203610816616}},{"type":"Feature","geometry":{"type":"Polygon","coordinates":[[[72.9928,19.1555],[72.9924,19.1501],[72.9949,19.15],[72.9949,19.1516],[72.9971,19.1517],[72.9971,19.153],[72.9946,19.1542],[72.9944,19.1557],[72.9928,19.1555]]]},"properties":{"objectid":44720,"statename":"Maharashtra","statecode":"27","districtname":"Thane","districtcode":"517","ulbname":"Navi Mumbai Municiple Corp.","ulbcode":"802788","wardname":"Airoli Node - 6","wardcode":"16","id":null,"remark":"","st_area(shape)":1.7194635750305453e-05,"st_perimeter(shape)":0.02017016391374021}},{"type":"Feature","geometry":{"type":"Polygon","coordinates":[[[73.0059,19.1019],[73.0002,19.1011],[73.0006,19.0998],[73.0035,19.1008],[73.0044,19.0995],[73.0063,19.1009],[73.0059,19.1019]]]},"properties":{"objectid":44721,"statename":"Maharashtra","statecode":"27","districtname":"Thane","districtcode":"517","ulbname":"Navi Mumbai Municiple Corp.","ulbcode":"802788","wardname":"Koparkhairane Node - 5","wardcode":"44","id":null,"remark":"","st_area(shape)":9.391784918255721e-06,"st_perimeter(shape)":0.01822831888039367}},{"type":"Feature","geometry":{"type":"Polygon","coordinates":[[[73.022,19.0437],[73.0184,19.0439],[73.0178,19.0329],[73.0213,19.0346],[73.0218,19.0366],[73.0194,19.0372],[73.022,19.0437]]]},"properties":{"objectid":44722,"statename":"Maharashtra","statecode":"27","districtname":"Thane","districtcode":"517","ulbname":"Navi Mumbai Municiple Corp.","ulbcode":"802788","wardname":"Nerul Node - 4","wardcode":"88","id":null,"remark":"","st_area(shape)":2.8025023491934293e-05,"st_perimeter(shape)":0.031999984976603585}},{"type":"Feature","geometry":{"type":"Polygon","coordinates":[[[72.9959,19.0855],[73.0,19.0829],[73.0014,19.0848],[73.0,19.0872],[73.0016,19.0884],[72.9957,19.0912],[72.9929,19.0884],[72.9959,19.0855]]]},"properties":{"objectid":44723,"statename":"Maharashtra","statecode":"27","districtname":"Thane","districtcode":"517","ulbname":"Navi Mumbai Municiple Corp.","ulbcode":"802788","wardname":"Juhugaon - 2","wardcode":"59","id":null,"remark":"","st_area(shape)":3.782574613697351e-05,"st_perimeter(shape)":0.02932774550303646}},{"type":"Feature","geometry":{"type":"Polygon","coordinates":[[[73.008,19.0983],[73.0138,19.0992],[73.0124,19.1018],[73.0044,19.0995],[73.0051,19.0975],[73.008,19.0983]]]},"properties":{"objectid":44743,"statename":"Maharashtra","statecode":"27","districtname":"Thane","districtcode":"517","ulbname":"Navi Mumbai Municiple Corp.","ulbcode":"802788","wardname":"Koparkhairane Node - 9","wardcode":"49","id":null,"remark":"","st_area(shape)":2.0930183795047586e-05,"st_perimeter(shape)":0.02388860404692211}},{"type":"Feature","geometry":{"type":"Polygon","coordinates":[[[73.0185,19.073],[73.0167,19.0855],[73.0138,19.0875],[73.0098,19.0815],[73.0089,19.0721],[73.0185,19.073]]]},"properties":{"objectid":44744,"statename":"Maharashtra","statecode":"27","districtname":"Thane","districtcode":"517","ulbname":"Navi Mumbai Municiple Corp.","ulbcode":"802788","wardname":"Turbhe","wardcode":"67","id":null,"remark":"","st_area(shape)":0.0001012391482001546,"st_perimeter(shape)":0.04403607259995159}},{"type":"Feature","geometry":{"type":"Polygon","coordinates":[[[73.0138,19.0992],[73.0113,19.0986],[73.0124,19.0951],[73.009,19.0953],[73.0089,19.0926],[73.0173,19.0922],[73.0138,19.0992]]]},"properties":{"objectid":44745,"statename":"Maharashtra","statecode":"27","districtname":"Thane","districtcode":"517","ulbname":"Navi Mumbai Municiple Corp.","ulbcode":"802788","wardname":"Khairanegaon","wardcode":"55","id":null,"remark":"","st_area(shape)":3.411288942977526e-05,"st_perimeter(shape)":0.029356666049794047}},{"type":"Feature","geometry":{"type":"Polygon","coordinates":[[[73.022,19.0437],[73.0243,19.0469],[73.0184,19.0543],[73.0184,19.0439],[73.022,19.0437]],[[73.0216,19.045],[73.0199,19.0446],[73.0201,19.0491],[73.0211,19.0492],[73.0226,19.0463],[73.0216,19.045]]]},"properties":{"objectid":44746,"statename":"Maharashtra","statecode":"27","districtname":"Thane","districtcode":"517","ulbname":"Navi Mumbai Municiple Corp.","ulbcode":"802788","wardname":"Shirvane - 1","wardcode":"81","id":null,"remark":"","st_area(shape)":2.6875221973481696e-05,"st_perimeter(shape)":0.042913806437600545}},{"type":"Feature","geometry":{"type":"Polygon","coordinates":[[[72.996,19.1886],[72.9919,19.1855],[72.9919,19.1818],[72.9853,19.1784],[72.9841,19.175],[72.9958,19.1754],[72.9972,19.1767],[72.9944,19.1828],[72.996,19.1886]]]},"properties":{"objectid":45048,"statename":"Maharashtra","statecode":"27","districtname":"Thane","districtcode":"517","ulbname":"Navi Mumbai Municiple Corp.","ulbcode":"802788","wardname":"Digha - 1","wardcode":"3","id":null,"remark":"","st_area(shape)":7.839699218361885e-05,"st_perimeter(shape)":0.0507795717573164}},{"type":"Feature","geometry":{"type":"Polygon","coordinates":[[[72.9955,19.1867],[72.9944,19.1828],[72.9956,19.1813],[73.004,19.1792],[73.0039,19.1803],[73.005,19.1804],[73.0043,19.1824],[73.0094,19.1824],[73.0074,19.1875],[72.9985,19.1877],[72.9985,19.1866],[72.9955,19.1867]]]},"properties":{"objectid":45049,"statename":"Maharashtra","statecode":"27","districtname":"Thane","districtcode":"517","ulbname":"Navi Mumbai Municiple Corp.","ulbcode":"802788","wardname":"Ram Nagar","wardcode":"2","id":null,"remark":"","st_area(shape)":8.828696244878153e-05,"st_perimeter(shape)":0.04351437977513773}},{"type":"Feature","geometry":{"type":"Polygon","coordinates":[[[73.0094,19.1824],[73.0043,19.1824],[73.005,19.1804],[73.0039,19.1803],[73.004,19.1792],[72.9956,19.1813],[72.9987,19.1722],[73.0045,19.1745],[73.0069,19.1731],[73.0082,19.1743],[73.0154,19.1749],[73.0158,19.1841],[73.0138,19.1852],[73.0127,19.1821],[73.0107,19.1809],[73.0094,19.1824]]]},"properties":{"objectid":45050,"statename":"Maharashtra","statecode":"27","districtname":"Thane","districtcode":"517","ulbname":"Navi Mumbai Municiple Corp.","ulbcode":"802788","wardname":"Digha - 2","wardcode":"4","id":null,"remark":"","st_area(shape)":0.00014373429578464639,"st_perimeter(shape)":0.06752772222813017}},{"type":"Feature","geometry":{"type":"Polygon","coordinates":[[[72.9822,19.1654],[72.9822,19.1558],[72.9944,19.1557],[72.9937,19.1611],[72.9904,19.1622],[72.9899,19.1653],[72.9822,19.1654]]]},"properties":{"objectid":45051,"statename":"Maharashtra","statecode":"27","districtname":"Thane","districtcode":"517","ulbname":"Navi Mumbai Municiple Corp.","ulbcode":"802788","wardname":"Airoli Node - 4","wardcode":"14","id":null,"remark":"","st_area(shape)":0.00010219373617924727,"st_perimeter(shape)":0.04344197854426567}},{"type":"Feature","geometry":{"type":"Polygon","coordinates":[[[72.9856,19.1499],[72.982,19.1506],[72.9817,19.1473],[72.9857,19.1468],[72.9898,19.1443],[72.9889,19.1426],[72.9922,19.1418],[72.9922,19.1454],[72.9896,19.1464],[72.9902,19.1493],[72.9856,19.1499]]]},"properties":{"objectid":45052,"statename":"Maharashtra","statecode":"27","districtname":"Thane","districtcode":"517","ulbname":"Navi Mumbai Municiple Corp.","ulbcode":"802788","wardname":"Airoli Node","wardcode":"23","id":null,"remark":"","st_area(shape)":4.1800963118832286e-05,"st_perimeter(shape)":0.037244422490864015}},{"type":"Feature","geometry":{"type":"Polygon","coordinates":[[[72.9922,19.1418],[72.9946,19.1421],[72.9947,19.1448],[72.9928,19.1466],[72.9942,19.1477],[72.9902,19.1493],[72.9896,19.1464],[72.9922,19.1454],[72.9922,19.1418]]]},"properties":{"objectid":45053,"statename":"Maharashtra","statecode":"27","districtname":"Thane","districtcode":"517","ulbname":"Navi Mumbai Municiple Corp.","ulbcode":"802788","wardname":"Divagaon","wardcode":"22","id":null,"remark":"","st_area(shape)":1.8649501050116125e-05,"st_perimeter(shape)":0.026823829596202785}},{"type":"Feature","geometry":{"type":"Polygon","coordinates":[[[72.9949,19.1484],[72.9931,19.1484],[72.9942,19.1477],[72.9928,19.1472],[72.9936,19.1448],[72.9947,19.1448],[72.9946,19.1421],[72.9985,19.1428],[73.0012,19.1446],[73.0002,19.1466],[72.9948,19.1466],[72.9949,19.1484]]]},"properties":{"objectid":45054,"statename":"Maharashtra","statecode":"27","districtname":"Thane","districtcode":"517","ulbname":"Navi Mumbai Municiple Corp.","ulbcode":"802788","wardname":"Airoli Node 9","wardcode":"21","id":null,"remark":"","st_area(shape)":2.6385433176849695e-05,"st_perimeter(shape)":0.03037697275959752}},{"type":"Feature","geometry":{"type":"Polygon","coordinates":[[[73.0,19.132],[73.0013,19.1335],[73.0031,19.1315],[73.0036,19.1354],[73.0018,19.1432],[72.9987,19.1407],[73.0003,19.1373],[72.9847,19.1353],[72.9837,19.1321],[72.9848,19.1305],[72.9899,19.1301],[72.9931,19.1316],[72.9933,19.1333],[72.9946,19.1321],[73.0,19.132]]]},"properties":{"objectid":45055,"statename":"Maharashtra","statecode":"27","districtname":"Thane","districtcode":"517","ulbname":"Navi Mumbai Municiple Corp.","ulbcode":"802788","wardname":"Gothivali","wardcode":"25","id":null,"remark":"","st_area(shape)":0.00010421353051225573,"st_perimeter(shape)":0.06673735529397944}},{"type":"Feature","geometry":{"type":"Polygon","coordinates":[[[72.9977,19.1195],[72.9995,19.1232],[72.9991,19.1258],[72.9942,19.1248],[72.9933,19.1217],[72.9839,19.1198],[72.9841,19.1144],[72.9854,19.1127],[72.9886,19.1123],[72.9891,19.1149],[72.9926,19.1171],[72.9949,19.1154],[72.9977,19.1195]]]},"properties":{"objectid":45056,"statename":"Maharashtra","statecode":"27","districtname":"Thane","districtcode":"517","ulbname":"Navi Mumbai Municiple Corp.","ulbcode":"802788","wardname":"Ghansoli Node - 1","wardcode":"31","id":null,"remark":"","st_area(shape)":0.0001006468900538103,"st_perimeter(shape)":0.051189605076514544}},{"type":"Feature","geometry":{"type":"Polygon","coordinates":[[[72.9888,19.1125],[72.9974,19.1094],[73.001,19.1107],[72.9996,19.1131],[73.0014,19.1183],[72.9977,19.1195],[72.9949,19.1154],[72.9917,19.1168],[72.9891,19.1149],[72.9888,19.1125]]]},"properties":{"objectid":45057,"statename":"Maharashtra","statecode":"27","districtname":"Thane","districtcode":"517","ulbname":"Navi Mumbai Municiple Corp.","ulbcode":"802788","wardname":"Ghansoli Node - 5","wardcode":"35","id":null,"remark":"","st_area(shape)":7.681820931014824e-05,"st_perimeter(shape)":0.04090010057096019}},{"type":"Feature","geometry":{"type":"Polygon","coordinates":[[[72.9839,19.1198],[72.9933,19.1217],[72.9946,19.125],[72.9937,19.128],[72.9953,19.1296],[72.994,19.1332],[72.9931,19.1316],[72.9899,19.1301],[72.9848,19.1305],[72.9805,19.1334],[72.9788,19.1277],[72.9795,19.1251],[72.9809,19.1248],[72.9795,19.1232],[72.9839,19.1198]]]},"properties":{"objectid":45058,"statename":"Maharashtra","statecode":"27","districtname":"Thane","districtcode":"517","ulbname":"Navi Mumbai Municiple Corp.","ulbcode":"802788","wardname":"Ghansoli-3","wardcode":"30","id":null,"remark":"","st_area(shape)":0.00015714082567844264,"st_perimeter(shape)":0.06027856811878028}},{"type":"Feature","geometry":{"type":"Polygon","coordinates":[[[72.9946,19.125],[72.9988,19.1258],[72.9968,19.1298],[72.9938,19.1285],[72.9946,19.125]]]},"properties":{"objectid":45059,"statename":"Maharashtra","statecode":"27","districtname":"Thane","districtcode":"517","ulbname":"Navi Mumbai Municiple Corp.","ulbcode":"802788","wardname":"Ghansoli-2","wardcode":"29","id":null,"remark":"","st_area(shape)":1.809199453599542e-05,"st_perimeter(shape)":0.01846165793753922}},{"type":"Feature","geometry":{"type":"Polygon","coordinates":[[[72.9973,19.1076],[72.9969,19.1065],[72.9995,19.1061],[72.9993,19.1036],[73.001,19.1041],[73.0002,19.1031],[73.0016,19.1034],[73.0021,19.1016],[73.0037,19.1018],[73.0029,19.1046],[72.9973,19.1076]]]},"properties":{"objectid":45060,"statename":"Maharashtra","statecode":"27","districtname":"Thane","districtcode":"517","ulbname":"Navi Mumbai Municiple Corp.","ulbcode":"802788","wardname":"Koparkhairane Gaon - 1","wardcode":"40","id":null,"remark":"","st_area(shape)":1.3374172508597616e-05,"st_perimeter(shape)":0.026764462187022147}},{"type":"Feature","geometry":{"type":"Polygon","coordinates":[[[72.9953,19.1099],[72.986,19.1118],[72.9894,19.1096],[72.9989,19.1075],[73.0029,19.1046],[73.001,19.1107],[72.9953,19.1099]]]},"properties":{"objectid":45061,"statename":"Maharashtra","statecode":"27","districtname":"Thane","districtcode":"517","ulbname":"Navi Mumbai Municiple Corp.","ulbcode":"802788","wardname":"Koparkhairane Ges","wardcode":"39","id":null,"remark":"","st_area(shape)":3.422877927313584e-05,"st_perimeter(shape)":0.04224950011332037}},{"type":"Feature","geometry":{"type":"Polygon","coordinates":[[[73.004,19.1115],[73.0054,19.1067],[73.0067,19.107],[73.0063,19.1084],[73.0099,19.1089],[73.0087,19.1127],[73.004,19.1115]]]},"properties":{"objectid":45062,"statename":"Maharashtra","statecode":"27","districtname":"Thane","districtcode":"517","ulbname":"Navi Mumbai Municiple Corp.","ulbcode":"802788","wardname":"Koparkhairane Node - 1","wardcode":"37","id":null,"remark":"","st_area(shape)":2.050169247324618e-05,"st_perimeter(shape)":0.02072339577806529}},{"type":"Feature","geometry":{"type":"Polygon","coordinates":[[[73.0059,19.1019],[73.0054,19.1067],[73.0044,19.1064],[73.004,19.1077],[73.0021,19.1072],[73.0036,19.1021],[73.0059,19.1019]]]},"properties":{"objectid":45063,"statename":"Maharashtra","statecode":"27","districtname":"Thane","districtcode":"517","ulbname":"Navi Mumbai Municiple Corp.","ulbcode":"802788","wardname":"Koparkhairane Node - 6","wardcode":"45","id":null,"remark":"","st_area(shape)":1.5317863055677658e-05,"st_perimeter(shape)":0.018233284044080013}},{"type":"Feature","geometry":{"type":"Polygon","coordinates":[[[72.9977,19.1032],[72.9773,19.107],[72.9787,19.1],[72.9974,19.0975],[73.0001,19.0983],[73.0006,19.0998],[73.0002,19.1011],[72.9985,19.1006],[72.9977,19.1032]]]},"properties":{"objectid":45064,"statename":"Maharashtra","statecode":"27","districtname":"Thane","districtcode":"517","ulbname":"Navi Mumbai Municiple Corp.","ulbcode":"802788","wardname":"Koparkhairane Node - 3","wardcode":"42","id":null,"remark":"","st_area(shape)":0.00012690125392954242,"st_perimeter(shape)":0.05838157027197895}},{"type":"Feature","geometry":{"type":"Polygon","coordinates":[[[73.008,19.0983],[73.0051,19.0975],[73.0051,19.0929],[73.0089,19.0926],[73.008,19.0983]]]},"properties":{"objectid":45151,"statename":"Maharashtra","statecode":"27","districtname":"Thane","districtcode":"517","ulbname":"Navi Mumbai Municiple Corp.","ulbcode":"802788","wardname":"Koparkhairane Node - 10","wardcode":"51","id":null,"remark":"","st_area(shape)":1.767339589171307e-05,"st_perimeter(shape)":0.017964520149568133}},{"type":"Feature","geometry":{"type":"Polygon","coordinates":[[[72.999,19.0814],[72.9975,19.0747],[73.0022,19.0743],[73.0031,19.0801],[73.0017,19.081],[73.0006,19.0794],[72.999,19.0814]]]},"properties":{"objectid":45152,"statename":"Maharashtra","statecode":"27","districtname":"Thane","districtcode":"517","ulbname":"Navi Mumbai Municiple Corp.","ulbcode":"802788","wardname":"Vashi Node 5","wardcode":"62","id":null,"remark":"","st_area(shape)":2.9195878827197634e-05,"st_perimeter(shape)":0.025093394190926443}},{"type":"Feature","geometry":{"type":"Polygon","coordinates":[[[73.0136,19.0632],[73.0092,19.0632],[73.0093,19.0616],[73.0076,19.0612],[73.0154,19.0542],[73.0189,19.0543],[73.0188,19.0594],[73.0137,19.0593],[73.0136,19.0632]]]},"properties":{"objectid":45153,"statename":"Maharashtra","statecode":"27","districtname":"Thane","districtcode":"517","ulbname":"Navi Mumbai Municiple Corp.","ulbcode":"802788","wardname":"Sanpada Node - 5","wardcode":"79","id":null,"remark":"","st_area(shape)":4.8976095727566065e-05,"st_perimeter(shape)":0.036327984428202106}},{"type":"Feature","geometry":{"type":"Polygon","coordinates":[[[73.022,19.0437],[73.0194,19.0372],[73.0218,19.0366],[73.0213,19.0346],[73.0259,19.0391],[73.0283,19.0396],[73.0276,19.0432],[73.0243,19.0469],[73.022,19.0437]]]},"properties":{"objectid":45154,"statename":"Maharashtra","statecode":"27","districtname":"Thane","districtcode":"517","ulbname":"Navi Mumbai Municiple Corp.","ulbcode":"802788","wardname":"Nerul Node - 5","wardcode":"90","id":null,"remark":"","st_area(shape)":5.2747935350538825e-05,"st_perimeter(shape)":0.03397038357737374}},{"type":"Feature","geometry":{"type":"Polygon","coordinates":[[[73.0114,19.1742],[73.0062,19.173],[73.0045,19.1745],[73.0025,19.174],[73.0022,19.1727],[73.0047,19.1713],[73.0152,19.1726],[73.0154,19.1749],[73.0114,19.1742]]]},"properties":{"objectid":45489,"statename":"Maharashtra","statecode":"27","districtname":"Thane","districtcode":"517","ulbname":"Navi Mumbai Municiple Corp.","ulbcode":"802788","wardname":"Ilthan","wardcode":"5","id":null,"remark":"","st_area(shape)":2.880047915267723e-05,"st_perimeter(shape)":0.03303172907397476}},{"type":"Feature","geometry":{"type":"Polygon","coordinates":[[[72.996,19.1886],[72.9955,19.1867],[72.9971,19.1864],[72.9985,19.1866],[72.9984,19.1877],[73.0075,19.1881],[73.0044,19.1882],[73.0043,19.1904],[72.9985,19.1909],[72.9981,19.1892],[72.9964,19.1896],[72.996,19.1886]]]},"properties":{"objectid":45490,"statename":"Maharashtra","statecode":"27","districtname":"Thane","districtcode":"517","ulbname":"Navi Mumbai Municiple Corp.","ulbcode":"802788","wardname":"Ishwar Nagar","wardcode":"1","id":null,"remark":"","st_area(shape)":2.8808586143410097e-05,"st_perimeter(shape)":0.0333068126548963}},{"type":"Feature","geometry":{"type":"Polygon","coordinates":[[[73.004,19.1507],[73.0052,19.1575],[73.0031,19.17],[73.0022,19.1658],[72.9989,19.1659],[73.0001,19.1486],[73.0021,19.1486],[73.004,19.1507]]]},"properties":{"objectid":45491,"statename":"Maharashtra","statecode":"27","districtname":"Thane","districtcode":"517","ulbname":"Navi Mumbai Municiple Corp.","ulbcode":"802788","wardname":"Chinchpada","wardcode":"7","id":null,"remark":"","st_area(shape)":8.948239850390528e-05,"st_perimeter(shape)":0.05006608432371484}},{"type":"Feature","geometry":{"type":"Polygon","coordinates":[[[72.9937,19.1611],[72.9946,19.1655],[72.9914,19.1656],[72.9904,19.1622],[72.9937,19.1611]]]},"properties":{"objectid":45492,"statename":"Maharashtra","statecode":"27","districtname":"Thane","districtcode":"517","ulbname":"Navi Mumbai Municiple Corp.","ulbcode":"802788","wardname":"Airoligaon","wardcode":"11","id":null,"remark":"","st_area(shape)":1.4184050634422206e-05,"st_perimeter(shape)":0.01758112216221485}},{"type":"Feature","geometry":{"type":"Polygon","coordinates":[[[72.9949,19.15],[72.9948,19.1466],[73.0002,19.1466],[73.0002,19.1515],[72.9949,19.1516],[72.9949,19.15]]]},"properties":{"objectid":45493,"statename":"Maharashtra","statecode":"27","districtname":"Thane","districtcode":"517","ulbname":"Navi Mumbai Municiple Corp.","ulbcode":"802788","wardname":"Airoli Node - 8","wardcode":"18","id":null,"remark":"","st_area(shape)":2.662414496396094e-05,"st_perimeter(shape)":0.02213712583781905}},{"type":"Feature","geometry":{"type":"Polygon","coordinates":[[[73.004,19.1507],[73.0021,19.1486],[73.0001,19.1486],[73.0012,19.1446],[73.0033,19.145],[73.0056,19.1495],[73.0082,19.1482],[73.0076,19.1508],[73.0135,19.1587],[73.0156,19.1682],[73.0152,19.1726],[73.0069,19.1713],[73.0085,19.1564],[73.0076,19.1528],[73.004,19.1507]]]},"properties":{"objectid":45494,"statename":"Maharashtra","statecode":"27","districtname":"Thane","districtcode":"517","ulbname":"Navi Mumbai Municiple Corp.","ulbcode":"802788","wardname":"Dr. Ambedkar Nagar","wardcode":"19","id":null,"remark":"","st_area(shape)":0.0001427885306481282,"st_perimeter(shape)":0.07953673745821353}},{"type":"Feature","geometry":{"type":"Polygon","coordinates":[[[73.0,19.132],[72.9994,19.1298],[73.0007,19.1259],[73.0042,19.1261],[73.0031,19.1315],[73.0013,19.1335],[73.0,19.132]]]},"properties":{"objectid":45495,"statename":"Maharashtra","statecode":"27","districtname":"Thane","districtcode":"517","ulbname":"Navi Mumbai Municiple Corp.","ulbcode":"802788","wardname":"Talavali Naka","wardcode":"27","id":null,"remark":"","st_area(shape)":2.2491768011080207e-05,"st_perimeter(shape)":0.022523269625473644}},{"type":"Feature","geometry":{"type":"Polygon","coordinates":[[[72.9946,19.1421],[72.9912,19.1415],[72.9889,19.1426],[72.9898,19.1443],[72.9857,19.1468],[72.9817,19.1473],[72.9801,19.1364],[72.9839,19.1338],[72.9847,19.1353],[72.9982,19.1362],[73.0004,19.1374],[72.9985,19.1394],[73.0018,19.1432],[73.0012,19.1446],[72.9985,19.1428],[72.9946,19.1421]]]},"properties":{"objectid":45496,"statename":"Maharashtra","statecode":"27","districtname":"Thane","districtcode":"517","ulbname":"Navi Mumbai Municiple Corp.","ulbcode":"802788","wardname":"Rabale","wardcode":"24","id":null,"remark":"","st_area(shape)":0.00016195561361760985,"st_perimeter(shape)":0.06805246569424026}},{"type":"Feature","geometry":{"type":"Polygon","coordinates":[[[73.0234,19.1512],[73.0162,19.1466],[73.0157,19.1451],[73.0025,19.1385],[73.0042,19.1261],[73.0106,19.1068],[73.0141,19.1083],[73.0143,19.1114],[73.0131,19.1127],[73.0167,19.1117],[73.0169,19.1061],[73.0179,19.1078],[73.0201,19.1064],[73.0227,19.1072],[73.0209,19.1123],[73.0227,19.112],[73.023,19.113],[73.0316,19.1113],[73.0344,19.1166],[73.0346,19.1287],[73.0357,19.1307],[73.0305,19.1324],[73.0305,19.1376],[73.0287,19.1406],[73.0278,19.1476],[73.0234,19.1512]]]},"properties":{"objectid":45497,"statename":"Maharashtra","statecode":"27","districtname":"Thane","districtcode":"517","ulbname":"Navi Mumbai Municiple Corp.","ulbcode":"802788","wardname":"Mahape","wardcode":"26","id":null,"remark":"","st_area(shape)":0.0009695675819176153,"st_perimeter(shape)":0.15093737287522216}},{"type":"Feature","geometry":{"type":"Polygon","coordinates":[[[73.0,19.132],[72.995,19.1322],[72.9951,19.1298],[72.9974,19.1293],[72.9988,19.1258],[73.0007,19.1259],[72.9994,19.1298],[73.0,19.132]]]},"properties":{"objectid":45498,"statename":"Maharashtra","statecode":"27","districtname":"Thane","districtcode":"517","ulbname":"Navi Mumbai Municiple Corp.","ulbcode":"802788","wardname":"Ghansoli-1","wardcode":"28","id":null,"remark":"","st_area(shape)":2.0604909889193536e-05,"st_perimeter(shape)":0.02576532331903336}},{"type":"Feature","geometry":{"type":"Polygon","coordinates":[[[73.004,19.1115],[73.0087,19.1127],[73.0079,19.1149],[73.0055,19.1145],[73.0049,19.1168],[73.0025,19.1162],[73.0024,19.1133],[73.0004,19.1127],[73.001,19.1107],[73.004,19.1115]]]},"properties":{"objectid":45499,"statename":"Maharashtra","statecode":"27","districtname":"Thane","districtcode":"517","ulbname":"Navi Mumbai Municiple Corp.","ulbcode":"802788","wardname":"Ghansoli Node - 6","wardcode":"36","id":null,"remark":"","st_area(shape)":2.594888623174206e-05,"st_perimeter(shape)":0.02545115754097555}},{"type":"Feature","geometry":{"type":"Polygon","coordinates":[[[72.9977,19.1032],[72.9985,19.1006],[73.0021,19.1016],[73.0016,19.1034],[73.0002,19.1031],[73.001,19.1041],[72.9977,19.1032]]]},"properties":{"objectid":45500,"statename":"Maharashtra","statecode":"27","districtname":"Thane","districtcode":"517","ulbname":"Navi Mumbai Municiple Corp.","ulbcode":"802788","wardname":"Koparkhairane Node - 4","wardcode":"43","id":null,"remark":"","st_area(shape)":9.325278490391289e-06,"st_perimeter(shape)":0.01481172969597616}},{"type":"Feature","geometry":{"type":"Polygon","coordinates":[[[72.9977,19.1195],[73.0014,19.1183],[73.0012,19.1213],[72.9995,19.1221],[72.9977,19.1195]]]},"properties":{"objectid":45501,"statename":"Maharashtra","statecode":"27","districtname":"Thane","districtcode":"517","ulbname":"Navi Mumbai Municiple Corp.","ulbcode":"802788","wardname":"Ghansoli Node - 4","wardcode":"34","id":null,"remark":"","st_area(shape)":8.807980589358069e-06,"st_perimeter(shape)":0.013087756978316892}},{"type":"Feature","geometry":{"type":"Polygon","coordinates":[[[73.0144,19.044],[73.0143,19.0408],[73.0182,19.0395],[73.0184,19.0439],[73.0144,19.044]]]},"properties":{"objectid":45502,"statename":"Maharashtra","statecode":"27","districtname":"Thane","districtcode":"517","ulbname":"Navi Mumbai Municiple Corp.","ulbcode":"802788","wardname":"Nerul Node - 3","wardcode":"87","id":null,"remark":"","st_area(shape)":1.544305745411175e-05,"st_perimeter(shape)":0.016531091903637413}},{"type":"Feature","geometry":{"type":"Polygon","coordinates":[[[72.9937,19.1611],[72.9944,19.1557],[72.9998,19.1558],[72.9994,19.1608],[72.9937,19.1611]]]},"properties":{"objectid":45503,"statename":"Maharashtra","statecode":"27","districtname":"Thane","districtcode":"517","ulbname":"Navi Mumbai Municiple Corp.","ulbcode":"802788","wardname":"Airoli Node - 3","wardcode":"13","id":null,"remark":"","st_area(shape)":2.817288532143033e-05,"st_perimeter(shape)":0.021544419633606805}},{"type":"Feature","geometry":{"type":"Polygon","coordinates":[[[72.9979,19.0795],[73.0,19.0829],[72.9974,19.0845],[72.9948,19.0795],[72.9979,19.0795]]]},"properties":{"objectid":45570,"statename":"Maharashtra","statecode":"27","districtname":"Thane","districtcode":"517","ulbname":"Navi Mumbai Municiple Corp.","ulbcode":"802788","wardname":"Vashi Node 4","wardcode":"61","id":null,"remark":"","st_area(shape)":1.545014309931703e-05,"st_perimeter(shape)":0.017726791814438966}},{"type":"Feature","geometry":{"type":"Polygon","coordinates":[[[73.0122,19.0383],[73.0074,19.0385],[72.9975,19.0421],[72.9981,19.0349],[73.0084,19.0343],[73.012,19.0357],[73.0122,19.0383]]]},"properties":{"objectid":45571,"statename":"Maharashtra","statecode":"27","districtname":"Thane","districtcode":"517","ulbname":"Navi Mumbai Municiple Corp.","ulbcode":"802788","wardname":"Nerul Node - 8","wardcode":"96","id":null,"remark":"","st_area(shape)":6.847283971794636e-05,"st_perimeter(shape)":0.04153970246326192}},{"type":"Feature","geometry":{"type":"Polygon","coordinates":[[[73.0481,19.0304],[73.0439,19.0298],[73.0426,19.0286],[73.0435,19.0278],[73.0392,19.0246],[73.047,19.0226],[73.0481,19.0304]]]},"properties":{"objectid":45572,"statename":"Maharashtra","statecode":"27","districtname":"Thane","districtcode":"517","ulbname":"Navi Mumbai Municiple Corp.","ulbcode":"802788","wardname":"Belapur Node-4","wardcode":"104","id":null,"remark":"","st_area(shape)":4.179108975957022e-05,"st_perimeter(shape)":0.030467705944325442}},{"type":"Feature","geometry":{"type":"Polygon","coordinates":[[[73.0142,19.0328],[73.0119,19.0333],[73.012,19.0357],[73.0084,19.0343],[72.9981,19.0349],[72.9988,19.0296],[73.0017,19.0291],[73.0069,19.0291],[73.0092,19.0312],[73.0117,19.0295],[73.0118,19.031],[73.0142,19.031],[73.0142,19.0328]]]},"properties":{"objectid":45573,"statename":"Maharashtra","statecode":"27","districtname":"Thane","districtcode":"517","ulbname":"Navi Mumbai Municiple Corp.","ulbcode":"802788","wardname":"Nerul Node - 9","wardcode":"97","id":null,"remark":"","st_area(shape)":7.561052078918828e-05,"st_perimeter(shape)":0.046950495961860926}},{"type":"Feature","geometry":{"type":"Polygon","coordinates":[[[73.015,19.0369],[73.0136,19.0328],[73.0178,19.0321],[73.0181,19.0373],[73.015,19.0369]]]},"properties":{"objectid":45574,"statename":"Maharashtra","statecode":"27","districtname":"Thane","districtcode":"517","ulbname":"Navi Mumbai Municiple Corp.","ulbcode":"802788","wardname":"Nerulgaon - 1","wardcode":"93","id":null,"remark":"","st_area(shape)":1.6900345929149117e-05,"st_perimeter(shape)":0.020284691030634523}},{"type":"Feature","geometry":{"type":"Polygon","coordinates":[[[73.0051,19.0929],[73.0053,19.0968],[73.0035,19.1008],[72.9974,19.0975],[72.9787,19.1],[72.9824,19.0976],[72.9841,19.087],[72.987,19.0835],[72.9888,19.0834],[72.9912,19.0878],[72.9962,19.0921],[73.0051,19.0929]]]},"properties":{"objectid":45575,"statename":"Maharashtra","statecode":"27","districtname":"Thane","districtcode":"517","ulbname":"Navi Mumbai Municiple Corp.","ulbcode":"802788","wardname":"Koparkhairane Node - 11","wardcode":"52","id":null,"remark":"","st_area(shape)":0.00021855375065186333,"st_perimeter(shape)":0.07979354217270675}},{"type":"Feature","geometry":{"type":"Polygon","coordinates":[[[73.0152,19.0495],[73.0173,19.0445],[73.0184,19.0445],[73.0184,19.0543],[73.0161,19.0542],[73.0168,19.0497],[73.0152,19.0495]]]},"properties":{"objectid":45576,"statename":"Maharashtra","statecode":"27","districtname":"Thane","districtcode":"517","ulbname":"Navi Mumbai Municiple Corp.","ulbcode":"802788","wardname":"Sanpada Node - 6","wardcode":"82","id":null,"remark":"","st_area(shape)":1.8737250273838143e-05,"st_perimeter(shape)":0.02641574021075095}},{"type":"Feature","geometry":{"type":"Polygon","coordinates":[[[73.0205,19.0769],[73.0179,19.0767],[73.0188,19.0706],[73.0236,19.071],[73.0242,19.0751],[73.0215,19.0751],[73.0205,19.0769]]]},"properties":{"objectid":45577,"statename":"Maharashtra","statecode":"27","districtname":"Thane","districtcode":"517","ulbname":"Navi Mumbai Municiple Corp.","ulbcode":"802788","wardname":"Tubhe Store - 1","wardcode":"71","id":null,"remark":"","st_area(shape)":3.0197535982931566e-05,"st_perimeter(shape)":0.023335385540938742}},{"type":"Feature","geometry":{"type":"Polygon","coordinates":[[[73.0184,19.0439],[73.0158,19.0486],[73.0143,19.0485],[73.0113,19.0509],[73.0095,19.0492],[72.9998,19.0498],[72.9958,19.0579],[72.993,19.0569],[72.9973,19.0479],[72.9972,19.0442],[73.0184,19.0439]]]},"properties":{"objectid":45578,"statename":"Maharashtra","statecode":"27","districtname":"Thane","districtcode":"517","ulbname":"Navi Mumbai Municiple Corp.","ulbcode":"802788","wardname":"Nerul Node - 1","wardcode":"84","id":null,"remark":"","st_area(shape)":0.00013289636059607237,"st_perimeter(shape)":0.0720404588994676}},{"type":"Feature","geometry":{"type":"Polygon","coordinates":[[[73.0216,19.045],[73.0226,19.0463],[73.0211,19.0492],[73.0201,19.0491],[73.0199,19.0446],[73.0216,19.045]]]},"properties":{"objectid":45579,"statename":"Maharashtra","statecode":"27","districtname":"Thane","districtcode":"517","ulbname":"Navi Mumbai Municiple Corp.","ulbcode":"802788","wardname":"Shirvane - 2","wardcode":"89","id":null,"remark":"","st_area(shape)":8.452418237103243e-06,"st_perimeter(shape)":0.014872616056486033}},{"type":"Feature","geometry":{"type":"Polygon","coordinates":[[[73.0397,19.0062],[73.0432,19.0083],[73.0458,19.0142],[73.0469,19.022],[73.0431,19.0219],[73.0398,19.0199],[73.0358,19.0174],[73.037,19.0143],[73.0334,19.0137],[73.0342,19.0115],[73.0373,19.0131],[73.0397,19.0062]]]},"properties":{"objectid":45580,"statename":"Maharashtra","statecode":"27","districtname":"Thane","districtcode":"517","ulbname":"Navi Mumbai Municiple Corp.","ulbcode":"802788","wardname":"Diwale","wardcode":"105","id":null,"remark":"","st_area(shape)":0.00011384645385553934,"st_perimeter(shape)":0.05120613601226181}},{"type":"Feature","geometry":{"type":"Polygon","coordinates":[[[72.9937,19.1611],[72.9994,19.1608],[72.999,19.1647],[72.9935,19.1633],[72.9937,19.1611]]]},"properties":{"objectid":45805,"statename":"Maharashtra","statecode":"27","districtname":"Thane","districtcode":"517","ulbname":"Navi Mumbai Municiple Corp.","ulbcode":"802788","wardname":"Airoli Node - 2","wardcode":"12","id":null,"remark":"","st_area(shape)":1.7589525906989575e-05,"st_perimeter(shape)":0.01895274983584281}},{"type":"Feature","geometry":{"type":"Polygon","coordinates":[[[73.0054,19.1067],[73.004,19.1115],[73.001,19.1107],[73.0021,19.1072],[73.004,19.1077],[73.0044,19.1064],[73.0054,19.1067]]]},"properties":{"objectid":45806,"statename":"Maharashtra","statecode":"27","districtname":"Thane","districtcode":"517","ulbname":"Navi Mumbai Municiple Corp.","ulbcode":"802788","wardname":"Koparkhairane Node - 2","wardcode":"38","id":null,"remark":"Approved","st_area(shape)":1.2679120319971883e-05,"st_perimeter(shape)":0.01620489058789986}},{"type":"Feature","geometry":{"type":"Polygon","coordinates":[[[73.0106,19.0664],[73.0123,19.0668],[73.0124,19.064],[73.0165,19.0618],[73.0171,19.0638],[73.015,19.0659],[73.0181,19.0672],[73.0108,19.0678],[73.0106,19.0664]]]},"properties":{"objectid":45807,"statename":"Maharashtra","statecode":"27","districtname":"Thane","districtcode":"517","ulbname":"Navi Mumbai Municiple Corp.","ulbcode":"802788","wardname":"Sanpada Gaon","wardcode":"75","id":null,"remark":"","st_area(shape)":2.1525050404213628e-05,"st_perimeter(shape)":0.029352075909319656}},{"type":"Feature","geometry":{"type":"Polygon","coordinates":[[[73.0138,19.0875],[73.0087,19.0885],[73.0031,19.0801],[73.0016,19.0685],[73.0117,19.0677],[73.0119,19.0695],[73.0101,19.0696],[73.0103,19.0719],[73.0089,19.0721],[73.0098,19.0813],[73.0138,19.0875]]]},"properties":{"objectid":45904,"statename":"Maharashtra","statecode":"27","districtname":"Thane","districtcode":"517","ulbname":"Navi Mumbai Municiple Corp.","ulbcode":"802788","wardname":"Apmc Market","wardcode":"57","id":null,"remark":"","st_area(shape)":0.00013745627317289887,"st_perimeter(shape)":0.06278886965499135}},{"type":"Feature","geometry":{"type":"Polygon","coordinates":[[[73.0436,19.0652],[73.0425,19.0684],[73.0437,19.0722],[73.0426,19.0741],[73.0435,19.0788],[73.027,19.0762],[73.0271,19.0751],[73.0242,19.0751],[73.0236,19.071],[73.0188,19.0706],[73.0188,19.0629],[73.0292,19.0632],[73.0278,19.0646],[73.0346,19.0682],[73.0387,19.0655],[73.0436,19.0652]]]},"properties":{"objectid":45905,"statename":"Maharashtra","statecode":"27","districtname":"Thane","districtcode":"517","ulbname":"Navi Mumbai Municiple Corp.","ulbcode":"802788","wardname":"Ambedkar Nagar, Ganesh Nagar","wardcode":"73","id":null,"remark":"","st_area(shape)":0.0002603119209038954,"st_perimeter(shape)":0.08283173048994881}},{"type":"Feature","geometry":{"type":"Polygon","coordinates":[[[72.9988,19.0296],[72.9998,19.0264],[72.9993,19.0219],[73.008,19.0213],[73.008,19.0225],[73.0107,19.0226],[73.0136,19.0247],[73.015,19.0234],[73.0124,19.0216],[73.0173,19.0172],[73.0204,19.0204],[73.0163,19.0251],[73.0178,19.0321],[73.0154,19.0321],[73.0142,19.0334],[73.0142,19.031],[73.0118,19.031],[73.0117,19.0295],[73.0092,19.0312],[73.0069,19.0291],[72.9988,19.0296]]]},"properties":{"objectid":45906,"statename":"Maharashtra","statecode":"27","districtname":"Thane","districtcode":"517","ulbname":"Navi Mumbai Municiple Corp.","ulbcode":"802788","wardname":"Nerul Node - 10","wardcode":"98","id":null,"remark":"","st_area(shape)":0.00016031888723020413,"st_perimeter(shape)":0.08016968936887797}},{"type":"Feature","geometry":{"type":"Polygon","coordinates":[[[73.0237,19.024],[73.0201,19.0258],[73.0166,19.0243],[73.0245,19.017],[73.0283,19.0163],[73.0277,19.0214],[73.0237,19.024]]]},"properties":{"objectid":45907,"statename":"Maharashtra","statecode":"27","districtname":"Thane","districtcode":"517","ulbname":"Navi Mumbai Municiple Corp.","ulbcode":"802788","wardname":"Nerul Node - 11","wardcode":"99","id":null,"remark":"","st_area(shape)":5.640478101972991e-05,"st_perimeter(shape)":0.033870681036651265}},{"type":"Feature","geometry":{"type":"Polygon","coordinates":[[[73.008,19.0983],[73.0083,19.0953],[73.0124,19.0951],[73.0103,19.099],[73.008,19.0983]]]},"properties":{"objectid":45908,"statename":"Maharashtra","statecode":"27","districtname":"Thane","districtcode":"517","ulbname":"Navi Mumbai Municiple Corp.","ulbcode":"802788","wardname":"Sector - 12 (Ges) Bonkodegaon","wardcode":"50","id":null,"remark":"","st_area(shape)":1.1940600625401548e-05,"st_perimeter(shape)":0.015542882241690799}},{"type":"Feature","geometry":{"type":"Polygon","coordinates":[[[73.0138,19.0875],[73.0167,19.0855],[73.0173,19.0922],[73.0117,19.0925],[73.0087,19.0885],[73.0138,19.0875]]]},"properties":{"objectid":45909,"statename":"Maharashtra","statecode":"27","districtname":"Thane","districtcode":"517","ulbname":"Navi Mumbai Municiple Corp.","ulbcode":"802788","wardname":"Koparigaon","wardcode":"56","id":null,"remark":"","st_area(shape)":3.614344483372626e-05,"st_perimeter(shape)":0.027478690643079288}},{"type":"Feature","geometry":{"type":"Polygon","coordinates":[[[73.0202,19.0784],[73.0175,19.0787],[73.0179,19.0767],[73.0205,19.0769],[73.0202,19.0784]]]},"properties":{"objectid":45910,"statename":"Maharashtra","statecode":"27","districtname":"Thane","districtcode":"517","ulbname":"Navi Mumbai Municiple Corp.","ulbcode":"802788","wardname":"Tubhe Store - 1","wardcode":"70","id":null,"remark":"","st_area(shape)":5.441908310755028e-06,"st_perimeter(shape)":0.00940354049010721}},{"type":"Feature","geometry":{"type":"Polygon","coordinates":[[[73.0226,19.0299],[73.0237,19.03],[73.0251,19.0348],[73.0292,19.0333],[73.0283,19.0396],[73.0259,19.0391],[73.0207,19.034],[73.0193,19.0341],[73.0189,19.0327],[73.0217,19.0316],[73.0226,19.0299]]]},"properties":{"objectid":45911,"statename":"Maharashtra","statecode":"27","districtname":"Thane","districtcode":"517","ulbname":"Navi Mumbai Municiple Corp.","ulbcode":"802788","wardname":"Nerul Node - 6","wardcode":"91","id":null,"remark":"","st_area(shape)":4.289179153709374e-05,"st_perimeter(shape)":0.036675746206441165}},{"type":"Feature","geometry":{"type":"Polygon","coordinates":[[[73.0063,19.063],[73.0046,19.0647],[73.0013,19.0643],[73.001,19.0594],[73.0027,19.0595],[73.004,19.0613],[73.0057,19.0603],[73.0063,19.063]]]},"properties":{"objectid":45912,"statename":"Maharashtra","statecode":"27","districtname":"Thane","districtcode":"517","ulbname":"Navi Mumbai Municiple Corp.","ulbcode":"802788","wardname":"Sanpada Node - 3","wardcode":"77","id":null,"remark":"","st_area(shape)":2.1152956099188143e-05,"st_perimeter(shape)":0.019892378547493716}},{"type":"Feature","geometry":{"type":"Polygon","coordinates":[[[72.9819,19.156],[72.982,19.1506],[72.9949,19.1484],[72.9949,19.15],[72.9924,19.1501],[72.9928,19.1555],[72.9819,19.156]]]},"properties":{"objectid":46205,"statename":"Maharashtra","statecode":"27","districtname":"Thane","districtcode":"517","ulbname":"Navi Mumbai Municiple Corp.","ulbcode":"802788","wardname":"Airoli Node - 5","wardcode":"15","id":null,"remark":"","st_area(shape)":6.928254917315504e-05,"st_perimeter(shape)":0.039287560048569106}},{"type":"Feature","geometry":{"type":"Polygon","coordinates":[[[72.9944,19.1557],[72.9946,19.1542],[72.9971,19.153],[72.9963,19.1515],[73.0002,19.1515],[72.9998,19.1558],[72.9944,19.1557]]]},"properties":{"objectid":46206,"statename":"Maharashtra","statecode":"27","districtname":"Thane","districtcode":"517","ulbname":"Navi Mumbai Municiple Corp.","ulbcode":"802788","wardname":"Airoli Node - 7","wardcode":"17","id":null,"remark":"","st_area(shape)":1.758872064946157e-05,"st_perimeter(shape)":0.02131949765699746}},{"type":"Feature","geometry":{"type":"Polygon","coordinates":[[[73.0055,19.1215],[73.0042,19.1261],[72.9991,19.1258],[72.9986,19.1215],[73.0023,19.1206],[73.0055,19.1215]]]},"properties":{"objectid":46207,"statename":"Maharashtra","statecode":"27","districtname":"Thane","districtcode":"517","ulbname":"Navi Mumbai Municiple Corp.","ulbcode":"802788","wardname":"Ghansoli Node - 1","wardcode":"32","id":null,"remark":"","st_area(shape)":2.7184161987097925e-05,"st_perimeter(shape)":0.02354936656197732}},{"type":"Feature","geometry":{"type":"Polygon","coordinates":[[[73.0004,19.1127],[73.0024,19.1133],[73.0025,19.1162],[73.0049,19.1168],[73.0055,19.1145],[73.0079,19.1149],[73.0055,19.1215],[73.0012,19.1209],[73.0004,19.1127]]]},"properties":{"objectid":46208,"statename":"Maharashtra","statecode":"27","districtname":"Thane","districtcode":"517","ulbname":"Navi Mumbai Municiple Corp.","ulbcode":"802788","wardname":"Ghansoli Node - 3","wardcode":"33","id":null,"remark":"","st_area(shape)":3.596013630960154e-05,"st_perimeter(shape)":0.0345399599298474}},{"type":"Feature","geometry":{"type":"Polygon","coordinates":[[[73.0053,19.0998],[73.0124,19.1018],[73.012,19.1027],[73.0098,19.102],[73.0078,19.1049],[73.0053,19.0998]]]},"properties":{"objectid":46209,"statename":"Maharashtra","statecode":"27","districtname":"Thane","districtcode":"517","ulbname":"Navi Mumbai Municiple Corp.","ulbcode":"802788","wardname":"Koparkhairane Node - 8","wardcode":"47","id":null,"remark":"","st_area(shape)":1.4123143281208021e-05,"st_perimeter(shape)":0.023192241585302767}},{"type":"Feature","geometry":{"type":"Polygon","coordinates":[[[73.0051,19.0929],[72.9957,19.0912],[73.0016,19.0884],[72.9998,19.0867],[73.0014,19.0848],[73.0049,19.0902],[73.0051,19.0929]]]},"properties":{"objectid":46210,"statename":"Maharashtra","statecode":"27","districtname":"Thane","districtcode":"517","ulbname":"Navi Mumbai Municiple Corp.","ulbcode":"802788","wardname":"Juhugaon - 1","wardcode":"53","id":null,"remark":"","st_area(shape)":3.2549274348779686e-05,"st_perimeter(shape)":0.0320502240266831}},{"type":"Feature","geometry":{"type":"Polygon","coordinates":[[[73.0089,19.0926],[73.0051,19.0929],[73.0049,19.0902],[73.0024,19.0865],[73.006,19.0845],[73.0116,19.0916],[73.0117,19.0925],[73.0089,19.0926]]]},"properties":{"objectid":46290,"statename":"Maharashtra","statecode":"27","districtname":"Thane","districtcode":"517","ulbname":"Navi Mumbai Municiple Corp.","ulbcode":"802788","wardname":"Vashi Node 1","wardcode":"54","id":null,"remark":"","st_area(shape)":3.809610014911456e-05,"st_perimeter(shape)":0.027824536152275703}},{"type":"Feature","geometry":{"type":"Polygon","coordinates":[[[73.001,19.0594],[72.9963,19.056],[72.9998,19.0498],[73.0095,19.0492],[73.0113,19.0509],[73.0143,19.0485],[73.0152,19.0495],[73.0132,19.0517],[73.0153,19.0548],[73.0067,19.063],[73.0057,19.0603],[73.004,19.0613],[73.0027,19.0595],[73.001,19.0594]]]},"properties":{"objectid":46291,"statename":"Maharashtra","statecode":"27","districtname":"Thane","districtcode":"517","ulbname":"Navi Mumbai Municiple Corp.","ulbcode":"802788","wardname":"Sanpada Node - 4","wardcode":"78","id":null,"remark":"","st_area(shape)":0.000160481708262875,"st_perimeter(shape)":0.061413676465534715}},{"type":"Feature","geometry":{"type":"Polygon","coordinates":[[[72.9979,19.0063],[73.0061,19.0065],[73.0096,19.0118],[73.008,19.0147],[73.0113,19.0146],[73.0133,19.0171],[73.0117,19.0186],[73.0136,19.0205],[73.0124,19.0216],[73.015,19.0234],[73.0136,19.0247],[73.0107,19.0226],[73.008,19.0225],[73.008,19.0213],[72.9993,19.0219],[72.9979,19.0063]]]},"properties":{"objectid":46292,"statename":"Maharashtra","statecode":"27","districtname":"Thane","districtcode":"517","ulbname":"Navi Mumbai Municiple Corp.","ulbcode":"802788","wardname":"Karave","wardcode":"110","id":null,"remark":"","st_area(shape)":0.00018519575770154615,"st_perimeter(shape)":0.06917882146658455}},{"type":"Feature","geometry":{"type":"Polygon","coordinates":[[[72.9959,19.0855],[72.9929,19.0884],[72.9901,19.0835],[72.9874,19.0822],[72.9874,19.079],[72.9841,19.0789],[72.9852,19.0763],[72.9884,19.0762],[72.9899,19.0779],[72.99,19.0753],[72.995,19.0749],[72.9947,19.0723],[72.9962,19.0722],[72.9973,19.0733],[72.9979,19.0795],[72.9948,19.0795],[72.9974,19.0845],[72.9959,19.0855]]]},"properties":{"objectid":46293,"statename":"Maharashtra","statecode":"27","districtname":"Thane","districtcode":"517","ulbname":"Navi Mumbai Municiple Corp.","ulbcode":"802788","wardname":"Vashi Node 3","wardcode":"60","id":null,"remark":"","st_area(shape)":0.00010329791164416371,"st_perimeter(shape)":0.0602809760315615}},{"type":"Feature","geometry":{"type":"Polygon","coordinates":[[[73.0435,19.0788],[73.0472,19.0867],[73.0474,19.0975],[73.0494,19.1072],[73.0475,19.1232],[73.0448,19.1284],[73.0416,19.1238],[73.04,19.1242],[73.0396,19.1307],[73.0357,19.1307],[73.0346,19.1287],[73.0344,19.1166],[73.0323,19.1118],[73.0299,19.111],[73.023,19.113],[73.0227,19.112],[73.0209,19.1123],[73.0255,19.0999],[73.0277,19.0864],[73.0228,19.0859],[73.0245,19.0808],[73.0202,19.0782],[73.0215,19.0751],[73.0271,19.0751],[73.027,19.0762],[73.0435,19.0788]]]},"properties":{"objectid":46294,"statename":"Maharashtra","statecode":"27","districtname":"Thane","districtcode":"517","ulbname":"Navi Mumbai Municiple Corp.","ulbcode":"802788","wardname":"Indiranagar","wardcode":"69","id":null,"remark":"","st_area(shape)":0.001008533422967581,"st_perimeter(shape)":0.17412330157390252}},{"type":"Feature","geometry":{"type":"Polygon","coordinates":[[[73.0136,19.0632],[73.0124,19.064],[73.0123,19.0668],[73.0036,19.0648],[73.0056,19.0643],[73.0076,19.0612],[73.0093,19.0616],[73.0092,19.0632],[73.0136,19.0632]]]},"properties":{"objectid":46295,"statename":"Maharashtra","statecode":"27","districtname":"Thane","districtcode":"517","ulbname":"Navi Mumbai Municiple Corp.","ulbcode":"802788","wardname":"Sanpada Node - 2","wardcode":"76","id":null,"remark":"","st_area(shape)":2.5219773471619043e-05,"st_perimeter(shape)":0.02787999968229669}},{"type":"Feature","geometry":{"type":"Polygon","coordinates":[[[73.015,19.0369],[73.0181,19.0373],[73.0182,19.0395],[73.0142,19.0403],[73.015,19.0369]]]},"properties":{"objectid":46296,"statename":"Maharashtra","statecode":"27","districtname":"Thane","districtcode":"517","ulbname":"Navi Mumbai Municiple Corp.","ulbcode":"802788","wardname":"Nerul Node - 7","wardcode":"94","id":null,"remark":"","st_area(shape)":9.720527795340624e-06,"st_perimeter(shape)":0.014900354541106067}},{"type":"Feature","geometry":{"type":"Polygon","coordinates":[[[73.0342,19.0115],[73.0334,19.0137],[73.037,19.0143],[73.0358,19.0174],[73.0283,19.0163],[73.0285,19.0096],[73.0342,19.0115]]]},"properties":{"objectid":46297,"statename":"Maharashtra","statecode":"27","districtname":"Thane","districtcode":"517","ulbname":"Navi Mumbai Municiple Corp.","ulbcode":"802788","wardname":"Belapur Shahbaj","wardcode":"106","id":null,"remark":"","st_area(shape)":4.193650745283384e-05,"st_perimeter(shape)":0.02987551071955131}},{"type":"Feature","geometry":{"type":"Polygon","coordinates":[[[73.0113,19.0146],[73.0132,19.0131],[73.0153,19.0153],[73.0176,19.014],[73.0175,19.0169],[73.0136,19.0205],[73.0117,19.0186],[73.0133,19.0171],[73.0113,19.0146]]]},"properties":{"objectid":46298,"statename":"Maharashtra","statecode":"27","districtname":"Thane","districtcode":"517","ulbname":"Navi Mumbai Municiple Corp.","ulbcode":"802788","wardname":"Nerul Node-14","wardcode":"109","id":null,"remark":"","st_area(shape)":2.5606795020188823e-05,"st_perimeter(shape)":0.02462888157021811}},{"type":"Feature","geometry":{"type":"Polygon","coordinates":[[[73.0481,19.0304],[73.0482,19.0407],[73.044,19.0361],[73.0411,19.0348],[73.0393,19.0303],[73.0426,19.0286],[73.0481,19.0304]]]},"properties":{"objectid":46299,"statename":"Maharashtra","statecode":"27","districtname":"Thane","districtcode":"517","ulbname":"Navi Mumbai Municiple Corp.","ulbcode":"802788","wardname":"Belapur Node-3","wardcode":"103","id":null,"remark":"","st_area(shape)":6.066965046305894e-05,"st_perimeter(shape)":0.036662014897196366}},{"type":"Feature","geometry":{"type":"Polygon","coordinates":[[[73.0397,19.0062],[73.0373,19.0131],[73.0285,19.0096],[73.0283,19.0163],[73.0256,19.0165],[73.0226,19.0186],[73.0221,19.0162],[73.021,19.016],[73.0222,19.0085],[73.0162,19.0077],[73.0129,19.0092],[73.003,19.0005],[73.0115,18.9971],[73.0214,19.001],[73.0238,19.0006],[73.0238,18.9977],[73.0253,18.9997],[73.0318,19.0005],[73.0397,19.0062]]]},"properties":{"objectid":46605,"statename":"Maharashtra","statecode":"27","districtname":"Thane","districtcode":"517","ulbname":"Navi Mumbai Municiple Corp.","ulbcode":"802788","wardname":"Belapur Node-5","wardcode":"107","id":null,"remark":"","st_area(shape)":0.0003534389257514124,"st_perimeter(shape)":0.10939997192593533}},{"type":"Feature","geometry":{"type":"Polygon","coordinates":[[[73.0113,19.0718],[73.015,19.0716],[73.0146,19.0675],[73.0189,19.0672],[73.0185,19.073],[73.0113,19.0718]]]},"properties":{"objectid":46711,"statename":"Maharashtra","statecode":"27","districtname":"Thane","districtcode":"517","ulbname":"Navi Mumbai Municiple Corp.","ulbcode":"802788","wardname":"Hanuman Nagar, Turbhe","wardcode":"72","id":null,"remark":"","st_area(shape)":2.540237756784572e-05,"st_perimeter(shape)":0.02656770328143512}},{"type":"Feature","geometry":{"type":"Polygon","coordinates":[[[73.0277,19.0214],[73.0288,19.0326],[73.0251,19.0348],[73.0224,19.0272],[73.0234,19.0269],[73.0237,19.024],[73.0277,19.0214]]]},"properties":{"objectid":46712,"statename":"Maharashtra","statecode":"27","districtname":"Thane","districtcode":"517","ulbname":"Navi Mumbai Municiple Corp.","ulbcode":"802788","wardname":"Nerul Node - 12","wardcode":"100","id":null,"remark":"","st_area(shape)":5.162394040821045e-05,"st_perimeter(shape)":0.034017268081474684}},{"type":"Feature","geometry":{"type":"Polygon","coordinates":[[[73.0153,19.0548],[73.0132,19.0517],[73.0152,19.0495],[73.0168,19.0497],[73.0153,19.0548]]]},"properties":{"objectid":46713,"statename":"Maharashtra","statecode":"27","districtname":"Thane","districtcode":"517","ulbname":"Navi Mumbai Municiple Corp.","ulbcode":"802788","wardname":"Jui Nagar","wardcode":"83","id":null,"remark":"","st_area(shape)":1.1758239654440002e-05,"st_perimeter(shape)":0.016826606894411147}},{"type":"Feature","geometry":{"type":"Polygon","coordinates":[[[72.9947,19.0723],[72.9945,19.0691],[73.0016,19.0685],[73.0022,19.0743],[72.9975,19.0747],[72.9962,19.0722],[72.9947,19.0723]]]},"properties":{"objectid":47069,"statename":"Maharashtra","statecode":"27","districtname":"Thane","districtcode":"517","ulbname":"Navi Mumbai Municiple Corp.","ulbcode":"802788","wardname":"Vashi Node 6","wardcode":"63","id":null,"remark":"","st_area(shape)":3.674614181441353e-05,"st_perimeter(shape)":0.026084759309669126}},{"type":"Feature","geometry":{"type":"Polygon","coordinates":[[[73.0436,19.0652],[73.0387,19.0655],[73.0346,19.0682],[73.0278,19.0646],[73.0292,19.0632],[73.0188,19.0629],[73.0189,19.0534],[73.0276,19.0432],[73.0307,19.0299],[73.0321,19.0302],[73.0343,19.0351],[73.0397,19.0304],[73.0411,19.0348],[73.044,19.0361],[73.0482,19.0407],[73.0429,19.0542],[73.046,19.0586],[73.0438,19.0622],[73.0436,19.0652]]]},"properties":{"objectid":47070,"statename":"Maharashtra","statecode":"27","districtname":"Thane","districtcode":"517","ulbname":"Navi Mumbai Municiple Corp.","ulbcode":"802788","wardname":"Shivaji Nagar","wardcode":"80","id":null,"remark":"","st_area(shape)":0.0007020138631749856,"st_perimeter(shape)":0.12431279026559745}},{"type":"Feature","geometry":{"type":"Polygon","coordinates":[[[73.0143,19.0408],[73.0144,19.044],[73.0108,19.0441],[73.0115,19.0408],[73.0143,19.0408]]]},"properties":{"objectid":47071,"statename":"Maharashtra","statecode":"27","districtname":"Thane","districtcode":"517","ulbname":"Navi Mumbai Municiple Corp.","ulbcode":"802788","wardname":"Sarsole","wardcode":"86","id":null,"remark":"","st_area(shape)":1.1088880649105485e-05,"st_perimeter(shape)":0.013744355803240611}},{"type":"Feature","geometry":{"type":"Polygon","coordinates":[[[73.0123,19.0407],[73.0119,19.0333],[73.0135,19.0332],[73.015,19.0369],[73.0142,19.0403],[73.0152,19.0407],[73.0123,19.0407]]]},"properties":{"objectid":47072,"statename":"Maharashtra","statecode":"27","districtname":"Thane","districtcode":"517","ulbname":"Navi Mumbai Municiple Corp.","ulbcode":"802788","wardname":"Nerulgaon - 2","wardcode":"95","id":null,"remark":"","st_area(shape)":1.8390301211840885e-05,"st_perimeter(shape)":0.02329780563004556}},{"type":"Feature","geometry":{"type":"Polygon","coordinates":[[[73.0321,19.0302],[73.0392,19.0246],[73.0435,19.0278],[73.0397,19.0296],[73.0343,19.0351],[73.0321,19.0302]]]},"properties":{"objectid":47073,"statename":"Maharashtra","statecode":"27","districtname":"Thane","districtcode":"517","ulbname":"Navi Mumbai Municiple Corp.","ulbcode":"802788","wardname":"Belapur Node-2","wardcode":"102","id":null,"remark":"","st_area(shape)":5.105121932451512e-05,"st_perimeter(shape)":0.03350318688674451}},{"type":"Feature","geometry":{"type":"Polygon","coordinates":[[[73.0202,19.0784],[73.0245,19.0808],[73.0228,19.0859],[73.0167,19.0855],[73.0175,19.0787],[73.0202,19.0784]]]},"properties":{"objectid":47074,"statename":"Maharashtra","statecode":"27","districtname":"Thane","districtcode":"517","ulbname":"Navi Mumbai Municiple Corp.","ulbcode":"802788","wardname":"Tubhe Store - 2","wardcode":"68","id":null,"remark":"","st_area(shape)":4.498149976946362e-05,"st_perimeter(shape)":0.026490168575798567}},{"type":"Feature","geometry":{"type":"Polygon","coordinates":[[[73.0136,19.0632],[73.0137,19.0593],[73.0188,19.0594],[73.0189,19.0672],[73.015,19.0659],[73.0171,19.0638],[73.0165,19.0618],[73.0136,19.0632]]]},"properties":{"objectid":47075,"statename":"Maharashtra","statecode":"27","districtname":"Thane","districtcode":"517","ulbname":"Navi Mumbai Municiple Corp.","ulbcode":"802788","wardname":"Sanpada Node - 1","wardcode":"74","id":null,"remark":"","st_area(shape)":2.648874574489058e-05,"st_perimeter(shape)":0.03198783754560227}},{"type":"Feature","geometry":{"type":"Polygon","coordinates":[[[72.9947,19.0723],[72.995,19.0749],[72.99,19.0753],[72.9899,19.0779],[72.9884,19.0762],[72.9852,19.0763],[72.984,19.0787],[72.9803,19.0708],[72.9945,19.0691],[72.9947,19.0723]]]},"properties":{"objectid":47442,"statename":"Maharashtra","statecode":"27","districtname":"Thane","districtcode":"517","ulbname":"Navi Mumbai Municiple Corp.","ulbcode":"802788","wardname":"Vashi Node 7","wardcode":"64","id":null,"remark":"","st_area(shape)":8.60458068525368e-05,"st_perimeter(shape)":0.04638958842864458}},{"type":"Feature","geometry":{"type":"Polygon","coordinates":[[[72.9963,19.056],[73.001,19.0594],[73.0013,19.0643],[73.0106,19.0664],[73.0108,19.0678],[72.9803,19.0708],[72.9777,19.0645],[72.9945,19.0611],[72.993,19.0569],[72.9958,19.0579],[72.9963,19.056]]]},"properties":{"objectid":47443,"statename":"Maharashtra","statecode":"27","districtname":"Thane","districtcode":"517","ulbname":"Navi Mumbai Municiple Corp.","ulbcode":"802788","wardname":"Vashigaon","wardcode":"65","id":null,"remark":"","st_area(shape)":0.00020953920584111457,"st_perimeter(shape)":0.08706476989322945}},{"type":"Feature","geometry":{"type":"Polygon","coordinates":[[[73.0237,19.024],[73.022,19.0311],[73.0178,19.0329],[73.0166,19.0243],[73.0201,19.0258],[73.0237,19.024]]]},"properties":{"objectid":47444,"statename":"Maharashtra","statecode":"27","districtname":"Thane","districtcode":"517","ulbname":"Navi Mumbai Municiple Corp.","ulbcode":"802788","wardname":"Darave","wardcode":"92","id":null,"remark":"","st_area(shape)":4.388017717120361e-05,"st_perimeter(shape)":0.031586943635605214}},{"type":"Feature","geometry":{"type":"Polygon","coordinates":[[[73.016,19.0077],[73.0165,19.0109],[73.0111,19.0149],[73.0087,19.0148],[73.0096,19.0118],[73.0061,19.0065],[72.9979,19.0063],[72.9999,19.0009],[73.0031,18.9999],[73.0037,19.002],[73.0111,19.0083],[73.0129,19.0092],[73.016,19.0077]]]},"properties":{"objectid":47445,"statename":"Maharashtra","statecode":"27","districtname":"Thane","districtcode":"517","ulbname":"Navi Mumbai Municiple Corp.","ulbcode":"802788","wardname":"Nerul Node-15","wardcode":"111","id":null,"remark":"","st_area(shape)":8.423691331107253e-05,"st_perimeter(shape)":0.05987318945751296}},{"type":"Feature","geometry":{"type":"Polygon","coordinates":[[[73.0146,19.0675],[73.015,19.0716],[73.0103,19.0719],[73.0101,19.0696],[73.0119,19.0695],[73.0117,19.0677],[73.0146,19.0675]]]},"properties":{"objectid":47446,"statename":"Maharashtra","statecode":"27","districtname":"Thane","districtcode":"517","ulbname":"Navi Mumbai Municiple Corp.","ulbcode":"802788","wardname":"Turbhegaon","wardcode":"66","id":null,"remark":"","st_area(shape)":1.596669527860877e-05,"st_perimeter(shape)":0.017762581101150234}},{"type":"Feature","geometry":{"type":"Polygon","coordinates":[[[73.016,19.0077],[73.0222,19.0085],[73.021,19.016],[73.0221,19.0162],[73.0226,19.0186],[73.0204,19.0204],[73.0173,19.0172],[73.0176,19.014],[73.0153,19.0153],[73.0132,19.0131],[73.0165,19.0109],[73.016,19.0077]]]},"properties":{"objectid":47447,"statename":"Maharashtra","statecode":"27","districtname":"Thane","districtcode":"517","ulbname":"Navi Mumbai Municiple Corp.","ulbcode":"802788","wardname":"Nerul Node-13","wardcode":"108","id":null,"remark":"","st_area(shape)":6.284331066064418e-05,"st_perimeter(shape)":0.042619653552464415}},{"type":"Feature","geometry":{"type":"Polygon","coordinates":[[[73.047,19.0226],[73.0401,19.0238],[73.0331,19.0298],[73.0301,19.0301],[73.0289,19.0328],[73.0273,19.0245],[73.0283,19.0163],[73.0358,19.0174],[73.0431,19.0219],[73.047,19.0226]]]},"properties":{"objectid":47448,"statename":"Maharashtra","statecode":"27","districtname":"Thane","districtcode":"517","ulbname":"Navi Mumbai Municiple Corp.","ulbcode":"802788","wardname":"Belapur Node -1","wardcode":"101","id":null,"remark":"","st_area(shape)":0.00014521098953567936,"st_perimeter(shape)":0.06112115325390177}},{"type":"Feature","geometry":{"type":"Polygon","coordinates":[[[73.0122,19.0383],[73.0108,19.0441],[72.9973,19.0442],[72.9975,19.0421],[73.0014,19.0402],[73.0122,19.0383]]]},"properties":{"objectid":47449,"statename":"Maharashtra","statecode":"27","districtname":"Thane","districtcode":"517","ulbname":"Navi Mumbai Municiple Corp.","ulbcode":"802788","wardname":"Nerul Node - 2","wardcode":"85","id":null,"remark":"","st_area(shape)":6.411756983021643e-05,"st_perimeter(shape)":0.03902618991845976}}]}