{"type":"FeatureCollection","features":[{"type":"Feature","geometry":{"type":"Polygon","coordinates":[[[72.9935,19.199],[72.9945,19.1996],[72.993,19.2052],[72.9862,19.1979],[72.9835,19.1914],[72.9851,19.1888],[72.9932,19.1926],[72.9935,19.199]]]},"properties":{"objectid":44772,"statename":"Maharashtra","statecode":"27","districtname":"Thane","districtcode":"517","ulbname":"Thane","ulbcode":"802787","wardname":"Kalwa, Manisha Nagar, Janki Nagar","wardcode":"23","id":null,"remark":"Approved","st_area(shape)":9.803387682946899e-05,"st_perimeter(shape)":0.0461986288368854}},{"type":"Feature","geometry":{"type":"Polygon","coordinates":[[[72.9937,19.2605],[72.9859,19.2858],[72.9834,19.2883],[72.9686,19.296],[72.9598,19.2976],[72.9478,19.2961],[72.9445,19.2921],[72.9383,19.2881],[72.9333,19.2873],[72.9304,19.2885],[72.9274,19.2833],[72.9292,19.2823],[72.9327,19.2748],[72.9372,19.2719],[72.9361,19.2632],[72.9375,19.2586],[72.9421,19.2594],[72.9448,19.2574],[72.9476,19.254],[72.9479,19.2463],[72.9559,19.2419],[72.9609,19.2408],[72.9659,19.2464],[72.969,19.2466],[72.9659,19.2481],[72.9688,19.2523],[72.969,19.2556],[72.9711,19.256],[72.9724,19.2532],[72.9741,19.2573],[72.9763,19.2591],[72.9774,19.2634],[72.9806,19.2655],[72.9828,19.2663],[72.983,19.2629],[72.9858,19.2612],[72.9846,19.259],[72.9867,19.2575],[72.9867,19.256],[72.9926,19.258],[72.9937,19.2605]]]},"properties":{"objectid":45191,"statename":"Maharashtra","statecode":"27","districtname":"Thane","districtcode":"517","ulbname":"Thane","ulbcode":"802787","wardname":"Ovale Kasarvadvali Bhayanderpada Kavesar","wardcode":"1","id":null,"remark":"Approved","st_area(shape)":0.002229030772990519,"st_perimeter(shape)":0.23206305113803538}},{"type":"Feature","geometry":{"type":"Polygon","coordinates":[[[72.9854,19.196],[72.9836,19.1963],[72.984,19.1974],[72.9799,19.1972],[72.9788,19.2032],[72.9772,19.2036],[72.973,19.2004],[72.9714,19.1968],[72.9737,19.1958],[72.9751,19.1966],[72.9779,19.1946],[72.9769,19.1902],[72.9782,19.1868],[72.9851,19.1888],[72.9835,19.1914],[72.9854,19.196]],[[72.9828,19.1944],[72.9828,19.1944],[72.9828,19.1944],[72.9828,19.1944]]]},"properties":{"objectid":45192,"statename":"Maharashtra","statecode":"27","districtname":"Thane","districtcode":"517","ulbname":"Thane","ulbcode":"802787","wardname":"Central Jail, Mahagiri","wardcode":"22","id":null,"remark":"Approved","st_area(shape)":0.0001102860748962648,"st_perimeter(shape)":0.0573529605943147}},{"type":"Feature","geometry":{"type":"Polygon","coordinates":[[[73.0059,19.1878],[73.0096,19.1806],[73.0132,19.1835],[73.0165,19.192],[73.019,19.1944],[73.0182,19.1954],[73.0197,19.198],[73.0178,19.2027],[73.0187,19.2044],[73.0134,19.2064],[73.0085,19.2048],[73.0064,19.2018],[73.0077,19.198],[73.0067,19.1939],[73.0038,19.1921],[73.0003,19.1929],[73.0001,19.1955],[72.9986,19.1968],[72.9964,19.1951],[72.9976,19.1911],[73.0081,19.1902],[73.0083,19.1876],[73.0059,19.1878]]]},"properties":{"objectid":45193,"statename":"Maharashtra","statecode":"27","districtname":"Thane","districtcode":"517","ulbname":"Thane","ulbcode":"802787","wardname":"Pound Pada, Atkoneshwar Nagar, Gholai Nagar, Vagai Colony, Aparna Raj Society, Kokaneshwar Society","wardcode":"25","id":null,"remark":"Approved","st_area(shape)":0.0002490500954435259,"st_perimeter(shape)":0.10474500400845277}},{"type":"Feature","geometry":{"type":"Polygon","coordinates":[[[73.0258,19.1991],[73.0197,19.213],[73.0151,19.2092],[73.0157,19.2049],[73.0191,19.204],[73.0178,19.2027],[73.0197,19.198],[73.0182,19.1954],[73.019,19.1944],[73.0149,19.1883],[73.025,19.1855],[73.0294,19.1883],[73.0294,19.1907],[73.0255,19.1947],[73.0258,19.1991]]]},"properties":{"objectid":45194,"statename":"Maharashtra","statecode":"27","districtname":"Thane","districtcode":"517","ulbname":"Thane","ulbcode":"802787","wardname":"Hanuman Nagar, Gautam Nagar, Devi Pada, Shailesh Nagar","wardcode":"26","id":null,"remark":"Approved","st_area(shape)":0.0001963195857689841,"st_perimeter(shape)":0.08127775891151565}},{"type":"Feature","geometry":{"type":"Polygon","coordinates":[[[72.9937,19.2605],[72.9926,19.258],[72.9867,19.256],[72.9867,19.2575],[72.9846,19.259],[72.9858,19.2612],[72.983,19.2629],[72.9828,19.2663],[72.9775,19.2636],[72.9763,19.2591],[72.9723,19.2531],[72.9756,19.247],[72.9758,19.2419],[72.9782,19.2394],[72.9839,19.2391],[72.9847,19.2367],[72.987,19.2368],[72.9845,19.2355],[72.9844,19.2329],[72.9875,19.2327],[72.9943,19.243],[72.997,19.2452],[73.0002,19.2456],[72.9937,19.2605]]]},"properties":{"objectid":46399,"statename":"Maharashtra","statecode":"27","districtname":"Thane","districtcode":"517","ulbname":"Thane","ulbcode":"802787","wardname":"Hiranandani Estate Patlipada, Bramhand, Akbar Camp","wardcode":"2","id":null,"remark":"Approved","st_area(shape)":0.00048491904947311646,"st_perimeter(shape)":0.11327624413527947}},{"type":"Feature","geometry":{"type":"Polygon","coordinates":[[[73.0073,19.1965],[73.0068,19.2029],[73.0105,19.2059],[73.0156,19.2061],[73.0151,19.2092],[73.0197,19.213],[73.009,19.2231],[72.9956,19.2158],[72.9951,19.2091],[72.993,19.2052],[72.9945,19.1995],[72.993,19.1976],[72.9939,19.1961],[72.9927,19.1932],[72.9933,19.1925],[72.9986,19.1968],[73.0001,19.1955],[73.0003,19.1929],[73.0034,19.192],[73.0067,19.1939],[73.0073,19.1965]]]},"properties":{"objectid":46400,"statename":"Maharashtra","statecode":"27","districtname":"Thane","districtcode":"517","ulbname":"Thane","ulbcode":"802787","wardname":"Parsik Nagar, Sanghvi Hills, Anand Vihar, Sahyadri, Kharigaon","wardcode":"9","id":null,"remark":"Approved","st_area(shape)":0.00045862273144469686,"st_perimeter(shape)":0.11155003023527749}},{"type":"Feature","geometry":{"type":"Polygon","coordinates":[[[72.935,19.2032],[72.9538,19.2005],[72.9542,19.2057],[72.9367,19.2075],[72.935,19.2032]]]},"properties":{"objectid":46401,"statename":"Maharashtra","statecode":"27","districtname":"Thane","districtcode":"517","ulbname":"Thane","ulbcode":"802787","wardname":"Indira Nagar, Sathe Nagar, Ambe Wadi, Jay Bhawani Nagar","wardcode":"15","id":null,"remark":"Approved","st_area(shape)":8.798771144522333e-05,"st_perimeter(shape)":0.04907268515746851}},{"type":"Feature","geometry":{"type":"Polygon","coordinates":[[[72.9482,19.1878],[72.9534,19.1936],[72.9543,19.1931],[72.957,19.1957],[72.9597,19.2014],[72.9543,19.2041],[72.9538,19.2005],[72.946,19.2017],[72.9452,19.1952],[72.947,19.1949],[72.9471,19.1922],[72.946,19.189],[72.9482,19.1878]]]},"properties":{"objectid":46402,"statename":"Maharashtra","statecode":"27","districtname":"Thane","districtcode":"517","ulbname":"Thane","ulbcode":"802787","wardname":"Kisan Nagar No.2, Midc, Nehru Nagar, Ambika Nagar","wardcode":"17","id":null,"remark":"Approved","st_area(shape)":0.00011941656136099101,"st_perimeter(shape)":0.054920675382131946}},{"type":"Feature","geometry":{"type":"Polygon","coordinates":[[[73.032,19.1662],[73.0339,19.17],[73.0334,19.1722],[73.0306,19.1743],[73.0321,19.1774],[73.0229,19.1759],[73.0238,19.1713],[73.0266,19.1671],[73.0295,19.1686],[73.0291,19.1673],[73.032,19.1662]]]},"properties":{"objectid":46403,"statename":"Maharashtra","statecode":"27","districtname":"Thane","districtcode":"517","ulbname":"Thane","ulbcode":"802787","wardname":"Kismat Colony","wardcode":"30","id":null,"remark":"Approved","st_area(shape)":8.036506554392674e-05,"st_perimeter(shape)":0.04322905834282594}},{"type":"Feature","geometry":{"type":"Polygon","coordinates":[[[73.0226,19.1646],[73.0155,19.165],[73.0139,19.1588],[73.0156,19.1563],[73.0162,19.152],[73.0206,19.1523],[73.0253,19.1505],[73.0255,19.1492],[73.0282,19.1476],[73.0311,19.1325],[73.039,19.1293],[73.0428,19.1368],[73.0487,19.1405],[73.0485,19.1417],[73.0355,19.1514],[73.0259,19.168],[73.0226,19.1646]]]},"properties":{"objectid":46404,"statename":"Maharashtra","statecode":"27","districtname":"Thane","districtcode":"517","ulbname":"Thane","ulbcode":"802787","wardname":"Charni Pada, Devri Pada, Rashid Compound=Proper(C4)","wardcode":"33","id":null,"remark":"Approved","st_area(shape)":0.0005094724844271327,"st_perimeter(shape)":0.11797234703003072}},{"type":"Feature","geometry":{"type":"Polygon","coordinates":[[[73.0159,19.1757],[73.0155,19.165],[73.0226,19.1646],[73.0259,19.168],[73.0234,19.1724],[73.0227,19.1777],[73.0199,19.1748],[73.0159,19.1757]]]},"properties":{"objectid":46794,"statename":"Maharashtra","statecode":"27","districtname":"Thane","districtcode":"517","ulbname":"Thane","ulbcode":"802787","wardname":"Nasheman Colony, Maksad Nagar, Wafa Hills, Accord Complex, Sonaji Nagar","wardcode":"32","id":null,"remark":"Approved","st_area(shape)":8.789535609539953e-05,"st_perimeter(shape)":0.04241346268375458}},{"type":"Feature","geometry":{"type":"Polygon","coordinates":[[[72.9723,19.2531],[72.9711,19.256],[72.969,19.2556],[72.9688,19.2523],[72.9659,19.2481],[72.969,19.2466],[72.9659,19.2464],[72.9617,19.2429],[72.9585,19.2351],[72.9652,19.2342],[72.9701,19.2308],[72.9699,19.2184],[72.9711,19.2174],[72.9781,19.2187],[72.9757,19.2467],[72.9723,19.2531]]]},"properties":{"objectid":47162,"statename":"Maharashtra","statecode":"27","districtname":"Thane","districtcode":"517","ulbname":"Thane","ulbcode":"802787","wardname":"Happy Valley Hiranandani Medows, Asher Residency, Nalpada","wardcode":"4","id":null,"remark":"Approved","st_area(shape)":0.00035201073404519083,"st_perimeter(shape)":0.10573867521004728}},{"type":"Feature","geometry":{"type":"Polygon","coordinates":[[[72.9711,19.2174],[72.9605,19.221],[72.9581,19.2149],[72.9628,19.2092],[72.9608,19.2045],[72.9626,19.2026],[72.966,19.2018],[72.9772,19.2119],[72.9781,19.2187],[72.9711,19.2174]],[[72.9609,19.2154],[72.9609,19.2153],[72.9609,19.2153],[72.9609,19.2154]]]},"properties":{"objectid":47163,"statename":"Maharashtra","statecode":"27","districtname":"Thane","districtcode":"517","ulbname":"Thane","ulbcode":"802787","wardname":"Vartak Nagar, Glaxo Company, Raymond, Samata Nagar, Oswal Park","wardcode":"7","id":null,"remark":"Main Project Features: Ey Is Assisting Thane Municipal Corporation In As Soldi Waste Management And ","st_area(shape)":0.00022558976026895825,"st_perimeter(shape)":0.06769754002176312}},{"type":"Feature","geometry":{"type":"Polygon","coordinates":[[[73.009,19.2231],[73.0029,19.2288],[73.0002,19.2456],[72.997,19.2452],[72.9907,19.2388],[72.9875,19.2327],[72.9838,19.233],[72.98,19.2303],[72.981,19.2275],[72.9791,19.2246],[72.9772,19.2119],[72.9951,19.2091],[72.9956,19.2158],[73.009,19.2231]]]},"properties":{"objectid":47164,"statename":"Maharashtra","statecode":"27","districtname":"Thane","districtcode":"517","ulbname":"Thane","ulbcode":"802787","wardname":"Balkum, Majiwada, High Land","wardcode":"8","id":null,"remark":"Approved","st_area(shape)":0.0006228891557447073,"st_perimeter(shape)":0.1137169725299467}},{"type":"Feature","geometry":{"type":"Polygon","coordinates":[[[72.9865,19.2105],[72.9841,19.2109],[72.986,19.2103],[72.986,19.2084],[72.9841,19.2079],[72.9825,19.2054],[72.9806,19.2055],[72.9806,19.2042],[72.9785,19.2045],[72.9799,19.1972],[72.984,19.1974],[72.9836,19.1963],[72.9854,19.196],[72.9951,19.2091],[72.9865,19.2105]]]},"properties":{"objectid":47165,"statename":"Maharashtra","statecode":"27","districtname":"Thane","districtcode":"517","ulbname":"Thane","ulbcode":"802787","wardname":"Saket, Rabodi, K Villa, Vrundavan","wardcode":"10","id":null,"remark":"Approved","st_area(shape)":0.00012645046239437676,"st_perimeter(shape)":0.05870095707750195}},{"type":"Feature","geometry":{"type":"Polygon","coordinates":[[[72.974,19.2013],[72.9772,19.2036],[72.9788,19.2032],[72.9785,19.2045],[72.9825,19.2054],[72.9831,19.2071],[72.9862,19.2088],[72.986,19.2103],[72.9759,19.2114],[72.9688,19.2045],[72.974,19.2013]]]},"properties":{"objectid":47167,"statename":"Maharashtra","statecode":"27","districtname":"Thane","districtcode":"517","ulbname":"Thane","ulbcode":"802787","wardname":"Shrirang, Azad Nagar, Hans Nagar, Pareranagar, Kolbad, Gokuldas Wadi","wardcode":"11","id":null,"remark":"Approved","st_area(shape)":9.598856171117778e-05,"st_perimeter(shape)":0.04795647072195903}},{"type":"Feature","geometry":{"type":"Polygon","coordinates":[[[72.9714,19.1968],[72.974,19.2013],[72.9688,19.2045],[72.9631,19.1988],[72.9629,19.193],[72.9672,19.1936],[72.969,19.192],[72.9714,19.1968]]]},"properties":{"objectid":47168,"statename":"Maharashtra","statecode":"27","districtname":"Thane","districtcode":"517","ulbname":"Thane","ulbcode":"802787","wardname":"Siddheshwar Talao, Kacharali Talao, Namdev Wadi, Chandan Wadi, Raigad Galli","wardcode":"12","id":null,"remark":"Approved","st_area(shape)":8.482890735353802e-05,"st_perimeter(shape)":0.03863606016436729}},{"type":"Feature","geometry":{"type":"Polygon","coordinates":[[[72.9565,19.205],[72.9538,19.2042],[72.9597,19.2014],[72.9571,19.1959],[72.9543,19.1931],[72.9551,19.1924],[72.9592,19.1952],[72.9593,19.1967],[72.9624,19.1961],[72.9634,19.1992],[72.966,19.2018],[72.9626,19.2026],[72.9616,19.2044],[72.9565,19.205]]]},"properties":{"objectid":47169,"statename":"Maharashtra","statecode":"27","districtname":"Thane","districtcode":"517","ulbname":"Thane","ulbcode":"802787","wardname":"Dnyaneshwar Nagar, Ramchandra Nagar, Kajuwadi, Hajuri Gaon","wardcode":"13","id":null,"remark":"Approved","st_area(shape)":5.694124359530854e-05,"st_perimeter(shape)":0.05086847824404124}},{"type":"Feature","geometry":{"type":"Polygon","coordinates":[[[72.9475,19.2108],[72.941,19.2144],[72.9367,19.2075],[72.9495,19.2054],[72.9498,19.2069],[72.954,19.2051],[72.9608,19.2044],[72.9628,19.2092],[72.9604,19.2119],[72.9585,19.2111],[72.9566,19.2119],[72.9558,19.2113],[72.9567,19.2098],[72.9494,19.2097],[72.9475,19.2108]],[[72.9614,19.2095],[72.9615,19.2095],[72.9613,19.2095],[72.9614,19.2095]]]},"properties":{"objectid":47170,"statename":"Maharashtra","statecode":"27","districtname":"Thane","districtcode":"517","ulbname":"Thane","ulbcode":"802787","wardname":"Karwalo Nagar, Savarkar Nagar, Yashodhan Nagar","wardcode":"14","id":null,"remark":"Approved","st_area(shape)":0.00013199858717860923,"st_perimeter(shape)":0.07093258348725281}},{"type":"Feature","geometry":{"type":"Polygon","coordinates":[[[72.9482,19.1878],[72.9516,19.185],[72.955,19.1847],[72.9551,19.1924],[72.9536,19.1937],[72.9482,19.1878]]]},"properties":{"objectid":47171,"statename":"Maharashtra","statecode":"27","districtname":"Thane","districtcode":"517","ulbname":"Thane","ulbcode":"802787","wardname":"Kisan Nagar No.1, Padwal Nagar, Shiv Shakti Nagar","wardcode":"18","id":null,"remark":"Approved","st_area(shape)":4.0896517854633296e-05,"st_perimeter(shape)":0.026754455252396184}},{"type":"Feature","geometry":{"type":"Polygon","coordinates":[[[72.955,19.1847],[72.9604,19.1793],[72.9623,19.179],[72.9635,19.1767],[72.9668,19.1778],[72.9682,19.1762],[72.9636,19.1883],[72.9624,19.1961],[72.9593,19.1967],[72.9592,19.1952],[72.9551,19.1924],[72.955,19.1847]]]},"properties":{"objectid":47172,"statename":"Maharashtra","statecode":"27","districtname":"Thane","districtcode":"517","ulbname":"Thane","ulbcode":"802787","wardname":"Anand Nagar, Gandhi Nagar, Raghunath Nagar, Mental Hospital, Kashish Park, Hajuri","wardcode":"19","id":null,"remark":"Approved","st_area(shape)":0.00013863997447146644,"st_perimeter(shape)":0.060134845308069146}},{"type":"Feature","geometry":{"type":"Polygon","coordinates":[[[72.9778,19.1876],[72.9769,19.1904],[72.9779,19.1946],[72.9752,19.1966],[72.9737,19.1958],[72.9714,19.1968],[72.969,19.192],[72.9672,19.1936],[72.9629,19.193],[72.9661,19.1813],[72.9722,19.185],[72.9754,19.186],[72.9766,19.1848],[72.9783,19.1865],[72.9778,19.1876]]]},"properties":{"objectid":47173,"statename":"Maharashtra","statecode":"27","districtname":"Thane","districtcode":"517","ulbname":"Thane","ulbcode":"802787","wardname":"Hindu Colony, Bhaskar Colony, Vandana Society, Chandra Nagar, Ghantali, Vishnu Nagar, Masunda Talao","wardcode":"21","id":null,"remark":"Approved","st_area(shape)":0.00014166605525833709,"st_perimeter(shape)":0.05832813602682347}},{"type":"Feature","geometry":{"type":"Polygon","coordinates":[[[72.9852,19.1789],[72.9874,19.1788],[72.9925,19.1816],[72.9919,19.1845],[72.995,19.1894],[72.9972,19.1895],[72.9987,19.1881],[73.0022,19.1893],[73.0081,19.1876],[73.0081,19.1902],[72.9976,19.1911],[72.997,19.1947],[72.9949,19.1944],[72.9908,19.1909],[72.9851,19.1888],[72.9841,19.185],[72.9852,19.1789]]]},"properties":{"objectid":47174,"statename":"Maharashtra","statecode":"27","districtname":"Thane","districtcode":"517","ulbname":"Thane","ulbcode":"802787","wardname":"Hanuman Nagar, Gautam Nagar, Devi Pada, Shailesh Nagar","wardcode":"24","id":null,"remark":"Approved","st_area(shape)":0.0001341551237171796,"st_perimeter(shape)":0.08065355125164486}},{"type":"Feature","geometry":{"type":"Polygon","coordinates":[[[73.0653,19.1723],[73.0682,19.1755],[73.0667,19.1837],[73.0698,19.186],[73.0755,19.1854],[73.0749,19.1889],[73.0692,19.1904],[73.0695,19.1964],[73.0658,19.1968],[73.0625,19.2002],[73.0564,19.2],[73.0559,19.2023],[73.0422,19.1997],[73.0469,19.1896],[73.0458,19.1802],[73.0441,19.179],[73.0456,19.1723],[73.048,19.1751],[73.052,19.177],[73.0587,19.1689],[73.0653,19.1723]]]},"properties":{"objectid":47175,"statename":"Maharashtra","statecode":"27","districtname":"Thane","districtcode":"517","ulbname":"Thane","ulbcode":"802787","wardname":"Agasan, Mhatardi, Betwade, Dativali, Bholenath Nagar, Bedekar Nagar","wardcode":"28","id":null,"remark":"Approved","st_area(shape)":0.0006623578122845918,"st_perimeter(shape)":0.1333213305574933}},{"type":"Feature","geometry":{"type":"Polygon","coordinates":[[[73.0159,19.1757],[73.0199,19.1748],[73.0227,19.1777],[73.0229,19.1759],[73.0321,19.1774],[73.0296,19.1804],[73.0244,19.1802],[73.025,19.1855],[73.0149,19.1883],[73.0138,19.1853],[73.0162,19.184],[73.0159,19.1757]]]},"properties":{"objectid":47176,"statename":"Maharashtra","statecode":"27","districtname":"Thane","districtcode":"517","ulbname":"Thane","ulbcode":"802787","wardname":"Sanjay Nagar, Shankar Mandir, Mek Company, Anand Koli Wada","wardcode":"31","id":null,"remark":"Approved","st_area(shape)":0.00012489877285568057,"st_perimeter(shape)":0.060993205344642636}},{"type":"Feature","geometry":{"type":"Polygon","coordinates":[[[72.9842,19.233],[72.9845,19.2355],[72.987,19.2368],[72.9847,19.2367],[72.9839,19.2391],[72.9782,19.2394],[72.9758,19.2419],[72.9782,19.218],[72.9791,19.2247],[72.981,19.2275],[72.98,19.2303],[72.9842,19.233]]]},"properties":{"objectid":47599,"statename":"Maharashtra","statecode":"27","districtname":"Thane","districtcode":"517","ulbname":"Thane","ulbcode":"802787","wardname":"Manpada,      Monarma Nagar,      Azad Nagar","wardcode":"3","id":null,"remark":"Approved","st_area(shape)":0.00010023510909385238,"st_perimeter(shape)":0.06335308640505559}},{"type":"Feature","geometry":{"type":"Polygon","coordinates":[[[72.9361,19.2632],[72.9366,19.2674],[72.9345,19.2687],[72.9254,19.2684],[72.9223,19.2607],[72.9197,19.2606],[72.9166,19.2575],[72.9145,19.2514],[72.9154,19.2476],[72.9102,19.2412],[72.917,19.2296],[72.9197,19.2181],[72.9355,19.2059],[72.9428,19.2171],[72.9473,19.2206],[72.947,19.2218],[72.9499,19.223],[72.952,19.2221],[72.951,19.2218],[72.9516,19.219],[72.9581,19.2149],[72.9606,19.221],[72.9699,19.2184],[72.9704,19.2203],[72.9701,19.2308],[72.9652,19.2342],[72.9585,19.2351],[72.9609,19.2408],[72.9491,19.245],[72.9479,19.2463],[72.9473,19.2547],[72.9421,19.2594],[72.9375,19.2586],[72.9361,19.2632]]]},"properties":{"objectid":47600,"statename":"Maharashtra","statecode":"27","districtname":"Thane","districtcode":"517","ulbname":"Thane","ulbcode":"802787","wardname":"Pawarnagar Vasant Vihar Shivai Nagar Yeoor Kokanipada","wardcode":"5","id":null,"remark":"Approved","st_area(shape)":0.002005010537995649,"st_perimeter(shape)":0.22550150989498868}},{"type":"Feature","geometry":{"type":"Polygon","coordinates":[[[72.9517,19.2199],[72.951,19.2218],[72.9519,19.2222],[72.9499,19.223],[72.947,19.2218],[72.9473,19.2206],[72.941,19.2144],[72.9494,19.2097],[72.9568,19.2098],[72.9558,19.2113],[72.957,19.212],[72.9599,19.2113],[72.9585,19.2147],[72.9518,19.2188],[72.9517,19.2199]],[[72.9487,19.2109],[72.9487,19.2109],[72.9487,19.2109],[72.9486,19.2108],[72.9487,19.2109]]]},"properties":{"objectid":47601,"statename":"Maharashtra","statecode":"27","districtname":"Thane","districtcode":"517","ulbname":"Thane","ulbcode":"802787","wardname":"Lokmanya Nagar,      Shahstri Nagar,      Parera Nagar,      Rambaug","wardcode":"6","id":null,"remark":"Approved","st_area(shape)":0.00013119800144483244,"st_perimeter(shape)":0.05891776635031744}},{"type":"Feature","geometry":{"type":"Polygon","coordinates":[[[72.935,19.2032],[72.9353,19.1918],[72.9414,19.1879],[72.9464,19.1884],[72.947,19.1949],[72.9452,19.1952],[72.946,19.2017],[72.935,19.2032]]]},"properties":{"objectid":47603,"statename":"Maharashtra","statecode":"27","districtname":"Thane","districtcode":"517","ulbname":"Thane","ulbcode":"802787","wardname":"Shrinagar,      Warli Pada,      Ram Nagar,      Kailas Nagar","wardcode":"16","id":null,"remark":"Approved","st_area(shape)":0.0001461883537737395,"st_perimeter(shape)":0.050550098217121975}},{"type":"Feature","geometry":{"type":"Polygon","coordinates":[[[72.9682,19.1762],[72.9706,19.1754],[72.9718,19.1788],[72.9731,19.1784],[72.9727,19.1774],[72.979,19.1684],[72.9822,19.1673],[72.9852,19.1789],[72.9841,19.185],[72.9851,19.1888],[72.9782,19.1868],[72.9766,19.1848],[72.9754,19.186],[72.9679,19.1829],[72.9661,19.1813],[72.9682,19.1762]]]},"properties":{"objectid":47604,"statename":"Maharashtra","statecode":"27","districtname":"Thane","districtcode":"517","ulbname":"Thane","ulbcode":"802787","wardname":"Kopri Colony,      Chendni (East),      Parsi Colony,      Thanekar Wadi,      Bara Bunglow","wardcode":"20","id":null,"remark":"Approved","st_area(shape)":0.00022280238658061284,"st_perimeter(shape)":0.07407377026338169}},{"type":"Feature","geometry":{"type":"Polygon","coordinates":[[[73.0253,19.197],[73.026,19.1936],[73.0298,19.1895],[73.0289,19.1878],[73.0253,19.1861],[73.0244,19.1802],[73.0296,19.1804],[73.0368,19.1739],[73.0416,19.1759],[73.0456,19.1723],[73.0441,19.179],[73.0458,19.1802],[73.0469,19.1896],[73.0422,19.1997],[73.0308,19.1979],[73.0258,19.1991],[73.0253,19.197]]]},"properties":{"objectid":47605,"statename":"Maharashtra","statecode":"27","districtname":"Thane","districtcode":"517","ulbname":"Thane","ulbcode":"802787","wardname":"Diva,      Sabe,      Sadguru Nagar,      B.R. Nagar","wardcode":"27","id":null,"remark":"Approved","st_area(shape)":0.0004225759518563697,"st_perimeter(shape)":0.09931460479935898}},{"type":"Feature","geometry":{"type":"Polygon","coordinates":[[[73.0487,19.1405],[73.0533,19.1417],[73.0555,19.144],[73.0588,19.1427],[73.0598,19.1399],[73.0645,19.1386],[73.0661,19.1399],[73.0642,19.1434],[73.0709,19.1458],[73.076,19.1451],[73.0753,19.1514],[73.0732,19.156],[73.0739,19.1614],[73.0699,19.17],[73.072,19.1709],[73.0723,19.1727],[73.0669,19.174],[73.0593,19.1688],[73.0521,19.1769],[73.0448,19.1722],[73.0415,19.1759],[73.0372,19.1738],[73.0318,19.1769],[73.0306,19.1743],[73.0338,19.1708],[73.0325,19.1661],[73.0306,19.1661],[73.0291,19.1673],[73.0295,19.1686],[73.0266,19.1671],[73.0355,19.1514],[73.0479,19.1425],[73.0487,19.1405]]]},"properties":{"objectid":47606,"statename":"Maharashtra","statecode":"27","districtname":"Thane","districtcode":"517","ulbname":"Thane","ulbcode":"802787","wardname":"Khardi,      Davle,      Padle,      Desai,      Khidkali,      Daighar,      Kausa Talao","wardcode":"29","id":null,"remark":"Approved","st_area(shape)":0.0012156233153852321,"st_perimeter(shape)":0.18701749483951072}}]}