{"type":"FeatureCollection","features":[{"type":"Feature","geometry":{"type":"Polygon","coordinates":[[[73.1876,22.3632],[73.1885,22.356],[73.1871,22.3509],[73.1726,22.3506],[73.1758,22.3461],[73.1741,22.3361],[73.1894,22.3371],[73.1845,22.33],[73.1845,22.3273],[73.1831,22.3258],[73.1842,22.3231],[73.193,22.3253],[73.1972,22.325],[73.1969,22.3297],[73.1925,22.3368],[73.1985,22.3385],[73.2007,22.344],[73.2025,22.3443],[73.1997,22.354],[73.1947,22.3618],[73.1951,22.3633],[73.1932,22.3643],[73.1876,22.3632]]]},"properties":{"objectid":293409,"statename":"Gujarat","statecode":"24","districtname":"Vadodara","districtcode":"486","ulbname":"Vadodara(M.Corp)","ulbcode":"802596","wardname":"B","wardcode":"2","id":null,"remark":"K.","st_area(shape)":0.0006067253215475091,"st_perimeter(shape)":0.14628680423118312}},{"type":"Feature","geometry":{"type":"Polygon","coordinates":[[[73.1773,22.3202],[73.1801,22.3139],[73.1805,22.3096],[73.1894,22.3084],[73.1901,22.3101],[73.1944,22.3124],[73.1947,22.3155],[73.1983,22.3162],[73.1976,22.3208],[73.2014,22.3205],[73.2018,22.3262],[73.2089,22.3277],[73.2137,22.3272],[73.2173,22.3353],[73.2174,22.3385],[73.2228,22.3479],[73.2421,22.3552],[73.2433,22.3568],[73.2394,22.3575],[73.2375,22.3571],[73.2368,22.3555],[73.2139,22.3541],[73.2135,22.3558],[73.2116,22.356],[73.2158,22.3584],[73.2157,22.3614],[73.2125,22.3612],[73.2141,22.3639],[73.2117,22.3621],[73.2098,22.3625],[73.2116,22.3634],[73.2102,22.3643],[73.2108,22.3671],[73.2096,22.3673],[73.2104,22.3684],[73.209,22.3686],[73.209,22.371],[73.2018,22.37],[73.1941,22.3648],[73.1947,22.3618],[73.1997,22.354],[73.2025,22.3443],[73.2007,22.344],[73.1985,22.3385],[73.1925,22.3368],[73.1969,22.3297],[73.1972,22.325],[73.193,22.3253],[73.1878,22.3232],[73.1759,22.3222],[73.1773,22.3202]]]},"properties":{"objectid":293410,"statename":"Gujarat","statecode":"24","districtname":"Vadodara","districtcode":"486","ulbname":"Vadodara(M.Corp)","ulbcode":"802596","wardname":"C","wardcode":"3","id":null,"remark":"","st_area(shape)":0.0011555708065673386,"st_perimeter(shape)":0.27378396079775064}},{"type":"Feature","geometry":{"type":"Polygon","coordinates":[[[73.1375,22.2702],[73.1378,22.2687],[73.1482,22.2729],[73.1631,22.2798],[73.165,22.2821],[73.1643,22.294],[73.1656,22.3073],[73.1652,22.3084],[73.1617,22.3083],[73.1587,22.31],[73.1586,22.3137],[73.1614,22.3153],[73.1608,22.3188],[73.1538,22.3299],[73.1514,22.3292],[73.1479,22.3304],[73.1485,22.3244],[73.1532,22.3113],[73.1519,22.3033],[73.153,22.2832],[73.1504,22.2822],[73.1503,22.2803],[73.1425,22.2804],[73.1415,22.2773],[73.1379,22.2752],[73.1375,22.2702]]]},"properties":{"objectid":293411,"statename":"Gujarat","statecode":"24","districtname":"Vadodara","districtcode":"486","ulbname":"Vadodara(M.Corp)","ulbcode":"802596","wardname":"K","wardcode":"11","id":null,"remark":"K.","st_area(shape)":0.0006671282327245688,"st_perimeter(shape)":0.17112881196335897}},{"type":"Feature","geometry":{"type":"Polygon","coordinates":[[[73.2106,22.3051],[73.2107,22.3033],[73.2157,22.3026],[73.2156,22.3044],[73.2211,22.3059],[73.2352,22.3154],[73.2346,22.3167],[73.2358,22.318],[73.2309,22.3228],[73.2223,22.3145],[73.2194,22.3184],[73.2122,22.3195],[73.2109,22.3111],[73.2103,22.3103],[73.2064,22.3113],[73.2045,22.3078],[73.2104,22.3076],[73.2106,22.3051]]]},"properties":{"objectid":293808,"statename":"Gujarat","statecode":"24","districtname":"Vadodara","districtcode":"486","ulbname":"Vadodara(M.Corp)","ulbcode":"802596","wardname":"F","wardcode":"6","id":null,"remark":"K.","st_area(shape)":0.0002789118540674875,"st_perimeter(shape)":0.09439021892900575}},{"type":"Feature","geometry":{"type":"Polygon","coordinates":[[[73.1311,22.269],[73.1313,22.2597],[73.1208,22.2487],[73.1229,22.2399],[73.1243,22.2385],[73.1315,22.2364],[73.1384,22.2418],[73.1454,22.2426],[73.1497,22.2457],[73.153,22.2459],[73.1536,22.2449],[73.1643,22.2478],[73.1675,22.2512],[73.1655,22.253],[73.1672,22.2544],[73.1659,22.255],[73.167,22.2588],[73.1657,22.2629],[73.1679,22.2629],[73.1686,22.2649],[73.1727,22.2618],[73.1773,22.2603],[73.1792,22.2921],[73.1864,22.3057],[73.1737,22.3076],[73.1729,22.3021],[73.1656,22.3039],[73.1643,22.294],[73.165,22.2821],[73.1631,22.2798],[73.1378,22.2687],[73.1378,22.2701],[73.1349,22.2697],[73.1347,22.2706],[73.1311,22.269]]]},"properties":{"objectid":293809,"statename":"Gujarat","statecode":"24","districtname":"Vadodara","districtcode":"486","ulbname":"Vadodara(M.Corp)","ulbcode":"802596","wardname":"L","wardcode":"12","id":null,"remark":"K.","st_area(shape)":0.0018163228913656208,"st_perimeter(shape)":0.26109294793689947}},{"type":"Feature","geometry":{"type":"Polygon","coordinates":[[[73.1876,22.3632],[73.1849,22.3626],[73.1794,22.3657],[73.1762,22.3766],[73.1746,22.3768],[73.1744,22.3801],[73.167,22.381],[73.1534,22.3746],[73.1472,22.3737],[73.151,22.3587],[73.1613,22.3586],[73.1611,22.3551],[73.1597,22.3546],[73.1597,22.3493],[73.1573,22.3481],[73.1759,22.3222],[73.1842,22.3231],[73.1831,22.3258],[73.1845,22.3273],[73.1845,22.33],[73.1895,22.3367],[73.1832,22.3373],[73.1741,22.3361],[73.1758,22.3461],[73.1726,22.3506],[73.1871,22.3509],[73.1885,22.356],[73.1876,22.3632]]]},"properties":{"objectid":294208,"statename":"Gujarat","statecode":"24","districtname":"Vadodara","districtcode":"486","ulbname":"Vadodara(M.Corp)","ulbcode":"802596","wardname":"A","wardcode":"1","id":null,"remark":"K.","st_area(shape)":0.0012338925313868175,"st_perimeter(shape)":0.21298276062078342}},{"type":"Feature","geometry":{"type":"Polygon","coordinates":[[[73.1532,22.3113],[73.1392,22.3154],[73.1337,22.3151],[73.1238,22.3181],[73.1243,22.2983],[73.1144,22.2977],[73.1145,22.3],[73.1061,22.3012],[73.0979,22.3],[73.0946,22.3021],[73.09,22.2965],[73.0928,22.2951],[73.0928,22.2916],[73.0974,22.2907],[73.0973,22.285],[73.1005,22.2828],[73.0965,22.2816],[73.0969,22.2789],[73.099,22.2795],[73.0989,22.2748],[73.1037,22.2765],[73.104,22.2745],[73.1065,22.2739],[73.1071,22.2725],[73.1132,22.2747],[73.1127,22.2678],[73.1137,22.2677],[73.114,22.2652],[73.1152,22.2676],[73.1174,22.2683],[73.1375,22.2702],[73.1379,22.2752],[73.1415,22.2773],[73.1425,22.2804],[73.1503,22.2803],[73.1504,22.2822],[73.153,22.2832],[73.1519,22.3033],[73.1532,22.3113]]]},"properties":{"objectid":294210,"statename":"Gujarat","statecode":"24","districtname":"Vadodara","districtcode":"486","ulbname":"Vadodara(M.Corp)","ulbcode":"802596","wardname":"J","wardcode":"10","id":null,"remark":"K.","st_area(shape)":0.0019267559460189167,"st_perimeter(shape)":0.24697229698249706}},{"type":"Feature","geometry":{"type":"Polygon","coordinates":[[[73.2547,22.2962],[73.2568,22.2966],[73.2559,22.298],[73.2556,22.3095],[73.2592,22.3209],[73.2558,22.32],[73.2559,22.3242],[73.2366,22.3099],[73.2326,22.3142],[73.2211,22.3059],[73.2156,22.3044],[73.2157,22.3026],[73.2144,22.3025],[73.2158,22.2996],[73.2155,22.296],[73.2118,22.2957],[73.2126,22.2944],[73.2154,22.2942],[73.2155,22.2953],[73.2212,22.2943],[73.2225,22.2885],[73.2344,22.2875],[73.2375,22.293],[73.2532,22.2921],[73.2547,22.2962]]]},"properties":{"objectid":294604,"statename":"Gujarat","statecode":"24","districtname":"Vadodara","districtcode":"486","ulbname":"Vadodara(M.Corp)","ulbcode":"802596","wardname":"E","wardcode":"5","id":null,"remark":"K.","st_area(shape)":0.0008847748026889156,"st_perimeter(shape)":0.15772564380912896}},{"type":"Feature","geometry":{"type":"Polygon","coordinates":[[[73.1894,22.3084],[73.1932,22.3056],[73.1959,22.3061],[73.1968,22.304],[73.2037,22.3034],[73.2106,22.3051],[73.2104,22.3076],[73.2045,22.3078],[73.2067,22.3114],[73.2108,22.3108],[73.2131,22.3249],[73.2074,22.3252],[73.2075,22.3275],[73.2018,22.3262],[73.2014,22.3205],[73.1976,22.3208],[73.1983,22.3162],[73.1947,22.3155],[73.1944,22.3124],[73.1901,22.3101],[73.1894,22.3084]]]},"properties":{"objectid":294605,"statename":"Gujarat","statecode":"24","districtname":"Vadodara","districtcode":"486","ulbname":"Vadodara(M.Corp)","ulbcode":"802596","wardname":"G","wardcode":"7","id":null,"remark":"K.","st_area(shape)":0.000316860559998759,"st_perimeter(shape)":0.09892551878860058}},{"type":"Feature","geometry":{"type":"Polygon","coordinates":[[[73.2075,22.3275],[73.2074,22.3252],[73.2131,22.3249],[73.2122,22.3195],[73.2194,22.3184],[73.2223,22.3145],[73.2309,22.3228],[73.2358,22.318],[73.2346,22.3167],[73.2352,22.3154],[73.2329,22.314],[73.2366,22.3099],[73.2559,22.3242],[73.2483,22.3354],[73.2547,22.3367],[73.2544,22.3381],[73.2585,22.3389],[73.2598,22.3406],[73.2704,22.3422],[73.2764,22.3415],[73.2768,22.3477],[73.286,22.3509],[73.2837,22.3555],[73.2814,22.3548],[73.2811,22.3563],[73.2735,22.3572],[73.2667,22.3525],[73.2673,22.3539],[73.2639,22.3551],[73.264,22.3578],[73.2624,22.3594],[73.2635,22.3629],[73.2547,22.357],[73.2469,22.3552],[73.243,22.3562],[73.2228,22.3479],[73.2174,22.3385],[73.2173,22.3353],[73.2137,22.3272],[73.2075,22.3275]]]},"properties":{"objectid":294606,"statename":"Gujarat","statecode":"24","districtname":"Vadodara","districtcode":"486","ulbname":"Vadodara(M.Corp)","ulbcode":"802596","wardname":"D","wardcode":"4","id":null,"remark":"K.","st_area(shape)":0.0017426651684037992,"st_perimeter(shape)":0.26456247773631947}},{"type":"Feature","geometry":{"type":"Polygon","coordinates":[[[73.1488,22.3654],[73.1454,22.3639],[73.1382,22.3636],[73.1361,22.3613],[73.1349,22.3559],[73.1333,22.3548],[73.1388,22.3476],[73.1459,22.3425],[73.15,22.337],[73.153,22.3351],[73.1462,22.331],[73.1514,22.3292],[73.1538,22.3299],[73.1608,22.3188],[73.1614,22.3153],[73.1583,22.3132],[73.1595,22.309],[73.1652,22.3084],[73.1656,22.3039],[73.1729,22.3021],[73.1737,22.3076],[73.1806,22.3069],[73.1801,22.3139],[73.1773,22.3202],[73.1573,22.3481],[73.1597,22.3493],[73.1597,22.3546],[73.1611,22.3551],[73.1613,22.3586],[73.151,22.3587],[73.1488,22.3654]]]},"properties":{"objectid":294607,"statename":"Gujarat","statecode":"24","districtname":"Vadodara","districtcode":"486","ulbname":"Vadodara(M.Corp)","ulbcode":"802596","wardname":"H","wardcode":"8","id":null,"remark":"K.","st_area(shape)":0.0010969998441102684,"st_perimeter(shape)":0.20310684300596815}},{"type":"Feature","geometry":{"type":"Polygon","coordinates":[[[73.1968,22.304],[73.1959,22.3061],[73.1932,22.3056],[73.1894,22.3084],[73.1805,22.3096],[73.1806,22.3069],[73.1864,22.3051],[73.1825,22.2998],[73.1792,22.2921],[73.1786,22.284],[73.2074,22.2824],[73.2099,22.2889],[73.2137,22.2897],[73.2105,22.2935],[73.2079,22.2934],[73.2057,22.296],[73.2068,22.2965],[73.2065,22.3],[73.1949,22.2999],[73.195,22.3038],[73.1968,22.304]]]},"properties":{"objectid":296817,"statename":"Gujarat","statecode":"24","districtname":"Vadodara","districtcode":"486","ulbname":"Vadodara(M.Corp)","ulbcode":"802596","wardname":"M","wardcode":"13","id":null,"remark":"K.","st_area(shape)":0.0005739247571432109,"st_perimeter(shape)":0.12601308779704634}},{"type":"Feature","geometry":{"type":"Polygon","coordinates":[[[73.2547,22.2962],[73.2474,22.2986],[73.2302,22.3007],[73.2291,22.3045],[73.2241,22.3011],[73.2158,22.2996],[73.2155,22.296],[73.2118,22.2957],[73.2126,22.2944],[73.2154,22.2942],[73.2155,22.2953],[73.2212,22.2943],[73.2225,22.2885],[73.2344,22.2875],[73.2375,22.293],[73.2532,22.2921],[73.2547,22.2962]]]},"properties":{"objectid":296818,"statename":"Gujarat","statecode":"24","districtname":"Vadodara","districtcode":"486","ulbname":"Vadodara(M.Corp)","ulbcode":"802596","wardname":"O","wardcode":"15","id":null,"remark":"K.","st_area(shape)":0.0003373847393156738,"st_perimeter(shape)":0.10847772595366653}},{"type":"Feature","geometry":{"type":"Polygon","coordinates":[[[73.2427,22.2631],[73.2445,22.2634],[73.248,22.2672],[73.2623,22.2685],[73.262,22.2699],[73.2648,22.2723],[73.2605,22.2719],[73.2608,22.2704],[73.2529,22.2695],[73.2531,22.2714],[73.2563,22.2714],[73.2551,22.2754],[73.2588,22.2767],[73.2584,22.2782],[73.2601,22.28],[73.2597,22.2817],[73.2572,22.2813],[73.2586,22.2826],[73.2585,22.2849],[73.2517,22.2894],[73.2532,22.2921],[73.2375,22.293],[73.2344,22.2875],[73.2151,22.2892],[73.2142,22.2833],[73.2085,22.2852],[73.2074,22.2824],[73.2122,22.2812],[73.211,22.2782],[73.2128,22.2734],[73.2232,22.2675],[73.2175,22.2571],[73.2113,22.2561],[73.2109,22.2519],[73.215,22.2525],[73.2189,22.2495],[73.2338,22.2678],[73.2365,22.2627],[73.2427,22.2631]]]},"properties":{"objectid":296819,"statename":"Gujarat","statecode":"24","districtname":"Vadodara","districtcode":"486","ulbname":"Vadodara(M.Corp)","ulbcode":"802596","wardname":"P","wardcode":"16","id":null,"remark":"K.","st_area(shape)":0.0011962111588577362,"st_perimeter(shape)":0.23787967093195597}},{"type":"Feature","geometry":{"type":"Polygon","coordinates":[[[73.2113,22.2561],[73.2175,22.2571],[73.2232,22.2675],[73.2128,22.2734],[73.211,22.2782],[73.2122,22.2812],[73.1959,22.2831],[73.1978,22.2785],[73.1918,22.278],[73.1911,22.2767],[73.1905,22.2586],[73.2113,22.2561]]]},"properties":{"objectid":296820,"statename":"Gujarat","statecode":"24","districtname":"Vadodara","districtcode":"486","ulbname":"Vadodara(M.Corp)","ulbcode":"802596","wardname":"Q","wardcode":"17","id":null,"remark":"K.","st_area(shape)":0.0006281282532477483,"st_perimeter(shape)":0.10677272835347117}},{"type":"Feature","geometry":{"type":"Polygon","coordinates":[[[73.2427,22.2631],[73.2365,22.2627],[73.2338,22.2678],[73.2189,22.2495],[73.215,22.2525],[73.2109,22.2519],[73.2113,22.2561],[73.1989,22.2573],[73.195,22.2459],[73.1893,22.2433],[73.1886,22.2374],[73.1769,22.2361],[73.1765,22.2297],[73.1853,22.2297],[73.1853,22.2287],[73.183,22.2276],[73.1832,22.2262],[73.1808,22.2256],[73.1786,22.2184],[73.1765,22.217],[73.1775,22.2154],[73.1749,22.2136],[73.1758,22.2121],[73.1782,22.2129],[73.1775,22.2105],[73.1755,22.2108],[73.1753,22.2096],[73.1768,22.2083],[73.1773,22.2048],[73.2008,22.2017],[73.2005,22.2049],[73.1971,22.2093],[73.1976,22.2235],[73.1941,22.2225],[73.1954,22.2239],[73.1919,22.225],[73.1942,22.2258],[73.1932,22.2278],[73.1962,22.2281],[73.1966,22.2293],[73.2029,22.2293],[73.2062,22.226],[73.2052,22.2281],[73.207,22.2278],[73.2069,22.2294],[73.2088,22.2299],[73.2069,22.2299],[73.208,22.2314],[73.2074,22.2332],[73.2133,22.2339],[73.2136,22.2368],[73.2183,22.24],[73.218,22.2423],[73.2264,22.2457],[73.2278,22.2477],[73.2316,22.2487],[73.2332,22.2433],[73.235,22.2433],[73.2352,22.2415],[73.238,22.2396],[73.245,22.2387],[73.2455,22.2398],[73.2494,22.2404],[73.2483,22.2491],[73.2427,22.2631]]]},"properties":{"objectid":296821,"statename":"Gujarat","statecode":"24","districtname":"Vadodara","districtcode":"486","ulbname":"Vadodara(M.Corp)","ulbcode":"802596","wardname":"S","wardcode":"19","id":null,"remark":"K.","st_area(shape)":0.0016816129837150969,"st_perimeter(shape)":0.357154331597106}},{"type":"Feature","geometry":{"type":"Polygon","coordinates":[[[73.2106,22.3051],[73.2037,22.3034],[73.195,22.3038],[73.1949,22.2999],[73.2065,22.3],[73.2068,22.2965],[73.2057,22.296],[73.2079,22.2935],[73.2105,22.2935],[73.2137,22.2897],[73.2099,22.2889],[73.2085,22.2852],[73.2142,22.2833],[73.2151,22.2892],[73.2225,22.2885],[73.2227,22.291],[73.2216,22.2911],[73.2212,22.2943],[73.2155,22.2953],[73.2154,22.2942],[73.2125,22.2945],[73.2118,22.2957],[73.2155,22.296],[73.2158,22.2996],[73.2143,22.303],[73.2107,22.3033],[73.2106,22.3051]]]},"properties":{"objectid":297144,"statename":"Gujarat","statecode":"24","districtname":"Vadodara","districtcode":"486","ulbname":"Vadodara(M.Corp)","ulbcode":"802596","wardname":"N","wardcode":"14","id":null,"remark":"K.","st_area(shape)":0.0002153668750724504,"st_perimeter(shape)":0.11070231081352985}},{"type":"Feature","geometry":{"type":"Polygon","coordinates":[[[73.1958,22.2831],[73.1786,22.284],[73.1773,22.2603],[73.1727,22.2618],[73.1686,22.2649],[73.1679,22.2629],[73.1657,22.2629],[73.167,22.2588],[73.1659,22.255],[73.1672,22.2544],[73.1657,22.2526],[73.1675,22.2512],[73.1692,22.2521],[73.1727,22.2513],[73.1709,22.2501],[73.1723,22.248],[73.17,22.2475],[73.1709,22.246],[73.1734,22.2469],[73.1742,22.2437],[73.1706,22.2418],[73.1688,22.2427],[73.1669,22.2383],[73.1685,22.2368],[73.1669,22.2351],[73.1643,22.2355],[73.1639,22.2344],[73.1708,22.2339],[73.1711,22.2324],[73.1689,22.2318],[73.1704,22.2307],[73.1692,22.2292],[73.1721,22.2293],[73.1719,22.2272],[73.1705,22.2275],[73.173,22.2259],[73.1759,22.2258],[73.1768,22.2357],[73.1886,22.2374],[73.1885,22.2415],[73.1897,22.2438],[73.1955,22.2465],[73.1989,22.2573],[73.1905,22.2586],[73.1912,22.2771],[73.1978,22.2785],[73.1958,22.2831]]]},"properties":{"objectid":297145,"statename":"Gujarat","statecode":"24","districtname":"Vadodara","districtcode":"486","ulbname":"Vadodara(M.Corp)","ulbcode":"802596","wardname":"R","wardcode":"18","id":null,"remark":"K.","st_area(shape)":0.001010428244983554,"st_perimeter(shape)":0.2306699987264636}}]}