{"type":"FeatureCollection","features":[{"type":"Feature","geometry":{"type":"Polygon","coordinates":[[[83.3064,17.7539],[83.2975,17.7549],[83.2977,17.7469],[83.2988,17.7407],[83.3022,17.7403],[83.3082,17.7366],[83.3081,17.7376],[83.3103,17.738],[83.3099,17.7424],[83.3144,17.7435],[83.3128,17.753],[83.3064,17.7539]]]},"properties":{"objectid":64421,"statename":"Andhra Pradhesh","statecode":"28","districtname":"Visakhapatnam","districtcode":"544","ulbname":"Gvmc","ulbcode":"802947","wardname":"Seethammadhara","wardcode":"14","id":null,"remark":"Ward 14","st_area(shape)":0.00022198715919303073,"st_perimeter(shape)":0.06326782167599242}},{"type":"Feature","geometry":{"type":"Polygon","coordinates":[[[83.256,17.745],[83.247,17.7477],[83.2464,17.7408],[83.253,17.7401],[83.2536,17.7433],[83.2548,17.743],[83.256,17.745]]]},"properties":{"objectid":64944,"statename":"Andhra Pradhesh","statecode":"28","districtname":"Visakhapatnam","districtcode":"544","ulbname":"Gvmc","ulbcode":"802947","wardname":"Jyothi Nagar","wardcode":"53","id":null,"remark":"Ward 53","st_area(shape)":4.6042029693338294e-05,"st_perimeter(shape)":0.030589397142874467}},{"type":"Feature","geometry":{"type":"Polygon","coordinates":[[[83.2053,17.6972],[83.1994,17.6984],[83.1981,17.6929],[83.1958,17.6931],[83.1946,17.6903],[83.1938,17.6834],[83.1997,17.6833],[83.2034,17.6852],[83.2058,17.6901],[83.2053,17.6972]]]},"properties":{"objectid":64945,"statename":"Andhra Pradhesh","statecode":"28","districtname":"Visakhapatnam","districtcode":"544","ulbname":"Gvmc","ulbcode":"802947","wardname":"Drivers Colony","wardcode":"70","id":null,"remark":"Ward 70","st_area(shape)":0.00012992132411377734,"st_perimeter(shape)":0.04697436864210805}},{"type":"Feature","geometry":{"type":"Polygon","coordinates":[[[83.3082,17.7366],[83.3047,17.7379],[83.304,17.7305],[83.3119,17.7294],[83.313,17.7344],[83.3082,17.7366]]]},"properties":{"objectid":65293,"statename":"Andhra Pradhesh","statecode":"28","districtname":"Visakhapatnam","districtcode":"544","ulbname":"Gvmc","ulbcode":"802947","wardname":"Seethammapeta","wardcode":"25","id":null,"remark":"Ward 25","st_area(shape)":5.1226934267657535e-05,"st_perimeter(shape)":0.030457087081547218}},{"type":"Feature","geometry":{"type":"Polygon","coordinates":[[[83.3047,17.7379],[83.2999,17.7408],[83.2992,17.7293],[83.3039,17.7297],[83.3047,17.7379]]]},"properties":{"objectid":65294,"statename":"Andhra Pradhesh","statecode":"28","districtname":"Visakhapatnam","districtcode":"544","ulbname":"Gvmc","ulbcode":"802947","wardname":"Akkayyapalem","wardcode":"26","id":null,"remark":"Ward 26","st_area(shape)":4.792757921685388e-05,"st_perimeter(shape)":0.031066886682844498}},{"type":"Feature","geometry":{"type":"Polygon","coordinates":[[[83.296,17.7111],[83.295,17.7099],[83.2941,17.7113],[83.2925,17.7036],[83.2965,17.7022],[83.2982,17.7061],[83.2969,17.7077],[83.2982,17.7096],[83.296,17.7111]]]},"properties":{"objectid":65295,"statename":"Andhra Pradhesh","statecode":"28","districtname":"Visakhapatnam","districtcode":"544","ulbname":"Gvmc","ulbcode":"802947","wardname":"Purna Market","wardcode":"35","id":null,"remark":"Ward 35","st_area(shape)":3.3622476458118305e-05,"st_perimeter(shape)":0.026651443455847794}},{"type":"Feature","geometry":{"type":"Polygon","coordinates":[[[83.2704,17.7575],[83.2624,17.7634],[83.2592,17.7632],[83.2582,17.7488],[83.2564,17.749],[83.256,17.745],[83.2657,17.7404],[83.2675,17.7463],[83.2642,17.747],[83.2648,17.7492],[83.2666,17.7488],[83.266,17.7502],[83.2704,17.7575]]]},"properties":{"objectid":65296,"statename":"Andhra Pradhesh","statecode":"28","districtname":"Visakhapatnam","districtcode":"544","ulbname":"Gvmc","ulbcode":"802947","wardname":"Madhavadarar","wardcode":"50","id":null,"remark":"Ward 50","st_area(shape)":0.0001890736606602322,"st_perimeter(shape)":0.06964343123058336}},{"type":"Feature","geometry":{"type":"Polygon","coordinates":[[[83.247,17.7477],[83.239,17.7469],[83.2341,17.7408],[83.2452,17.7384],[83.2467,17.7408],[83.247,17.7477]]]},"properties":{"objectid":65297,"statename":"Andhra Pradhesh","statecode":"28","districtname":"Visakhapatnam","districtcode":"544","ulbname":"Gvmc","ulbcode":"802947","wardname":"Karasa","wardcode":"52","id":null,"remark":"Ward 52","st_area(shape)":8.612316935927591e-05,"st_perimeter(shape)":0.03802158627736855}},{"type":"Feature","geometry":{"type":"Polygon","coordinates":[[[83.2382,17.6899],[83.2291,17.6908],[83.2312,17.6883],[83.2284,17.6882],[83.2283,17.6867],[83.2323,17.6867],[83.2322,17.6854],[83.2309,17.6853],[83.2269,17.6777],[83.2312,17.6739],[83.2384,17.6831],[83.2391,17.6822],[83.2404,17.6834],[83.2392,17.6859],[83.2376,17.6857],[83.2382,17.6899]]]},"properties":{"objectid":65298,"statename":"Andhra Pradhesh","statecode":"28","districtname":"Visakhapatnam","districtcode":"544","ulbname":"Gvmc","ulbcode":"802947","wardname":"Vuda Colony Gandhi Market","wardcode":"60","id":null,"remark":"Ward 60","st_area(shape)":0.00011803629895294795,"st_perimeter(shape)":0.06302211058453949}},{"type":"Feature","geometry":{"type":"Polygon","coordinates":[[[83.2269,17.6777],[83.2174,17.6865],[83.2171,17.682],[83.2076,17.6684],[83.217,17.6648],[83.2205,17.6649],[83.2254,17.6679],[83.2293,17.6756],[83.2269,17.6777]]]},"properties":{"objectid":65299,"statename":"Andhra Pradhesh","statecode":"28","districtname":"Visakhapatnam","districtcode":"544","ulbname":"Gvmc","ulbcode":"802947","wardname":"New Gajuwaka Bc Road","wardcode":"65","id":null,"remark":"Ward 64","st_area(shape)":0.0002446239473973682,"st_perimeter(shape)":0.0665473061765192}},{"type":"Feature","geometry":{"type":"Polygon","coordinates":[[[83.1994,17.6984],[83.1885,17.7006],[83.189,17.7031],[83.1861,17.7031],[83.1815,17.6847],[83.1676,17.6852],[83.1672,17.6652],[83.176,17.6674],[83.1792,17.6716],[83.1851,17.672],[83.1863,17.6733],[83.1892,17.6788],[83.1883,17.6836],[83.1938,17.6834],[83.1946,17.6903],[83.1958,17.6931],[83.1981,17.6929],[83.1994,17.6984]]]},"properties":{"objectid":65300,"statename":"Andhra Pradhesh","statecode":"28","districtname":"Visakhapatnam","districtcode":"544","ulbname":"Gvmc","ulbcode":"802947","wardname":"Sri Nagar","wardcode":"71","id":null,"remark":"Ward 71","st_area(shape)":0.0005306197741449329,"st_perimeter(shape)":0.12734673617362682}},{"type":"Feature","geometry":{"type":"Polygon","coordinates":[[[83.2118,17.6808],[83.2089,17.6817],[83.2092,17.6833],[83.1985,17.6795],[83.1985,17.6742],[83.1994,17.674],[83.1982,17.6709],[83.2025,17.6717],[83.2017,17.6741],[83.2049,17.6772],[83.2111,17.678],[83.2118,17.6808]]]},"properties":{"objectid":65301,"statename":"Andhra Pradhesh","statecode":"28","districtname":"Visakhapatnam","districtcode":"544","ulbname":"Gvmc","ulbcode":"802947","wardname":"New Karnavanipalem","wardcode":"73","id":null,"remark":"Ward 73","st_area(shape)":7.807793302712213e-05,"st_perimeter(shape)":0.04769002879377076}},{"type":"Feature","geometry":{"type":"Polygon","coordinates":[[[83.0808,17.6945],[83.0779,17.6947],[83.0774,17.6931],[83.0749,17.6922],[83.0744,17.6948],[83.0717,17.6957],[83.0705,17.6913],[83.0691,17.6938],[83.0691,17.6987],[83.0652,17.6991],[83.0612,17.7025],[83.0506,17.6983],[83.0433,17.7022],[83.0412,17.7002],[83.0212,17.7049],[83.0043,17.7059],[83.0051,17.7035],[83.0086,17.7009],[83.0109,17.6957],[83.0107,17.6937],[83.0085,17.6939],[83.0083,17.6905],[83.006,17.6912],[83.0075,17.6903],[83.0062,17.6886],[83.0086,17.6876],[83.0183,17.6871],[83.0332,17.6895],[83.0419,17.6924],[83.0481,17.6926],[83.0651,17.6887],[83.0747,17.6893],[83.0817,17.6861],[83.0867,17.687],[83.0866,17.6912],[83.0803,17.6933],[83.0808,17.6945]]]},"properties":{"objectid":65302,"statename":"Andhra Pradhesh","statecode":"28","districtname":"Visakhapatnam","districtcode":"544","ulbname":"Gvmc","ulbcode":"802947","wardname":"Ring Road","wardcode":"84","id":null,"remark":"Ward 84","st_area(shape)":0.0008552345672716829,"st_perimeter(shape)":0.2200995433207814}},{"type":"Feature","geometry":{"type":"Polygon","coordinates":[[[83.1861,17.7031],[83.1728,17.7053],[83.172,17.7016],[83.1684,17.7017],[83.1672,17.7004],[83.1663,17.6932],[83.1664,17.6906],[83.1689,17.6892],[83.1677,17.6873],[83.1687,17.6871],[83.1683,17.6853],[83.1815,17.6847],[83.1861,17.7031]]]},"properties":{"objectid":65303,"statename":"Andhra Pradhesh","statecode":"28","districtname":"Visakhapatnam","districtcode":"544","ulbname":"Gvmc","ulbcode":"802947","wardname":"Vadlapudi","wardcode":"87","id":null,"remark":"Ward 87","st_area(shape)":0.0003026287577340617,"st_perimeter(shape)":0.07354925969420412}},{"type":"Feature","geometry":{"type":"Polygon","coordinates":[[[83.2173,17.7564],[83.2127,17.7576],[83.2139,17.7595],[83.2066,17.764],[83.209,17.7666],[83.2025,17.7696],[83.1973,17.7638],[83.1922,17.7642],[83.1954,17.7601],[83.2137,17.7496],[83.2169,17.7483],[83.2234,17.7506],[83.2216,17.7537],[83.2245,17.7564],[83.2209,17.7576],[83.2178,17.7518],[83.2173,17.7564]]]},"properties":{"objectid":65304,"statename":"Andhra Pradhesh","statecode":"28","districtname":"Visakhapatnam","districtcode":"544","ulbname":"Gvmc","ulbcode":"802947","wardname":"Ajantha Park","wardcode":"92","id":null,"remark":"Ward 92","st_area(shape)":0.0002467570343153642,"st_perimeter(shape)":0.10256258685383451}},{"type":"Feature","geometry":{"type":"Polygon","coordinates":[[[83.234,17.7931],[83.225,17.7964],[83.224,17.7952],[83.2208,17.7953],[83.2175,17.7976],[83.2114,17.7966],[83.2163,17.7761],[83.2141,17.7775],[83.2025,17.7696],[83.209,17.7666],[83.2066,17.764],[83.2139,17.7595],[83.2127,17.7576],[83.2134,17.7571],[83.2173,17.7564],[83.2172,17.7646],[83.2185,17.7685],[83.2217,17.7714],[83.2218,17.7748],[83.2246,17.7744],[83.2266,17.7766],[83.2258,17.7776],[83.2261,17.779],[83.2271,17.7786],[83.2278,17.7862],[83.233,17.7883],[83.234,17.7931]]]},"properties":{"objectid":65305,"statename":"Andhra Pradhesh","statecode":"28","districtname":"Visakhapatnam","districtcode":"544","ulbname":"Gvmc","ulbcode":"802947","wardname":"Vepagunta","wardcode":"94","id":null,"remark":"Ward 94","st_area(shape)":0.0005173583867341059,"st_perimeter(shape)":0.14112712475764647}},{"type":"Feature","geometry":{"type":"Polygon","coordinates":[[[83.2361,17.8076],[83.2321,17.8243],[83.2349,17.8296],[83.2281,17.8308],[83.2227,17.8293],[83.2195,17.8305],[83.2169,17.8193],[83.2169,17.8112],[83.2071,17.8092],[83.1977,17.811],[83.1974,17.8097],[83.1949,17.8091],[83.1938,17.7986],[83.1995,17.7983],[83.2054,17.8018],[83.2099,17.8021],[83.2114,17.7966],[83.2175,17.7976],[83.2208,17.7953],[83.224,17.7952],[83.225,17.7964],[83.234,17.7931],[83.2361,17.7986],[83.2343,17.8039],[83.2361,17.8076]]]},"properties":{"objectid":65351,"statename":"Andhra Pradhesh","statecode":"28","districtname":"Visakhapatnam","districtcode":"544","ulbname":"Gvmc","ulbcode":"802947","wardname":"Chinamushidiwada","wardcode":"97","id":null,"remark":"Ward 97","st_area(shape)":0.0008388718624216826,"st_perimeter(shape)":0.1655038790952625}},{"type":"Feature","geometry":{"type":"Polygon","coordinates":[[[83.169,17.5804],[83.166,17.5783],[83.1598,17.5813],[83.161,17.5864],[83.1606,17.592],[83.165,17.6004],[83.1572,17.6041],[83.1675,17.6238],[83.1669,17.6247],[83.1705,17.6331],[83.1757,17.6414],[83.182,17.6582],[83.1811,17.6719],[83.1787,17.6713],[83.176,17.6674],[83.1722,17.6672],[83.1678,17.6652],[83.1667,17.6661],[83.1607,17.6608],[83.1567,17.6606],[83.1566,17.6567],[83.1579,17.655],[83.1566,17.6541],[83.1538,17.6459],[83.1503,17.649],[83.1434,17.6489],[83.1254,17.6412],[83.127,17.637],[83.1264,17.632],[83.1323,17.6268],[83.1326,17.6234],[83.1301,17.6141],[83.125,17.6068],[83.1247,17.602],[83.1176,17.5916],[83.1191,17.5778],[83.1173,17.5631],[83.1179,17.5585],[83.1192,17.5574],[83.1245,17.5578],[83.1437,17.565],[83.1502,17.5711],[83.1552,17.5785],[83.1699,17.5744],[83.1736,17.5781],[83.1711,17.5804],[83.169,17.5804]]]},"properties":{"objectid":65357,"statename":"Andhra Pradhesh","statecode":"28","districtname":"Visakhapatnam","districtcode":"544","ulbname":"Gvmc","ulbcode":"802947","wardname":"Apikonda","wardcode":"77","id":null,"remark":"Ward 77","st_area(shape)":0.003787816818647358,"st_perimeter(shape)":0.35614980048061406}},{"type":"Feature","geometry":{"type":"Polygon","coordinates":[[[83.0182,17.6871],[83.0046,17.6878],[83.0055,17.6808],[83.0026,17.6811],[83.0014,17.68],[83.0003,17.6691],[83.0016,17.6686],[83.0001,17.6636],[83.0146,17.6634],[83.0132,17.661],[83.0134,17.6578],[83.0184,17.6584],[83.0197,17.6625],[83.0192,17.6666],[83.0161,17.6693],[83.0145,17.6759],[83.0132,17.677],[83.0132,17.6829],[83.0179,17.6833],[83.0182,17.6871]]]},"properties":{"objectid":65751,"statename":"Andhra Pradhesh","statecode":"28","districtname":"Visakhapatnam","districtcode":"544","ulbname":"Gvmc","ulbcode":"802947","wardname":"Park Center","wardcode":"81","id":null,"remark":"Ward 81","st_area(shape)":0.00036336115158854205,"st_perimeter(shape)":0.10856888671583557}},{"type":"Feature","geometry":{"type":"Polygon","coordinates":[[[83.1388,17.6896],[83.131,17.6877],[83.1025,17.6894],[83.0925,17.687],[83.0868,17.687],[83.0862,17.6747],[83.0956,17.6721],[83.0974,17.6725],[83.0982,17.6756],[83.1033,17.6737],[83.1056,17.6629],[83.105,17.6517],[83.1009,17.6501],[83.0974,17.656],[83.0961,17.6548],[83.0961,17.6477],[83.098,17.6454],[83.1037,17.6452],[83.1087,17.6379],[83.1093,17.628],[83.1136,17.6297],[83.1251,17.6282],[83.1273,17.6343],[83.1271,17.6371],[83.1185,17.6553],[83.1076,17.664],[83.1053,17.6738],[83.1243,17.676],[83.138,17.6757],[83.138,17.6713],[83.1417,17.6721],[83.1444,17.6708],[83.1452,17.6678],[83.1525,17.6607],[83.1608,17.6608],[83.1673,17.6662],[83.1677,17.6853],[83.1522,17.6837],[83.1485,17.6873],[83.1388,17.6896]]]},"properties":{"objectid":65756,"statename":"Andhra Pradhesh","statecode":"28","districtname":"Visakhapatnam","districtcode":"544","ulbname":"Gvmc","ulbcode":"802947","wardname":"Desapatrunipalem","wardcode":"79","id":null,"remark":"Ward 79","st_area(shape)":0.0019393002459904228,"st_perimeter(shape)":0.35607789164937}},{"type":"Feature","geometry":{"type":"Polygon","coordinates":[[[83.3077,17.7038],[83.3058,17.7058],[83.303,17.7025],[83.3002,17.7033],[83.2992,17.7009],[83.3023,17.6997],[83.3077,17.7038]]]},"properties":{"objectid":65757,"statename":"Andhra Pradhesh","statecode":"28","districtname":"Visakhapatnam","districtcode":"544","ulbname":"Gvmc","ulbcode":"802947","wardname":"Reli Veedhi","wardcode":"37","id":null,"remark":"Ward 37","st_area(shape)":2.2118988557446606e-05,"st_perimeter(shape)":0.023224193252655925}},{"type":"Feature","geometry":{"type":"Polygon","coordinates":[[[83.3184,17.7182],[83.316,17.7179],[83.3144,17.7136],[83.3048,17.717],[83.3028,17.7123],[83.308,17.7106],[83.3069,17.7088],[83.3098,17.7055],[83.3182,17.7115],[83.3184,17.7182]]]},"properties":{"objectid":65758,"statename":"Andhra Pradhesh","statecode":"28","districtname":"Visakhapatnam","districtcode":"544","ulbname":"Gvmc","ulbcode":"802947","wardname":"Prakasa Rao Peta","wardcode":"29","id":null,"remark":"Ward 29","st_area(shape)":9.952795537774855e-05,"st_perimeter(shape)":0.053644416964462066}},{"type":"Feature","geometry":{"type":"Polygon","coordinates":[[[83.3392,17.7267],[83.3385,17.7244],[83.3366,17.7237],[83.3332,17.7253],[83.3346,17.7282],[83.3291,17.7301],[83.321,17.7251],[83.3209,17.726],[83.3167,17.7261],[83.318,17.7228],[83.3201,17.7212],[83.3184,17.7181],[83.3175,17.7119],[83.3386,17.7216],[83.3424,17.727],[83.3392,17.7267]]]},"properties":{"objectid":65759,"statename":"Andhra Pradhesh","statecode":"28","districtname":"Visakhapatnam","districtcode":"544","ulbname":"Gvmc","ulbcode":"802947","wardname":"China Waltair","wardcode":"21","id":null,"remark":"Ward 21","st_area(shape)":0.00021729725873723474,"st_perimeter(shape)":0.08360375678923339}},{"type":"Feature","geometry":{"type":"Polygon","coordinates":[[[83.3424,17.7269],[83.3433,17.7392],[83.3381,17.7404],[83.3333,17.7353],[83.3408,17.7333],[83.3392,17.7267],[83.3424,17.7269]]]},"properties":{"objectid":65760,"statename":"Andhra Pradhesh","statecode":"28","districtname":"Visakhapatnam","districtcode":"544","ulbname":"Gvmc","ulbcode":"802947","wardname":"Pedajalaripeta","wardcode":"19","id":null,"remark":"Ward 19","st_area(shape)":6.0939999813855846e-05,"st_perimeter(shape)":0.04310320711209512}},{"type":"Feature","geometry":{"type":"Polygon","coordinates":[[[83.3525,17.7598],[83.3392,17.7639],[83.3343,17.7617],[83.3324,17.7541],[83.3253,17.7582],[83.3217,17.7578],[83.3211,17.7514],[83.3251,17.7517],[83.3279,17.7503],[83.3298,17.7512],[83.3293,17.75],[83.3306,17.7492],[83.33,17.7499],[83.332,17.7507],[83.3317,17.7483],[83.3333,17.7475],[83.3453,17.7441],[83.3481,17.7471],[83.3493,17.7514],[83.3535,17.7558],[83.3534,17.7596],[83.3525,17.7598]]]},"properties":{"objectid":65761,"statename":"Andhra Pradhesh","statecode":"28","districtname":"Visakhapatnam","districtcode":"544","ulbname":"Gvmc","ulbcode":"802947","wardname":"Visalakshinagar","wardcode":"9","id":null,"remark":"Ward 9","st_area(shape)":0.00035804078979853095,"st_perimeter(shape)":0.10051890653945438}},{"type":"Feature","geometry":{"type":"Polygon","coordinates":[[[83.4192,17.8928],[83.4107,17.8935],[83.3992,17.8877],[83.3986,17.8859],[83.3878,17.8839],[83.385,17.8658],[83.3725,17.8652],[83.3642,17.8488],[83.3639,17.8466],[83.3684,17.8394],[83.3692,17.8344],[83.3664,17.8334],[83.3637,17.8293],[83.3862,17.8202],[83.3899,17.8165],[83.4049,17.8097],[83.4087,17.8134],[83.4153,17.8244],[83.4153,17.8293],[83.4143,17.8323],[83.4112,17.8352],[83.4051,17.8363],[83.403,17.8387],[83.4019,17.8437],[83.4061,17.8471],[83.4108,17.8481],[83.415,17.8553],[83.4204,17.8608],[83.4429,17.8739],[83.4473,17.8813],[83.4452,17.8808],[83.4452,17.8861],[83.4386,17.8842],[83.431,17.8865],[83.4305,17.8889],[83.4223,17.8891],[83.4187,17.8905],[83.4192,17.8928]]]},"properties":{"objectid":65762,"statename":"Andhra Pradhesh","statecode":"28","districtname":"Visakhapatnam","districtcode":"544","ulbname":"Gvmc","ulbcode":"802947","wardname":"Chepaluppada","wardcode":"4","id":null,"remark":"Ward 4","st_area(shape)":0.003374461198757927,"st_perimeter(shape)":0.30734868766608575}},{"type":"Feature","geometry":{"type":"Polygon","coordinates":[[[83.2642,17.6832],[83.2582,17.6832],[83.2548,17.6813],[83.2492,17.6807],[83.249,17.6757],[83.2467,17.6689],[83.2683,17.6722],[83.2819,17.6675],[83.2832,17.6659],[83.2942,17.6764],[83.2835,17.6768],[83.2642,17.6832]],[[83.2835,17.6768],[83.2866,17.6758],[83.2663,17.6788],[83.2835,17.6768]]]},"properties":{"objectid":65763,"statename":"Andhra Pradhesh","statecode":"28","districtname":"Visakhapatnam","districtcode":"544","ulbname":"Gvmc","ulbcode":"802947","wardname":"Kakaralova","wardcode":"63","id":null,"remark":"Ward 63","st_area(shape)":0.0004528302899015001,"st_perimeter(shape)":0.15649932322921445}},{"type":"Feature","geometry":{"type":"Polygon","coordinates":[[[83.2992,17.7944],[83.2932,17.7927],[83.2804,17.7953],[83.2642,17.8044],[83.2641,17.7994],[83.2595,17.7849],[83.2595,17.7802],[83.2606,17.7785],[83.2597,17.763],[83.2624,17.7634],[83.2704,17.7575],[83.2819,17.7536],[83.2918,17.7527],[83.2975,17.7549],[83.3064,17.7539],[83.3074,17.7617],[83.3054,17.762],[83.3059,17.7657],[83.312,17.7649],[83.3113,17.7725],[83.309,17.7829],[83.3034,17.7865],[83.2992,17.7944]]]},"properties":{"objectid":66600,"statename":"Andhra Pradhesh","statecode":"28","districtname":"Visakhapatnam","districtcode":"544","ulbname":"Gvmc","ulbcode":"802947","wardname":"Durgbazar Arilova","wardcode":"13","id":null,"remark":"Ward 13","st_area(shape)":0.0018911996287937988,"st_perimeter(shape)":0.18684328280617424}},{"type":"Feature","geometry":{"type":"Polygon","coordinates":[[[83.3381,17.7404],[83.3308,17.7422],[83.3318,17.747],[83.3288,17.7468],[83.3277,17.7384],[83.3353,17.7309],[83.3357,17.7346],[83.3333,17.7353],[83.3381,17.7404]]]},"properties":{"objectid":66601,"statename":"Andhra Pradhesh","statecode":"28","districtname":"Visakhapatnam","districtcode":"544","ulbname":"Gvmc","ulbcode":"802947","wardname":"Adarshanagar","wardcode":"17","id":null,"remark":"Ward 17","st_area(shape)":7.737412269303539e-05,"st_perimeter(shape)":0.04947795706242204}},{"type":"Feature","geometry":{"type":"Polygon","coordinates":[[[83.317,17.725],[83.3086,17.7245],[83.3048,17.717],[83.3144,17.7136],[83.3159,17.7178],[83.3184,17.7182],[83.3201,17.7212],[83.317,17.725]]]},"properties":{"objectid":66602,"statename":"Andhra Pradhesh","statecode":"28","districtname":"Visakhapatnam","districtcode":"544","ulbname":"Gvmc","ulbcode":"802947","wardname":"Ramnagar","wardcode":"28","id":null,"remark":"Ward 28","st_area(shape)":0.00010568526718027897,"st_perimeter(shape)":0.0440356150516114}},{"type":"Feature","geometry":{"type":"Polygon","coordinates":[[[83.3035,17.725],[83.299,17.7254],[83.2937,17.7235],[83.2946,17.7197],[83.2915,17.7182],[83.2946,17.7162],[83.2956,17.7163],[83.2961,17.7198],[83.2994,17.7204],[83.2997,17.7186],[83.3019,17.7187],[83.3035,17.725]]]},"properties":{"objectid":66606,"statename":"Andhra Pradhesh","statecode":"28","districtname":"Visakhapatnam","districtcode":"544","ulbname":"Gvmc","ulbcode":"802947","wardname":"Allipuram","wardcode":"32","id":null,"remark":"Ward 32","st_area(shape)":5.656120792842245e-05,"st_perimeter(shape)":0.04119947355779193}},{"type":"Feature","geometry":{"type":"Polygon","coordinates":[[[83.2956,17.7163],[83.2937,17.7161],[83.2915,17.7182],[83.2895,17.7172],[83.295,17.7099],[83.2974,17.7125],[83.2956,17.7163]]]},"properties":{"objectid":66607,"statename":"Andhra Pradhesh","statecode":"28","districtname":"Visakhapatnam","districtcode":"544","ulbname":"Gvmc","ulbcode":"802947","wardname":"Convent Junction","wardcode":"34","id":null,"remark":"Ward 34","st_area(shape)":2.7697531494803063e-05,"st_perimeter(shape)":0.02481288813001589}},{"type":"Feature","geometry":{"type":"Polygon","coordinates":[[[83.3052,17.7053],[83.3005,17.7051],[83.3015,17.7064],[83.3005,17.7087],[83.2965,17.7022],[83.2992,17.7009],[83.3002,17.7033],[83.303,17.7025],[83.3052,17.7053]]]},"properties":{"objectid":66608,"statename":"Andhra Pradhesh","statecode":"28","districtname":"Visakhapatnam","districtcode":"544","ulbname":"Gvmc","ulbcode":"802947","wardname":"Town Kotha Road","wardcode":"36","id":null,"remark":"Ward  36","st_area(shape)":2.700901661597115e-05,"st_perimeter(shape)":0.03254417103884478}},{"type":"Feature","geometry":{"type":"Polygon","coordinates":[[[83.2918,17.7325],[83.2897,17.7325],[83.2907,17.728],[83.2993,17.7274],[83.2994,17.7313],[83.292,17.731],[83.2918,17.7325]]]},"properties":{"objectid":66609,"statename":"Andhra Pradhesh","statecode":"28","districtname":"Visakhapatnam","districtcode":"544","ulbname":"Gvmc","ulbcode":"802947","wardname":"Railway Newcolony","wardcode":"42","id":null,"remark":"Ward 42","st_area(shape)":3.316157997245744e-05,"st_perimeter(shape)":0.029883032513457943}},{"type":"Feature","geometry":{"type":"Polygon","coordinates":[[[83.2999,17.7355],[83.2957,17.7355],[83.2956,17.7338],[83.2919,17.7337],[83.292,17.731],[83.2994,17.7313],[83.2999,17.7355]]]},"properties":{"objectid":66610,"statename":"Andhra Pradhesh","statecode":"28","districtname":"Visakhapatnam","districtcode":"544","ulbname":"Gvmc","ulbcode":"802947","wardname":"Akkayyapalem Double Road","wardcode":"43","id":null,"remark":"Ward 43","st_area(shape)":2.5402582804823046e-05,"st_perimeter(shape)":0.02505230318685304}},{"type":"Feature","geometry":{"type":"Polygon","coordinates":[[[83.2999,17.7355],[83.2999,17.7408],[83.2978,17.7406],[83.2934,17.7388],[83.2935,17.7353],[83.2921,17.7351],[83.2919,17.7337],[83.2956,17.7338],[83.2957,17.7355],[83.2999,17.7355]]]},"properties":{"objectid":66611,"statename":"Andhra Pradhesh","statecode":"28","districtname":"Visakhapatnam","districtcode":"544","ulbname":"Gvmc","ulbcode":"802947","wardname":"Abid Nagar","wardcode":"44","id":null,"remark":"Ward 44","st_area(shape)":3.5526508213818764e-05,"st_perimeter(shape)":0.028531313962577097}},{"type":"Feature","geometry":{"type":"Polygon","coordinates":[[[83.2888,17.753],[83.2841,17.7532],[83.2812,17.743],[83.2794,17.742],[83.2818,17.7362],[83.2807,17.7351],[83.2873,17.7352],[83.2886,17.7361],[83.289,17.7407],[83.2932,17.7412],[83.2931,17.743],[83.2889,17.7428],[83.2888,17.753]]]},"properties":{"objectid":66612,"statename":"Andhra Pradhesh","statecode":"28","districtname":"Visakhapatnam","districtcode":"544","ulbname":"Gvmc","ulbcode":"802947","wardname":"Ramalyam Shanti Nagar","wardcode":"46","id":null,"remark":"Ward 46","st_area(shape)":0.00013245682416407112,"st_perimeter(shape)":0.060999097978299895}},{"type":"Feature","geometry":{"type":"Polygon","coordinates":[[[83.2113,17.6951],[83.2052,17.6955],[83.2058,17.6901],[83.2034,17.6852],[83.2171,17.6861],[83.2181,17.6875],[83.2164,17.6906],[83.2139,17.6915],[83.2132,17.6938],[83.2113,17.6951]]]},"properties":{"objectid":66613,"statename":"Andhra Pradhesh","statecode":"28","districtname":"Visakhapatnam","districtcode":"544","ulbname":"Gvmc","ulbcode":"802947","wardname":"Old Gajuwaka Junction","wardcode":"67","id":null,"remark":"Ward 67","st_area(shape)":9.900842434572262e-05,"st_perimeter(shape)":0.04424114201579361}},{"type":"Feature","geometry":{"type":"Polygon","coordinates":[[[83.2173,17.7073],[83.2081,17.7192],[83.2036,17.7197],[83.2058,17.7051],[83.2052,17.6955],[83.2113,17.6951],[83.2108,17.698],[83.2131,17.6985],[83.2148,17.7012],[83.218,17.7012],[83.2194,17.7038],[83.217,17.7061],[83.2173,17.7073]]]},"properties":{"objectid":66614,"statename":"Andhra Pradhesh","statecode":"28","districtname":"Visakhapatnam","districtcode":"544","ulbname":"Gvmc","ulbcode":"802947","wardname":"Sheela Nagar","wardcode":"68","id":null,"remark":"Ward 68","st_area(shape)":0.00021682635789418617,"st_perimeter(shape)":0.06951885402293403}},{"type":"Feature","geometry":{"type":"Polygon","coordinates":[[[83.2063,17.6823],[83.2034,17.6852],[83.1997,17.6833],[83.1883,17.6836],[83.1892,17.6788],[83.1851,17.672],[83.1888,17.6721],[83.1919,17.6763],[83.1932,17.6741],[83.1952,17.6742],[83.1952,17.6706],[83.1973,17.6695],[83.1994,17.674],[83.1985,17.6742],[83.1985,17.6795],[83.2063,17.6823]]]},"properties":{"objectid":66615,"statename":"Andhra Pradhesh","statecode":"28","districtname":"Visakhapatnam","districtcode":"544","ulbname":"Gvmc","ulbcode":"802947","wardname":"Chinagantyada","wardcode":"72","id":null,"remark":"Ward 72","st_area(shape)":0.00013515869519845568,"st_perimeter(shape)":0.07291813060347388}},{"type":"Feature","geometry":{"type":"Polygon","coordinates":[[[83.215,17.6797],[83.2118,17.6808],[83.2111,17.678],[83.2049,17.6772],[83.2017,17.6741],[83.2025,17.6717],[83.2076,17.6684],[83.215,17.6797]]]},"properties":{"objectid":66616,"statename":"Andhra Pradhesh","statecode":"28","districtname":"Visakhapatnam","districtcode":"544","ulbname":"Gvmc","ulbcode":"802947","wardname":"Nehru Nagar","wardcode":"74","id":null,"remark":"Ward 74","st_area(shape)":7.359147158403253e-05,"st_perimeter(shape)":0.03978313609271053}},{"type":"Feature","geometry":{"type":"Polygon","coordinates":[[[83.2076,17.6684],[83.2025,17.6717],[83.1982,17.6709],[83.1966,17.6678],[83.1998,17.6679],[83.1998,17.6636],[83.2019,17.6632],[83.2025,17.6605],[83.2041,17.6631],[83.2063,17.661],[83.2076,17.6653],[83.206,17.666],[83.2076,17.6684]]]},"properties":{"objectid":66617,"statename":"Andhra Pradhesh","statecode":"28","districtname":"Visakhapatnam","districtcode":"544","ulbname":"Gvmc","ulbcode":"802947","wardname":"Pedagantyada Seetha Nagaram","wardcode":"75","id":null,"remark":"Ward 75","st_area(shape)":6.490542597675662e-05,"st_perimeter(shape)":0.042813677258248084}},{"type":"Feature","geometry":{"type":"Polygon","coordinates":[[[83.0043,17.7059],[83.0022,17.7054],[83.0024,17.6896],[83.0062,17.6886],[83.0075,17.6903],[83.0062,17.6917],[83.0083,17.6905],[83.0085,17.6939],[83.0111,17.6944],[83.0086,17.7009],[83.0051,17.7035],[83.0043,17.7059]]]},"properties":{"objectid":66618,"statename":"Andhra Pradhesh","statecode":"28","districtname":"Visakhapatnam","districtcode":"544","ulbname":"Gvmc","ulbcode":"802947","wardname":"Velupula Veedhi","wardcode":"83","id":null,"remark":"Ward 83","st_area(shape)":0.00010094298110182341,"st_perimeter(shape)":0.05027739388070011}},{"type":"Feature","geometry":{"type":"Polygon","coordinates":[[[83.1728,17.7053],[83.172,17.7107],[83.1554,17.7049],[83.1552,17.7035],[83.1502,17.7016],[83.151,17.7005],[83.1472,17.6997],[83.1467,17.6971],[83.1385,17.6897],[83.1484,17.6872],[83.1521,17.6837],[83.1683,17.6853],[83.1687,17.6871],[83.1677,17.6873],[83.1689,17.6892],[83.1664,17.6906],[83.1672,17.7004],[83.1686,17.7018],[83.172,17.7016],[83.1728,17.7053]]]},"properties":{"objectid":66619,"statename":"Andhra Pradhesh","statecode":"28","districtname":"Visakhapatnam","districtcode":"544","ulbname":"Gvmc","ulbcode":"802947","wardname":"Kurmannapalem","wardcode":"86","id":null,"remark":"Ward 86","st_area(shape)":0.0004939840145966164,"st_perimeter(shape)":0.1101974331257469}},{"type":"Feature","geometry":{"type":"Polygon","coordinates":[[[83.228,17.7493],[83.2234,17.7506],[83.2169,17.7483],[83.2186,17.7475],[83.2219,17.7407],[83.221,17.7371],[83.2271,17.7412],[83.2266,17.7425],[83.2313,17.7416],[83.232,17.7438],[83.2261,17.7446],[83.228,17.7493]]]},"properties":{"objectid":66620,"statename":"Andhra Pradhesh","statecode":"28","districtname":"Visakhapatnam","districtcode":"544","ulbname":"Gvmc","ulbcode":"802947","wardname":"Gopalapatnam","wardcode":"91","id":null,"remark":"Ward 91","st_area(shape)":8.228464808921164e-05,"st_perimeter(shape)":0.05514918496743467}},{"type":"Feature","geometry":{"type":"Polygon","coordinates":[[[83.2642,17.8044],[83.2591,17.807],[83.2515,17.8087],[83.2361,17.8076],[83.2343,17.8039],[83.2361,17.7986],[83.233,17.7883],[83.2278,17.7862],[83.2271,17.7786],[83.2261,17.779],[83.2258,17.7776],[83.2266,17.7766],[83.2246,17.7744],[83.2218,17.7748],[83.2217,17.7714],[83.2184,17.7682],[83.2233,17.7696],[83.2259,17.7723],[83.2322,17.7731],[83.2364,17.7713],[83.2283,17.768],[83.2294,17.7661],[83.2253,17.7571],[83.2218,17.7544],[83.2229,17.7509],[83.228,17.7493],[83.2371,17.7522],[83.2444,17.7639],[83.2472,17.7653],[83.2522,17.7655],[83.2504,17.7626],[83.2576,17.7638],[83.2597,17.763],[83.2606,17.7785],[83.2595,17.7802],[83.2595,17.7849],[83.2641,17.7994],[83.2642,17.8044]]]},"properties":{"objectid":66621,"statename":"Andhra Pradhesh","statecode":"28","districtname":"Visakhapatnam","districtcode":"544","ulbname":"Gvmc","ulbcode":"802947","wardname":"Simhachalam","wardcode":"98","id":null,"remark":"Ward 98","st_area(shape)":0.0015553416037602287,"st_perimeter(shape)":0.22780918777160925}},{"type":"Feature","geometry":{"type":"Polygon","coordinates":[[[83.4489,17.8973],[83.4422,17.8994],[83.4405,17.8946],[83.4276,17.8929],[83.4194,17.8935],[83.4187,17.8905],[83.4223,17.8891],[83.4305,17.8889],[83.431,17.8865],[83.4386,17.8842],[83.4452,17.8861],[83.4445,17.8837],[83.4463,17.8804],[83.4549,17.8881],[83.4558,17.8904],[83.4489,17.8973]]]},"properties":{"objectid":66653,"statename":"Andhra Pradhesh","statecode":"28","districtname":"Visakhapatnam","districtcode":"544","ulbname":"Gvmc","ulbcode":"802947","wardname":"Bheemili","wardcode":"3","id":null,"remark":"Ward 3","st_area(shape)":0.00030807661846582674,"st_perimeter(shape)":0.10214962728110494}},{"type":"Feature","geometry":{"type":"Polygon","coordinates":[[[83.2394,17.6898],[83.2407,17.6969],[83.2363,17.6977],[83.238,17.7018],[83.2391,17.7109],[83.2363,17.7149],[83.2338,17.7104],[83.2301,17.7086],[83.2173,17.7073],[83.217,17.7061],[83.2194,17.7038],[83.2188,17.7023],[83.218,17.7012],[83.2148,17.7012],[83.2131,17.6985],[83.2108,17.698],[83.2115,17.6942],[83.2132,17.6938],[83.2139,17.6915],[83.2164,17.6906],[83.2181,17.6875],[83.2268,17.691],[83.2394,17.6898]]]},"properties":{"objectid":67014,"statename":"Andhra Pradhesh","statecode":"28","districtname":"Visakhapatnam","districtcode":"544","ulbname":"Gvmc","ulbcode":"802947","wardname":"Ins Ekasila","wardcode":"58","id":null,"remark":"Ward 58","st_area(shape)":0.0004604759508747251,"st_perimeter(shape)":0.10631563354325546}},{"type":"Feature","geometry":{"type":"Polygon","coordinates":[[[83.2269,17.6777],[83.2309,17.6853],[83.2322,17.6854],[83.2323,17.6867],[83.2283,17.6867],[83.2284,17.6882],[83.2312,17.6883],[83.2293,17.691],[83.2235,17.6902],[83.2174,17.6865],[83.2269,17.6777]]]},"properties":{"objectid":67015,"statename":"Andhra Pradhesh","statecode":"28","districtname":"Visakhapatnam","districtcode":"544","ulbname":"Gvmc","ulbcode":"802947","wardname":"Srinagar Gandhi Market","wardcode":"59","id":null,"remark":"Ward 59","st_area(shape)":0.00010337859454636516,"st_perimeter(shape)":0.05085507823946997}},{"type":"Feature","geometry":{"type":"Polygon","coordinates":[[[83.1259,17.712],[83.1184,17.7131],[83.115,17.7151],[83.1105,17.7063],[83.1052,17.7008],[83.0962,17.707],[83.0915,17.7117],[83.0864,17.7129],[83.0842,17.7101],[83.0847,17.7024],[83.0803,17.6933],[83.0866,17.6912],[83.0867,17.687],[83.0924,17.687],[83.1024,17.6893],[83.1318,17.6877],[83.1387,17.6895],[83.1467,17.6971],[83.1472,17.6997],[83.151,17.7005],[83.1502,17.7016],[83.1555,17.7044],[83.132,17.6961],[83.1339,17.7019],[83.1321,17.7037],[83.1323,17.7051],[83.1345,17.7051],[83.1371,17.7103],[83.1259,17.712]]]},"properties":{"objectid":67019,"statename":"Andhra Pradhesh","statecode":"28","districtname":"Visakhapatnam","districtcode":"544","ulbname":"Gvmc","ulbcode":"802947","wardname":"Lankelapalem","wardcode":"85","id":null,"remark":"85","st_area(shape)":0.0011677901515640809,"st_perimeter(shape)":0.22657538831412685}},{"type":"Feature","geometry":{"type":"Polygon","coordinates":[[[83.3282,17.7439],[83.325,17.7437],[83.3246,17.7465],[83.3164,17.7435],[83.3174,17.7427],[83.3166,17.7411],[83.3233,17.7396],[83.3235,17.7383],[83.3273,17.7407],[83.3282,17.7439]]]},"properties":{"objectid":67457,"statename":"Andhra Pradhesh","statecode":"28","districtname":"Visakhapatnam","districtcode":"544","ulbname":"Gvmc","ulbcode":"802947","wardname":"Isukathota","wardcode":"16","id":null,"remark":"Ward 16","st_area(shape)":5.502820324081877e-05,"st_perimeter(shape)":0.03598523884939381}},{"type":"Feature","geometry":{"type":"Polygon","coordinates":[[[83.3211,17.7514],[83.3168,17.7512],[83.3128,17.753],[83.3144,17.7435],[83.3246,17.7465],[83.325,17.7437],[83.3282,17.7439],[83.3288,17.7468],[83.3318,17.7484],[83.332,17.7507],[83.33,17.7499],[83.3306,17.7492],[83.3293,17.75],[83.3298,17.7512],[83.3279,17.7503],[83.3251,17.7517],[83.3211,17.7514]]]},"properties":{"objectid":67490,"statename":"Andhra Pradhesh","statecode":"28","districtname":"Visakhapatnam","districtcode":"544","ulbname":"Gvmc","ulbcode":"802947","wardname":"Hb Colony","wardcode":"15","id":null,"remark":"Ward 15","st_area(shape)":0.000112997814815346,"st_perimeter(shape)":0.06256283529629333}},{"type":"Feature","geometry":{"type":"Polygon","coordinates":[[[83.3204,17.7355],[83.3157,17.7346],[83.3157,17.7389],[83.3134,17.7378],[83.3144,17.7431],[83.3099,17.7424],[83.3103,17.738],[83.3081,17.7376],[83.3082,17.7366],[83.313,17.7344],[83.3119,17.7281],[83.3204,17.7355]]]},"properties":{"objectid":67491,"statename":"Andhra Pradhesh","statecode":"28","districtname":"Visakhapatnam","districtcode":"544","ulbname":"Gvmc","ulbcode":"802947","wardname":"Nakkavani Palem","wardcode":"24","id":null,"remark":"Ward 24","st_area(shape)":6.509615580244404e-05,"st_perimeter(shape)":0.053069620977718446}},{"type":"Feature","geometry":{"type":"Polygon","coordinates":[[[83.2907,17.7281],[83.2896,17.7295],[83.2806,17.7276],[83.2841,17.7173],[83.2911,17.7178],[83.2946,17.7197],[83.2937,17.7235],[83.299,17.7254],[83.2992,17.7274],[83.2907,17.7281]]]},"properties":{"objectid":67493,"statename":"Andhra Pradhesh","statecode":"28","districtname":"Visakhapatnam","districtcode":"544","ulbname":"Gvmc","ulbcode":"802947","wardname":"Gnanapuram","wardcode":"41","id":null,"remark":"Ward 41","st_area(shape)":0.0001413779582672112,"st_perimeter(shape)":0.0535042777286036}},{"type":"Feature","geometry":{"type":"Polygon","coordinates":[[[83.2169,17.7483],[83.1954,17.7601],[83.194,17.7558],[83.19,17.7533],[83.1898,17.7521],[83.1974,17.7455],[83.1986,17.7391],[83.2016,17.7353],[83.197,17.7329],[83.1937,17.7255],[83.1989,17.7247],[83.1994,17.7279],[83.2043,17.7256],[83.1971,17.7202],[83.2036,17.7201],[83.2051,17.7237],[83.2116,17.7279],[83.2179,17.7298],[83.2157,17.7337],[83.221,17.7371],[83.2221,17.7398],[83.2186,17.7475],[83.2169,17.7483]]]},"properties":{"objectid":67494,"statename":"Andhra Pradhesh","statecode":"28","districtname":"Visakhapatnam","districtcode":"544","ulbname":"Gvmc","ulbcode":"802947","wardname":"Kothapalem","wardcode":"89","id":null,"remark":"Ward 89","st_area(shape)":0.0006479996835338459,"st_perimeter(shape)":0.14732369463935913}},{"type":"Feature","geometry":{"type":"Polygon","coordinates":[[[83.2114,17.7966],[83.2099,17.8021],[83.2054,17.8018],[83.1995,17.7983],[83.1911,17.7985],[83.1901,17.7916],[83.1833,17.7764],[83.1774,17.7728],[83.1816,17.7656],[83.1812,17.7573],[83.195,17.7606],[83.1922,17.7642],[83.1973,17.7638],[83.2066,17.773],[83.2141,17.7775],[83.2163,17.7761],[83.2114,17.7966]]]},"properties":{"objectid":67550,"statename":"Andhra Pradhesh","statecode":"28","districtname":"Visakhapatnam","districtcode":"544","ulbname":"Gvmc","ulbcode":"802947","wardname":"Papayyaraju Palem","wardcode":"95","id":null,"remark":"Ward 95","st_area(shape)":0.0009600445422045404,"st_perimeter(shape)":0.14673712631973904}},{"type":"Feature","geometry":{"type":"Polygon","coordinates":[[[83.2195,17.8305],[83.2065,17.8328],[83.2002,17.83],[83.1896,17.8283],[83.1918,17.8118],[83.1901,17.8019],[83.1911,17.8018],[83.1911,17.7985],[83.1938,17.7986],[83.1949,17.8091],[83.1974,17.8097],[83.1977,17.811],[83.2071,17.8092],[83.2169,17.8112],[83.2169,17.8193],[83.2195,17.8305]]]},"properties":{"objectid":67551,"statename":"Andhra Pradhesh","statecode":"28","districtname":"Visakhapatnam","districtcode":"544","ulbname":"Gvmc","ulbcode":"802947","wardname":"Pendurthi","wardcode":"96","id":null,"remark":"Ward 96","st_area(shape)":0.0006045928495261716,"st_perimeter(shape)":0.12731582673527694}},{"type":"Feature","geometry":{"type":"Polygon","coordinates":[[[83.1812,17.7573],[83.1781,17.7571],[83.1667,17.7619],[83.1638,17.7609],[83.164,17.7571],[83.1575,17.738],[83.1532,17.734],[83.144,17.7339],[83.1415,17.7378],[83.132,17.7415],[83.1314,17.7446],[83.1295,17.7446],[83.127,17.7417],[83.1249,17.7429],[83.1221,17.7425],[83.1181,17.7383],[83.1169,17.7368],[83.1171,17.7307],[83.119,17.727],[83.1167,17.7259],[83.115,17.7229],[83.1163,17.7182],[83.1155,17.715],[83.1184,17.7131],[83.1242,17.7131],[83.1341,17.7101],[83.1371,17.7103],[83.1345,17.7051],[83.1323,17.7051],[83.1321,17.7037],[83.1339,17.7019],[83.132,17.6961],[83.172,17.7107],[83.1728,17.7053],[83.1861,17.7031],[83.1898,17.7159],[83.2043,17.7256],[83.1994,17.7279],[83.1989,17.7247],[83.1937,17.7255],[83.197,17.7329],[83.2016,17.7353],[83.1986,17.7391],[83.1974,17.7455],[83.1898,17.7521],[83.1954,17.7577],[83.1956,17.7605],[83.1812,17.7573]]]},"properties":{"objectid":67552,"statename":"Andhra Pradhesh","statecode":"28","districtname":"Visakhapatnam","districtcode":"544","ulbname":"Gvmc","ulbcode":"802947","wardname":"Duvada","wardcode":"88","id":null,"remark":"Ward 88","st_area(shape)":0.003235150069971748,"st_perimeter(shape)":0.3344444554818303}},{"type":"Feature","geometry":{"type":"Polygon","coordinates":[[[83.0021,17.6994],[82.9961,17.7011],[82.9971,17.694],[82.9937,17.682],[82.9954,17.6813],[82.9968,17.6768],[82.9954,17.6741],[82.9972,17.6748],[82.9998,17.6691],[83.0014,17.68],[83.0026,17.6811],[83.0055,17.6808],[83.0046,17.6878],[83.0068,17.6869],[83.0072,17.6881],[83.0024,17.6896],[83.0021,17.6994]]]},"properties":{"objectid":67553,"statename":"Andhra Pradhesh","statecode":"28","districtname":"Visakhapatnam","districtcode":"544","ulbname":"Gvmc","ulbcode":"802947","wardname":"Nehru Chowk","wardcode":"82","id":null,"remark":"Ward 82","st_area(shape)":0.00019733314645405836,"st_perimeter(shape)":0.08895494458398596}},{"type":"Feature","geometry":{"type":"Polygon","coordinates":[[[83.1973,17.6695],[83.1952,17.6706],[83.1952,17.6742],[83.1932,17.6741],[83.1919,17.6763],[83.1888,17.6721],[83.1811,17.6719],[83.182,17.6582],[83.1757,17.6414],[83.1705,17.6331],[83.1669,17.6247],[83.1675,17.6238],[83.1572,17.6041],[83.165,17.6004],[83.1606,17.592],[83.161,17.5864],[83.1598,17.5813],[83.166,17.5783],[83.171,17.5804],[83.1716,17.5757],[83.1805,17.584],[83.1859,17.5865],[83.1904,17.5859],[83.1937,17.5948],[83.2186,17.6174],[83.2057,17.6253],[83.1933,17.6356],[83.1961,17.6543],[83.1986,17.6581],[83.2025,17.6605],[83.2019,17.6632],[83.1998,17.6636],[83.1998,17.6679],[83.1966,17.6678],[83.1973,17.6695]]]},"properties":{"objectid":67554,"statename":"Andhra Pradhesh","statecode":"28","districtname":"Visakhapatnam","districtcode":"544","ulbname":"Gvmc","ulbcode":"802947","wardname":"Nadupuru","wardcode":"76","id":null,"remark":"Ward 76","st_area(shape)":0.002738699904421632,"st_perimeter(shape)":0.28597223297399865}},{"type":"Feature","geometry":{"type":"Polygon","coordinates":[[[83.2841,17.7173],[83.2692,17.716],[83.2628,17.7204],[83.2543,17.7177],[83.2418,17.7187],[83.2381,17.7175],[83.2363,17.7149],[83.2391,17.7109],[83.2392,17.7077],[83.2363,17.6977],[83.2407,17.6969],[83.2394,17.6897],[83.2587,17.6874],[83.258,17.683],[83.2642,17.6832],[83.2663,17.6788],[83.2942,17.6762],[83.2927,17.6833],[83.2909,17.6854],[83.2915,17.6895],[83.2842,17.6886],[83.2819,17.6906],[83.2831,17.6926],[83.2876,17.6923],[83.2906,17.694],[83.2941,17.7113],[83.2895,17.7172],[83.2841,17.7173]]]},"properties":{"objectid":67555,"statename":"Andhra Pradhesh","statecode":"28","districtname":"Visakhapatnam","districtcode":"544","ulbname":"Gvmc","ulbcode":"802947","wardname":"Akc Colony","wardcode":"40","id":null,"remark":"Ward 40","st_area(shape)":0.0018754643817467415,"st_perimeter(shape)":0.21225258299330715}},{"type":"Feature","geometry":{"type":"Polygon","coordinates":[[[83.2312,17.6739],[83.2293,17.6756],[83.2254,17.6679],[83.2188,17.6643],[83.2076,17.6684],[83.206,17.666],[83.2076,17.6653],[83.2066,17.6617],[83.2125,17.6581],[83.2149,17.6505],[83.2367,17.6353],[83.2506,17.6407],[83.2609,17.6513],[83.2706,17.6571],[83.2815,17.6616],[83.2832,17.6659],[83.2819,17.6675],[83.2682,17.6716],[83.2608,17.6717],[83.2514,17.6689],[83.2378,17.6684],[83.2312,17.6739]]]},"properties":{"objectid":67558,"statename":"Andhra Pradhesh","statecode":"28","districtname":"Visakhapatnam","districtcode":"544","ulbname":"Gvmc","ulbcode":"802947","wardname":"Gangavaram","wardcode":"64","id":null,"remark":"Ward 64","st_area(shape)":0.0016042946162749142,"st_perimeter(shape)":0.19703006822224509}},{"type":"Feature","geometry":{"type":"Polygon","coordinates":[[[83.3357,17.7346],[83.3353,17.7309],[83.3293,17.7366],[83.3279,17.736],[83.3269,17.7309],[83.3277,17.7289],[83.3291,17.7301],[83.3346,17.7282],[83.3332,17.7253],[83.3366,17.7237],[83.3385,17.7245],[83.3408,17.7333],[83.3357,17.7346]]]},"properties":{"objectid":67896,"statename":"Andhra Pradhesh","statecode":"28","districtname":"Visakhapatnam","districtcode":"544","ulbname":"Gvmc","ulbcode":"802947","wardname":"Pedawaltair","wardcode":"20","id":null,"remark":"Ward  20","st_area(shape)":8.963118988723892e-05,"st_perimeter(shape)":0.05384791474447588}},{"type":"Feature","geometry":{"type":"Polygon","coordinates":[[[83.3293,17.7366],[83.3273,17.7406],[83.3141,17.7296],[83.3146,17.7282],[83.3167,17.7261],[83.3209,17.726],[83.321,17.7251],[83.3243,17.7268],[83.3277,17.7289],[83.3269,17.7309],[83.3279,17.736],[83.3293,17.7366]]]},"properties":{"objectid":67897,"statename":"Andhra Pradhesh","statecode":"28","districtname":"Visakhapatnam","districtcode":"544","ulbname":"Gvmc","ulbcode":"802947","wardname":"Pitapuram Colony","wardcode":"22","id":null,"remark":"Ward  22","st_area(shape)":0.00012078589962488057,"st_perimeter(shape)":0.049711050502793376}},{"type":"Feature","geometry":{"type":"Polygon","coordinates":[[[83.3164,17.7435],[83.3144,17.7435],[83.3134,17.7378],[83.3157,17.7389],[83.3157,17.7346],[83.3204,17.7355],[83.3235,17.7383],[83.3233,17.7396],[83.3166,17.7411],[83.3174,17.7427],[83.3164,17.7435]]]},"properties":{"objectid":67898,"statename":"Andhra Pradhesh","statecode":"28","districtname":"Visakhapatnam","districtcode":"544","ulbname":"Gvmc","ulbcode":"802947","wardname":"Krm Colony","wardcode":"23","id":null,"remark":"Ward 23","st_area(shape)":4.6333005215859766e-05,"st_perimeter(shape)":0.03673038689593656}},{"type":"Feature","geometry":{"type":"Polygon","coordinates":[[[83.3119,17.7294],[83.306,17.7306],[83.2992,17.7293],[83.2988,17.7255],[83.3107,17.7243],[83.317,17.725],[83.3141,17.7296],[83.3119,17.7281],[83.3119,17.7294]]]},"properties":{"objectid":67899,"statename":"Andhra Pradhesh","statecode":"28","districtname":"Visakhapatnam","districtcode":"544","ulbname":"Gvmc","ulbcode":"802947","wardname":"Dwarakanagar","wardcode":"27","id":null,"remark":"Ward 27","st_area(shape)":8.194572857387535e-05,"st_perimeter(shape)":0.04727026588002005}},{"type":"Feature","geometry":{"type":"Polygon","coordinates":[[[83.3086,17.7245],[83.3035,17.725],[83.3019,17.7187],[83.2997,17.7186],[83.299,17.7133],[83.296,17.7111],[83.2982,17.7096],[83.2969,17.7077],[83.2982,17.7061],[83.3029,17.7124],[83.3086,17.7245]]]},"properties":{"objectid":67900,"statename":"Andhra Pradhesh","statecode":"28","districtname":"Visakhapatnam","districtcode":"544","ulbname":"Gvmc","ulbcode":"802947","wardname":"Jagadamba Junction","wardcode":"31","id":null,"remark":"Ward 31","st_area(shape)":8.179837669214027e-05,"st_perimeter(shape)":0.05253383806010158}},{"type":"Feature","geometry":{"type":"Polygon","coordinates":[[[83.2997,17.7186],[83.2994,17.7204],[83.2961,17.7197],[83.2958,17.7143],[83.2976,17.7123],[83.299,17.7133],[83.2997,17.7186]]]},"properties":{"objectid":67901,"statename":"Andhra Pradhesh","statecode":"28","districtname":"Visakhapatnam","districtcode":"544","ulbname":"Gvmc","ulbcode":"802947","wardname":"Neelammavepa Chettu","wardcode":"33","id":null,"remark":"Ward 33","st_area(shape)":2.5319188508764424e-05,"st_perimeter(shape)":0.020834257833562814}},{"type":"Feature","geometry":{"type":"Polygon","coordinates":[[[83.2988,17.7407],[83.2975,17.7549],[83.2918,17.7527],[83.2888,17.753],[83.2889,17.7428],[83.2931,17.743],[83.2932,17.7412],[83.289,17.7407],[83.2877,17.734],[83.2935,17.7353],[83.2934,17.7388],[83.2988,17.7407]]]},"properties":{"objectid":67902,"statename":"Andhra Pradhesh","statecode":"28","districtname":"Visakhapatnam","districtcode":"544","ulbname":"Gvmc","ulbcode":"802947","wardname":"Narasimha Nagar","wardcode":"45","id":null,"remark":"Ward 45","st_area(shape)":0.00014525922844246307,"st_perimeter(shape)":0.06819513206998506}},{"type":"Feature","geometry":{"type":"Polygon","coordinates":[[[83.2795,17.7421],[83.2783,17.7424],[83.276,17.737],[83.2785,17.7369],[83.2778,17.7356],[83.2807,17.7351],[83.2818,17.7362],[83.2795,17.7421]]]},"properties":{"objectid":67903,"statename":"Andhra Pradhesh","statecode":"28","districtname":"Visakhapatnam","districtcode":"544","ulbname":"Gvmc","ulbcode":"802947","wardname":"Ramji Estate","wardcode":"47","id":null,"remark":"Ward 47","st_area(shape)":2.6007713227781492e-05,"st_perimeter(shape)":0.024429801169463326}},{"type":"Feature","geometry":{"type":"Polygon","coordinates":[[[83.2841,17.7532],[83.2776,17.7548],[83.2717,17.7443],[83.2734,17.7429],[83.2711,17.7372],[83.2738,17.7357],[83.2781,17.736],[83.2785,17.7369],[83.276,17.737],[83.2762,17.7384],[83.2783,17.7424],[83.2812,17.743],[83.2841,17.7532]]]},"properties":{"objectid":67904,"statename":"Andhra Pradhesh","statecode":"28","districtname":"Visakhapatnam","districtcode":"544","ulbname":"Gvmc","ulbcode":"802947","wardname":"Urvasi","wardcode":"48","id":null,"remark":"Ward 48","st_area(shape)":0.00013126941057861182,"st_perimeter(shape)":0.06033942998847762}},{"type":"Feature","geometry":{"type":"Polygon","coordinates":[[[83.2776,17.7548],[83.2745,17.7569],[83.2704,17.7575],[83.266,17.7502],[83.2666,17.7488],[83.2648,17.7492],[83.2642,17.747],[83.2675,17.7463],[83.2657,17.7404],[83.2711,17.7372],[83.2734,17.7429],[83.2717,17.7443],[83.2776,17.7548]]]},"properties":{"objectid":67905,"statename":"Andhra Pradhesh","statecode":"28","districtname":"Visakhapatnam","districtcode":"544","ulbname":"Gvmc","ulbcode":"802947","wardname":"Murali Nagar","wardcode":"49","id":null,"remark":"Ward 49","st_area(shape)":0.0001359973544330022,"st_perimeter(shape)":0.0596612061678888}},{"type":"Feature","geometry":{"type":"Polygon","coordinates":[[[83.2592,17.7632],[83.2501,17.7627],[83.2519,17.7657],[83.245,17.7642],[83.2428,17.7538],[83.245,17.7477],[83.256,17.745],[83.2564,17.749],[83.2582,17.7488],[83.2592,17.7632]]]},"properties":{"objectid":67906,"statename":"Andhra Pradhesh","statecode":"28","districtname":"Visakhapatnam","districtcode":"544","ulbname":"Gvmc","ulbcode":"802947","wardname":"Nggos Colony","wardcode":"51","id":null,"remark":"Ward 51","st_area(shape)":0.000243743022154299,"st_perimeter(shape)":0.07303547043417814}},{"type":"Feature","geometry":{"type":"Polygon","coordinates":[[[83.256,17.745],[83.2548,17.743],[83.2536,17.7433],[83.253,17.7401],[83.275,17.7339],[83.2753,17.7357],[83.256,17.745]]]},"properties":{"objectid":67907,"statename":"Andhra Pradhesh","statecode":"28","districtname":"Visakhapatnam","districtcode":"544","ulbname":"Gvmc","ulbcode":"802947","wardname":"Kancharapalem Rly Gate","wardcode":"54","id":null,"remark":"Ward 54","st_area(shape)":8.458711141116104e-05,"st_perimeter(shape)":0.0536736113264286}},{"type":"Feature","geometry":{"type":"Polygon","coordinates":[[[83.2778,17.7356],[83.2753,17.7357],[83.275,17.7339],[83.2795,17.7309],[83.2913,17.7286],[83.2897,17.7325],[83.2918,17.7325],[83.2921,17.7351],[83.2877,17.734],[83.2873,17.7352],[83.2831,17.7346],[83.2778,17.7356]]]},"properties":{"objectid":67908,"statename":"Andhra Pradhesh","statecode":"28","districtname":"Visakhapatnam","districtcode":"544","ulbname":"Gvmc","ulbcode":"802947","wardname":"Kancharapalem","wardcode":"55","id":null,"remark":"Ward 55","st_area(shape)":7.217443602185473e-05,"st_perimeter(shape)":0.047381317803843366}},{"type":"Feature","geometry":{"type":"Polygon","coordinates":[[[83.275,17.7339],[83.2719,17.7349],[83.272,17.7324],[83.2603,17.735],[83.2628,17.7329],[83.2586,17.7233],[83.2692,17.716],[83.2841,17.7173],[83.2806,17.7276],[83.2856,17.729],[83.275,17.7339]]]},"properties":{"objectid":67909,"statename":"Andhra Pradhesh","statecode":"28","districtname":"Visakhapatnam","districtcode":"544","ulbname":"Gvmc","ulbcode":"802947","wardname":"Kancharapalem Mettu","wardcode":"56","id":null,"remark":"Ward 56","st_area(shape)":0.00034601749290572975,"st_perimeter(shape)":0.08910420572320903}},{"type":"Feature","geometry":{"type":"Polygon","coordinates":[[[83.253,17.7401],[83.2467,17.7408],[83.2452,17.7384],[83.2341,17.7408],[83.2316,17.7363],[83.2116,17.7279],[83.2051,17.7237],[83.2035,17.7219],[83.2036,17.7197],[83.2081,17.7192],[83.2173,17.7073],[83.2301,17.7086],[83.2338,17.7104],[83.2372,17.7167],[83.2396,17.7183],[83.2543,17.7177],[83.2628,17.7204],[83.2586,17.7233],[83.2628,17.7329],[83.2603,17.735],[83.272,17.7324],[83.2719,17.7349],[83.253,17.7401]]]},"properties":{"objectid":67910,"statename":"Andhra Pradhesh","statecode":"28","districtname":"Visakhapatnam","districtcode":"544","ulbname":"Gvmc","ulbcode":"802947","wardname":"104 Area","wardcode":"57","id":null,"remark":"Ward 57","st_area(shape)":0.001193973761557794,"st_perimeter(shape)":0.18523215515975597}},{"type":"Feature","geometry":{"type":"Polygon","coordinates":[[[83.2394,17.6898],[83.2382,17.6899],[83.2376,17.6857],[83.2392,17.6859],[83.2404,17.6834],[83.2391,17.6822],[83.2384,17.6831],[83.2313,17.6739],[83.233,17.6725],[83.2386,17.68],[83.2429,17.6825],[83.244,17.6859],[83.2465,17.6862],[83.2478,17.6886],[83.2394,17.6898]]]},"properties":{"objectid":67911,"statename":"Andhra Pradhesh","statecode":"28","districtname":"Visakhapatnam","districtcode":"544","ulbname":"Gvmc","ulbcode":"802947","wardname":"Malkapuram","wardcode":"61","id":null,"remark":"Ward 61","st_area(shape)":7.065474463122451e-05,"st_perimeter(shape)":0.060511253179914334}},{"type":"Feature","geometry":{"type":"Polygon","coordinates":[[[83.258,17.683],[83.2587,17.6874],[83.2478,17.6886],[83.2465,17.6862],[83.244,17.6859],[83.2429,17.6825],[83.2386,17.68],[83.233,17.6724],[83.2378,17.6684],[83.2467,17.6689],[83.249,17.6757],[83.2492,17.6807],[83.252,17.6818],[83.2548,17.6813],[83.258,17.683]]]},"properties":{"objectid":67912,"statename":"Andhra Pradhesh","statecode":"28","districtname":"Visakhapatnam","districtcode":"544","ulbname":"Gvmc","ulbcode":"802947","wardname":"Malkapuram Main Road","wardcode":"62","id":null,"remark":"Ward 62","st_area(shape)":0.00024040211588749794,"st_perimeter(shape)":0.07753903450363425}},{"type":"Feature","geometry":{"type":"Polygon","coordinates":[[[83.215,17.6797],[83.2171,17.6822],[83.2174,17.6865],[83.2034,17.6852],[83.2063,17.6823],[83.2092,17.6833],[83.2098,17.6809],[83.215,17.6797]]]},"properties":{"objectid":67913,"statename":"Andhra Pradhesh","statecode":"28","districtname":"Visakhapatnam","districtcode":"544","ulbname":"Gvmc","ulbcode":"802947","wardname":"New Gajuwaka Junction","wardcode":"66","id":null,"remark":"Ward 66","st_area(shape)":5.3771219558616606e-05,"st_perimeter(shape)":0.03805533533454217}},{"type":"Feature","geometry":{"type":"Polygon","coordinates":[[[83.2036,17.7201],[83.1968,17.7206],[83.1898,17.7159],[83.1861,17.7031],[83.189,17.7031],[83.1885,17.7006],[83.2053,17.6972],[83.2058,17.7051],[83.2036,17.7201]]]},"properties":{"objectid":67914,"statename":"Andhra Pradhesh","statecode":"28","districtname":"Visakhapatnam","districtcode":"544","ulbname":"Gvmc","ulbcode":"802947","wardname":"Natayyapalem","wardcode":"69","id":null,"remark":"Ward 69","st_area(shape)":0.00033843564655040446,"st_perimeter(shape)":0.07465521650836045}},{"type":"Feature","geometry":{"type":"Polygon","coordinates":[[[83.245,17.7477],[83.2428,17.7538],[83.245,17.7642],[83.2386,17.7533],[83.228,17.7493],[83.2261,17.7446],[83.232,17.7438],[83.2313,17.7416],[83.2266,17.7425],[83.2271,17.7412],[83.2157,17.7337],[83.2179,17.7298],[83.2316,17.7363],[83.2382,17.7464],[83.245,17.7477]]]},"properties":{"objectid":67915,"statename":"Andhra Pradhesh","statecode":"28","districtname":"Visakhapatnam","districtcode":"544","ulbname":"Gvmc","ulbcode":"802947","wardname":"Butchiraju Palem","wardcode":"90","id":null,"remark":"Ward 90","st_area(shape)":0.0002482473072011383,"st_perimeter(shape)":0.11651789858401439}},{"type":"Feature","geometry":{"type":"Polygon","coordinates":[[[83.2245,17.7564],[83.2294,17.7661],[83.2283,17.768],[83.2364,17.7713],[83.2322,17.7731],[83.2259,17.7723],[83.2233,17.7696],[83.2183,17.7679],[83.2172,17.7646],[83.2178,17.7518],[83.2209,17.7576],[83.2245,17.7564]]]},"properties":{"objectid":67916,"statename":"Andhra Pradhesh","statecode":"28","districtname":"Visakhapatnam","districtcode":"544","ulbname":"Gvmc","ulbcode":"802947","wardname":"Prahladha Puram","wardcode":"93","id":null,"remark":"Ward 93","st_area(shape)":0.0001593827628202175,"st_perimeter(shape)":0.07076463407978842}},{"type":"Feature","geometry":{"type":"Polygon","coordinates":[[[83.0867,17.687],[83.0817,17.6861],[83.0747,17.6893],[83.0651,17.6887],[83.0481,17.6926],[83.0419,17.6924],[83.0267,17.6882],[83.0189,17.6878],[83.0179,17.6833],[83.0132,17.6829],[83.0131,17.6811],[83.0132,17.6766],[83.0145,17.6759],[83.0158,17.6699],[83.0192,17.6666],[83.0197,17.6625],[83.0177,17.658],[83.0206,17.6578],[83.0206,17.6593],[83.0235,17.6593],[83.0239,17.657],[83.0277,17.656],[83.0333,17.6575],[83.0393,17.6546],[83.0531,17.6548],[83.0543,17.6554],[83.0468,17.6625],[83.0535,17.666],[83.0613,17.663],[83.0608,17.6535],[83.0622,17.6579],[83.0724,17.6626],[83.0737,17.6671],[83.0728,17.6675],[83.0744,17.6689],[83.074,17.6707],[83.076,17.6748],[83.0796,17.6694],[83.0836,17.6766],[83.0859,17.6749],[83.0867,17.687]]]},"properties":{"objectid":67969,"statename":"Andhra Pradhesh","statecode":"28","districtname":"Visakhapatnam","districtcode":"544","ulbname":"Gvmc","ulbcode":"802947","wardname":"Gavarapalem","wardcode":"80","id":null,"remark":"Ward 80","st_area(shape)":0.001961853905974283,"st_perimeter(shape)":0.25160457692601895}},{"type":"Feature","geometry":{"type":"Polygon","coordinates":[[[83.2965,17.7022],[83.2925,17.7036],[83.292,17.7008],[83.2958,17.7003],[83.2924,17.6949],[83.2946,17.6934],[83.3024,17.6997],[83.2965,17.7022]]]},"properties":{"objectid":67970,"statename":"Andhra Pradhesh","statecode":"28","districtname":"Visakhapatnam","districtcode":"544","ulbname":"Gvmc","ulbcode":"802947","wardname":"Town Hall ","wardcode":"38","id":null,"remark":"Ward 38","st_area(shape)":4.443711810941678e-05,"st_perimeter(shape)":0.03798117623784552}},{"type":"Feature","geometry":{"type":"Polygon","coordinates":[[[83.2946,17.6934],[83.2924,17.6949],[83.2958,17.7003],[83.292,17.7008],[83.2906,17.694],[83.2876,17.6923],[83.2831,17.6926],[83.2819,17.6906],[83.2842,17.6886],[83.2915,17.6889],[83.2946,17.6934]]]},"properties":{"objectid":67971,"statename":"Andhra Pradhesh","statecode":"28","districtname":"Visakhapatnam","districtcode":"544","ulbname":"Gvmc","ulbcode":"802947","wardname":"Old Post Office ","wardcode":"39","id":null,"remark":"Ward 39","st_area(shape)":6.486835901040227e-05,"st_perimeter(shape)":0.04699011052136684}},{"type":"Feature","geometry":{"type":"Polygon","coordinates":[[[83.3091,17.7061],[83.3069,17.7088],[83.308,17.7106],[83.3036,17.712],[83.3005,17.7087],[83.3015,17.7064],[83.3005,17.7051],[83.3047,17.706],[83.3077,17.7037],[83.3098,17.7054],[83.3091,17.7061]]]},"properties":{"objectid":67972,"statename":"Andhra Pradhesh","statecode":"28","districtname":"Visakhapatnam","districtcode":"544","ulbname":"Gvmc","ulbcode":"802947","wardname":"Kgh Area","wardcode":"30","id":null,"remark":"Ward 30","st_area(shape)":4.435397433950241e-05,"st_perimeter(shape)":0.03524426435814053}},{"type":"Feature","geometry":{"type":"Polygon","coordinates":[[[83.3455,17.7443],[83.3317,17.7483],[83.3308,17.7422],[83.3434,17.7393],[83.3465,17.7453],[83.3455,17.7443]]]},"properties":{"objectid":67974,"statename":"Andhra Pradhesh","statecode":"28","districtname":"Visakhapatnam","districtcode":"544","ulbname":"Gvmc","ulbcode":"802947","wardname":"Mvp Colony","wardcode":"18","id":null,"remark":"Ward 18","st_area(shape)":7.76767620987671e-05,"st_perimeter(shape)":0.04305172037923354}},{"type":"Feature","geometry":{"type":"Polygon","coordinates":[[[83.4049,17.8097],[83.3899,17.8165],[83.3836,17.8212],[83.3796,17.8143],[83.3755,17.8101],[83.3722,17.8026],[83.3676,17.8044],[83.3686,17.8096],[83.364,17.8107],[83.3619,17.8033],[83.3596,17.804],[83.3581,17.7991],[83.3531,17.7996],[83.3526,17.7895],[83.3565,17.7857],[83.3581,17.7802],[83.3506,17.7772],[83.3496,17.7734],[83.3393,17.7636],[83.3532,17.7594],[83.3576,17.7611],[83.3595,17.7636],[83.3716,17.771],[83.3737,17.7695],[83.3749,17.77],[83.3844,17.7771],[83.3856,17.7804],[83.3846,17.7821],[83.3849,17.7882],[83.4052,17.8088],[83.4049,17.8097]]]},"properties":{"objectid":67975,"statename":"Andhra Pradesh","statecode":"28","districtname":"Visakhapatnam","districtcode":"544","ulbname":"Gvmc","ulbcode":"802947","wardname":"Rushikonda","wardcode":"8","id":null,"remark":"Ward 8","st_area(shape)":0.0016745698738736454,"st_perimeter(shape)":0.22763958172233711}},{"type":"Feature","geometry":{"type":"Polygon","coordinates":[[[83.4396,17.9245],[83.4346,17.9226],[83.4293,17.9289],[83.4337,17.9288],[83.4292,17.9335],[83.4211,17.9321],[83.4142,17.9218],[83.4134,17.9172],[83.4117,17.9173],[83.4145,17.9168],[83.4139,17.9141],[83.4166,17.9129],[83.4164,17.9118],[83.4192,17.9121],[83.4235,17.9101],[83.4195,17.9047],[83.4179,17.8995],[83.4194,17.8935],[83.4276,17.8929],[83.4405,17.8946],[83.4425,17.8994],[83.4497,17.8972],[83.4478,17.9028],[83.4483,17.906],[83.4461,17.9074],[83.445,17.908],[83.4451,17.9041],[83.4437,17.9029],[83.4427,17.9044],[83.4357,17.9062],[83.4343,17.9143],[83.4326,17.9154],[83.4362,17.9178],[83.4378,17.9135],[83.4409,17.9157],[83.4423,17.9221],[83.4396,17.9245]]]},"properties":{"objectid":67979,"statename":"Andhra Pradhesh","statecode":"28","districtname":"Visakhapatnam","districtcode":"544","ulbname":"Gvmc","ulbcode":"802947","wardname":"Tagarapuvalasa-2","wardcode":"2","id":null,"remark":"Ward 2","st_area(shape)":0.0008123537447943546,"st_perimeter(shape)":0.19167773084718637}},{"type":"Feature","geometry":{"type":"MultiPolygon","coordinates":[[[[83.4204,17.9307],[83.4213,17.9293],[83.4238,17.9295],[83.4235,17.9285],[83.4267,17.9328],[83.4346,17.9226],[83.4396,17.9242],[83.4298,17.9334],[83.4213,17.932],[83.4204,17.9307]]],[[[83.4198,17.9297],[83.4204,17.9307],[83.4202,17.9306],[83.4202,17.9305],[83.42,17.9304],[83.4198,17.9298],[83.4198,17.9297]]],[[[83.4194,17.929],[83.4196,17.9291],[83.4197,17.9291],[83.4198,17.9295],[83.4198,17.9297],[83.4194,17.929]]],[[[83.4192,17.929],[83.419,17.9284],[83.4194,17.929],[83.4192,17.929]]]]},"properties":{"objectid":223292,"statename":"Andhra Pradesh","statecode":"28","districtname":"Visakhapatnam","districtcode":"544","ulbname":"Gvmc","ulbcode":"802947","wardname":"Tagarapuvalasa-1","wardcode":"1","id":null,"remark":"Ward 1","st_area(shape)":6.93832074759647e-05,"st_perimeter(shape)":0.06047934989966522}}]}