{"type":"FeatureCollection","crs":{"type":"name","properties":{"name":"EPSG:4326"}},"features":[{"type":"Feature","id":717,"geometry":{"type":"Polygon","coordinates":[[[72.8212,20.3677],[72.8277,20.3665],[72.836,20.3732],[72.8443,20.3748],[72.8562,20.3719],[72.8643,20.3751],[72.8658,20.3722],[72.877,20.3697],[72.8907,20.3726],[72.8962,20.379],[72.887,20.3854],[72.8828,20.3978],[72.8919,20.3991],[72.9027,20.4057],[72.9018,20.4101],[72.9041,20.4149],[72.898,20.4205],[72.8933,20.4216],[72.8893,20.4189],[72.8817,20.4194],[72.8718,20.4138],[72.8573,20.4188],[72.8612,20.4275],[72.8651,20.429],[72.8749,20.4455],[72.8878,20.4382],[72.8954,20.4442],[72.888,20.4505],[72.8866,20.4622],[72.863,20.4638],[72.8552,20.4674],[72.8365,20.4534],[72.8277,20.4317],[72.8309,20.411],[72.8279,20.4055],[72.8278,20.3883],[72.8212,20.3677]]]},"properties":{"dtname":"Daman","stname":"DAMAN & DIU","stcode11":"25","dtcode11":"495","year_stat":"2011_c","Shape_Length":49988.23281100428,"Shape_Area":66722339.64280156,"OBJECTID":717,"test":0,"Dist_LGD":463,"State_LGD":25}},{"type":"Feature","id":718,"geometry":{"type":"MultiPolygon","coordinates":[[[[70.9277,20.7367],[70.9203,20.7428],[70.9197,20.7371],[70.9157,20.7328],[70.885,20.7257],[70.881,20.7223],[70.8761,20.7091],[70.8932,20.7075],[70.8984,20.704],[70.897,20.7006],[70.8993,20.6995],[70.9106,20.7021],[70.9139,20.6996],[70.9171,20.7019],[70.9148,20.7019],[70.9151,20.7052],[70.9183,20.7095],[70.929,20.7122],[70.9378,20.7102],[70.9383,20.7078],[70.9444,20.7057],[70.949,20.7067],[70.9524,20.7039],[70.9598,20.707],[70.9702,20.7071],[70.9715,20.704],[70.9768,20.7021],[70.9872,20.7102],[70.9894,20.7092],[70.9969,20.7135],[70.9982,20.7168],[70.9942,20.7157],[70.9875,20.7189],[70.9877,20.7225],[70.994,20.7311],[71.0075,20.7374],[70.9994,20.7419],[70.9931,20.7356],[70.9846,20.7321],[70.9814,20.7225],[70.9741,20.7277],[70.9644,20.7295],[70.9605,20.7366],[70.9396,20.7323],[70.9277,20.7367]]],[[[71.152,20.7591],[71.1537,20.7601],[71.1514,20.7634],[71.152,20.7591]]]]},"properties":{"dtname":"Diu","stname":"DAMAN & DIU","stcode11":"25","dtcode11":"494","year_stat":"2011_c","Shape_Length":45663.6143450353,"Shape_Area":38491700.13457954,"OBJECTID":718,"test":0,"Dist_LGD":464,"State_LGD":25}}]}