{"type":"FeatureCollection","crs":{"type":"name","properties":{"name":"EPSG:4326"}},"features":[{"type":"Feature","id":617,"geometry":{"type":"Polygon","coordinates":[[[76.7927,33.2566],[76.772,33.2514],[76.7733,33.2423],[76.7789,33.2397],[76.7797,33.2371],[76.7761,33.2207],[76.772,33.2188],[76.7712,33.2131],[76.7669,33.211],[76.7582,33.1959],[76.7502,33.1918],[76.7473,33.1843],[76.7469,33.1792],[76.7529,33.1795],[76.754,33.1778],[76.7475,33.1577],[76.753,33.1527],[76.7532,33.1404],[76.7507,33.1313],[76.7462,33.1293],[76.7401,33.1046],[76.7425,33.0918],[76.7405,33.0833],[76.7501,33.0561],[76.7583,33.0473],[76.7558,33.0422],[76.7594,33.0362],[76.7638,33.0351],[76.7655,33.0189],[76.7807,33.0172],[76.776,33.0026],[76.771,32.9991],[76.7704,32.9908],[76.7741,32.9844],[76.7804,32.9824],[76.7825,32.9714],[76.7865,32.968],[76.7828,32.961],[76.7858,32.958],[76.7857,32.9524],[76.7739,32.9431],[76.7734,32.9351],[76.7604,32.9252],[76.7534,32.9246],[76.7334,32.93],[76.7263,32.9258],[76.7245,32.9202],[76.7165,32.9177],[76.7106,32.8952],[76.7107,32.8841],[76.7038,32.8811],[76.6964,32.8727],[76.6946,32.8652],[76.6791,32.8466],[76.6577,32.8428],[76.6498,32.8522],[76.6456,32.854],[76.6174,32.8476],[76.6129,32.8483],[76.6102,32.8516],[76.6021,32.8436],[76.5898,32.8408],[76.5769,32.824],[76.5641,32.8221],[76.5525,32.8159],[76.5364,32.8142],[76.5245,32.8066],[76.5176,32.8068],[76.5149,32.8036],[76.4912,32.802],[76.4698,32.8064],[76.4698,32.813],[76.474,32.821],[76.4668,32.8269],[76.4544,32.8485],[76.4428,32.856],[76.4331,32.8453],[76.4175,32.8433],[76.4105,32.8398],[76.3954,32.8252],[76.3791,32.8198],[76.376,32.8137],[76.3793,32.803],[76.3774,32.7977],[76.3863,32.7926],[76.3897,32.7834],[76.3882,32.7735],[76.3906,32.7715],[76.397,32.7515],[76.397,32.7429],[76.402,32.7392],[76.4024,32.7284],[76.4167,32.7205],[76.4314,32.7085],[76.4309,32.7009],[76.4329,32.6968],[76.4257,32.6882],[76.4372,32.6774],[76.4469,32.6741],[76.4486,32.6691],[76.4436,32.6582],[76.4669,32.6523],[76.4752,32.6564],[76.4986,32.6611],[76.5097,32.6669],[76.5183,32.6655],[76.5228,32.6684],[76.531,32.6563],[76.5514,32.6566],[76.5661,32.6458],[76.595,32.6366],[76.5984,32.626],[76.6056,32.6219],[76.6007,32.6148],[76.6049,32.6045],[76.612,32.6024],[76.6236,32.6061],[76.6347,32.6052],[76.6287,32.5981],[76.6294,32.5939],[76.625,32.5814],[76.6293,32.5744],[76.6515,32.5829],[76.6706,32.5716],[76.6749,32.5637],[76.6819,32.5625],[76.6884,32.566],[76.6923,32.5648],[76.6981,32.5596],[76.6976,32.5546],[76.7009,32.5515],[76.7,32.5453],[76.7083,32.5437],[76.7148,32.5383],[76.7278,32.5452],[76.7367,32.5465],[76.7452,32.555],[76.7514,32.5564],[76.7568,32.5557],[76.7675,32.5451],[76.7796,32.5494],[76.7945,32.5467],[76.7931,32.5397],[76.7995,32.5313],[76.8276,32.5383],[76.8294,32.53],[76.842,32.5243],[76.8672,32.534],[76.8723,32.5251],[76.8713,32.5197],[76.8796,32.5127],[76.8653,32.5017],[76.8599,32.4908],[76.8591,32.4789],[76.864,32.473],[76.8658,32.4637],[76.9039,32.4677],[76.9115,32.4648],[76.9022,32.4562],[76.899,32.4483],[76.9077,32.4403],[76.917,32.4357],[76.9085,32.4177],[76.9299,32.4176],[76.9471,32.4269],[76.9487,32.4224],[76.9443,32.4076],[76.9474,32.4032],[76.9694,32.4017],[76.9802,32.404],[76.9979,32.4115],[77.0006,32.415],[77.0304,32.4249],[77.0405,32.425],[77.0549,32.4339],[77.0621,32.4263],[77.0649,32.4186],[77.0778,32.4188],[77.0782,32.4097],[77.0735,32.3986],[77.082,32.3947],[77.0864,32.3958],[77.0973,32.3931],[77.1092,32.3964],[77.1233,32.4031],[77.1412,32.4076],[77.145,32.4126],[77.1517,32.4147],[77.1686,32.4091],[77.1796,32.4026],[77.1848,32.3965],[77.1951,32.3983],[77.2001,32.3856],[77.2209,32.3764],[77.2272,32.3702],[77.2314,32.375],[77.2426,32.3754],[77.2452,32.3703],[77.2508,32.3694],[77.2618,32.3601],[77.2759,32.3555],[77.2776,32.3479],[77.284,32.3411],[77.2913,32.3394],[77.3003,32.3323],[77.3077,32.3336],[77.3107,32.3279],[77.3279,32.3155],[77.3283,32.3118],[77.3259,32.3095],[77.3279,32.3048],[77.3345,32.3045],[77.3407,32.2969],[77.3397,32.2893],[77.3442,32.2858],[77.3452,32.2746],[77.3499,32.2689],[77.345,32.2468],[77.3541,32.2298],[77.3693,32.2196],[77.3736,32.22],[77.3811,32.2122],[77.3887,32.2098],[77.3974,32.2134],[77.4039,32.2106],[77.409,32.205],[77.4166,32.2027],[77.421,32.1897],[77.4354,32.191],[77.4412,32.1888],[77.4647,32.1939],[77.4607,32.2009],[77.4682,32.2056],[77.464,32.2103],[77.4678,32.2151],[77.4654,32.2231],[77.4691,32.2243],[77.4754,32.2217],[77.486,32.2218],[77.4935,32.2174],[77.5025,32.2159],[77.5034,32.2115],[77.5147,32.2043],[77.5148,32.1987],[77.5315,32.1953],[77.5363,32.2024],[77.5329,32.2053],[77.5329,32.2095],[77.5465,32.2195],[77.5663,32.2045],[77.5652,32.196],[77.572,32.1847],[77.5836,32.1823],[77.5844,32.1753],[77.6016,32.1718],[77.6027,32.1662],[77.6085,32.1604],[77.6194,32.1559],[77.626,32.1586],[77.6319,32.1498],[77.6407,32.1497],[77.6524,32.1431],[77.6601,32.1373],[77.6587,32.132],[77.6619,32.1301],[77.6621,32.1242],[77.67,32.1218],[77.6718,32.1162],[77.6772,32.1145],[77.6882,32.1015],[77.6933,32.1003],[77.7048,32.1032],[77.718,32.0929],[77.743,32.091],[77.7462,32.0829],[77.7529,32.0792],[77.7564,32.0683],[77.7647,32.0597],[77.762,32.046],[77.7638,32.0429],[77.7737,32.0369],[77.778,32.0373],[77.7906,32.0187],[77.7874,32.0143],[77.7783,32.0116],[77.7726,32.0063],[77.7936,31.9938],[77.7982,31.9872],[77.7941,31.9813],[77.7834,31.9745],[77.7807,31.964],[77.7727,31.9552],[77.7727,31.952],[77.7667,31.9479],[77.7669,31.9433],[77.782,31.9305],[77.7813,31.9217],[77.7883,31.9171],[77.7903,31.9104],[77.8044,31.9008],[77.8237,31.8972],[77.8282,31.8994],[77.8686,31.8863],[77.8648,31.8812],[77.8501,31.8748],[77.8381,31.8543],[77.8438,31.8442],[77.844,31.8367],[77.8494,31.8328],[77.8449,31.825],[77.8483,31.817],[77.8477,31.8025],[77.8655,31.7928],[77.8705,31.7782],[77.8959,31.7629],[77.8991,31.755],[77.9083,31.7517],[77.9158,31.7535],[77.9251,31.749],[77.9375,31.7508],[77.9407,31.754],[77.9392,31.758],[77.9464,31.7642],[77.9448,31.7698],[77.9459,31.7843],[77.9506,31.7884],[77.9698,31.7815],[77.9755,31.7832],[77.9863,31.7828],[77.9897,31.7799],[77.9969,31.7813],[78.0023,31.7724],[78.0103,31.7752],[78.0153,31.7712],[78.0162,31.766],[78.0211,31.7654],[78.0273,31.7589],[78.0388,31.7624],[78.0431,31.7704],[78.0486,31.7745],[78.049,31.7773],[78.0542,31.7792],[78.0564,31.7834],[78.0736,31.7835],[78.0806,31.787],[78.0835,31.7891],[78.0817,31.7977],[78.0845,31.8083],[78.0885,31.8107],[78.0949,31.8233],[78.0907,31.8311],[78.0965,31.8353],[78.093,31.8397],[78.0861,31.8415],[78.0826,31.8462],[78.0931,31.8519],[78.0893,31.8573],[78.107,31.8583],[78.1246,31.8685],[78.1389,31.866],[78.1467,31.8682],[78.1527,31.8622],[78.1615,31.8601],[78.1707,31.8614],[78.1737,31.8667],[78.1803,31.866],[78.1885,31.8727],[78.1851,31.8779],[78.1856,31.8834],[78.1817,31.8879],[78.1848,31.8933],[78.1821,31.8964],[78.1852,31.9043],[78.1811,31.9161],[78.1925,31.918],[78.1934,31.9268],[78.2011,31.9328],[78.2142,31.9341],[78.2234,31.932],[78.2479,31.9347],[78.2626,31.9323],[78.2679,31.9349],[78.2881,31.9269],[78.2979,31.9256],[78.3003,31.9263],[78.3014,31.934],[78.3089,31.9377],[78.334,31.9347],[78.3405,31.9316],[78.3449,31.9374],[78.3521,31.9389],[78.3649,31.9515],[78.364,31.9597],[78.3922,31.9531],[78.3999,31.9537],[78.4086,31.9476],[78.4194,31.9349],[78.4244,31.9375],[78.4335,31.9349],[78.4548,31.938],[78.456,31.9422],[78.452,31.9493],[78.4584,31.958],[78.4421,31.9689],[78.4349,31.9706],[78.4318,31.9779],[78.4388,31.9844],[78.4402,31.9998],[78.4364,32.0193],[78.4422,32.0293],[78.4447,32.0384],[78.4434,32.0429],[78.4498,32.0539],[78.4492,32.06],[78.4549,32.062],[78.466,32.061],[78.4734,32.0576],[78.4751,32.0539],[78.4816,32.053],[78.4826,32.0483],[78.4866,32.0517],[78.4946,32.0528],[78.5077,32.0475],[78.5173,32.0488],[78.5285,32.0572],[78.5349,32.0564],[78.5489,32.0627],[78.5535,32.0598],[78.5682,32.0597],[78.5792,32.0645],[78.5856,32.0622],[78.5925,32.0679],[78.6032,32.0635],[78.6069,32.0567],[78.6052,32.0507],[78.6133,32.0493],[78.619,32.0529],[78.6277,32.0672],[78.6395,32.0605],[78.6448,32.0607],[78.65,32.0641],[78.6511,32.0703],[78.6551,32.0739],[78.6679,32.0704],[78.6742,32.0756],[78.6738,32.0819],[78.6651,32.0942],[78.6633,32.1026],[78.655,32.1076],[78.6149,32.1159],[78.6118,32.119],[78.6097,32.1312],[78.605,32.1411],[78.5902,32.1533],[78.5928,32.1607],[78.6043,32.1671],[78.6093,32.178],[78.6098,32.1841],[78.6061,32.1933],[78.6107,32.2071],[78.6085,32.2143],[78.5551,32.2457],[78.5296,32.2452],[78.4985,32.2389],[78.4548,32.2422],[78.4565,32.2474],[78.4741,32.2649],[78.4819,32.2798],[78.4804,32.3165],[78.4765,32.3331],[78.4799,32.3481],[78.4838,32.3539],[78.5076,32.3692],[78.5136,32.3911],[78.5327,32.4084],[78.5348,32.4144],[78.5275,32.4196],[78.5186,32.4221],[78.4941,32.4218],[78.4822,32.4411],[78.4542,32.4524],[78.4515,32.4586],[78.4534,32.4671],[78.4648,32.4852],[78.4612,32.4939],[78.4478,32.5063],[78.4311,32.5071],[78.4214,32.5103],[78.4176,32.5142],[78.4152,32.5225],[78.4105,32.5246],[78.3986,32.5257],[78.3725,32.5088],[78.3264,32.472],[78.3223,32.4738],[78.2946,32.5041],[78.3112,32.5186],[78.3153,32.5254],[78.3128,32.5737],[78.3342,32.5764],[78.348,32.5811],[78.3569,32.5893],[78.4052,32.6194],[78.3923,32.6258],[78.3873,32.6344],[78.3796,32.6683],[78.3801,32.6818],[78.3841,32.6958],[78.3944,32.7156],[78.3878,32.73],[78.3857,32.7499],[78.3877,32.7569],[78.3657,32.7535],[78.3566,32.7577],[78.3332,32.7498],[78.3305,32.7454],[78.3042,32.7342],[78.3112,32.728],[78.3146,32.7212],[78.3122,32.7092],[78.2892,32.6993],[78.2756,32.6993],[78.253,32.6911],[78.2459,32.6718],[78.2324,32.6717],[78.2195,32.6647],[78.204,32.6671],[78.2018,32.6702],[78.197,32.6703],[78.1754,32.681],[78.158,32.684],[78.1427,32.6818],[78.1477,32.6716],[78.1475,32.6543],[78.1275,32.6521],[78.1208,32.6605],[78.1106,32.6626],[78.0926,32.6477],[78.099,32.6371],[78.0989,32.6304],[78.092,32.6286],[78.0872,32.6244],[78.0742,32.6308],[78.0679,32.6265],[78.0611,32.6263],[78.0468,32.645],[78.0431,32.6403],[78.0341,32.6369],[78.0336,32.6339],[78.0254,32.6273],[78.029,32.6234],[78.0158,32.6198],[78.0118,32.625],[78.0029,32.6247],[77.9941,32.6281],[77.9845,32.6417],[77.9701,32.6467],[77.9724,32.6528],[77.9706,32.6552],[77.9462,32.6617],[77.9423,32.6661],[77.9405,32.6741],[77.9344,32.6812],[77.9185,32.6907],[77.9182,32.6962],[77.9224,32.6992],[77.9217,32.7084],[77.9247,32.7117],[77.9246,32.7168],[77.928,32.7221],[77.9343,32.7259],[77.9313,32.732],[77.9263,32.7348],[77.9306,32.7369],[77.9291,32.7424],[77.9328,32.7465],[77.9317,32.7504],[77.9343,32.756],[77.9337,32.7607],[77.928,32.7648],[77.9258,32.772],[77.9158,32.7739],[77.9038,32.7718],[77.8841,32.7877],[77.8879,32.7987],[77.8809,32.8043],[77.882,32.8102],[77.8786,32.8191],[77.8713,32.8225],[77.8693,32.827],[77.8391,32.8421],[77.8348,32.8405],[77.8324,32.8363],[77.8261,32.8363],[77.816,32.8484],[77.8056,32.8498],[77.7972,32.8564],[77.792,32.8558],[77.7809,32.8656],[77.7839,32.8828],[77.7893,32.8906],[77.8064,32.8953],[77.8105,32.8997],[77.8109,32.9068],[77.8,32.9122],[77.7952,32.9195],[77.766,32.9414],[77.7665,32.9462],[77.7635,32.9492],[77.751,32.9546],[77.7407,32.969],[77.7307,32.9745],[77.7254,32.9696],[77.7196,32.9687],[77.7141,32.976],[77.7131,32.9826],[77.6972,32.9795],[77.6977,32.9828],[77.6895,32.9879],[77.6825,32.9887],[77.6807,32.9838],[77.6821,32.9755],[77.6789,32.9698],[77.674,32.9673],[77.6737,32.9609],[77.6643,32.9584],[77.6558,32.9589],[77.6435,32.9493],[77.6429,32.9465],[77.6023,32.9428],[77.5957,32.9273],[77.5763,32.9141],[77.5638,32.9124],[77.5392,32.8868],[77.5127,32.8775],[77.5014,32.8856],[77.498,32.8841],[77.497,32.8802],[77.4904,32.879],[77.4807,32.8705],[77.4753,32.8618],[77.469,32.8584],[77.4521,32.8642],[77.4448,32.8797],[77.4285,32.8755],[77.4136,32.884],[77.4053,32.8832],[77.396,32.8774],[77.3941,32.8713],[77.3879,32.8637],[77.3817,32.8621],[77.3744,32.8547],[77.3761,32.8488],[77.38,32.8451],[77.3735,32.8239],[77.3521,32.8157],[77.3388,32.8168],[77.336,32.8249],[77.3271,32.8315],[77.3253,32.8354],[77.3287,32.8429],[77.3225,32.8512],[77.3012,32.8498],[77.2901,32.8573],[77.2859,32.8647],[77.274,32.8738],[77.2626,32.864],[77.2544,32.8639],[77.2552,32.8666],[77.2518,32.8706],[77.2436,32.8729],[77.237,32.8809],[77.2434,32.8926],[77.2339,32.8937],[77.2193,32.9039],[77.2095,32.9047],[77.1988,32.9091],[77.1883,32.9288],[77.1785,32.9228],[77.1751,32.9143],[77.1702,32.9108],[77.1571,32.9117],[77.1642,32.9189],[77.1613,32.9316],[77.1639,32.937],[77.1594,32.9386],[77.162,32.9492],[77.1609,32.953],[77.1491,32.9561],[77.1497,32.9781],[77.1424,32.981],[77.1289,32.9806],[77.1161,32.9848],[77.1109,32.9752],[77.0955,32.9711],[77.0861,32.9723],[77.0821,32.9755],[77.0799,32.9834],[77.0715,32.9845],[77.049,32.999],[77.0401,32.9982],[77.033,32.9904],[77.0252,32.9919],[77.0103,32.9891],[76.9963,32.997],[76.9925,33.0018],[76.9716,33.0005],[76.9609,33.0091],[76.9602,33.0154],[76.9507,33.0185],[76.9416,33.0284],[76.933,33.0285],[76.9287,33.032],[76.9255,33.0477],[76.9141,33.0639],[76.9111,33.076],[76.9056,33.0788],[76.905,33.0836],[76.9101,33.0902],[76.9092,33.0941],[76.8977,33.099],[76.8925,33.1058],[76.8912,33.1147],[76.8852,33.1216],[76.8757,33.1184],[76.8704,33.1135],[76.8553,33.1143],[76.8493,33.1202],[76.8523,33.1268],[76.8429,33.1305],[76.8444,33.1376],[76.8386,33.1414],[76.8307,33.1424],[76.8298,33.1466],[76.8252,33.1484],[76.817,33.1598],[76.8174,33.1668],[76.8131,33.1715],[76.8136,33.1773],[76.8225,33.1843],[76.8175,33.1941],[76.8344,33.2049],[76.8319,33.2126],[76.8256,33.2153],[76.8323,33.2296],[76.8445,33.2422],[76.8434,33.2465],[76.8309,33.2493],[76.8243,33.2441],[76.8227,33.2371],[76.8202,33.2361],[76.8071,33.245],[76.8028,33.2538],[76.7927,33.2566]]]},"properties":{"dtname":"Lahul & Spiti","stname":"HIMACHAL PRADESH","stcode11":"02","dtcode11":"025","year_stat":"2011_c","Shape_Length":1090818.403703526,"Shape_Area":19596841007.33841,"OBJECTID":617,"test":0,"Dist_LGD":21,"State_LGD":2}},{"type":"Feature","id":618,"geometry":{"type":"Polygon","coordinates":[[[76.5696,33.2097],[76.5609,33.2061],[76.5534,33.199],[76.5432,33.2008],[76.5298,33.1966],[76.5156,33.1964],[76.4868,33.1795],[76.4725,33.183],[76.4605,33.1801],[76.451,33.1821],[76.4419,33.1809],[76.4344,33.1826],[76.4265,33.1883],[76.4203,33.1857],[76.4101,33.1865],[76.397,33.1746],[76.3827,33.1661],[76.3745,33.1542],[76.3681,33.1539],[76.351,33.1444],[76.3322,33.1281],[76.3208,33.1258],[76.3112,33.1204],[76.3062,33.1131],[76.2918,33.1032],[76.2943,33.0995],[76.2888,33.0872],[76.2885,33.0776],[76.2894,33.0727],[76.295,33.0687],[76.296,33.0606],[76.2953,33.0576],[76.2819,33.0518],[76.2784,33.0378],[76.2608,33.0348],[76.2526,33.0296],[76.2474,33.0216],[76.2259,33.0237],[76.2177,33.0174],[76.2074,33.0167],[76.1867,33.0213],[76.182,33.0203],[76.1737,33.0098],[76.1661,33.007],[76.1415,33.01],[76.1123,33.0063],[76.1091,32.9922],[76.1115,32.9879],[76.0993,32.9661],[76.0874,32.9626],[76.0881,32.9562],[76.0734,32.9529],[76.0663,32.942],[76.0438,32.9368],[76.037,32.9279],[76.0381,32.9224],[76.0321,32.9167],[76.014,32.9098],[76.0072,32.9026],[75.9858,32.8962],[75.9807,32.8875],[75.9745,32.886],[75.9539,32.8734],[75.9332,32.8911],[75.9245,32.9062],[75.9089,32.9139],[75.8938,32.9156],[75.8818,32.9206],[75.878,32.9251],[75.8561,32.9264],[75.85,32.9299],[75.8423,32.9293],[75.8243,32.9086],[75.8185,32.8954],[75.8013,32.8857],[75.8113,32.8778],[75.8157,32.8616],[75.8215,32.86],[75.8235,32.8539],[75.8312,32.8511],[75.8344,32.8463],[75.8449,32.8446],[75.8507,32.8363],[75.8567,32.8358],[75.8702,32.8214],[75.8695,32.8144],[75.8838,32.8122],[75.8888,32.8032],[75.8907,32.7828],[75.9009,32.7757],[75.9024,32.7702],[75.9093,32.7658],[75.9246,32.7483],[75.9261,32.7431],[75.9219,32.7354],[75.9221,32.7297],[75.9183,32.7235],[75.9104,32.7179],[75.9011,32.6986],[75.9038,32.6954],[75.9007,32.6876],[75.9024,32.6753],[75.8952,32.6662],[75.8957,32.6598],[75.8893,32.6532],[75.8966,32.6497],[75.909,32.6593],[75.9185,32.654],[75.9183,32.6446],[75.9268,32.6437],[75.9367,32.6479],[75.9334,32.6468],[75.9338,32.6427],[75.929,32.6383],[75.9301,32.6315],[75.927,32.6316],[75.9242,32.6368],[75.9186,32.6332],[75.9155,32.6277],[75.9182,32.622],[75.9159,32.613],[75.9091,32.6086],[75.9079,32.6017],[75.902,32.5928],[75.8948,32.5897],[75.8872,32.5908],[75.8809,32.5865],[75.8828,32.5778],[75.8808,32.5707],[75.8691,32.5635],[75.8763,32.5551],[75.8761,32.5505],[75.8578,32.5379],[75.857,32.5291],[75.8413,32.5236],[75.8394,32.5198],[75.8413,32.5151],[75.8339,32.5154],[75.8333,32.5133],[75.8438,32.5091],[75.849,32.4982],[75.8472,32.4971],[75.8576,32.4839],[75.8678,32.4785],[75.8748,32.471],[75.8766,32.4724],[75.8909,32.4572],[75.9018,32.4528],[75.9079,32.4365],[75.9206,32.4291],[75.918,32.4144],[75.9322,32.399],[75.9365,32.3974],[75.9334,32.3917],[75.9372,32.3973],[75.9547,32.3919],[75.9712,32.3929],[75.9802,32.3836],[75.989,32.3804],[76.0028,32.3575],[76.0094,32.3496],[76.0135,32.3485],[76.0226,32.3342],[76.0181,32.325],[76.0146,32.3239],[76.0168,32.3182],[76.0217,32.3204],[76.0257,32.3183],[76.0219,32.3111],[76.0235,32.3044],[76.0177,32.2982],[76.0163,32.2908],[76.0193,32.2845],[76.0315,32.2751],[76.028,32.2721],[76.0314,32.2687],[76.044,32.2686],[76.0456,32.264],[76.0532,32.2662],[76.0635,32.2649],[76.0801,32.2704],[76.0922,32.2705],[76.1042,32.2605],[76.114,32.2599],[76.124,32.256],[76.1227,32.251],[76.1255,32.2477],[76.1234,32.2422],[76.1261,32.2393],[76.1235,32.2307],[76.1368,32.2296],[76.1439,32.2235],[76.1702,32.2368],[76.1729,32.2311],[76.1694,32.2268],[76.1702,32.2236],[76.1763,32.2224],[76.1784,32.2251],[76.1804,32.2227],[76.1814,32.2264],[76.1855,32.2282],[76.1852,32.2319],[76.1817,32.2341],[76.1839,32.2411],[76.1814,32.2416],[76.1808,32.2449],[76.1855,32.2539],[76.1837,32.2579],[76.1904,32.2618],[76.1877,32.2634],[76.1891,32.2679],[76.1868,32.2717],[76.1808,32.273],[76.182,32.2757],[76.1759,32.2809],[76.1671,32.2841],[76.1697,32.2898],[76.1619,32.2997],[76.1641,32.304],[76.1609,32.3159],[76.1678,32.3226],[76.1755,32.3402],[76.1673,32.3542],[76.1756,32.356],[76.1923,32.3673],[76.1985,32.3679],[76.2003,32.3713],[76.2155,32.3813],[76.2219,32.3949],[76.2436,32.3935],[76.2483,32.3955],[76.2566,32.3942],[76.2623,32.3737],[76.272,32.3765],[76.2821,32.3708],[76.2876,32.3563],[76.2874,32.3502],[76.2898,32.3486],[76.2895,32.344],[76.2947,32.3373],[76.3089,32.34],[76.3191,32.3377],[76.3411,32.3236],[76.3536,32.3271],[76.3578,32.3249],[76.3648,32.3099],[76.3745,32.3],[76.3819,32.2973],[76.3908,32.2868],[76.4003,32.2872],[76.4047,32.2824],[76.4182,32.2777],[76.4216,32.2727],[76.4213,32.2655],[76.4278,32.2608],[76.4444,32.2636],[76.4544,32.257],[76.4569,32.2517],[76.4629,32.2474],[76.4845,32.2502],[76.4996,32.2325],[76.5122,32.2303],[76.5187,32.2341],[76.5244,32.2322],[76.5269,32.227],[76.5387,32.2293],[76.5508,32.2266],[76.5564,32.2279],[76.5622,32.2222],[76.5865,32.2228],[76.6096,32.2028],[76.6121,32.1965],[76.6206,32.1945],[76.6256,32.1898],[76.6547,32.1838],[76.6662,32.1755],[76.6785,32.1764],[76.692,32.1904],[76.6946,32.1965],[76.7017,32.1964],[76.7083,32.1999],[76.7212,32.1901],[76.7352,32.1862],[76.7431,32.1963],[76.7551,32.2003],[76.7637,32.2086],[76.7706,32.2219],[76.7679,32.2256],[76.7716,32.2371],[76.7698,32.242],[76.7752,32.2459],[76.7664,32.2503],[76.77,32.2549],[76.7741,32.2555],[76.7789,32.2624],[76.7731,32.2712],[76.77,32.2824],[76.7775,32.298],[76.7695,32.3072],[76.785,32.3141],[76.7777,32.322],[76.7749,32.3337],[76.7706,32.3401],[76.758,32.3487],[76.7514,32.358],[76.7648,32.3599],[76.7685,32.3583],[76.7767,32.3614],[76.7805,32.3681],[76.7863,32.3721],[76.7839,32.3764],[76.7876,32.3877],[76.7816,32.3982],[76.7832,32.4025],[76.791,32.4066],[76.8009,32.4075],[76.8095,32.4141],[76.813,32.4245],[76.8265,32.4384],[76.8421,32.4441],[76.8663,32.4627],[76.864,32.473],[76.8591,32.4789],[76.8599,32.4908],[76.8653,32.5017],[76.8796,32.5127],[76.8713,32.5197],[76.8723,32.5251],[76.8673,32.5339],[76.842,32.5243],[76.8294,32.53],[76.8276,32.5383],[76.7995,32.5313],[76.7931,32.5397],[76.7945,32.5467],[76.7796,32.5494],[76.7675,32.5451],[76.7568,32.5557],[76.7514,32.5564],[76.7452,32.555],[76.7367,32.5465],[76.7278,32.5452],[76.7148,32.5383],[76.7083,32.5437],[76.7,32.5453],[76.7009,32.5515],[76.6976,32.5546],[76.6981,32.5596],[76.6923,32.5648],[76.6884,32.566],[76.6819,32.5625],[76.6749,32.5637],[76.6706,32.5716],[76.6515,32.5829],[76.6293,32.5744],[76.625,32.5814],[76.6294,32.5939],[76.6287,32.5981],[76.6347,32.6052],[76.6236,32.6061],[76.612,32.6024],[76.6049,32.6045],[76.6007,32.6148],[76.6056,32.6219],[76.5984,32.626],[76.595,32.6366],[76.5661,32.6458],[76.5514,32.6566],[76.531,32.6563],[76.5228,32.6684],[76.5183,32.6655],[76.5097,32.6669],[76.4986,32.6611],[76.4752,32.6564],[76.4669,32.6523],[76.4443,32.6577],[76.4426,32.6592],[76.4486,32.6691],[76.4469,32.6741],[76.4372,32.6774],[76.4257,32.6882],[76.4329,32.6968],[76.4309,32.7009],[76.4314,32.7085],[76.4147,32.7218],[76.4028,32.7275],[76.4008,32.7336],[76.402,32.7392],[76.397,32.7429],[76.397,32.7515],[76.3906,32.7715],[76.3882,32.7735],[76.3897,32.7834],[76.3863,32.7926],[76.3774,32.7977],[76.3793,32.803],[76.376,32.8137],[76.3791,32.8198],[76.3954,32.8252],[76.4105,32.8398],[76.4175,32.8433],[76.4331,32.8453],[76.4428,32.856],[76.4544,32.8485],[76.4668,32.8269],[76.474,32.821],[76.4698,32.813],[76.4698,32.8064],[76.4912,32.802],[76.5149,32.8036],[76.5176,32.8068],[76.5245,32.8066],[76.5364,32.8142],[76.5525,32.8159],[76.5641,32.8221],[76.5769,32.824],[76.5898,32.8408],[76.6021,32.8436],[76.6102,32.8516],[76.6129,32.8483],[76.6174,32.8476],[76.6456,32.854],[76.6498,32.8522],[76.6577,32.8428],[76.6791,32.8466],[76.6946,32.8652],[76.6964,32.8727],[76.7038,32.8811],[76.7107,32.8841],[76.7106,32.8952],[76.7165,32.9177],[76.7245,32.9202],[76.7263,32.9258],[76.7334,32.93],[76.7534,32.9246],[76.7604,32.9252],[76.7734,32.9351],[76.7739,32.9431],[76.7857,32.9524],[76.7858,32.958],[76.7828,32.961],[76.7865,32.968],[76.7825,32.9714],[76.7804,32.9824],[76.7741,32.9844],[76.7704,32.9908],[76.771,32.9991],[76.776,33.0026],[76.7807,33.0172],[76.7655,33.0189],[76.7638,33.0351],[76.7594,33.0362],[76.7558,33.0422],[76.7583,33.0473],[76.7501,33.0561],[76.7405,33.0833],[76.7425,33.0918],[76.7401,33.1046],[76.744,33.115],[76.7429,33.1185],[76.7462,33.1293],[76.7507,33.1313],[76.7532,33.1404],[76.753,33.1527],[76.7475,33.1577],[76.7538,33.1767],[76.7529,33.1795],[76.7349,33.1777],[76.7266,33.1825],[76.7151,33.1815],[76.7142,33.1784],[76.7069,33.1742],[76.6707,33.172],[76.6614,33.1645],[76.6463,33.1623],[76.6303,33.1672],[76.6185,33.1744],[76.6177,33.1876],[76.6124,33.1912],[76.6073,33.1891],[76.6054,33.1905],[76.6035,33.1964],[76.6055,33.2038],[76.6026,33.2063],[76.5793,33.207],[76.5696,33.2097]]]},"properties":{"dtname":"Chamba","stname":"HIMACHAL PRADESH","stcode11":"02","dtcode11":"023","year_stat":"2011_c","Shape_Length":671987.3099757789,"Shape_Area":9226894286.144163,"OBJECTID":618,"test":1,"Dist_LGD":16,"State_LGD":2}},{"type":"Feature","id":622,"geometry":{"type":"Polygon","coordinates":[[[76.9042,32.4675],[76.8658,32.4637],[76.8644,32.4604],[76.8421,32.4441],[76.8265,32.4384],[76.813,32.4245],[76.8095,32.4141],[76.8009,32.4075],[76.791,32.4066],[76.7824,32.4013],[76.7816,32.3982],[76.7876,32.3877],[76.7839,32.3764],[76.7863,32.3721],[76.7805,32.3681],[76.7782,32.363],[76.7685,32.3583],[76.7648,32.3599],[76.7514,32.358],[76.758,32.3487],[76.7706,32.3401],[76.7749,32.3337],[76.7777,32.322],[76.785,32.3141],[76.7695,32.3072],[76.7775,32.298],[76.77,32.2824],[76.7731,32.2712],[76.7789,32.2624],[76.7741,32.2555],[76.77,32.2549],[76.7664,32.2503],[76.7752,32.2459],[76.7698,32.242],[76.7716,32.2371],[76.7679,32.2256],[76.7706,32.2219],[76.7636,32.2085],[76.7601,32.2072],[76.7551,32.2003],[76.7431,32.1963],[76.7352,32.1862],[76.7212,32.1901],[76.7083,32.1999],[76.7017,32.1964],[76.6946,32.1965],[76.692,32.1904],[76.6785,32.1764],[76.6674,32.1755],[76.6547,32.1838],[76.6256,32.1898],[76.6206,32.1945],[76.6121,32.1965],[76.6096,32.2028],[76.5865,32.2228],[76.5622,32.2222],[76.5564,32.2279],[76.5508,32.2266],[76.5387,32.2293],[76.5269,32.227],[76.5244,32.2322],[76.5187,32.2341],[76.5122,32.2303],[76.4996,32.2325],[76.4845,32.2502],[76.4629,32.2474],[76.4569,32.2517],[76.4544,32.257],[76.4444,32.2636],[76.4283,32.2605],[76.4213,32.2655],[76.4216,32.2727],[76.4182,32.2777],[76.4047,32.2824],[76.4003,32.2872],[76.3908,32.2868],[76.3819,32.2973],[76.3745,32.3],[76.3648,32.3099],[76.364,32.3151],[76.36,32.3183],[76.3573,32.3252],[76.3536,32.3271],[76.3411,32.3236],[76.3198,32.3375],[76.3096,32.34],[76.2947,32.3373],[76.2895,32.344],[76.2898,32.3486],[76.2874,32.3502],[76.2876,32.3563],[76.2821,32.3708],[76.272,32.3765],[76.2623,32.3737],[76.2566,32.3942],[76.2219,32.3949],[76.2155,32.3813],[76.2003,32.3713],[76.1985,32.3679],[76.1923,32.3673],[76.1756,32.356],[76.1673,32.3542],[76.1755,32.3402],[76.1678,32.3226],[76.1609,32.3159],[76.1641,32.304],[76.1619,32.2997],[76.1697,32.2898],[76.1671,32.2841],[76.1759,32.2809],[76.182,32.2757],[76.1808,32.273],[76.1868,32.2717],[76.1891,32.2679],[76.1877,32.2634],[76.1904,32.2618],[76.1839,32.2584],[76.1855,32.2539],[76.1808,32.2452],[76.1814,32.2416],[76.1839,32.2411],[76.1815,32.2346],[76.1852,32.2319],[76.1854,32.2276],[76.1814,32.2264],[76.1804,32.2227],[76.1784,32.2251],[76.1754,32.2223],[76.1701,32.2237],[76.1694,32.2268],[76.1729,32.2311],[76.1702,32.2368],[76.1439,32.2235],[76.1368,32.2296],[76.1235,32.2307],[76.1261,32.2393],[76.1234,32.2422],[76.1255,32.2477],[76.1227,32.251],[76.124,32.256],[76.114,32.2599],[76.1042,32.2605],[76.0922,32.2705],[76.0801,32.2704],[76.0635,32.2649],[76.0532,32.2662],[76.0456,32.264],[76.044,32.2686],[76.0312,32.2688],[76.028,32.2721],[76.0315,32.2751],[76.0193,32.2845],[76.0163,32.2908],[76.0177,32.2982],[76.0235,32.3044],[76.0219,32.3111],[76.0257,32.3183],[76.0217,32.3204],[76.0168,32.3182],[76.0146,32.3239],[76.0181,32.325],[76.0226,32.3342],[76.0135,32.3485],[76.0094,32.3496],[76.0028,32.3575],[75.989,32.3804],[75.9802,32.3836],[75.9712,32.3929],[75.9547,32.3919],[75.9372,32.3973],[75.9332,32.3916],[75.9292,32.3944],[75.924,32.3912],[75.9214,32.3966],[75.8938,32.3933],[75.8872,32.3961],[75.8742,32.3958],[75.8565,32.3848],[75.8474,32.3739],[75.8441,32.3558],[75.8347,32.357],[75.827,32.3505],[75.8112,32.3486],[75.8079,32.3411],[75.8135,32.3358],[75.8152,32.3304],[75.8032,32.3285],[75.7978,32.3246],[75.7815,32.3091],[75.7706,32.2887],[75.7448,32.2769],[75.7133,32.2726],[75.6653,32.2534],[75.6551,32.251],[75.6385,32.252],[75.6329,32.2449],[75.6177,32.2366],[75.6265,32.2323],[75.6366,32.2314],[75.6388,32.2219],[75.6373,32.2186],[75.6265,32.2155],[75.6251,32.2093],[75.6272,32.204],[75.6242,32.1903],[75.6312,32.1893],[75.6328,32.1866],[75.6371,32.1872],[75.6374,32.1927],[75.6452,32.1929],[75.6557,32.1971],[75.6632,32.1916],[75.6597,32.1835],[75.6567,32.1835],[75.659,32.1826],[75.6589,32.1774],[75.6672,32.1776],[75.6665,32.1656],[75.6639,32.1624],[75.6731,32.1588],[75.6613,32.1369],[75.6255,32.1182],[75.6277,32.1169],[75.6265,32.1063],[75.6203,32.0979],[75.6109,32.0932],[75.6008,32.0931],[75.5964,32.0861],[75.5982,32.0823],[75.5942,32.079],[75.596,32.0751],[75.5947,32.0702],[75.6007,32.0691],[75.6017,32.0658],[75.6204,32.0726],[75.6313,32.0745],[75.6366,32.0714],[75.6582,32.0777],[75.6746,32.0706],[75.6741,32.0672],[75.6783,32.0634],[75.6983,32.058],[75.708,32.0495],[75.7078,32.045],[75.7107,32.0415],[75.7234,32.033],[75.7424,32.0394],[75.7504,32.038],[75.7797,32.0047],[75.8112,31.988],[75.824,31.9835],[75.851,31.9822],[75.8588,31.973],[75.883,31.969],[75.8826,31.9659],[75.9104,31.9502],[75.9115,31.9399],[75.9155,31.9311],[75.9366,31.8989],[75.9387,31.8911],[75.96,31.8569],[75.9706,31.854],[75.9712,31.8497],[75.9748,31.8522],[75.9919,31.85],[76.0008,31.8517],[76.0045,31.8546],[76.0048,31.8589],[76.0144,31.8664],[76.0427,31.8618],[76.0447,31.8568],[76.0643,31.8461],[76.0677,31.8398],[76.0736,31.8386],[76.0744,31.8413],[76.0786,31.8423],[76.0829,31.8408],[76.0837,31.8364],[76.081,31.8342],[76.0861,31.8323],[76.0811,31.8336],[76.0804,31.8302],[76.0867,31.8272],[76.0873,31.8211],[76.0897,31.8194],[76.0923,31.8216],[76.0965,31.8197],[76.1002,31.8221],[76.1041,31.8188],[76.108,31.8224],[76.1054,31.8179],[76.1066,31.81],[76.1035,31.8078],[76.1134,31.8013],[76.1102,31.7954],[76.1243,31.8013],[76.1476,31.8003],[76.1538,31.7952],[76.1594,31.7949],[76.1685,31.7847],[76.1842,31.7791],[76.1855,31.7743],[76.1815,31.7639],[76.185,31.7671],[76.1953,31.7686],[76.1982,31.7721],[76.2052,31.7675],[76.2043,31.7629],[76.2134,31.7556],[76.2151,31.7504],[76.2231,31.7424],[76.2333,31.7355],[76.2336,31.7326],[76.2525,31.7148],[76.2638,31.7127],[76.2642,31.7083],[76.273,31.7035],[76.2812,31.6925],[76.2836,31.6849],[76.2887,31.6861],[76.297,31.6913],[76.2963,31.6945],[76.3048,31.7046],[76.3042,31.7119],[76.3081,31.7233],[76.3169,31.7269],[76.319,31.7314],[76.3125,31.7394],[76.3131,31.7424],[76.31,31.7429],[76.3085,31.7553],[76.3054,31.7566],[76.3053,31.7639],[76.31,31.7683],[76.2996,31.7803],[76.3079,31.7762],[76.3251,31.7782],[76.3487,31.7911],[76.3548,31.792],[76.3651,31.7807],[76.3628,31.7757],[76.3706,31.7727],[76.3783,31.7764],[76.3963,31.7947],[76.4015,31.7941],[76.4129,31.783],[76.4118,31.7938],[76.435,31.7941],[76.4408,31.8116],[76.4429,31.8087],[76.4417,31.8023],[76.4442,31.7998],[76.4529,31.8044],[76.4638,31.8048],[76.4624,31.8074],[76.4544,31.8099],[76.4545,31.8158],[76.457,31.8178],[76.4637,31.8145],[76.4675,31.8084],[76.475,31.8092],[76.4739,31.8164],[76.4659,31.8225],[76.4667,31.8291],[76.4783,31.8268],[76.4948,31.8344],[76.5012,31.8408],[76.5124,31.8398],[76.5198,31.8427],[76.5242,31.849],[76.5257,31.8592],[76.5572,31.8868],[76.5821,31.8887],[76.5909,31.893],[76.6014,31.8929],[76.6245,31.8859],[76.6328,31.8752],[76.6556,31.8684],[76.6669,31.8715],[76.6801,31.8707],[76.681,31.874],[76.6728,31.8828],[76.6769,31.89],[76.6758,31.8979],[76.6796,31.8956],[76.6809,31.8973],[76.673,31.9053],[76.6795,31.9078],[76.6836,31.9126],[76.6887,31.9297],[76.6959,31.9338],[76.6944,31.9393],[76.6881,31.9441],[76.6884,31.9535],[76.6845,31.9632],[76.6854,31.9668],[76.6878,31.9665],[76.6875,31.9723],[76.6797,31.9871],[76.6672,32.0014],[76.6623,32.0144],[76.6605,32.0285],[76.6668,32.0357],[76.6669,32.039],[76.6742,32.0398],[76.6752,32.0475],[76.6919,32.0518],[76.6997,32.0464],[76.7049,32.0472],[76.7034,32.0407],[76.7054,32.0366],[76.7203,32.031],[76.7287,32.0316],[76.7284,32.0286],[76.731,32.027],[76.7601,32.0518],[76.7678,32.0624],[76.7715,32.0628],[76.7755,32.0674],[76.7791,32.0645],[76.7867,32.0726],[76.7978,32.07],[76.8015,32.073],[76.8021,32.0634],[76.8099,32.0606],[76.8252,32.0485],[76.8326,32.0476],[76.8398,32.0434],[76.842,32.039],[76.8575,32.0506],[76.8691,32.0492],[76.8753,32.0544],[76.8984,32.0599],[76.9102,32.0613],[76.9217,32.0592],[76.9355,32.0621],[76.9423,32.0674],[76.938,32.0743],[76.9393,32.0785],[76.9348,32.0927],[76.9406,32.0991],[76.9423,32.1135],[76.9484,32.1112],[76.9579,32.1125],[76.9848,32.1102],[76.9866,32.1151],[76.9829,32.1186],[76.983,32.1257],[76.979,32.1323],[76.9844,32.1369],[76.9816,32.1451],[76.9833,32.1543],[76.9895,32.1652],[76.9891,32.1689],[76.9969,32.1774],[76.9924,32.1824],[76.9976,32.1936],[77.0031,32.1994],[77.0161,32.2003],[77.0216,32.2062],[77.0378,32.206],[77.0488,32.2177],[77.0501,32.2259],[77.0474,32.2272],[77.0444,32.2345],[77.0349,32.2386],[77.0293,32.2466],[77.0325,32.2498],[77.0314,32.2572],[77.0272,32.2592],[77.0273,32.2723],[77.0337,32.2816],[77.0403,32.301],[77.062,32.3143],[77.0639,32.3255],[77.0698,32.3346],[77.056,32.342],[77.0413,32.3422],[77.0488,32.3541],[77.0481,32.3659],[77.0641,32.382],[77.0758,32.4008],[77.0779,32.4185],[77.0649,32.4186],[77.0621,32.4263],[77.0549,32.4339],[77.0405,32.425],[77.0304,32.4249],[77.0006,32.415],[76.9979,32.4115],[76.9802,32.404],[76.9694,32.4017],[76.9474,32.4032],[76.9443,32.4076],[76.9487,32.4224],[76.9471,32.4269],[76.9299,32.4176],[76.9085,32.4177],[76.9171,32.4348],[76.899,32.4483],[76.9022,32.4562],[76.912,32.4642],[76.9042,32.4675]]]},"properties":{"dtname":"Kangra","stname":"HIMACHAL PRADESH","stcode11":"02","dtcode11":"024","year_stat":"2011_c","Shape_Length":683605.9589501141,"Shape_Area":8025186844.947753,"OBJECTID":622,"test":0,"Dist_LGD":18,"State_LGD":2}},{"type":"Feature","id":623,"geometry":{"type":"Polygon","coordinates":[[[77.1521,32.4146],[77.145,32.4126],[77.1412,32.4076],[77.0973,32.3931],[77.0864,32.3958],[77.082,32.3947],[77.0745,32.3993],[77.0641,32.382],[77.0481,32.3659],[77.0488,32.3541],[77.0413,32.3422],[77.056,32.342],[77.0698,32.3346],[77.0639,32.3255],[77.062,32.3143],[77.0403,32.301],[77.0337,32.2816],[77.0273,32.2723],[77.0267,32.2623],[77.0273,32.2591],[77.0316,32.2565],[77.0325,32.2498],[77.0293,32.2466],[77.0328,32.2406],[77.0444,32.2345],[77.0474,32.2272],[77.0501,32.2259],[77.0488,32.2177],[77.0378,32.206],[77.0216,32.2062],[77.0161,32.2003],[77.0031,32.1994],[76.9976,32.1936],[76.9924,32.1824],[76.9969,32.1774],[76.9891,32.1689],[76.9895,32.1652],[76.9833,32.1543],[76.9816,32.1451],[76.9844,32.1369],[76.979,32.1323],[76.983,32.1257],[76.9829,32.1186],[76.9866,32.1151],[76.9848,32.1102],[76.9579,32.1125],[76.9484,32.1112],[76.9422,32.1134],[76.9406,32.0991],[76.9348,32.0927],[76.9393,32.0785],[76.938,32.0743],[76.9423,32.0685],[76.9355,32.0621],[76.939,32.0538],[76.9385,32.0429],[76.9595,32.0261],[76.9706,32.0242],[76.9722,32.0219],[76.9786,32.008],[76.9782,31.9998],[76.9739,31.996],[76.976,31.9873],[76.9745,31.9812],[76.9784,31.9735],[76.9855,31.9721],[76.989,31.9644],[76.9967,31.9574],[77.0002,31.9503],[76.9993,31.9451],[77.0051,31.9341],[77.0113,31.9331],[77.0216,31.9217],[77.0252,31.9018],[77.0368,31.8816],[77.0464,31.8754],[77.0491,31.868],[77.0589,31.8594],[77.0602,31.8549],[77.0549,31.848],[77.0577,31.8378],[77.0673,31.835],[77.0773,31.8372],[77.0819,31.827],[77.092,31.8372],[77.0976,31.8388],[77.1028,31.8365],[77.1136,31.8387],[77.1248,31.8364],[77.1554,31.8401],[77.159,31.835],[77.1644,31.8388],[77.1778,31.8416],[77.1802,31.8364],[77.1734,31.8235],[77.1879,31.819],[77.1863,31.8116],[77.1928,31.7973],[77.1927,31.7921],[77.1967,31.7896],[77.1973,31.7853],[77.1939,31.7762],[77.1989,31.7762],[77.2018,31.7663],[77.2075,31.7596],[77.2058,31.7545],[77.2099,31.7486],[77.2083,31.7399],[77.2135,31.7255],[77.2157,31.7227],[77.221,31.7249],[77.2337,31.721],[77.2437,31.7113],[77.2462,31.7128],[77.2535,31.7092],[77.2572,31.7098],[77.2613,31.703],[77.2785,31.6937],[77.2873,31.6856],[77.2873,31.6803],[77.3027,31.668],[77.3004,31.6567],[77.2958,31.6512],[77.3013,31.6438],[77.3015,31.637],[77.2986,31.6328],[77.3054,31.6239],[77.3036,31.6212],[77.3062,31.6167],[77.3023,31.5997],[77.2973,31.5943],[77.3039,31.5854],[77.3019,31.5782],[77.3033,31.5647],[77.2989,31.552],[77.3048,31.5435],[77.3145,31.5372],[77.316,31.5327],[77.3139,31.5226],[77.3144,31.507],[77.3192,31.4957],[77.3175,31.4939],[77.3227,31.4881],[77.3212,31.4775],[77.3293,31.456],[77.3373,31.4486],[77.3466,31.4453],[77.3492,31.4389],[77.3607,31.4308],[77.3631,31.4259],[77.3861,31.4116],[77.3801,31.4046],[77.3826,31.4008],[77.3814,31.3934],[77.3852,31.392],[77.3891,31.3756],[77.3829,31.3601],[77.3869,31.3595],[77.3921,31.3547],[77.3982,31.3615],[77.4083,31.354],[77.4123,31.3464],[77.4205,31.3479],[77.4292,31.3404],[77.433,31.3407],[77.4353,31.3442],[77.452,31.3439],[77.457,31.3513],[77.468,31.3515],[77.4744,31.3492],[77.4808,31.3545],[77.4881,31.3552],[77.4987,31.3555],[77.5054,31.3477],[77.5108,31.3494],[77.5173,31.3481],[77.5268,31.3531],[77.5354,31.3623],[77.5442,31.3747],[77.5451,31.3809],[77.5539,31.3902],[77.5754,31.3886],[77.5773,31.3963],[77.5961,31.3993],[77.6066,31.3969],[77.6167,31.3897],[77.6239,31.3882],[77.6288,31.39],[77.6333,31.4011],[77.6217,31.417],[77.6209,31.4268],[77.6225,31.4358],[77.629,31.4448],[77.6278,31.4513],[77.6401,31.4568],[77.6504,31.4554],[77.6589,31.4604],[77.6695,31.4626],[77.6823,31.4829],[77.7071,31.5018],[77.6991,31.5143],[77.6985,31.5225],[77.7021,31.5298],[77.6987,31.5421],[77.6933,31.5451],[77.6866,31.5446],[77.6796,31.5513],[77.6786,31.5578],[77.6805,31.5596],[77.6682,31.5637],[77.6595,31.5757],[77.6487,31.583],[77.6487,31.5961],[77.6441,31.607],[77.6462,31.6086],[77.6457,31.6153],[77.6491,31.6206],[77.6498,31.6283],[77.6626,31.6337],[77.6498,31.6519],[77.6467,31.6523],[77.6458,31.6625],[77.6567,31.6681],[77.6574,31.6795],[77.6667,31.6822],[77.6705,31.6857],[77.6701,31.6948],[77.6753,31.6971],[77.6781,31.7032],[77.7115,31.7037],[77.7311,31.7146],[77.7491,31.7139],[77.7545,31.7212],[77.7496,31.7485],[77.7596,31.7544],[77.764,31.7619],[77.7757,31.7575],[77.7779,31.7543],[77.7859,31.7524],[77.7952,31.7596],[77.8074,31.7612],[77.8279,31.7612],[77.854,31.7548],[77.8554,31.7697],[77.8585,31.7756],[77.8568,31.7804],[77.8609,31.7836],[77.869,31.7825],[77.8655,31.7928],[77.8477,31.8025],[77.8483,31.817],[77.8449,31.825],[77.8494,31.8328],[77.844,31.8367],[77.8438,31.8442],[77.8381,31.8543],[77.8501,31.8748],[77.8648,31.8812],[77.8686,31.8863],[77.8282,31.8994],[77.8237,31.8972],[77.8044,31.9008],[77.7903,31.9104],[77.7883,31.9171],[77.7813,31.9217],[77.782,31.9305],[77.7669,31.9433],[77.7667,31.9479],[77.7727,31.952],[77.7727,31.9552],[77.7807,31.964],[77.7834,31.9745],[77.7941,31.9813],[77.7982,31.9872],[77.7936,31.9938],[77.7726,32.0063],[77.7783,32.0116],[77.7874,32.0143],[77.7906,32.0187],[77.778,32.0373],[77.7737,32.0369],[77.7638,32.0429],[77.762,32.046],[77.7647,32.0597],[77.7564,32.0683],[77.7529,32.0792],[77.7457,32.0836],[77.7433,32.0909],[77.718,32.0929],[77.7048,32.1032],[77.6933,32.1003],[77.6882,32.1015],[77.6772,32.1145],[77.6718,32.1162],[77.67,32.1218],[77.6621,32.1242],[77.6619,32.1301],[77.6587,32.132],[77.6601,32.1373],[77.6524,32.1431],[77.6407,32.1497],[77.6319,32.1498],[77.626,32.1586],[77.6194,32.1559],[77.6085,32.1604],[77.6027,32.1662],[77.6016,32.1718],[77.5844,32.1753],[77.5836,32.1823],[77.572,32.1847],[77.5652,32.196],[77.5663,32.2045],[77.5465,32.2195],[77.5329,32.2095],[77.5329,32.2053],[77.5363,32.2024],[77.5315,32.1953],[77.5148,32.1987],[77.5147,32.2043],[77.5034,32.2115],[77.5025,32.2159],[77.4935,32.2174],[77.486,32.2218],[77.4754,32.2217],[77.4691,32.2243],[77.4654,32.2231],[77.4678,32.2151],[77.464,32.2103],[77.4682,32.2056],[77.4607,32.2009],[77.4647,32.1939],[77.4412,32.1888],[77.4354,32.191],[77.421,32.1897],[77.4166,32.2027],[77.409,32.205],[77.4039,32.2106],[77.3974,32.2134],[77.3887,32.2098],[77.3811,32.2122],[77.3736,32.22],[77.3693,32.2196],[77.3541,32.2298],[77.345,32.2464],[77.3499,32.2689],[77.3452,32.2746],[77.3442,32.2858],[77.3397,32.2893],[77.3407,32.2969],[77.3345,32.3045],[77.3279,32.3048],[77.3259,32.3095],[77.3283,32.3118],[77.3279,32.3155],[77.3107,32.3279],[77.3084,32.3331],[77.3003,32.3323],[77.2913,32.3394],[77.2845,32.3408],[77.2776,32.3479],[77.2759,32.3555],[77.2618,32.3601],[77.2508,32.3694],[77.2452,32.3703],[77.2426,32.3754],[77.2314,32.375],[77.2272,32.3702],[77.2209,32.3764],[77.1998,32.3859],[77.1951,32.3983],[77.1848,32.3965],[77.1796,32.4026],[77.1686,32.4091],[77.1521,32.4146]]]},"properties":{"dtname":"Kullu","stname":"HIMACHAL PRADESH","stcode11":"02","dtcode11":"026","year_stat":"2011_c","Shape_Length":503497.86295547703,"Shape_Area":7646500318.706837,"OBJECTID":623,"test":0,"Dist_LGD":20,"State_LGD":2}},{"type":"Feature","id":626,"geometry":{"type":"Polygon","coordinates":[[[76.8026,32.0704],[76.8015,32.073],[76.7978,32.07],[76.7867,32.0726],[76.7791,32.0645],[76.7755,32.0674],[76.7715,32.0628],[76.7652,32.0607],[76.7601,32.0518],[76.731,32.027],[76.7284,32.0286],[76.7287,32.0316],[76.7203,32.031],[76.7056,32.0364],[76.7034,32.0407],[76.7049,32.0472],[76.6997,32.0464],[76.6921,32.0518],[76.6752,32.0475],[76.6738,32.0393],[76.6669,32.039],[76.6668,32.0357],[76.6605,32.0283],[76.6628,32.0126],[76.6672,32.0014],[76.6797,31.9871],[76.6875,31.9723],[76.6878,31.9665],[76.6854,31.9668],[76.6845,31.9632],[76.6884,31.9535],[76.6881,31.9441],[76.6944,31.9393],[76.6959,31.9338],[76.6887,31.9297],[76.6836,31.9126],[76.6795,31.9078],[76.673,31.9053],[76.6809,31.8973],[76.6796,31.8956],[76.6758,31.8979],[76.6769,31.89],[76.6728,31.8828],[76.681,31.874],[76.6801,31.8707],[76.6669,31.8715],[76.6556,31.8684],[76.6469,31.8725],[76.6392,31.8736],[76.6381,31.872],[76.6329,31.8612],[76.6324,31.8493],[76.6277,31.841],[76.6307,31.8219],[76.6232,31.8072],[76.624,31.8026],[76.6204,31.7984],[76.6232,31.7915],[76.6225,31.7856],[76.6269,31.7822],[76.6274,31.7734],[76.6341,31.7649],[76.6336,31.7529],[76.6383,31.7465],[76.6722,31.7353],[76.6745,31.7306],[76.6707,31.72],[76.6759,31.7121],[76.6865,31.7067],[76.6857,31.699],[76.6906,31.6975],[76.6871,31.6862],[76.6971,31.6742],[76.7087,31.6729],[76.7223,31.6674],[76.7244,31.6644],[76.7251,31.6571],[76.7145,31.6294],[76.7159,31.6164],[76.7308,31.5809],[76.7307,31.5732],[76.7268,31.5628],[76.7352,31.5609],[76.7275,31.5526],[76.7286,31.5448],[76.7317,31.5418],[76.7226,31.5409],[76.7346,31.5349],[76.7329,31.5324],[76.7384,31.5255],[76.7388,31.5208],[76.7339,31.5208],[76.7307,31.5166],[76.7421,31.5145],[76.7476,31.5174],[76.7655,31.5181],[76.7739,31.5139],[76.7762,31.5081],[76.7839,31.503],[76.7874,31.4979],[76.7881,31.4885],[76.7868,31.4862],[76.785,31.4871],[76.7845,31.4838],[76.7823,31.4844],[76.782,31.4798],[76.7861,31.478],[76.791,31.4794],[76.7913,31.4753],[76.7956,31.4749],[76.7965,31.4599],[76.8019,31.4547],[76.7984,31.4471],[76.7955,31.4513],[76.7922,31.4507],[76.7957,31.4475],[76.7972,31.4412],[76.7998,31.4431],[76.8031,31.4401],[76.7997,31.4351],[76.8034,31.4298],[76.8011,31.4244],[76.8021,31.4209],[76.8093,31.4233],[76.8199,31.4175],[76.8348,31.4218],[76.8553,31.4106],[76.8759,31.4134],[76.8823,31.4015],[76.8814,31.3843],[76.877,31.3811],[76.8682,31.3847],[76.8673,31.3807],[76.8637,31.3781],[76.8736,31.3705],[76.8765,31.3608],[76.8722,31.3559],[76.8754,31.3507],[76.8871,31.3591],[76.896,31.36],[76.8993,31.3639],[76.9069,31.3615],[76.9209,31.365],[76.943,31.3442],[76.9442,31.3389],[76.9419,31.3328],[76.9495,31.3324],[76.9649,31.3241],[76.9709,31.3127],[76.9954,31.3013],[77.0185,31.2862],[77.0225,31.2788],[77.0307,31.2728],[77.0544,31.2676],[77.0628,31.2586],[77.0729,31.2587],[77.0787,31.2494],[77.0923,31.2452],[77.1038,31.2493],[77.1112,31.2447],[77.1236,31.2489],[77.1263,31.2451],[77.1229,31.2334],[77.1244,31.2303],[77.1368,31.2285],[77.142,31.2322],[77.1524,31.229],[77.1653,31.2319],[77.179,31.2471],[77.1902,31.2538],[77.1946,31.2433],[77.1992,31.2422],[77.209,31.2479],[77.2198,31.2613],[77.2319,31.26],[77.2455,31.2512],[77.2506,31.2589],[77.2652,31.267],[77.2686,31.2726],[77.2729,31.2727],[77.2749,31.2677],[77.2812,31.2639],[77.2879,31.2685],[77.3054,31.2682],[77.3071,31.2785],[77.3185,31.2838],[77.3222,31.2921],[77.3335,31.2944],[77.3375,31.3071],[77.337,31.3158],[77.3402,31.3242],[77.3452,31.3273],[77.3432,31.3345],[77.3504,31.3407],[77.3558,31.3528],[77.3724,31.3601],[77.3786,31.3575],[77.3829,31.3601],[77.3891,31.3756],[77.3852,31.392],[77.3814,31.3934],[77.3826,31.4008],[77.3801,31.4034],[77.3854,31.4125],[77.3631,31.4259],[77.3607,31.4308],[77.3492,31.4389],[77.3466,31.4453],[77.3373,31.4486],[77.3293,31.456],[77.3212,31.4775],[77.3227,31.4881],[77.3175,31.4939],[77.3192,31.4957],[77.3144,31.507],[77.3139,31.5226],[77.316,31.5327],[77.3145,31.5372],[77.3048,31.5435],[77.2989,31.552],[77.3033,31.5647],[77.3019,31.5782],[77.3039,31.5854],[77.2973,31.5943],[77.3023,31.5997],[77.3062,31.6167],[77.3036,31.6212],[77.3054,31.6239],[77.2986,31.6328],[77.3015,31.637],[77.3013,31.6438],[77.2958,31.6512],[77.3004,31.6567],[77.3027,31.668],[77.2873,31.6803],[77.2873,31.6856],[77.2785,31.6937],[77.2613,31.703],[77.2572,31.7098],[77.2535,31.7092],[77.2462,31.7128],[77.2437,31.7113],[77.2337,31.721],[77.221,31.7249],[77.2157,31.7227],[77.2135,31.7255],[77.2083,31.7399],[77.2099,31.7486],[77.2058,31.7545],[77.2075,31.7596],[77.2018,31.7663],[77.1989,31.7762],[77.1939,31.7762],[77.1973,31.7853],[77.1967,31.7896],[77.1927,31.7921],[77.1928,31.7973],[77.1863,31.8116],[77.1879,31.819],[77.1734,31.8235],[77.1802,31.8364],[77.1778,31.8416],[77.1644,31.8388],[77.159,31.835],[77.1554,31.8401],[77.1248,31.8364],[77.1136,31.8387],[77.1028,31.8365],[77.0976,31.8388],[77.092,31.8372],[77.0819,31.827],[77.0773,31.8372],[77.0673,31.835],[77.0577,31.8378],[77.0549,31.848],[77.0602,31.8549],[77.0589,31.8594],[77.0491,31.868],[77.0464,31.8754],[77.0368,31.8816],[77.0252,31.9018],[77.0216,31.9217],[77.0113,31.9331],[77.0051,31.9341],[76.9993,31.9451],[77.0002,31.9503],[76.9967,31.9574],[76.989,31.9644],[76.9855,31.9721],[76.9784,31.9735],[76.9745,31.9812],[76.976,31.9873],[76.9739,31.996],[76.9782,31.9998],[76.978,32.0116],[76.9707,32.0241],[76.9595,32.0261],[76.9387,32.0426],[76.9373,32.0494],[76.939,32.0538],[76.9355,32.0621],[76.9217,32.0592],[76.9102,32.0613],[76.8984,32.0599],[76.8753,32.0544],[76.8691,32.0492],[76.8575,32.0506],[76.842,32.039],[76.8398,32.0434],[76.8326,32.0476],[76.8252,32.0485],[76.8099,32.0606],[76.8021,32.0634],[76.8026,32.0704]]]},"properties":{"dtname":"Mandi","stname":"HIMACHAL PRADESH","stcode11":"02","dtcode11":"027","year_stat":"2011_c","Shape_Length":402401.9330165038,"Shape_Area":5461951163.422897,"OBJECTID":626,"test":0,"Dist_LGD":22,"State_LGD":2}},{"type":"Feature","id":627,"geometry":{"type":"Polygon","coordinates":[[[78.6766,32.0877],[78.672,32.0853],[78.6744,32.0764],[78.6699,32.0708],[78.6556,32.0742],[78.6511,32.0703],[78.65,32.0641],[78.6448,32.0607],[78.6395,32.0605],[78.6277,32.0672],[78.619,32.0529],[78.6133,32.0493],[78.6052,32.0507],[78.6069,32.0567],[78.6032,32.0635],[78.5925,32.0679],[78.5856,32.0622],[78.5792,32.0645],[78.5682,32.0597],[78.5535,32.0598],[78.5489,32.0627],[78.5349,32.0564],[78.5285,32.0572],[78.5173,32.0488],[78.5077,32.0475],[78.4946,32.0528],[78.4866,32.0517],[78.4826,32.0483],[78.4816,32.053],[78.4751,32.0539],[78.4734,32.0576],[78.466,32.061],[78.4549,32.062],[78.4492,32.06],[78.4498,32.0539],[78.4434,32.0429],[78.4447,32.0384],[78.4422,32.0293],[78.4364,32.0193],[78.4402,31.9998],[78.4388,31.9844],[78.4318,31.9779],[78.4349,31.9706],[78.4421,31.9689],[78.4584,31.958],[78.452,31.9493],[78.456,31.9422],[78.4548,31.938],[78.4335,31.9349],[78.4244,31.9375],[78.4194,31.9349],[78.4086,31.9476],[78.3999,31.9537],[78.3922,31.9531],[78.364,31.9597],[78.3649,31.9515],[78.3521,31.9389],[78.3449,31.9374],[78.3405,31.9316],[78.334,31.9347],[78.3089,31.9377],[78.3014,31.934],[78.3003,31.9263],[78.2979,31.9256],[78.2881,31.9269],[78.2679,31.9349],[78.2626,31.9323],[78.2479,31.9347],[78.2234,31.932],[78.2132,31.9341],[78.2004,31.9325],[78.1934,31.9268],[78.1925,31.918],[78.1811,31.9161],[78.1852,31.9043],[78.1821,31.8964],[78.1848,31.8933],[78.1817,31.8879],[78.1856,31.8834],[78.1851,31.8779],[78.1884,31.8724],[78.1795,31.8657],[78.1728,31.8662],[78.1695,31.8611],[78.1547,31.8615],[78.1467,31.8682],[78.1389,31.866],[78.1257,31.8685],[78.107,31.8583],[78.0893,31.8573],[78.0931,31.8519],[78.0826,31.8462],[78.0861,31.8415],[78.093,31.8397],[78.0966,31.8362],[78.0907,31.8311],[78.095,31.8239],[78.0885,31.8107],[78.0845,31.8083],[78.0817,31.7977],[78.0835,31.7891],[78.0736,31.7835],[78.0564,31.7834],[78.0542,31.7792],[78.049,31.7773],[78.0486,31.7745],[78.0431,31.7704],[78.0388,31.7624],[78.0312,31.7592],[78.0259,31.7593],[78.0211,31.7654],[78.0163,31.7659],[78.0153,31.7712],[78.0103,31.7752],[78.0023,31.7724],[77.9969,31.7813],[77.9897,31.7799],[77.9863,31.7828],[77.9755,31.7832],[77.9698,31.7815],[77.9584,31.7843],[77.9517,31.7885],[77.9459,31.7843],[77.9448,31.7698],[77.9464,31.7642],[77.9392,31.758],[77.9407,31.754],[77.9353,31.749],[77.9242,31.7491],[77.9158,31.7535],[77.9083,31.7517],[77.8991,31.755],[77.8959,31.7629],[77.8718,31.7771],[77.869,31.7825],[77.8609,31.7836],[77.8568,31.7804],[77.8585,31.7756],[77.8554,31.7697],[77.8537,31.7546],[77.8279,31.7612],[77.8074,31.7612],[77.7952,31.7596],[77.7859,31.7524],[77.7779,31.7543],[77.7757,31.7575],[77.764,31.7619],[77.7596,31.7544],[77.7496,31.7485],[77.7545,31.7208],[77.7479,31.7134],[77.7627,31.7053],[77.7722,31.7055],[77.7747,31.7011],[77.7841,31.6959],[77.7849,31.6916],[77.7895,31.6881],[77.7934,31.6792],[77.7929,31.6743],[77.8109,31.6671],[77.8135,31.6622],[77.817,31.6532],[77.8161,31.6439],[77.8213,31.6416],[77.8235,31.6347],[77.8116,31.6158],[77.8121,31.6096],[77.8183,31.6052],[77.8241,31.5955],[77.838,31.5806],[77.8339,31.5594],[77.8414,31.5379],[77.8427,31.5235],[77.839,31.5109],[77.8397,31.5059],[77.8511,31.508],[77.8559,31.5064],[77.859,31.5095],[77.8691,31.4975],[77.8817,31.4895],[77.881,31.4699],[77.895,31.4593],[77.8978,31.4507],[77.8967,31.4454],[77.9081,31.4411],[77.9134,31.433],[77.9235,31.4312],[77.9269,31.4232],[77.9469,31.4236],[77.9587,31.4148],[77.9621,31.4051],[77.9659,31.4023],[77.9754,31.3999],[77.9909,31.4036],[78.0222,31.3992],[78.043,31.409],[78.0546,31.4175],[78.0676,31.413],[78.0747,31.4168],[78.08,31.4167],[78.0874,31.4217],[78.0934,31.4185],[78.1015,31.4192],[78.1074,31.41],[78.1182,31.4092],[78.1274,31.4054],[78.1308,31.3979],[78.1397,31.3943],[78.1436,31.3877],[78.148,31.3869],[78.1518,31.3898],[78.1631,31.3832],[78.1643,31.3754],[78.1504,31.3608],[78.1623,31.3442],[78.1684,31.3461],[78.1769,31.3369],[78.1826,31.339],[78.1968,31.3295],[78.2076,31.329],[78.2116,31.3242],[78.2191,31.3252],[78.2278,31.3322],[78.2342,31.3332],[78.2376,31.3417],[78.2453,31.341],[78.2577,31.3269],[78.2746,31.3237],[78.2917,31.3261],[78.2908,31.3242],[78.2951,31.3183],[78.302,31.3155],[78.2968,31.3108],[78.2976,31.3033],[78.2915,31.2934],[78.294,31.2903],[78.3235,31.2779],[78.3319,31.2777],[78.3399,31.2828],[78.352,31.2807],[78.3703,31.2864],[78.382,31.2835],[78.3863,31.2715],[78.3963,31.2752],[78.3977,31.2663],[78.4072,31.2563],[78.4028,31.248],[78.4069,31.2423],[78.4152,31.24],[78.4207,31.2441],[78.4259,31.2443],[78.4319,31.2537],[78.4366,31.2542],[78.4436,31.2444],[78.45,31.2407],[78.4557,31.2411],[78.4617,31.2361],[78.4728,31.2185],[78.4798,31.2139],[78.4837,31.199],[78.5076,31.196],[78.5516,31.2],[78.5655,31.2136],[78.5681,31.2192],[78.5749,31.2213],[78.5782,31.2253],[78.5968,31.2252],[78.6009,31.2282],[78.6093,31.2293],[78.6226,31.2242],[78.626,31.218],[78.647,31.2148],[78.6493,31.211],[78.6491,31.2023],[78.66,31.1912],[78.658,31.1851],[78.6617,31.1893],[78.6673,31.1908],[78.6719,31.197],[78.6868,31.1978],[78.7034,31.1891],[78.7183,31.1879],[78.7284,31.1897],[78.7652,31.1858],[78.7967,31.1965],[78.8099,31.1984],[78.8164,31.1945],[78.8174,31.1897],[78.8105,31.1803],[78.8107,31.172],[78.8249,31.1636],[78.823,31.1578],[78.8273,31.1527],[78.8312,31.1407],[78.8381,31.1384],[78.8415,31.1298],[78.848,31.1252],[78.8652,31.1201],[78.8729,31.1089],[78.8854,31.0988],[78.8906,31.097],[78.9004,31.0999],[78.9086,31.0989],[78.9123,31.1022],[78.9127,31.1077],[78.9206,31.1108],[78.9259,31.1095],[78.9322,31.1008],[78.9451,31.1007],[78.9507,31.0981],[78.9631,31.1013],[78.973,31.1082],[78.99,31.1086],[79.0022,31.1125],[79.0089,31.11],[78.9996,31.1348],[78.9908,31.1381],[78.9876,31.1434],[78.9908,31.1483],[78.9882,31.1543],[78.9905,31.1614],[78.9859,31.1739],[78.9792,31.1791],[78.9575,31.1867],[78.9583,31.1905],[78.948,31.1986],[78.9438,31.2066],[78.9487,31.2134],[78.9477,31.2169],[78.9311,31.2161],[78.926,31.2202],[78.9261,31.2232],[78.9221,31.2254],[78.922,31.2316],[78.9161,31.2487],[78.8854,31.2694],[78.8856,31.2754],[78.8819,31.2814],[78.882,31.2868],[78.876,31.3032],[78.8682,31.3081],[78.8617,31.3162],[78.8516,31.311],[78.8519,31.3047],[78.8566,31.3005],[78.8557,31.2959],[78.8529,31.2952],[78.8272,31.2963],[78.8166,31.2998],[78.814,31.3056],[78.81,31.3076],[78.7916,31.3046],[78.7782,31.3126],[78.7771,31.3205],[78.7693,31.3245],[78.7679,31.3289],[78.7738,31.333],[78.764,31.3423],[78.769,31.3503],[78.7562,31.3588],[78.7496,31.3662],[78.7501,31.3689],[78.7572,31.3729],[78.7528,31.3854],[78.7615,31.397],[78.7607,31.4007],[78.7688,31.4056],[78.7729,31.4156],[78.7793,31.4211],[78.7825,31.4282],[78.7889,31.4344],[78.796,31.4366],[78.7977,31.4435],[78.7787,31.4514],[78.7739,31.4573],[78.7745,31.4608],[78.7692,31.4721],[78.7643,31.4746],[78.7587,31.4825],[78.7486,31.4843],[78.7406,31.4806],[78.7252,31.4839],[78.7274,31.4899],[78.7237,31.4935],[78.7205,31.5073],[78.7224,31.513],[78.7269,31.5172],[78.7304,31.5318],[78.7349,31.5361],[78.7441,31.5412],[78.7572,31.5423],[78.7613,31.5491],[78.7695,31.5439],[78.7755,31.5437],[78.7798,31.5558],[78.8029,31.5658],[78.8068,31.5774],[78.8176,31.5769],[78.8209,31.5788],[78.831,31.594],[78.8361,31.597],[78.8412,31.5964],[78.8469,31.6083],[78.8408,31.623],[78.8299,31.6247],[78.8192,31.6375],[78.8098,31.6384],[78.8017,31.648],[78.7985,31.6704],[78.8012,31.6778],[78.7985,31.6823],[78.7877,31.6776],[78.764,31.6746],[78.7504,31.6814],[78.7494,31.6853],[78.7532,31.6883],[78.754,31.6953],[78.7451,31.7052],[78.7431,31.7177],[78.7343,31.7236],[78.7296,31.7328],[78.7258,31.7583],[78.7196,31.7613],[78.7163,31.7679],[78.7057,31.774],[78.7051,31.7811],[78.7074,31.7853],[78.7037,31.7936],[78.7051,31.8],[78.7027,31.8074],[78.7181,31.8237],[78.7341,31.8313],[78.7346,31.8339],[78.7424,31.8352],[78.745,31.8395],[78.7432,31.8516],[78.7453,31.8547],[78.7415,31.861],[78.7498,31.8737],[78.741,31.8852],[78.7477,31.8924],[78.7416,31.9013],[78.7493,31.9063],[78.7526,31.9134],[78.7612,31.9223],[78.768,31.9249],[78.7713,31.929],[78.7692,31.9365],[78.7707,31.9425],[78.7655,31.9479],[78.7657,31.9545],[78.7696,31.9618],[78.7814,31.9654],[78.7737,31.9742],[78.7756,31.9875],[78.7812,31.9932],[78.7683,31.998],[78.7659,32.0028],[78.7501,32.0035],[78.7393,32.0008],[78.7343,32.0041],[78.734,32.0126],[78.7255,32.019],[78.7242,32.026],[78.7209,32.0293],[78.722,32.0397],[78.7126,32.046],[78.7062,32.0579],[78.7056,32.0666],[78.6902,32.0713],[78.682,32.0804],[78.6849,32.0863],[78.6766,32.0877]]]},"properties":{"dtname":"Kinnaur","stname":"HIMACHAL PRADESH","stcode11":"02","dtcode11":"034","year_stat":"2011_c","Shape_Length":616190.1872266467,"Shape_Area":8799546143.075775,"OBJECTID":627,"test":0,"Dist_LGD":19,"State_LGD":2}},{"type":"Feature","id":628,"geometry":{"type":"Polygon","coordinates":[[[76.0188,31.8667],[76.011,31.8648],[76.0048,31.8589],[76.0045,31.8546],[75.9989,31.8511],[75.9748,31.8522],[75.9712,31.8497],[75.9706,31.854],[75.96,31.8569],[75.9659,31.8383],[75.9709,31.8335],[75.9712,31.8285],[75.9748,31.8284],[75.9859,31.8195],[75.9865,31.8123],[75.9785,31.813],[75.9759,31.8184],[75.9732,31.8185],[75.969,31.8239],[75.9475,31.813],[75.9418,31.8127],[75.9367,31.8155],[75.953,31.7896],[75.9531,31.7833],[75.9602,31.7812],[75.9634,31.7688],[75.9707,31.7568],[75.9711,31.7492],[75.9751,31.7438],[75.9726,31.7386],[75.9744,31.7349],[75.9784,31.7337],[75.9794,31.7261],[75.9929,31.7035],[75.9931,31.6969],[76.0001,31.6876],[76.0089,31.6534],[76.0184,31.6489],[76.0171,31.6454],[76.021,31.6406],[76.0177,31.6322],[76.0276,31.6233],[76.0284,31.6194],[76.037,31.6099],[76.0407,31.6105],[76.0461,31.6033],[76.0551,31.6057],[76.058,31.5963],[76.0533,31.5934],[76.0575,31.5886],[76.056,31.5855],[76.072,31.5696],[76.0731,31.5634],[76.0815,31.5521],[76.0886,31.5476],[76.0985,31.5365],[76.0978,31.5331],[76.1065,31.5099],[76.1131,31.4999],[76.1208,31.4976],[76.1204,31.4879],[76.117,31.4831],[76.1307,31.4711],[76.131,31.4636],[76.1354,31.4589],[76.1331,31.452],[76.139,31.4488],[76.1457,31.4339],[76.1525,31.4335],[76.1567,31.4305],[76.1625,31.4213],[76.1601,31.4148],[76.1686,31.4097],[76.1664,31.4058],[76.1698,31.399],[76.1685,31.3963],[76.1477,31.3796],[76.1486,31.361],[76.1469,31.359],[76.1493,31.3533],[76.1521,31.3528],[76.159,31.3437],[76.1788,31.3405],[76.1813,31.3337],[76.1798,31.3066],[76.1843,31.3057],[76.191,31.3],[76.2139,31.2995],[76.2395,31.3085],[76.2501,31.3079],[76.2568,31.3107],[76.2675,31.3107],[76.2689,31.3131],[76.2707,31.303],[76.2757,31.3006],[76.2867,31.3076],[76.2895,31.3068],[76.293,31.3104],[76.3044,31.3139],[76.3112,31.3195],[76.3226,31.3217],[76.313,31.3301],[76.3076,31.3427],[76.3314,31.3466],[76.3302,31.3484],[76.3341,31.3494],[76.3377,31.3403],[76.3439,31.3406],[76.3472,31.3469],[76.3544,31.345],[76.353,31.3489],[76.3471,31.3492],[76.3461,31.3545],[76.3424,31.3548],[76.3417,31.3782],[76.3296,31.3786],[76.3318,31.3839],[76.3311,31.4012],[76.3422,31.4009],[76.3428,31.3983],[76.3434,31.4024],[76.3466,31.4024],[76.3485,31.3978],[76.3593,31.4032],[76.3678,31.4039],[76.3723,31.409],[76.3706,31.4154],[76.3728,31.4249],[76.3702,31.4288],[76.374,31.4372],[76.3795,31.4333],[76.3792,31.4284],[76.3899,31.4166],[76.3878,31.4095],[76.3908,31.4084],[76.3949,31.408],[76.3964,31.411],[76.393,31.4198],[76.3936,31.4241],[76.397,31.4272],[76.4255,31.4078],[76.4378,31.4139],[76.4575,31.4176],[76.4636,31.4223],[76.4725,31.4201],[76.4722,31.424],[76.4756,31.4277],[76.47,31.4376],[76.4794,31.4418],[76.4762,31.4446],[76.4755,31.4415],[76.4724,31.4409],[76.4625,31.4438],[76.462,31.4465],[76.4665,31.4455],[76.4661,31.4499],[76.4719,31.4552],[76.4607,31.4659],[76.4608,31.4688],[76.4505,31.4819],[76.4624,31.4857],[76.4632,31.4877],[76.4548,31.4936],[76.441,31.5137],[76.4361,31.5276],[76.4388,31.5352],[76.4318,31.5447],[76.4277,31.5571],[76.42,31.5643],[76.4191,31.5717],[76.4012,31.6036],[76.4007,31.6085],[76.396,31.6122],[76.3954,31.6181],[76.3878,31.6273],[76.384,31.6272],[76.3644,31.6423],[76.3587,31.6534],[76.348,31.6658],[76.3401,31.6815],[76.3335,31.6865],[76.3209,31.7052],[76.3114,31.7245],[76.3081,31.7233],[76.306,31.7188],[76.3048,31.7046],[76.2963,31.6945],[76.297,31.6913],[76.2838,31.6847],[76.2817,31.6917],[76.273,31.7035],[76.2642,31.7083],[76.2638,31.7127],[76.2528,31.7146],[76.2422,31.724],[76.2333,31.7355],[76.2231,31.7424],[76.2151,31.7504],[76.2134,31.7556],[76.2043,31.7629],[76.205,31.7677],[76.1982,31.7721],[76.1953,31.7686],[76.185,31.7671],[76.1815,31.7639],[76.1855,31.7743],[76.1842,31.7791],[76.1685,31.7847],[76.1594,31.7949],[76.1538,31.7952],[76.1476,31.8003],[76.1243,31.8013],[76.1102,31.7954],[76.1134,31.8013],[76.1035,31.8078],[76.1066,31.81],[76.1054,31.8179],[76.108,31.8224],[76.1041,31.8188],[76.1002,31.8221],[76.0965,31.8197],[76.0923,31.8216],[76.0897,31.8194],[76.0873,31.8211],[76.0867,31.8272],[76.0804,31.8302],[76.0811,31.8336],[76.0861,31.8323],[76.081,31.8342],[76.0837,31.8364],[76.0829,31.8408],[76.0786,31.8423],[76.0744,31.8413],[76.0736,31.8386],[76.0684,31.8395],[76.0643,31.8461],[76.0436,31.8577],[76.0427,31.8618],[76.0314,31.8651],[76.023,31.8641],[76.0188,31.8667]]]},"properties":{"dtname":"Una","stname":"HIMACHAL PRADESH","stcode11":"02","dtcode11":"029","year_stat":"2011_c","Shape_Length":293212.9759438181,"Shape_Area":2133789563.8401666,"OBJECTID":628,"test":0,"Dist_LGD":26,"State_LGD":2}},{"type":"Feature","id":629,"geometry":{"type":"Polygon","coordinates":[[[77.0738,31.2579],[77.0628,31.2586],[77.0544,31.2676],[77.0307,31.2728],[77.0035,31.2453],[77.0046,31.2384],[77.0127,31.2339],[77.0111,31.2306],[77.0133,31.224],[77.0194,31.2235],[77.021,31.2213],[77.0101,31.2129],[77.0075,31.2132],[77.0015,31.1961],[77.0137,31.1845],[77.0331,31.1785],[77.0306,31.1741],[77.0354,31.1522],[77.0292,31.1504],[77.0163,31.137],[77.0102,31.1346],[77.0072,31.129],[77.009,31.1177],[77.0116,31.1143],[77.0038,31.1108],[76.9942,31.1156],[76.9889,31.1139],[76.9892,31.1117],[76.9977,31.1032],[77.0172,31.1093],[77.0227,31.1076],[77.0278,31.1109],[77.0352,31.11],[77.0485,31.1143],[77.0545,31.1038],[77.0541,31.0999],[77.0378,31.0962],[77.024,31.0852],[77.0261,31.079],[77.0354,31.0755],[77.0359,31.067],[77.0437,31.0695],[77.0463,31.0793],[77.0551,31.0847],[77.0658,31.0862],[77.0734,31.078],[77.0773,31.0834],[77.0805,31.0827],[77.0835,31.0807],[77.079,31.0742],[77.0881,31.0663],[77.0774,31.0545],[77.0675,31.052],[77.0668,31.048],[77.0863,31.0425],[77.0881,31.0379],[77.1017,31.0295],[77.1191,31.0314],[77.1236,31.0264],[77.1351,31.0226],[77.1431,31.0163],[77.1515,31.0048],[77.1644,30.9998],[77.171,31.0116],[77.1975,31.0029],[77.2048,30.9977],[77.2061,30.9919],[77.2115,30.9872],[77.2066,30.9772],[77.2018,30.9736],[77.2043,30.9675],[77.2321,30.9607],[77.2495,30.9479],[77.2458,30.9413],[77.2394,30.9397],[77.2395,30.9299],[77.2442,30.9287],[77.2474,30.9175],[77.2628,30.9302],[77.2673,30.9419],[77.2808,30.9506],[77.2981,30.9529],[77.303,30.959],[77.2996,30.964],[77.3014,30.9675],[77.3109,30.9702],[77.3137,30.9747],[77.3225,30.978],[77.326,30.985],[77.3357,30.9936],[77.3363,30.9985],[77.3429,31.0018],[77.3473,30.9994],[77.3696,31.0055],[77.3756,31.0127],[77.3736,31.0169],[77.3794,31.0208],[77.3957,31.0129],[77.3955,31.0107],[77.3982,31.0103],[77.4107,30.9967],[77.4191,30.9988],[77.4195,30.9963],[77.425,30.9932],[77.4259,30.9885],[77.4358,30.9845],[77.4393,30.9793],[77.4434,30.9664],[77.4411,30.9592],[77.4425,30.9516],[77.4448,30.9508],[77.4433,30.9449],[77.4181,30.929],[77.4223,30.9257],[77.4209,30.921],[77.4252,30.9133],[77.4266,30.9034],[77.4327,30.899],[77.4378,30.8893],[77.4353,30.8752],[77.4443,30.8707],[77.4514,30.8631],[77.461,30.8668],[77.4647,30.8646],[77.4788,30.8646],[77.4846,30.8485],[77.4915,30.8426],[77.4891,30.822],[77.4892,30.817],[77.494,30.8146],[77.495,30.8007],[77.4925,30.7952],[77.5177,30.7899],[77.5211,30.7858],[77.5298,30.7997],[77.5484,30.8004],[77.5506,30.7885],[77.5451,30.7783],[77.5467,30.7743],[77.5523,30.7751],[77.5553,30.7785],[77.5789,30.7774],[77.6003,30.7794],[77.6082,30.7909],[77.6199,30.7941],[77.6181,30.7987],[77.6217,30.8086],[77.6242,30.81],[77.6368,30.8094],[77.6471,30.8045],[77.6549,30.805],[77.655,30.8029],[77.659,30.8069],[77.6607,30.8002],[77.6663,30.8026],[77.6753,30.7911],[77.683,30.7905],[77.6875,30.7843],[77.6845,30.7783],[77.7038,30.764],[77.7213,30.7759],[77.7319,30.7919],[77.7329,30.8011],[77.7456,30.8132],[77.7484,30.8217],[77.7613,30.8261],[77.7577,30.8352],[77.744,30.8467],[77.7459,30.8512],[77.7542,30.8555],[77.7572,30.8601],[77.7561,30.8727],[77.7582,30.8769],[77.7632,30.8805],[77.7734,30.8776],[77.7761,30.8755],[77.7792,30.8604],[77.8057,30.8533],[77.8036,30.8651],[77.7988,30.8681],[77.8014,30.8934],[77.8088,30.8968],[77.8153,30.9045],[77.8159,30.9104],[77.8109,30.9167],[77.8133,30.9219],[77.8049,30.9237],[77.7918,30.9218],[77.7826,30.9168],[77.7675,30.9174],[77.7659,30.9197],[77.7628,30.9182],[77.7639,30.9305],[77.7527,30.9339],[77.754,30.9376],[77.749,30.9535],[77.7541,30.9645],[77.7724,30.9744],[77.7937,30.9688],[77.814,30.9539],[77.8243,30.9506],[77.8286,30.9534],[77.8376,30.9532],[77.8322,30.9597],[77.8242,30.9572],[77.8144,30.9619],[77.8163,30.9729],[77.8224,30.9766],[77.824,30.9805],[77.8242,30.9885],[77.8318,30.9941],[77.822,31.0044],[77.825,31.0099],[77.8099,31.0111],[77.8075,31.0163],[77.807,31.0268],[77.8114,31.0317],[77.8175,31.0331],[77.8229,31.0294],[77.8298,31.0288],[77.8214,31.0428],[77.8216,31.0468],[77.816,31.0501],[77.8168,31.0568],[77.8113,31.0592],[77.8229,31.0587],[77.822,31.0553],[77.8243,31.0555],[77.8289,31.0583],[77.838,31.0727],[77.8512,31.0734],[77.8637,31.094],[77.8605,31.1017],[77.8638,31.1086],[77.8732,31.115],[77.8805,31.1149],[77.8907,31.1218],[77.889,31.1331],[77.894,31.134],[77.9004,31.1423],[77.8987,31.1503],[77.9086,31.1541],[77.9248,31.1505],[77.9351,31.1548],[77.9432,31.1613],[77.9515,31.1614],[77.9589,31.171],[77.9673,31.1734],[77.9847,31.157],[78.0008,31.162],[78.0144,31.1579],[78.0206,31.1516],[78.0303,31.151],[78.0297,31.1642],[78.0338,31.1698],[78.041,31.173],[78.0426,31.1786],[78.0512,31.18],[78.0659,31.1872],[78.1036,31.1855],[78.1235,31.2002],[78.1286,31.2009],[78.1334,31.2084],[78.1477,31.2107],[78.1536,31.2183],[78.1581,31.219],[78.1602,31.2256],[78.187,31.2271],[78.2012,31.2173],[78.2147,31.2214],[78.2158,31.2288],[78.2203,31.234],[78.2323,31.2341],[78.2456,31.2298],[78.2507,31.2334],[78.2495,31.2401],[78.2605,31.2398],[78.2626,31.2453],[78.2687,31.2487],[78.276,31.2616],[78.2829,31.2663],[78.2919,31.26],[78.3063,31.26],[78.3104,31.2712],[78.3082,31.2767],[78.3113,31.2823],[78.3103,31.2847],[78.3022,31.2862],[78.2919,31.2924],[78.2976,31.3033],[78.2971,31.3116],[78.302,31.3155],[78.2951,31.3183],[78.2908,31.3242],[78.2917,31.3261],[78.2746,31.3237],[78.2577,31.3269],[78.2453,31.341],[78.2376,31.3417],[78.2342,31.3332],[78.2278,31.3322],[78.2191,31.3252],[78.2116,31.3242],[78.2076,31.329],[78.1968,31.3295],[78.1826,31.339],[78.1769,31.3369],[78.1684,31.3461],[78.1623,31.3442],[78.1504,31.3608],[78.1643,31.3754],[78.1631,31.3832],[78.1518,31.3898],[78.148,31.3869],[78.1436,31.3877],[78.1397,31.3943],[78.1308,31.3979],[78.1274,31.4054],[78.1182,31.4092],[78.1074,31.41],[78.1015,31.4192],[78.0934,31.4185],[78.0874,31.4217],[78.08,31.4167],[78.0747,31.4168],[78.0676,31.413],[78.0546,31.4175],[78.043,31.409],[78.0222,31.3992],[77.9909,31.4036],[77.9748,31.3999],[77.9625,31.4045],[77.9587,31.4148],[77.9469,31.4236],[77.9269,31.4232],[77.9235,31.4312],[77.9134,31.433],[77.9081,31.4411],[77.8974,31.4449],[77.8947,31.4599],[77.881,31.4699],[77.8812,31.4901],[77.8691,31.4975],[77.8656,31.5039],[77.8587,31.5096],[77.8559,31.5064],[77.8511,31.508],[77.8397,31.5059],[77.839,31.5109],[77.8427,31.5235],[77.8414,31.5379],[77.8339,31.5594],[77.838,31.5806],[77.8241,31.5955],[77.8183,31.6052],[77.8121,31.6096],[77.8116,31.6158],[77.8235,31.6347],[77.8213,31.6416],[77.8161,31.6439],[77.8169,31.6536],[77.8111,31.667],[77.7929,31.6743],[77.7934,31.6792],[77.7895,31.6881],[77.7849,31.6916],[77.7841,31.6959],[77.7747,31.7011],[77.7722,31.7055],[77.7627,31.7053],[77.7479,31.7134],[77.7341,31.7151],[77.7115,31.7037],[77.6781,31.7032],[77.6753,31.6971],[77.6701,31.6948],[77.6705,31.6857],[77.6667,31.6822],[77.6574,31.6795],[77.6567,31.6681],[77.6458,31.6625],[77.6467,31.6523],[77.6498,31.6519],[77.6626,31.6337],[77.6498,31.6283],[77.6491,31.6206],[77.6457,31.6153],[77.6462,31.6086],[77.6441,31.607],[77.6487,31.5961],[77.6487,31.583],[77.6595,31.5757],[77.6682,31.5637],[77.6805,31.5596],[77.6786,31.5578],[77.6796,31.5513],[77.6866,31.5446],[77.6933,31.5451],[77.6987,31.5421],[77.7021,31.5298],[77.6985,31.5225],[77.6991,31.5143],[77.7071,31.5018],[77.6823,31.4829],[77.6695,31.4626],[77.6589,31.4604],[77.6504,31.4554],[77.6401,31.4568],[77.6278,31.4513],[77.629,31.4448],[77.6225,31.4358],[77.6209,31.4268],[77.6217,31.417],[77.6333,31.4011],[77.6288,31.39],[77.6239,31.3882],[77.6167,31.3897],[77.6066,31.3969],[77.5961,31.3993],[77.5773,31.3963],[77.5754,31.3886],[77.5539,31.3902],[77.5451,31.3809],[77.5442,31.3747],[77.5354,31.3623],[77.5268,31.3531],[77.5173,31.3481],[77.5108,31.3494],[77.5054,31.3477],[77.4987,31.3555],[77.4881,31.3552],[77.4808,31.3545],[77.4744,31.3492],[77.468,31.3515],[77.457,31.3513],[77.452,31.3439],[77.4353,31.3442],[77.433,31.3407],[77.4292,31.3404],[77.4205,31.3479],[77.4123,31.3464],[77.4083,31.354],[77.398,31.3616],[77.3921,31.3547],[77.3849,31.3602],[77.3788,31.3575],[77.3706,31.3596],[77.3558,31.3528],[77.3504,31.3407],[77.3445,31.3371],[77.3432,31.3338],[77.3452,31.3273],[77.3402,31.3242],[77.337,31.3158],[77.3375,31.3071],[77.3335,31.2944],[77.3222,31.2921],[77.3185,31.2838],[77.3071,31.2785],[77.3054,31.2682],[77.2879,31.2685],[77.2812,31.2639],[77.2749,31.2677],[77.2729,31.2727],[77.2686,31.2726],[77.2652,31.267],[77.2506,31.2589],[77.2455,31.2512],[77.2319,31.26],[77.2198,31.2613],[77.209,31.2479],[77.1992,31.2422],[77.1946,31.2433],[77.1902,31.2538],[77.179,31.2471],[77.1633,31.2313],[77.1524,31.229],[77.142,31.2322],[77.1368,31.2285],[77.129,31.2288],[77.1231,31.2316],[77.1253,31.2481],[77.1175,31.2482],[77.1112,31.2447],[77.1038,31.2493],[77.0923,31.2452],[77.0765,31.2505],[77.0738,31.2579]]]},"properties":{"dtname":"Shimla","stname":"HIMACHAL PRADESH","stcode11":"02","dtcode11":"033","year_stat":"2011_c","Shape_Length":656321.5004072012,"Shape_Area":7029470116.799131,"OBJECTID":629,"test":0,"Dist_LGD":23,"State_LGD":2}},{"type":"Feature","id":634,"geometry":{"type":"Polygon","coordinates":[[[76.9209,31.365],[76.9069,31.3615],[76.8993,31.3639],[76.8948,31.3593],[76.8856,31.3583],[76.8737,31.3487],[76.8828,31.3356],[76.8751,31.3308],[76.8774,31.3276],[76.8908,31.3208],[76.8954,31.3153],[76.916,31.315],[76.9192,31.3046],[76.9277,31.3041],[76.9132,31.2834],[76.8999,31.2812],[76.8917,31.2742],[76.895,31.2717],[76.8948,31.2653],[76.8864,31.2654],[76.8833,31.2615],[76.8724,31.262],[76.8705,31.2519],[76.8659,31.2455],[76.8707,31.2446],[76.8671,31.2411],[76.8759,31.2317],[76.874,31.228],[76.8786,31.2211],[76.8761,31.2186],[76.8556,31.2193],[76.8474,31.2245],[76.8485,31.2278],[76.8432,31.2268],[76.8397,31.2311],[76.8326,31.2294],[76.8293,31.2245],[76.8237,31.2231],[76.8176,31.2287],[76.8155,31.2265],[76.8047,31.2266],[76.7997,31.222],[76.793,31.2263],[76.7786,31.2153],[76.7737,31.2179],[76.7767,31.2219],[76.7756,31.2243],[76.7721,31.2226],[76.7662,31.2268],[76.7578,31.2265],[76.7462,31.2361],[76.7325,31.2406],[76.7204,31.2283],[76.7115,31.2231],[76.7031,31.222],[76.6989,31.2169],[76.6909,31.216],[76.686,31.2129],[76.6757,31.2143],[76.665,31.2128],[76.6603,31.2095],[76.6454,31.2091],[76.6178,31.1929],[76.6112,31.1823],[76.6,31.1785],[76.6017,31.1758],[76.6077,31.1779],[76.609,31.1733],[76.6031,31.165],[76.6053,31.1602],[76.6018,31.1532],[76.6066,31.1517],[76.6073,31.1485],[76.6124,31.1482],[76.6089,31.1431],[76.6106,31.1406],[76.6016,31.1286],[76.602,31.1238],[76.6134,31.1223],[76.617,31.1162],[76.6361,31.1164],[76.6386,31.1081],[76.6378,31.1038],[76.6319,31.1],[76.6257,31.0914],[76.6231,31.0796],[76.618,31.0782],[76.6179,31.0702],[76.6226,31.055],[76.611,31.0459],[76.617,31.0299],[76.6291,31.0235],[76.6267,31.0221],[76.6247,30.9988],[76.6338,30.9959],[76.638,30.9903],[76.6516,30.9877],[76.6591,30.9814],[76.6658,30.9808],[76.6729,30.9742],[76.6732,30.9688],[76.7096,30.9698],[76.7168,30.9599],[76.7223,30.9611],[76.7337,30.9493],[76.7372,30.9496],[76.7372,30.9399],[76.7399,30.9355],[76.7469,30.9321],[76.7498,30.9274],[76.7569,30.9277],[76.76,30.9227],[76.766,30.9209],[76.7714,30.9071],[76.7767,30.9043],[76.7761,30.906],[76.7868,30.9134],[76.7981,30.9153],[76.8224,30.9286],[76.8293,30.9167],[76.8264,30.9132],[76.841,30.8917],[76.8446,30.8893],[76.8511,30.89],[76.856,30.8843],[76.8604,30.8837],[76.863,30.8777],[76.8696,30.8732],[76.8783,30.8758],[76.8759,30.881],[76.8953,30.887],[76.8949,30.8905],[76.9086,30.8942],[76.9095,30.8971],[76.9168,30.9008],[76.9148,30.8916],[76.9174,30.8835],[76.9223,30.8805],[76.9246,30.8739],[76.9284,30.8715],[76.9364,30.8746],[76.9384,30.8714],[76.937,30.869],[76.9442,30.8551],[76.9512,30.8506],[76.944,30.8377],[76.9489,30.8245],[76.9426,30.8175],[76.9459,30.8185],[76.9505,30.8138],[76.9586,30.8251],[76.9615,30.8206],[76.9647,30.8257],[76.9683,30.8254],[76.9739,30.8186],[76.9812,30.8143],[76.9985,30.8119],[77.0025,30.8064],[77.0113,30.8107],[77.012,30.8002],[77.0151,30.7929],[77.013,30.7887],[77.0181,30.7863],[77.0186,30.7801],[77.0142,30.7754],[77.0011,30.77],[77.0186,30.7653],[77.0189,30.7545],[77.0163,30.7502],[77.0207,30.752],[77.0211,30.7487],[77.0238,30.7477],[77.0234,30.7512],[77.0291,30.7506],[77.0292,30.7583],[77.0333,30.7644],[77.0489,30.7695],[77.0551,30.7757],[77.0768,30.7855],[77.0785,30.7896],[77.0834,30.7921],[77.0829,30.8046],[77.0868,30.8095],[77.0861,30.8139],[77.0888,30.8184],[77.0878,30.8305],[77.1051,30.8332],[77.1072,30.8388],[77.1163,30.8437],[77.1145,30.846],[77.117,30.8481],[77.1147,30.8512],[77.1345,30.8541],[77.136,30.8562],[77.143,30.853],[77.1489,30.8568],[77.1535,30.8566],[77.1691,30.842],[77.1685,30.8442],[77.1724,30.8477],[77.1782,30.8468],[77.1809,30.8508],[77.1871,30.8509],[77.1868,30.8569],[77.1829,30.8604],[77.1883,30.8604],[77.189,30.8642],[77.1961,30.8645],[77.2136,30.8786],[77.2056,30.8888],[77.2139,30.8958],[77.2168,30.8951],[77.2149,30.9016],[77.2202,30.9038],[77.225,30.9002],[77.2309,30.9006],[77.2361,30.9052],[77.2396,30.9139],[77.2462,30.9152],[77.2474,30.9177],[77.2448,30.9276],[77.2395,30.9299],[77.2394,30.9397],[77.2458,30.9413],[77.2497,30.9476],[77.2321,30.9607],[77.2043,30.9675],[77.2018,30.9736],[77.2066,30.9772],[77.2115,30.9872],[77.2061,30.9919],[77.2048,30.9977],[77.1975,31.0029],[77.171,31.0116],[77.1644,30.9998],[77.1515,31.0048],[77.1431,31.0163],[77.1351,31.0226],[77.1236,31.0264],[77.1191,31.0314],[77.1017,31.0295],[77.0881,31.0379],[77.0863,31.0425],[77.0668,31.048],[77.0675,31.052],[77.0774,31.0545],[77.0881,31.0663],[77.079,31.0742],[77.0828,31.0783],[77.0824,31.0817],[77.0775,31.0835],[77.0734,31.078],[77.0658,31.0862],[77.0551,31.0847],[77.0463,31.0793],[77.0437,31.0695],[77.0359,31.067],[77.0354,31.0755],[77.0261,31.079],[77.024,31.0852],[77.0378,31.0962],[77.0541,31.0999],[77.0545,31.1038],[77.0485,31.1143],[77.0352,31.11],[77.0278,31.1109],[77.0227,31.1076],[77.0172,31.1093],[77.0036,31.1036],[76.9977,31.1032],[76.9906,31.1083],[76.9889,31.1139],[76.9929,31.1154],[76.9983,31.1147],[77.0038,31.1108],[77.0116,31.1143],[77.009,31.1177],[77.0072,31.129],[77.0102,31.1346],[77.0163,31.137],[77.0292,31.1504],[77.0353,31.1518],[77.0306,31.1741],[77.0331,31.1785],[77.0137,31.1845],[77.0015,31.1961],[77.0075,31.2132],[77.0101,31.2129],[77.021,31.2213],[77.0194,31.2235],[77.0133,31.224],[77.0111,31.2306],[77.0127,31.2339],[77.0046,31.2384],[77.0035,31.2453],[77.0307,31.2728],[77.0225,31.2788],[77.0185,31.2862],[76.9954,31.3013],[76.9709,31.3127],[76.9649,31.3241],[76.9495,31.3324],[76.9419,31.3328],[76.9442,31.3389],[76.943,31.3442],[76.9209,31.365]]]},"properties":{"dtname":"Solan","stname":"HIMACHAL PRADESH","stcode11":"02","dtcode11":"031","year_stat":"2011_c","Shape_Length":368951.30673438264,"Shape_Area":2645999741.372508,"OBJECTID":634,"test":0,"Dist_LGD":25,"State_LGD":2}},{"type":"Feature","id":641,"geometry":{"type":"Polygon","coordinates":[[[77.379,31.0209],[77.3736,31.0169],[77.3756,31.0127],[77.3696,31.0055],[77.3473,30.9994],[77.3429,31.0018],[77.3363,30.9985],[77.3357,30.9936],[77.326,30.985],[77.3225,30.978],[77.3137,30.9747],[77.3109,30.9702],[77.3014,30.9675],[77.2996,30.964],[77.303,30.959],[77.2981,30.9529],[77.2808,30.9506],[77.2651,30.9404],[77.2666,30.9377],[77.2628,30.9302],[77.2456,30.9148],[77.2398,30.9141],[77.2365,30.9058],[77.2313,30.9009],[77.2259,30.9],[77.2202,30.9038],[77.2154,30.9021],[77.2168,30.8951],[77.2139,30.8958],[77.2056,30.8888],[77.2136,30.8786],[77.1961,30.8645],[77.189,30.8642],[77.1883,30.8604],[77.1829,30.8604],[77.1868,30.8569],[77.1871,30.8509],[77.1809,30.8508],[77.1782,30.8468],[77.1724,30.8477],[77.1685,30.8442],[77.1691,30.842],[77.1535,30.8566],[77.1489,30.8568],[77.143,30.853],[77.136,30.8562],[77.1345,30.8541],[77.1147,30.8512],[77.117,30.8481],[77.1145,30.846],[77.1163,30.8437],[77.1072,30.8388],[77.1051,30.8332],[77.0878,30.8305],[77.0888,30.8184],[77.0861,30.8139],[77.0868,30.8095],[77.0829,30.8046],[77.0834,30.7921],[77.0785,30.7896],[77.0768,30.7855],[77.0551,30.7757],[77.0489,30.7695],[77.0335,30.7645],[77.0292,30.7583],[77.0289,30.7503],[77.0233,30.7511],[77.024,30.7454],[77.0208,30.7448],[77.0205,30.7401],[77.0297,30.7337],[77.0361,30.737],[77.0478,30.738],[77.0437,30.7463],[77.047,30.7481],[77.0505,30.7457],[77.0493,30.7493],[77.0574,30.742],[77.0643,30.7423],[77.0696,30.7377],[77.0793,30.7406],[77.0974,30.7382],[77.1011,30.7341],[77.114,30.7281],[77.1157,30.7228],[77.1138,30.7181],[77.1243,30.7218],[77.1288,30.7108],[77.1376,30.7062],[77.1422,30.6995],[77.1479,30.6995],[77.1548,30.6927],[77.1612,30.691],[77.1672,30.684],[77.1608,30.6815],[77.1688,30.6698],[77.1686,30.6634],[77.1629,30.6553],[77.1634,30.6509],[77.1675,30.6425],[77.1755,30.6389],[77.177,30.6361],[77.1729,30.6329],[77.1713,30.6277],[77.1726,30.6193],[77.1706,30.6135],[77.1725,30.6094],[77.1694,30.605],[77.1723,30.6013],[77.1631,30.5953],[77.1643,30.5926],[77.1584,30.59],[77.16,30.5878],[77.1521,30.5845],[77.1475,30.5782],[77.1396,30.5794],[77.1381,30.5708],[77.1228,30.5633],[77.1353,30.5455],[77.1451,30.5389],[77.169,30.5361],[77.173,30.532],[77.1929,30.5256],[77.2068,30.5058],[77.2094,30.489],[77.2078,30.4744],[77.2107,30.4648],[77.2135,30.4657],[77.2204,30.4772],[77.2265,30.4805],[77.2434,30.4756],[77.2689,30.4813],[77.2765,30.4748],[77.2768,30.4642],[77.284,30.4653],[77.2905,30.4629],[77.2955,30.4666],[77.2987,30.4644],[77.2989,30.4605],[77.3058,30.457],[77.3054,30.4535],[77.3087,30.4539],[77.3173,30.4482],[77.3205,30.4489],[77.3208,30.4458],[77.3339,30.4553],[77.3428,30.4575],[77.3475,30.4554],[77.3542,30.4582],[77.3637,30.4413],[77.3643,30.4327],[77.3674,30.4403],[77.3871,30.4401],[77.39,30.4395],[77.3908,30.43],[77.4073,30.4272],[77.3979,30.4162],[77.4047,30.4086],[77.4085,30.4088],[77.4084,30.4142],[77.4139,30.417],[77.4161,30.4239],[77.4205,30.4237],[77.4341,30.4311],[77.4433,30.4427],[77.4493,30.4461],[77.4537,30.4561],[77.4565,30.4557],[77.4634,30.4478],[77.4588,30.4419],[77.4589,30.4329],[77.4516,30.432],[77.4429,30.4174],[77.432,30.4158],[77.4287,30.4106],[77.4223,30.4097],[77.4214,30.4033],[77.4365,30.4032],[77.4432,30.3954],[77.452,30.4001],[77.4629,30.4017],[77.4705,30.4003],[77.4894,30.4106],[77.4946,30.4048],[77.5025,30.4047],[77.5054,30.4091],[77.5065,30.4275],[77.5185,30.4433],[77.5232,30.4435],[77.5293,30.4366],[77.5287,30.4312],[77.5323,30.4205],[77.5517,30.399],[77.5505,30.3951],[77.5589,30.3881],[77.581,30.3777],[77.5856,30.3796],[77.5847,30.3853],[77.5751,30.3993],[77.5724,30.411],[77.5946,30.4267],[77.6227,30.4347],[77.6319,30.4313],[77.637,30.4332],[77.6433,30.4319],[77.6461,30.4335],[77.649,30.4452],[77.6524,30.4481],[77.6708,30.4443],[77.6902,30.4481],[77.6979,30.4559],[77.7072,30.4593],[77.721,30.4731],[77.7317,30.4732],[77.7394,30.4761],[77.7643,30.4911],[77.7757,30.4944],[77.7831,30.5006],[77.7999,30.5011],[77.8174,30.5064],[77.8198,30.5241],[77.8258,30.5263],[77.8278,30.5311],[77.8203,30.5453],[77.8226,30.5538],[77.8178,30.5611],[77.8064,30.5546],[77.7996,30.5577],[77.7941,30.5533],[77.7836,30.5599],[77.774,30.5579],[77.7675,30.5654],[77.7671,30.5712],[77.7566,30.5857],[77.7429,30.5939],[77.7468,30.5975],[77.7432,30.6016],[77.7461,30.604],[77.7519,30.6018],[77.7556,30.6048],[77.7643,30.596],[77.7717,30.597],[77.7689,30.6146],[77.7711,30.6164],[77.7802,30.6129],[77.7964,30.6144],[77.7925,30.621],[77.7861,30.6245],[77.786,30.63],[77.7906,30.6341],[77.7864,30.6368],[77.7867,30.6418],[77.7812,30.6467],[77.7875,30.6557],[77.7925,30.657],[77.7921,30.6602],[77.7885,30.6623],[77.7812,30.66],[77.7725,30.6692],[77.7642,30.6709],[77.7597,30.6732],[77.7591,30.6758],[77.7474,30.6799],[77.7469,30.6945],[77.7526,30.6967],[77.7504,30.7002],[77.7559,30.7066],[77.7456,30.7139],[77.7467,30.7198],[77.7366,30.7242],[77.7373,30.7304],[77.7335,30.7351],[77.7283,30.7342],[77.7225,30.7411],[77.7074,30.7404],[77.7024,30.746],[77.7089,30.7526],[77.7038,30.764],[77.6845,30.7783],[77.6875,30.7843],[77.683,30.7905],[77.6753,30.7911],[77.6663,30.8026],[77.6607,30.8002],[77.659,30.8069],[77.655,30.8029],[77.6549,30.805],[77.6471,30.8045],[77.6368,30.8094],[77.6242,30.81],[77.6217,30.8086],[77.6181,30.7987],[77.6199,30.7941],[77.6082,30.7909],[77.6003,30.7794],[77.5789,30.7774],[77.5553,30.7785],[77.5523,30.7751],[77.5467,30.7743],[77.5451,30.7783],[77.5506,30.7885],[77.5484,30.8004],[77.5298,30.7997],[77.5211,30.7858],[77.5177,30.7899],[77.4925,30.7952],[77.495,30.8007],[77.494,30.8146],[77.4892,30.817],[77.4891,30.822],[77.4915,30.8426],[77.4846,30.8485],[77.4788,30.8646],[77.4647,30.8646],[77.461,30.8668],[77.4514,30.8631],[77.4443,30.8707],[77.4353,30.8752],[77.4378,30.8893],[77.4327,30.899],[77.4266,30.9034],[77.4252,30.9133],[77.4209,30.921],[77.4223,30.9257],[77.4181,30.929],[77.4433,30.9449],[77.4448,30.9508],[77.4425,30.9516],[77.4411,30.9592],[77.4434,30.9664],[77.4393,30.9793],[77.4358,30.9845],[77.4259,30.9885],[77.425,30.9932],[77.4195,30.9963],[77.4191,30.9988],[77.4107,30.9967],[77.3982,31.0103],[77.3955,31.0107],[77.3957,31.0129],[77.379,31.0209]]]},"properties":{"dtname":"Sirmaur","stname":"HIMACHAL PRADESH","stcode11":"02","dtcode11":"032","year_stat":"2011_c","Shape_Length":411611.19275136164,"Shape_Area":3838334506.3212442,"OBJECTID":641,"test":0,"Dist_LGD":24,"State_LGD":2}},{"type":"Feature","id":704,"geometry":{"type":"Polygon","coordinates":[[[76.5944,31.8929],[76.5806,31.8885],[76.5561,31.8864],[76.5257,31.8592],[76.5242,31.849],[76.5198,31.8427],[76.5124,31.8398],[76.5012,31.8408],[76.4948,31.8344],[76.4783,31.8268],[76.4667,31.8291],[76.4659,31.8225],[76.4739,31.8164],[76.475,31.8092],[76.4675,31.8084],[76.4637,31.8145],[76.457,31.8178],[76.4545,31.8158],[76.4544,31.8099],[76.4624,31.8074],[76.4638,31.8048],[76.4529,31.8044],[76.4442,31.7998],[76.4417,31.8023],[76.4429,31.8087],[76.4408,31.8116],[76.436,31.7947],[76.4311,31.793],[76.4127,31.7945],[76.411,31.7909],[76.4142,31.7855],[76.4125,31.7828],[76.4015,31.7941],[76.3963,31.7947],[76.3783,31.7764],[76.3706,31.7727],[76.3628,31.7757],[76.3651,31.7807],[76.3548,31.792],[76.3487,31.7911],[76.3251,31.7782],[76.3079,31.7762],[76.2995,31.78],[76.31,31.7683],[76.3047,31.7604],[76.3056,31.7563],[76.3085,31.7553],[76.31,31.7429],[76.3131,31.7424],[76.3125,31.7394],[76.319,31.7314],[76.3175,31.7274],[76.3114,31.7245],[76.3209,31.7052],[76.3335,31.6865],[76.3401,31.6815],[76.348,31.6658],[76.3587,31.6534],[76.3644,31.6423],[76.384,31.6272],[76.3878,31.6273],[76.391,31.6211],[76.3946,31.6194],[76.3957,31.6126],[76.4007,31.6085],[76.4012,31.6036],[76.4158,31.5791],[76.42,31.5643],[76.4277,31.5571],[76.4318,31.5447],[76.4388,31.5352],[76.4361,31.5276],[76.441,31.5137],[76.4548,31.4936],[76.4626,31.4886],[76.4635,31.4836],[76.4796,31.4693],[76.4863,31.4709],[76.4954,31.4693],[76.5102,31.4603],[76.5133,31.461],[76.5158,31.47],[76.5184,31.4692],[76.5225,31.4632],[76.5312,31.4634],[76.5355,31.4517],[76.5435,31.4491],[76.5566,31.4397],[76.5574,31.4332],[76.5621,31.4286],[76.573,31.4313],[76.5804,31.421],[76.592,31.4233],[76.5982,31.4197],[76.6074,31.4208],[76.61,31.4157],[76.618,31.4196],[76.6122,31.4284],[76.6143,31.4343],[76.6236,31.4374],[76.6258,31.4425],[76.6244,31.4481],[76.6167,31.4558],[76.6074,31.4775],[76.6113,31.4924],[76.6118,31.5072],[76.6186,31.5158],[76.6154,31.5188],[76.6181,31.5318],[76.6161,31.5302],[76.6125,31.5317],[76.6159,31.5398],[76.6187,31.5404],[76.6137,31.5469],[76.6174,31.5569],[76.6147,31.5623],[76.6194,31.569],[76.6199,31.5747],[76.6277,31.5775],[76.6289,31.5737],[76.6334,31.574],[76.6385,31.5826],[76.6448,31.582],[76.647,31.5841],[76.651,31.5842],[76.6556,31.5768],[76.6619,31.5775],[76.6646,31.582],[76.6676,31.5809],[76.6761,31.5845],[76.6805,31.5828],[76.6812,31.5907],[76.7052,31.5957],[76.7116,31.5953],[76.7297,31.5825],[76.7159,31.6164],[76.7146,31.6282],[76.7163,31.6378],[76.7251,31.6571],[76.7241,31.6652],[76.7087,31.6729],[76.6971,31.6742],[76.6941,31.6772],[76.6917,31.6829],[76.6869,31.6866],[76.6906,31.6975],[76.6857,31.699],[76.6872,31.7059],[76.6788,31.7123],[76.6759,31.7121],[76.6707,31.72],[76.6745,31.7306],[76.6732,31.7341],[76.6679,31.7378],[76.6496,31.7414],[76.6383,31.7465],[76.6335,31.7533],[76.6337,31.7662],[76.6274,31.7734],[76.6269,31.7822],[76.6221,31.7865],[76.6232,31.7912],[76.6205,31.7991],[76.624,31.8026],[76.6232,31.8072],[76.6307,31.8219],[76.6277,31.841],[76.6324,31.8493],[76.6335,31.8631],[76.6392,31.8736],[76.6301,31.8767],[76.6245,31.8859],[76.6025,31.8927],[76.5944,31.8929]]]},"properties":{"dtname":"Hamirpur","stname":"HIMACHAL PRADESH","stcode11":"02","dtcode11":"028","year_stat":"2011_c","Shape_Length":224524.58413633297,"Shape_Area":1544876660.9855227,"OBJECTID":704,"test":0,"Dist_LGD":17,"State_LGD":2}},{"type":"Feature","id":710,"geometry":{"type":"Polygon","coordinates":[[[76.7068,31.5954],[76.6812,31.5907],[76.6805,31.5828],[76.6761,31.5845],[76.6676,31.5809],[76.6646,31.582],[76.6619,31.5775],[76.6556,31.5768],[76.651,31.5842],[76.647,31.5841],[76.6448,31.582],[76.6385,31.5826],[76.6334,31.574],[76.6289,31.5737],[76.6277,31.5775],[76.6199,31.5747],[76.6194,31.569],[76.6147,31.5623],[76.6174,31.5569],[76.6137,31.5469],[76.6187,31.5404],[76.6159,31.5398],[76.6125,31.5317],[76.6161,31.5302],[76.6181,31.5318],[76.6154,31.5188],[76.6186,31.5158],[76.6118,31.5072],[76.6113,31.4924],[76.6074,31.4775],[76.6167,31.4558],[76.6244,31.4481],[76.6258,31.4425],[76.6241,31.4378],[76.6158,31.4359],[76.6122,31.43],[76.618,31.4196],[76.6146,31.4164],[76.61,31.4157],[76.6082,31.4207],[76.5982,31.4197],[76.5928,31.4232],[76.5804,31.421],[76.573,31.4313],[76.5621,31.4286],[76.5574,31.4332],[76.5566,31.4397],[76.5435,31.4491],[76.5355,31.4517],[76.5312,31.4634],[76.5225,31.4632],[76.5158,31.47],[76.5133,31.461],[76.5102,31.4603],[76.4954,31.4693],[76.4863,31.4709],[76.4796,31.4693],[76.4624,31.4857],[76.4505,31.4819],[76.4608,31.4688],[76.4607,31.4659],[76.4719,31.4552],[76.4661,31.4499],[76.4665,31.4455],[76.462,31.4465],[76.4625,31.4438],[76.4724,31.4409],[76.4755,31.4415],[76.4762,31.4446],[76.4794,31.4418],[76.47,31.4376],[76.4756,31.4277],[76.4722,31.424],[76.4725,31.4201],[76.4636,31.4223],[76.4575,31.4176],[76.4378,31.4139],[76.4255,31.4078],[76.4005,31.4263],[76.3944,31.4255],[76.393,31.4198],[76.3965,31.4124],[76.3949,31.408],[76.4042,31.3942],[76.4038,31.3923],[76.3984,31.3934],[76.3926,31.3895],[76.4011,31.3785],[76.4042,31.3779],[76.4079,31.3659],[76.4185,31.3501],[76.424,31.3491],[76.4266,31.3445],[76.4251,31.3396],[76.4317,31.3269],[76.4358,31.3261],[76.4402,31.3192],[76.4546,31.3118],[76.4638,31.3015],[76.4585,31.2954],[76.441,31.2876],[76.4397,31.279],[76.4428,31.2772],[76.4593,31.2857],[76.4634,31.2935],[76.4795,31.3083],[76.4861,31.304],[76.4889,31.2962],[76.4921,31.2939],[76.4916,31.2885],[76.4953,31.2887],[76.4972,31.286],[76.4952,31.2816],[76.4973,31.2705],[76.5039,31.2669],[76.5213,31.2803],[76.5274,31.2772],[76.5305,31.2711],[76.5289,31.2657],[76.5239,31.2623],[76.5238,31.2582],[76.5314,31.2564],[76.5393,31.2611],[76.5377,31.2706],[76.5429,31.2825],[76.5513,31.2788],[76.5488,31.2743],[76.5502,31.2699],[76.5436,31.259],[76.5492,31.2528],[76.5528,31.2552],[76.5564,31.2525],[76.5606,31.2531],[76.5657,31.2622],[76.5695,31.2615],[76.574,31.2694],[76.5791,31.2712],[76.5835,31.2762],[76.5901,31.2718],[76.5962,31.2612],[76.601,31.2592],[76.6121,31.2479],[76.6098,31.2436],[76.5984,31.2396],[76.5947,31.2343],[76.5952,31.2268],[76.5919,31.223],[76.5886,31.2228],[76.5932,31.2117],[76.6141,31.2179],[76.6277,31.2266],[76.6318,31.2238],[76.6418,31.2227],[76.6345,31.2179],[76.6423,31.2142],[76.6454,31.2091],[76.6603,31.2095],[76.665,31.2128],[76.6757,31.2143],[76.686,31.2129],[76.6909,31.216],[76.6989,31.2169],[76.7031,31.222],[76.7115,31.2231],[76.7204,31.2283],[76.7325,31.2406],[76.7462,31.2361],[76.7578,31.2265],[76.7662,31.2268],[76.7721,31.2226],[76.7756,31.2243],[76.7767,31.2219],[76.7737,31.2179],[76.7786,31.2153],[76.793,31.2263],[76.7997,31.222],[76.8047,31.2266],[76.8155,31.2265],[76.8176,31.2287],[76.8237,31.2231],[76.8388,31.2311],[76.8432,31.2268],[76.8485,31.2278],[76.8474,31.2245],[76.8556,31.2193],[76.875,31.2185],[76.8783,31.2203],[76.874,31.228],[76.8759,31.2317],[76.8671,31.2411],[76.8707,31.2446],[76.8659,31.2455],[76.8705,31.2519],[76.8724,31.262],[76.8833,31.2615],[76.8864,31.2654],[76.8948,31.2653],[76.895,31.2717],[76.8917,31.2742],[76.8999,31.2812],[76.9132,31.2834],[76.9277,31.3041],[76.9192,31.3046],[76.916,31.315],[76.8954,31.3153],[76.8908,31.3208],[76.8751,31.3306],[76.8828,31.3356],[76.8733,31.3467],[76.8754,31.3507],[76.8722,31.3559],[76.8765,31.3612],[76.8736,31.3705],[76.8637,31.3781],[76.8673,31.3807],[76.8682,31.3847],[76.877,31.3811],[76.8814,31.3843],[76.8823,31.4015],[76.8759,31.4134],[76.8553,31.4106],[76.8348,31.4218],[76.8197,31.4175],[76.8093,31.4233],[76.8016,31.4214],[76.8034,31.4298],[76.7997,31.4351],[76.8031,31.4401],[76.7998,31.4431],[76.7972,31.4412],[76.7957,31.4475],[76.7922,31.4507],[76.7955,31.4513],[76.7984,31.4471],[76.802,31.4538],[76.7965,31.4599],[76.7956,31.4749],[76.7913,31.4753],[76.791,31.4794],[76.7861,31.478],[76.782,31.4798],[76.7823,31.4844],[76.7845,31.4838],[76.785,31.4871],[76.7881,31.4883],[76.7874,31.4979],[76.7824,31.5048],[76.7762,31.5081],[76.7739,31.5139],[76.7663,31.5178],[76.7476,31.5174],[76.7421,31.5145],[76.7307,31.5166],[76.7339,31.5208],[76.7363,31.5195],[76.7389,31.5221],[76.7329,31.5324],[76.735,31.5345],[76.7226,31.5404],[76.7317,31.5418],[76.7286,31.5448],[76.7275,31.5526],[76.7352,31.5609],[76.7268,31.5633],[76.7307,31.5732],[76.7307,31.5815],[76.7121,31.595],[76.7068,31.5954]]]},"properties":{"dtname":"Bilaspur","stname":"HIMACHAL PRADESH","stcode11":"02","dtcode11":"030","year_stat":"2011_c","Shape_Length":300260.2769589431,"Shape_Area":1604142354.1275704,"OBJECTID":710,"test":0,"Dist_LGD":15,"State_LGD":2}}]}