{"type":"FeatureCollection","crs":{"type":"name","properties":{"name":"EPSG:4326"}},"features":[{"type":"Feature","id":385,"geometry":{"type":"Polygon","coordinates":[[[92.8462,24.0347],[92.8454,24.0632],[92.849,24.071],[92.8534,24.072],[92.8566,24.0881],[92.8533,24.0946],[92.8574,24.1004],[92.8578,24.106],[92.8671,24.1114],[92.8665,24.1207],[92.8756,24.1297],[92.8715,24.1396],[92.8827,24.1537],[92.8817,24.1584],[92.8854,24.1659],[92.8821,24.1687],[92.8912,24.172],[92.8933,24.1908],[92.8917,24.1997],[92.8943,24.1999],[92.8932,24.2028],[92.8973,24.2052],[92.8975,24.211],[92.895,24.2108],[92.8994,24.2222],[92.8985,24.2318],[92.89,24.2427],[92.8876,24.2427],[92.8805,24.233],[92.8723,24.2413],[92.8602,24.2419],[92.8601,24.2491],[92.8642,24.2509],[92.8627,24.2576],[92.8588,24.2584],[92.8642,24.262],[92.8611,24.2652],[92.8611,24.2698],[92.8667,24.2767],[92.8732,24.277],[92.8704,24.2825],[92.8727,24.2867],[92.8675,24.2986],[92.8639,24.3],[92.8615,24.3082],[92.8563,24.3069],[92.8544,24.3085],[92.8579,24.3145],[92.866,24.3174],[92.8668,24.3208],[92.8635,24.3206],[92.8597,24.3248],[92.861,24.328],[92.8624,24.3262],[92.871,24.3305],[92.8848,24.3515],[92.8904,24.3561],[92.8872,24.3571],[92.8836,24.3635],[92.8863,24.3655],[92.8857,24.3684],[92.8904,24.3696],[92.8917,24.3779],[92.884,24.381],[92.889,24.3912],[92.8909,24.3876],[92.894,24.3897],[92.8836,24.4025],[92.8732,24.395],[92.8608,24.3986],[92.8461,24.3861],[92.8429,24.3777],[92.8357,24.3786],[92.8298,24.3737],[92.8261,24.3765],[92.8265,24.3813],[92.823,24.3866],[92.8298,24.4004],[92.8201,24.4038],[92.8176,24.4081],[92.8188,24.4102],[92.8123,24.4094],[92.8067,24.419],[92.7993,24.4192],[92.8026,24.4245],[92.8012,24.4298],[92.7966,24.4329],[92.7629,24.5212],[92.758,24.5111],[92.7521,24.5063],[92.7541,24.5021],[92.7493,24.4953],[92.7507,24.4922],[92.7335,24.4548],[92.7274,24.4465],[92.7173,24.4157],[92.7128,24.4113],[92.715,24.4096],[92.7113,24.4073],[92.7132,24.4034],[92.7091,24.3974],[92.7092,24.3935],[92.7064,24.3923],[92.7072,24.3871],[92.704,24.3847],[92.7035,24.3755],[92.6975,24.3744],[92.6952,24.369],[92.6927,24.3686],[92.6947,24.3655],[92.6911,24.3626],[92.6897,24.3537],[92.6837,24.3506],[92.6847,24.3466],[92.6771,24.3503],[92.6688,24.3462],[92.6662,24.3464],[92.6655,24.3497],[92.6642,24.3462],[92.6631,24.3489],[92.6613,24.3483],[92.6605,24.3442],[92.6576,24.3445],[92.659,24.342],[92.6519,24.3362],[92.6491,24.3287],[92.6463,24.3311],[92.6457,24.3279],[92.6386,24.3285],[92.6403,24.3337],[92.6362,24.3314],[92.6353,24.3337],[92.6386,24.3345],[92.6353,24.3369],[92.6301,24.3337],[92.6247,24.3342],[92.6223,24.3314],[92.6236,24.3274],[92.6214,24.3235],[92.6238,24.3224],[92.6182,24.3076],[92.6158,24.2897],[92.6196,24.2872],[92.613,24.2587],[92.6141,24.2561],[92.6067,24.2488],[92.5956,24.2506],[92.5889,24.2489],[92.572,24.252],[92.5506,24.2471],[92.547,24.2366],[92.547,24.2203],[92.5409,24.2103],[92.5404,24.2037],[92.5366,24.2014],[92.5377,24.1969],[92.531,24.1852],[92.5341,24.1803],[92.5298,24.1787],[92.5329,24.1766],[92.5329,24.1716],[92.5261,24.1651],[92.5263,24.1622],[92.5373,24.1535],[92.5421,24.1416],[92.5346,24.1261],[92.541,24.123],[92.5352,24.1105],[92.5376,24.1004],[92.5352,24.0926],[92.5376,24.0799],[92.5334,24.064],[92.5354,24.0586],[92.5336,24.048],[92.5362,24.0338],[92.5471,24.0409],[92.5473,24.0555],[92.5522,24.0614],[92.5548,24.0601],[92.5553,24.0536],[92.5611,24.0531],[92.5564,24.0408],[92.5647,24.039],[92.5705,24.0498],[92.5697,24.062],[92.5737,24.0668],[92.5711,24.0749],[92.5804,24.0749],[92.5827,24.0738],[92.5839,24.063],[92.5893,24.0612],[92.5982,24.0506],[92.6114,24.05],[92.6192,24.0321],[92.6232,24.0313],[92.6219,24.0378],[92.6243,24.0397],[92.6352,24.0334],[92.6266,24.0266],[92.6199,24.0085],[92.6292,24.001],[92.6296,23.9977],[92.6276,23.9933],[92.629,23.9862],[92.6223,23.9787],[92.6171,23.9618],[92.6171,23.958],[92.6244,23.9544],[92.627,23.9456],[92.6221,23.9418],[92.6198,23.9359],[92.6416,23.9301],[92.6432,23.9229],[92.6548,23.9206],[92.6599,23.909],[92.6562,23.902],[92.6526,23.9006],[92.6497,23.8913],[92.6618,23.8821],[92.6623,23.8675],[92.6704,23.8649],[92.6714,23.8669],[92.6793,23.8668],[92.6864,23.8591],[92.6973,23.8551],[92.6979,23.8572],[92.7041,23.8577],[92.7081,23.8615],[92.7207,23.855],[92.7228,23.8595],[92.7458,23.8634],[92.773,23.8631],[92.8022,23.857],[92.8011,23.8656],[92.806,23.8854],[92.8103,23.8852],[92.8103,23.8939],[92.818,23.8959],[92.8198,23.9056],[92.8182,23.9095],[92.8217,23.9123],[92.82,23.9163],[92.8154,23.9139],[92.8166,23.9188],[92.8111,23.9162],[92.8064,23.9196],[92.8074,23.9222],[92.8109,23.9215],[92.8123,23.9295],[92.8188,23.9349],[92.8156,23.9357],[92.8144,23.9391],[92.8189,23.9444],[92.8182,23.9484],[92.8226,23.9553],[92.8179,23.9584],[92.8157,23.9653],[92.8198,23.9687],[92.8199,23.9813],[92.8237,23.9815],[92.8273,23.9863],[92.8217,23.9867],[92.8257,23.9905],[92.8212,23.9942],[92.8255,23.9966],[92.8249,24.0004],[92.8273,24.0003],[92.8311,24.0174],[92.8284,24.0198],[92.8308,24.0241],[92.8328,24.025],[92.8387,24.0153],[92.8408,24.0271],[92.8461,24.0278],[92.8415,24.034],[92.8437,24.0372],[92.8462,24.0347]]]},"properties":{"OBJECTID":385,"dtname":"Kolasib","stname":"MIZORAM","stcode11":"15","dtcode11":"282","year_stat":"2011_c","test":0,"Dist_LGD":263,"State_LGD":15,"Shape_Leng":300156.988279,"Shape.STArea()":0.1415036469502411,"Shape.STLength()":2.5518259799963423}},{"type":"Feature","id":390,"geometry":{"type":"Polygon","coordinates":[[[92.9209,24.4032],[92.9092,24.4102],[92.9109,24.4121],[92.9092,24.413],[92.907,24.4114],[92.9033,24.3915],[92.8929,24.3928],[92.8914,24.4006],[92.8882,24.3985],[92.894,24.3897],[92.8909,24.3876],[92.889,24.3912],[92.884,24.381],[92.8917,24.3779],[92.8904,24.3696],[92.8857,24.3684],[92.8863,24.3655],[92.8836,24.3635],[92.8872,24.3571],[92.8904,24.3561],[92.8848,24.3515],[92.871,24.3305],[92.8624,24.3262],[92.861,24.328],[92.8597,24.3248],[92.8635,24.3206],[92.8668,24.3208],[92.866,24.3174],[92.8579,24.3145],[92.8544,24.3085],[92.8563,24.3069],[92.8615,24.3082],[92.8639,24.3],[92.8675,24.2986],[92.8727,24.2867],[92.8704,24.2825],[92.8732,24.277],[92.8667,24.2767],[92.8611,24.2698],[92.8611,24.2652],[92.8642,24.262],[92.8588,24.2584],[92.8627,24.2576],[92.8642,24.2509],[92.8601,24.2491],[92.8602,24.2419],[92.8723,24.2413],[92.8805,24.233],[92.8876,24.2427],[92.89,24.2427],[92.8985,24.2318],[92.8994,24.2222],[92.895,24.2108],[92.8975,24.211],[92.8973,24.2052],[92.8932,24.2028],[92.8943,24.1999],[92.8917,24.1997],[92.8933,24.1908],[92.8912,24.172],[92.8821,24.1687],[92.8854,24.1659],[92.8817,24.1584],[92.8827,24.1537],[92.8715,24.1396],[92.8756,24.1297],[92.8665,24.1207],[92.8671,24.1114],[92.8578,24.106],[92.8574,24.1004],[92.8533,24.0946],[92.8566,24.0881],[92.8534,24.072],[92.849,24.071],[92.8454,24.0632],[92.8444,24.0475],[92.847,24.0453],[92.847,24.0366],[92.8462,24.0347],[92.8435,24.0371],[92.8415,24.034],[92.846,24.0275],[92.8408,24.0271],[92.8383,24.0151],[92.8339,24.0238],[92.8308,24.0241],[92.8284,24.0198],[92.8311,24.0174],[92.8273,24.0003],[92.8249,24.0004],[92.8255,23.9966],[92.8212,23.9942],[92.8257,23.9905],[92.8217,23.9867],[92.8273,23.9863],[92.8237,23.9815],[92.8199,23.9813],[92.8198,23.9687],[92.8157,23.9653],[92.8179,23.9584],[92.8226,23.9553],[92.8182,23.9484],[92.8189,23.9444],[92.8144,23.9391],[92.8156,23.9357],[92.8188,23.9349],[92.8123,23.9295],[92.8109,23.9215],[92.8074,23.9222],[92.8064,23.9196],[92.8111,23.9162],[92.8166,23.9188],[92.8154,23.9139],[92.82,23.9163],[92.8217,23.9123],[92.8182,23.9095],[92.8198,23.9056],[92.818,23.8959],[92.8103,23.8939],[92.8103,23.8852],[92.806,23.8854],[92.8011,23.8656],[92.8022,23.857],[92.773,23.8631],[92.7458,23.8634],[92.7228,23.8595],[92.7207,23.855],[92.7083,23.8615],[92.7041,23.8577],[92.6958,23.8555],[92.6864,23.8591],[92.6793,23.8668],[92.6714,23.8669],[92.6704,23.8649],[92.6623,23.8675],[92.6618,23.8821],[92.6497,23.8912],[92.6526,23.9006],[92.6423,23.8968],[92.6381,23.8917],[92.6305,23.894],[92.6232,23.8925],[92.621,23.8954],[92.6106,23.8947],[92.6127,23.8909],[92.6107,23.8855],[92.6139,23.8807],[92.6104,23.8737],[92.6126,23.87],[92.611,23.866],[92.6166,23.8586],[92.6049,23.8572],[92.6021,23.8531],[92.6033,23.8381],[92.5991,23.8218],[92.6016,23.816],[92.5957,23.8058],[92.6023,23.8053],[92.6007,23.8032],[92.6023,23.8025],[92.6015,23.7946],[92.6031,23.7957],[92.6054,23.793],[92.623,23.8033],[92.6221,23.7972],[92.6268,23.7936],[92.6364,23.7937],[92.6393,23.786],[92.6372,23.7727],[92.6265,23.7631],[92.6325,23.7591],[92.636,23.7394],[92.6489,23.7148],[92.6604,23.7118],[92.6645,23.7081],[92.6575,23.6908],[92.6446,23.6687],[92.6339,23.6591],[92.634,23.6482],[92.6376,23.6433],[92.6493,23.6359],[92.6492,23.631],[92.6721,23.6238],[92.6717,23.6099],[92.6687,23.6008],[92.6486,23.5906],[92.6509,23.5775],[92.6573,23.5711],[92.6556,23.5605],[92.6536,23.555],[92.645,23.5539],[92.6406,23.5419],[92.6349,23.5403],[92.6319,23.5343],[92.6372,23.5225],[92.6514,23.5188],[92.6561,23.5044],[92.6579,23.498],[92.6544,23.49],[92.6562,23.4225],[92.6631,23.4126],[92.6665,23.4023],[92.6643,23.3915],[92.6695,23.3835],[92.6753,23.3796],[92.6756,23.372],[92.6718,23.3693],[92.6815,23.3679],[92.6875,23.3556],[92.6862,23.3288],[92.6886,23.323],[92.6944,23.3242],[92.6933,23.3262],[92.6952,23.3277],[92.7019,23.3194],[92.7139,23.3223],[92.7141,23.3269],[92.7178,23.331],[92.7169,23.3437],[92.7195,23.346],[92.7149,23.3488],[92.719,23.3502],[92.7281,23.3479],[92.7331,23.3492],[92.7315,23.3445],[92.7365,23.3439],[92.7406,23.3389],[92.7534,23.3415],[92.7694,23.3358],[92.776,23.3284],[92.778,23.3289],[92.7812,23.3229],[92.7851,23.323],[92.7918,23.3164],[92.803,23.3112],[92.8114,23.3162],[92.8083,23.3197],[92.8093,23.3224],[92.8179,23.3267],[92.8222,23.3318],[92.8323,23.3351],[92.8379,23.3331],[92.8402,23.3359],[92.8409,23.3401],[92.8374,23.3426],[92.8379,23.3471],[92.8334,23.3534],[92.8329,23.3627],[92.8221,23.371],[92.828,23.3749],[92.8262,23.3786],[92.8295,23.3784],[92.8291,23.3841],[92.8208,23.3872],[92.821,23.3919],[92.8243,23.391],[92.8218,23.3951],[92.8268,23.4087],[92.8299,23.4112],[92.8296,23.4159],[92.8266,23.4189],[92.8312,23.421],[92.8294,23.4246],[92.8321,23.4244],[92.8296,23.4314],[92.834,23.431],[92.8353,23.4354],[92.8338,23.4365],[92.8361,23.4442],[92.8342,23.4463],[92.8358,23.4478],[92.8341,23.4482],[92.8359,23.4497],[92.8338,23.4531],[92.8358,23.4539],[92.8312,23.4606],[92.8362,23.4653],[92.8352,23.4672],[92.8383,23.4673],[92.8359,23.4696],[92.8298,23.4689],[92.8246,23.4735],[92.8192,23.4724],[92.816,23.4752],[92.7996,23.4791],[92.7966,23.4881],[92.7902,23.4857],[92.7845,23.476],[92.7771,23.4796],[92.7789,23.4908],[92.7781,23.4956],[92.7741,23.5],[92.7787,23.5183],[92.7863,23.524],[92.7975,23.5274],[92.7958,23.5325],[92.7983,23.534],[92.7956,23.5363],[92.7989,23.5358],[92.8016,23.5386],[92.7985,23.5386],[92.8004,23.5419],[92.7962,23.5483],[92.7977,23.5503],[92.7743,23.5578],[92.7719,23.565],[92.7742,23.5739],[92.7715,23.5755],[92.7743,23.5833],[92.7713,23.5857],[92.7691,23.5934],[92.7762,23.5993],[92.7839,23.5987],[92.7881,23.593],[92.7908,23.5824],[92.8029,23.5834],[92.8063,23.5872],[92.8213,23.5898],[92.8242,23.5856],[92.828,23.5852],[92.8292,23.5807],[92.8342,23.5758],[92.843,23.5741],[92.8697,23.554],[92.8762,23.5579],[92.8827,23.5577],[92.8809,23.5604],[92.8831,23.5626],[92.8802,23.5641],[92.8878,23.5726],[92.8935,23.5723],[92.8921,23.5751],[92.9003,23.5787],[92.8982,23.5813],[92.9021,23.5871],[92.8886,23.5981],[92.8911,23.6038],[92.8895,23.6055],[92.8921,23.6063],[92.8836,23.6148],[92.8804,23.6256],[92.8779,23.6266],[92.8803,23.6358],[92.8771,23.6372],[92.8837,23.6417],[92.8887,23.6495],[92.8859,23.6551],[92.8875,23.658],[92.8813,23.665],[92.8839,23.6667],[92.8836,23.6768],[92.8873,23.6872],[92.8859,23.6904],[92.8911,23.6969],[92.8872,23.7022],[92.8893,23.7038],[92.8875,23.7125],[92.8902,23.7213],[92.888,23.7273],[92.8906,23.7315],[92.8883,23.7348],[92.889,23.7443],[92.887,23.7449],[92.8887,23.7522],[92.8875,23.7588],[92.8824,23.7593],[92.8844,23.7694],[92.8821,23.7723],[92.8851,23.774],[92.8817,23.7795],[92.8845,23.785],[92.8819,23.7888],[92.8891,23.797],[92.8812,23.8034],[92.8722,23.8057],[92.8723,23.8107],[92.8802,23.8174],[92.8866,23.8284],[92.8857,23.8315],[92.8881,23.8334],[92.8906,23.8443],[92.8868,23.8546],[92.8908,23.8579],[92.89,23.8653],[92.896,23.8814],[92.8977,23.8733],[92.9007,23.8714],[92.9152,23.8701],[92.9193,23.8728],[92.9266,23.8732],[92.944,23.8698],[92.9576,23.8741],[92.9648,23.8851],[92.9768,23.8855],[92.9861,23.8902],[92.979,23.9171],[92.9909,23.9239],[92.9942,23.931],[92.997,23.9315],[92.9963,23.9379],[92.9875,23.9457],[92.9851,23.9504],[92.9871,23.9539],[92.9831,23.9577],[92.9856,23.9607],[92.9923,23.9614],[92.9928,23.9684],[92.9906,23.9724],[92.9977,23.9851],[92.9955,23.9947],[92.9974,23.9992],[92.992,24.0128],[92.9945,24.022],[92.9921,24.0335],[92.9948,24.0407],[92.9924,24.0495],[92.9955,24.0543],[92.9937,24.0584],[92.9933,24.0874],[92.9915,24.09],[92.9851,24.0902],[92.9818,24.0926],[92.9669,24.0944],[92.9708,24.0976],[92.9676,24.1078],[92.9727,24.1128],[92.971,24.1211],[92.9749,24.1255],[92.9835,24.1255],[92.9904,24.1367],[92.9883,24.1494],[93.0033,24.1579],[93.006,24.1618],[93.0031,24.1738],[93.0077,24.1821],[92.9992,24.1963],[93.0149,24.2],[93.0219,24.2179],[93.016,24.2248],[93.024,24.2338],[93.0165,24.2359],[93.0093,24.2434],[93.0042,24.2576],[93.0048,24.2622],[93.0122,24.271],[93.0077,24.2766],[93.0068,24.2826],[93.0081,24.2872],[93.0231,24.3022],[93.0342,24.3224],[93.0403,24.3427],[93.0345,24.3459],[93.0291,24.3446],[93.0177,24.3499],[93.0177,24.3644],[93.0215,24.3733],[93.0184,24.3835],[93.0229,24.3865],[93.0249,24.3914],[93.0091,24.4066],[93.0087,24.4118],[93.0063,24.4113],[93.0066,24.4079],[92.9992,24.4005],[92.9942,24.399],[92.9847,24.4057],[92.9736,24.4084],[92.9737,24.4058],[92.9601,24.392],[92.9563,24.3934],[92.9518,24.403],[92.9454,24.4002],[92.939,24.4007],[92.9339,24.3924],[92.9274,24.3966],[92.9241,24.3962],[92.9209,24.4032]]]},"properties":{"OBJECTID":390,"dtname":"Aizawl","stname":"MIZORAM","stcode11":"15","dtcode11":"283","year_stat":"2011_c","test":0,"Dist_LGD":261,"State_LGD":15,"Shape_Leng":513775.031283,"Shape.STArea()":0.1867662030927022,"Shape.STLength()":4.387195092894142}},{"type":"Feature","id":391,"geometry":{"type":"Polygon","coordinates":[[[92.6381,23.8917],[92.6423,23.8968],[92.6562,23.902],[92.6599,23.909],[92.6548,23.9206],[92.6432,23.9229],[92.6416,23.9301],[92.6198,23.9359],[92.6221,23.9418],[92.627,23.9456],[92.6244,23.9544],[92.6171,23.958],[92.6171,23.9618],[92.6223,23.9787],[92.629,23.9862],[92.6276,23.9933],[92.6296,23.9977],[92.6292,24.001],[92.6199,24.0085],[92.6266,24.0266],[92.6352,24.0334],[92.6243,24.0397],[92.6219,24.0378],[92.6232,24.0313],[92.6192,24.0321],[92.6114,24.05],[92.5982,24.0506],[92.5893,24.0612],[92.5839,24.063],[92.5827,24.0738],[92.5804,24.0749],[92.5711,24.0749],[92.5737,24.0668],[92.5697,24.062],[92.5705,24.0498],[92.5647,24.039],[92.5564,24.0408],[92.5611,24.0531],[92.5553,24.0536],[92.5548,24.0601],[92.5508,24.0613],[92.5473,24.0555],[92.5471,24.0409],[92.5362,24.0338],[92.5336,24.048],[92.5354,24.0586],[92.5334,24.064],[92.5376,24.0799],[92.5352,24.0926],[92.5376,24.1004],[92.5352,24.1105],[92.541,24.123],[92.5346,24.1261],[92.5421,24.1416],[92.5373,24.1535],[92.5263,24.1622],[92.5261,24.1651],[92.5329,24.1716],[92.5329,24.1766],[92.5292,24.1784],[92.5301,24.1764],[92.5239,24.1715],[92.5157,24.1791],[92.5099,24.1726],[92.5143,24.1696],[92.5068,24.17],[92.5113,24.1655],[92.5032,24.1679],[92.5061,24.1642],[92.5014,24.1605],[92.4838,24.1633],[92.4833,24.1584],[92.4793,24.1567],[92.4817,24.1561],[92.4806,24.1501],[92.4769,24.1475],[92.4805,24.1455],[92.4789,24.1424],[92.4745,24.1437],[92.4725,24.14],[92.4685,24.1403],[92.464,24.1364],[92.464,24.1387],[92.4609,24.1377],[92.4566,24.1445],[92.4523,24.1443],[92.4505,24.1472],[92.449,24.1441],[92.4427,24.1546],[92.4363,24.1531],[92.4357,24.1652],[92.4378,24.1696],[92.4339,24.1752],[92.4356,24.1794],[92.4323,24.1846],[92.4188,24.1928],[92.4212,24.2013],[92.4187,24.2048],[92.4185,24.2127],[92.4211,24.2182],[92.4193,24.2262],[92.4224,24.255],[92.2953,24.2526],[92.2923,24.2505],[92.2973,24.2316],[92.3042,24.2236],[92.3103,24.2214],[92.3162,24.2119],[92.3146,24.2065],[92.3214,24.2038],[92.319,24.198],[92.3261,24.197],[92.3218,24.1947],[92.3263,24.1915],[92.3225,24.1881],[92.3264,24.1814],[92.332,24.1797],[92.3264,24.1778],[92.3238,24.1713],[92.3243,24.1683],[92.3285,24.1664],[92.3286,24.1552],[92.3316,24.1519],[92.3286,24.1432],[92.3306,24.1398],[92.3245,24.1395],[92.3246,24.1198],[92.327,24.1171],[92.3242,24.1152],[92.3278,24.112],[92.3225,24.1045],[92.3268,24.1045],[92.3276,24.1016],[92.3248,24.0977],[92.3221,24.0816],[92.3241,24.0794],[92.3192,24.0783],[92.3212,24.0728],[92.3165,24.0701],[92.3198,24.0638],[92.3162,24.0596],[92.3175,24.0551],[92.3152,24.0533],[92.3126,24.055],[92.3121,24.0522],[92.3163,24.0457],[92.3119,24.0386],[92.3156,24.0378],[92.3156,24.035],[92.312,24.0325],[92.3168,24.0302],[92.3147,24.0261],[92.3197,24.0245],[92.3187,24.022],[92.3153,24.0235],[92.3139,24.0213],[92.3191,24.0153],[92.3188,24.0083],[92.3243,24.0048],[92.3227,24.0028],[92.3261,23.9979],[92.3221,23.994],[92.3235,23.9886],[92.3213,23.9877],[92.32,23.9791],[92.3172,23.9789],[92.3172,23.9752],[92.3144,23.9729],[92.3103,23.9724],[92.3079,23.9607],[92.3108,23.9483],[92.3089,23.9313],[92.3162,23.9282],[92.3192,23.9158],[92.3251,23.9142],[92.3219,23.9102],[92.3239,23.905],[92.318,23.8985],[92.3168,23.8997],[92.3165,23.8892],[92.3111,23.8802],[92.3131,23.8776],[92.3109,23.8699],[92.3165,23.8654],[92.3149,23.8606],[92.3076,23.857],[92.2992,23.8598],[92.2896,23.8683],[92.285,23.8673],[92.2792,23.8564],[92.2695,23.8478],[92.2686,23.8423],[92.2808,23.8213],[92.2822,23.8147],[92.267,23.8161],[92.257,23.8129],[92.2599,23.7936],[92.2672,23.7687],[92.2654,23.7251],[92.2727,23.719],[92.2798,23.719],[92.2787,23.7101],[92.2896,23.7017],[92.2909,23.691],[92.2917,23.6819],[92.2729,23.6423],[92.2823,23.6382],[92.2771,23.6323],[92.2788,23.6251],[92.281,23.6308],[92.2915,23.6277],[92.2958,23.6223],[92.288,23.6184],[92.2873,23.5963],[92.2895,23.5987],[92.2966,23.5886],[92.2989,23.593],[92.3012,23.5931],[92.304,23.5833],[92.3067,23.5828],[92.3083,23.5784],[92.3054,23.5735],[92.3076,23.5696],[92.3072,23.572],[92.3092,23.5706],[92.3065,23.5642],[92.3118,23.5604],[92.3131,23.5558],[92.312,23.5537],[92.3096,23.5554],[92.3097,23.5434],[92.3064,23.5361],[92.309,23.5326],[92.3139,23.5334],[92.3174,23.5277],[92.313,23.5161],[92.3184,23.5166],[92.3155,23.5131],[92.32,23.5119],[92.3207,23.4964],[92.3176,23.494],[92.3218,23.4914],[92.3159,23.4865],[92.3216,23.4832],[92.3214,23.4799],[92.3262,23.4782],[92.3227,23.4779],[92.3233,23.4744],[92.3197,23.4742],[92.3174,23.4713],[92.3312,23.4658],[92.3308,23.4598],[92.3258,23.4584],[92.3299,23.4541],[92.3333,23.456],[92.327,23.4492],[92.3298,23.4472],[92.3338,23.4288],[92.3352,23.4336],[92.3382,23.4327],[92.3409,23.4358],[92.3461,23.4337],[92.3474,23.4134],[92.3525,23.4135],[92.3569,23.4107],[92.3576,23.4052],[92.3554,23.4015],[92.3524,23.4052],[92.353,23.3926],[92.354,23.3891],[92.3565,23.3916],[92.3582,23.3899],[92.3519,23.3814],[92.3553,23.3795],[92.3644,23.3799],[92.3565,23.3751],[92.3563,23.3712],[92.3626,23.3667],[92.3697,23.374],[92.3687,23.3673],[92.3778,23.3623],[92.3754,23.3573],[92.3789,23.3563],[92.3795,23.3519],[92.3749,23.3469],[92.3715,23.3319],[92.3639,23.3232],[92.3676,23.3176],[92.367,23.3235],[92.371,23.3186],[92.3758,23.3204],[92.3756,23.3136],[92.3855,23.3065],[92.3826,23.3021],[92.384,23.2929],[92.3809,23.2857],[92.3879,23.2819],[92.3934,23.2664],[92.401,23.2646],[92.4055,23.2668],[92.4103,23.2624],[92.423,23.2643],[92.4377,23.28],[92.4334,23.2849],[92.4507,23.2871],[92.4627,23.319],[92.469,23.318],[92.472,23.3223],[92.4674,23.3425],[92.4595,23.3498],[92.4607,23.3571],[92.4627,23.356],[92.4622,23.363],[92.4568,23.3658],[92.4571,23.3803],[92.4637,23.3894],[92.475,23.3904],[92.4824,23.3836],[92.4877,23.382],[92.4926,23.3847],[92.494,23.3906],[92.5085,23.3793],[92.5404,23.3799],[92.5454,23.3789],[92.5549,23.3701],[92.5624,23.372],[92.5655,23.3783],[92.5758,23.3774],[92.5856,23.3848],[92.5873,23.3909],[92.5849,23.4017],[92.5889,23.4053],[92.5987,23.4017],[92.6005,23.3975],[92.6107,23.3948],[92.6184,23.3871],[92.6237,23.3866],[92.6272,23.3908],[92.634,23.3917],[92.644,23.3825],[92.6565,23.3814],[92.6695,23.3835],[92.6643,23.3915],[92.6665,23.4023],[92.6631,23.4126],[92.6562,23.4225],[92.6549,23.4323],[92.6544,23.49],[92.6579,23.498],[92.6514,23.5188],[92.6372,23.5225],[92.6319,23.5343],[92.6349,23.5403],[92.6406,23.5419],[92.645,23.5539],[92.6536,23.555],[92.6556,23.5605],[92.6573,23.5711],[92.6509,23.5775],[92.6486,23.5906],[92.6687,23.6008],[92.6717,23.6099],[92.6721,23.6238],[92.6492,23.631],[92.6493,23.6359],[92.6376,23.6433],[92.634,23.6482],[92.6339,23.6591],[92.6446,23.6687],[92.6575,23.6908],[92.6645,23.7081],[92.6604,23.7118],[92.6489,23.7148],[92.636,23.7394],[92.6325,23.7591],[92.6265,23.7631],[92.6372,23.7727],[92.6393,23.786],[92.6364,23.7937],[92.6268,23.7936],[92.6221,23.7972],[92.623,23.8033],[92.6054,23.793],[92.6031,23.7957],[92.6015,23.7946],[92.6023,23.8025],[92.6007,23.8032],[92.6023,23.8053],[92.5957,23.8059],[92.6016,23.816],[92.5991,23.8218],[92.6033,23.8381],[92.6021,23.8531],[92.6049,23.8572],[92.6166,23.8586],[92.611,23.866],[92.6126,23.87],[92.6104,23.8737],[92.6139,23.8807],[92.6107,23.8855],[92.6127,23.8909],[92.6105,23.8946],[92.621,23.8954],[92.6232,23.8925],[92.6305,23.894],[92.6381,23.8917]]]},"properties":{"OBJECTID":391,"dtname":"Mamit","stname":"MIZORAM","stcode11":"15","dtcode11":"281","year_stat":"2011_c","test":1,"Dist_LGD":266,"State_LGD":15,"Shape_Leng":454249.738702,"Shape.STArea()":0.26722440701655614,"Shape.STLength()":3.873609137697777}},{"type":"Feature","id":403,"geometry":{"type":"Polygon","coordinates":[[[93.3811,23.9346],[93.3698,23.9298],[93.3682,23.9334],[93.3598,23.9326],[93.3647,23.9275],[93.3613,23.9255],[93.3639,23.9199],[93.36,23.9187],[93.3625,23.9144],[93.3629,23.8968],[93.3611,23.8933],[93.3577,23.8925],[93.3587,23.8875],[93.3551,23.8868],[93.359,23.8841],[93.3569,23.8825],[93.3596,23.8813],[93.3586,23.8785],[93.3619,23.8791],[93.366,23.8737],[93.364,23.8668],[93.3683,23.8649],[93.3645,23.8607],[93.3629,23.8616],[93.3624,23.8589],[93.3562,23.8574],[93.3603,23.8553],[93.3588,23.8536],[93.3525,23.8532],[93.3579,23.8503],[93.3618,23.8511],[93.3548,23.8461],[93.3524,23.8469],[93.3586,23.8436],[93.3553,23.8393],[93.3466,23.8367],[93.3304,23.8368],[93.3234,23.8322],[93.3099,23.8434],[93.2938,23.8406],[93.2856,23.846],[93.2825,23.843],[93.2773,23.8426],[93.2726,23.855],[93.2675,23.8595],[93.2663,23.8705],[93.2594,23.8693],[93.2569,23.8603],[93.2604,23.8575],[93.255,23.8448],[93.2544,23.8317],[93.2491,23.8255],[93.2449,23.8143],[93.2493,23.7979],[93.246,23.7925],[93.2464,23.7867],[93.2433,23.7814],[93.2329,23.7775],[93.2301,23.769],[93.2256,23.7642],[93.2366,23.7512],[93.2508,23.7501],[93.2584,23.7449],[93.258,23.7427],[93.25,23.7391],[93.2521,23.7334],[93.2569,23.7312],[93.2547,23.7256],[93.245,23.7223],[93.2381,23.711],[93.2398,23.7023],[93.2465,23.7039],[93.2526,23.7001],[93.2496,23.6983],[93.245,23.688],[93.243,23.6748],[93.2461,23.6697],[93.241,23.6323],[93.2458,23.6294],[93.2496,23.6219],[93.2488,23.6185],[93.2562,23.612],[93.2559,23.6093],[93.2624,23.6063],[93.2679,23.5995],[93.2705,23.5997],[93.2725,23.5912],[93.2693,23.5912],[93.2702,23.5883],[93.2665,23.5867],[93.2596,23.5744],[93.2715,23.5621],[93.2807,23.5449],[93.2787,23.5322],[93.2732,23.5287],[93.2752,23.5267],[93.2737,23.5237],[93.2754,23.5159],[93.2727,23.5128],[93.275,23.5101],[93.2738,23.5054],[93.2702,23.5059],[93.2695,23.5027],[93.2719,23.5016],[93.2687,23.4996],[93.2715,23.4966],[93.2661,23.4943],[93.2591,23.4837],[93.2563,23.4844],[93.2575,23.4798],[93.2536,23.4744],[93.2567,23.4741],[93.2574,23.4698],[93.2596,23.471],[93.2581,23.4645],[93.2622,23.4588],[93.2604,23.4566],[93.2605,23.4416],[93.2734,23.425],[93.2753,23.4173],[93.269,23.4098],[93.2706,23.4068],[93.2667,23.4067],[93.2713,23.3981],[93.2668,23.3963],[93.2634,23.3886],[93.2606,23.3911],[93.2581,23.39],[93.2601,23.3867],[93.2558,23.3893],[93.2471,23.3892],[93.2463,23.3844],[93.2405,23.3863],[93.2396,23.3889],[93.2343,23.3886],[93.2294,23.3864],[93.2294,23.3834],[93.2263,23.3857],[93.2284,23.38],[93.2268,23.3773],[93.22,23.3776],[93.216,23.373],[93.2184,23.3694],[93.2153,23.3681],[93.2143,23.3644],[93.222,23.3563],[93.2176,23.3554],[93.2147,23.3483],[93.21,23.3494],[93.2081,23.3388],[93.2118,23.3368],[93.2111,23.3297],[93.2045,23.3272],[93.206,23.3249],[93.2006,23.3211],[93.2004,23.3149],[93.2049,23.3027],[93.2015,23.3014],[93.1978,23.2907],[93.1926,23.2874],[93.1928,23.2813],[93.198,23.2797],[93.1922,23.2746],[93.1867,23.275],[93.1777,23.2695],[93.1805,23.2628],[93.1841,23.2607],[93.1837,23.2566],[93.1749,23.2442],[93.1754,23.2404],[93.1671,23.2336],[93.1673,23.2299],[93.159,23.2183],[93.166,23.2096],[93.1623,23.2088],[93.1593,23.2036],[93.1626,23.1972],[93.161,23.1928],[93.1555,23.1946],[93.1445,23.1889],[93.1477,23.1802],[93.1602,23.1767],[93.1618,23.1631],[93.1712,23.1475],[93.1688,23.1438],[93.1728,23.1415],[93.1672,23.1356],[93.1657,23.1295],[93.1675,23.1247],[93.1634,23.113],[93.1628,23.0999],[93.1655,23.0941],[93.1706,23.0907],[93.1699,23.0859],[93.1753,23.0819],[93.1704,23.0775],[93.1772,23.0705],[93.175,23.0669],[93.1767,23.059],[93.1857,23.0589],[93.187,23.0529],[93.1893,23.0518],[93.2013,23.0547],[93.2023,23.0502],[93.2095,23.0483],[93.212,23.0373],[93.217,23.0344],[93.2148,23.0269],[93.2292,23.0199],[93.2288,23.0116],[93.2357,23.0108],[93.2413,23.0067],[93.2645,23.0084],[93.27,23.0113],[93.2753,23.0042],[93.2808,23.0056],[93.2832,23.0087],[93.2907,23.0088],[93.293,23.0065],[93.3053,23.0207],[93.3132,23.0191],[93.3133,23.027],[93.3196,23.0288],[93.3201,23.0371],[93.3231,23.036],[93.3274,23.0399],[93.3268,23.0476],[93.3334,23.0496],[93.3341,23.0595],[93.343,23.0588],[93.34,23.0676],[93.3449,23.071],[93.3514,23.0705],[93.3511,23.073],[93.3438,23.0755],[93.3385,23.0742],[93.343,23.081],[93.3428,23.0864],[93.3456,23.0881],[93.3441,23.0926],[93.3498,23.0917],[93.3534,23.0967],[93.3577,23.1093],[93.3553,23.1166],[93.3626,23.1154],[93.3656,23.1218],[93.3721,23.1265],[93.3769,23.1268],[93.3766,23.1327],[93.3853,23.1347],[93.3856,23.1445],[93.3778,23.1409],[93.3713,23.1411],[93.3675,23.1442],[93.371,23.1523],[93.3688,23.1562],[93.3715,23.1591],[93.3721,23.1703],[93.3681,23.1754],[93.3739,23.1773],[93.3804,23.1869],[93.3764,23.1906],[93.3798,23.1997],[93.3747,23.2045],[93.3794,23.215],[93.388,23.2165],[93.3802,23.2252],[93.3813,23.2324],[93.3781,23.2345],[93.3759,23.2479],[93.3689,23.2501],[93.3715,23.2547],[93.3701,23.2583],[93.3735,23.2607],[93.3693,23.2636],[93.3681,23.2688],[93.3653,23.2687],[93.3688,23.276],[93.3621,23.2799],[93.3664,23.2812],[93.3696,23.2871],[93.3657,23.2944],[93.3684,23.3013],[93.3646,23.3059],[93.3713,23.3094],[93.3633,23.3129],[93.3711,23.3136],[93.3664,23.3215],[93.3725,23.3294],[93.362,23.3367],[93.3578,23.3424],[93.3554,23.3526],[93.3702,23.3589],[93.3791,23.3607],[93.3814,23.3581],[93.3838,23.362],[93.3877,23.3595],[93.3879,23.3677],[93.3911,23.3697],[93.3869,23.3716],[93.3864,23.3744],[93.3929,23.3752],[93.396,23.3829],[93.4014,23.3842],[93.4019,23.3897],[93.398,23.3929],[93.3977,23.397],[93.3941,23.3981],[93.3905,23.4184],[93.3881,23.4205],[93.3906,23.4421],[93.3877,23.4455],[93.3898,23.4504],[93.3946,23.4479],[93.3925,23.4503],[93.3955,23.4538],[93.3921,23.4579],[93.3991,23.472],[93.3925,23.4787],[93.3958,23.4839],[93.3937,23.4865],[93.3948,23.5038],[93.3981,23.5109],[93.4037,23.5118],[93.4038,23.5169],[93.4087,23.5174],[93.4091,23.5234],[93.4183,23.5401],[93.4122,23.5558],[93.4088,23.5571],[93.4133,23.5601],[93.4097,23.5643],[93.413,23.5651],[93.4145,23.5711],[93.4183,23.5687],[93.4217,23.5711],[93.4229,23.5851],[93.428,23.5882],[93.4256,23.5909],[93.4261,23.5993],[93.4212,23.6029],[93.4239,23.6044],[93.4198,23.612],[93.4221,23.6153],[93.4192,23.6233],[93.4223,23.6243],[93.4212,23.6272],[93.4241,23.6294],[93.423,23.6335],[93.4168,23.6375],[93.4181,23.6457],[93.4159,23.647],[93.4217,23.6517],[93.42,23.6529],[93.4236,23.6562],[93.4223,23.6596],[93.4307,23.6734],[93.4326,23.6732],[93.4313,23.6749],[93.4355,23.6782],[93.4362,23.6843],[93.436,23.6869],[93.4253,23.6891],[93.4193,23.7017],[93.41,23.704],[93.4073,23.7072],[93.4061,23.7149],[93.4122,23.7174],[93.4092,23.7208],[93.4109,23.7293],[93.4058,23.7334],[93.4038,23.7451],[93.3949,23.7494],[93.3953,23.754],[93.3918,23.7562],[93.3958,23.7687],[93.3941,23.7744],[93.3977,23.7923],[93.403,23.7974],[93.4038,23.8064],[93.3988,23.8153],[93.3969,23.8141],[93.3952,23.8174],[93.3903,23.8177],[93.3928,23.8233],[93.3887,23.8255],[93.3903,23.8339],[93.3849,23.8482],[93.3875,23.8552],[93.3855,23.8585],[93.3888,23.8653],[93.3846,23.8758],[93.3892,23.8888],[93.3915,23.9144],[93.3951,23.9153],[93.3922,23.9182],[93.3952,23.9239],[93.3943,23.9257],[93.3917,23.9237],[93.3936,23.9291],[93.3856,23.9301],[93.3811,23.9346]]]},"properties":{"OBJECTID":403,"dtname":"Champhai","stname":"MIZORAM","stcode11":"15","dtcode11":"284","year_stat":"2011_c","test":0,"Dist_LGD":262,"State_LGD":15,"Shape_Leng":374950.006615,"Shape.STArea()":0.13795256998878358,"Shape.STLength()":3.2038236386254106}},{"type":"Feature","id":426,"geometry":{"type":"Polygon","coordinates":[[[92.7799,23.5997],[92.776,23.5992],[92.7691,23.5934],[92.7713,23.5857],[92.7743,23.5833],[92.7715,23.5755],[92.7742,23.5739],[92.7723,23.5621],[92.7776,23.5562],[92.7978,23.5502],[92.7962,23.5483],[92.8004,23.5419],[92.7985,23.5386],[92.8016,23.5386],[92.7989,23.5358],[92.7956,23.5363],[92.7983,23.534],[92.7958,23.5325],[92.7975,23.5274],[92.7863,23.524],[92.7787,23.5183],[92.7741,23.5],[92.7781,23.4956],[92.7789,23.4908],[92.777,23.4798],[92.7845,23.476],[92.7902,23.4857],[92.7966,23.4881],[92.7996,23.4791],[92.816,23.4752],[92.8192,23.4724],[92.8246,23.4735],[92.83,23.4689],[92.838,23.4682],[92.8312,23.4606],[92.8358,23.4539],[92.8338,23.4531],[92.8359,23.4497],[92.8341,23.4482],[92.8358,23.4478],[92.8342,23.4463],[92.8361,23.4442],[92.8338,23.4365],[92.8353,23.4354],[92.834,23.431],[92.8296,23.4314],[92.8321,23.4244],[92.8294,23.4246],[92.8312,23.421],[92.8266,23.4189],[92.8296,23.4159],[92.8299,23.4112],[92.8268,23.4087],[92.8218,23.3951],[92.8243,23.391],[92.821,23.3919],[92.8208,23.3872],[92.8291,23.3841],[92.8295,23.3784],[92.8262,23.3786],[92.828,23.3749],[92.8221,23.371],[92.8329,23.3627],[92.8334,23.3534],[92.8379,23.3471],[92.8374,23.3426],[92.8409,23.3401],[92.8402,23.336],[92.8379,23.3331],[92.8323,23.3351],[92.8222,23.3318],[92.8179,23.3267],[92.8093,23.3224],[92.8083,23.3197],[92.8114,23.3162],[92.803,23.3112],[92.7918,23.3164],[92.7851,23.323],[92.7812,23.3229],[92.778,23.3289],[92.776,23.3284],[92.7694,23.3358],[92.7534,23.3415],[92.7406,23.3389],[92.7365,23.3439],[92.7315,23.3445],[92.733,23.3492],[92.7149,23.3488],[92.7195,23.346],[92.7169,23.3437],[92.7178,23.3309],[92.7122,23.3211],[92.702,23.3193],[92.6952,23.3277],[92.6926,23.323],[92.6886,23.323],[92.6862,23.3288],[92.681,23.3271],[92.6849,23.3181],[92.684,23.3123],[92.6887,23.308],[92.6835,23.2811],[92.6876,23.2801],[92.6861,23.2744],[92.6902,23.2614],[92.6883,23.2435],[92.6916,23.2228],[92.6937,23.2173],[92.7044,23.2085],[92.7002,23.1986],[92.7035,23.1981],[92.703,23.1961],[92.7097,23.1914],[92.7182,23.1913],[92.719,23.1848],[92.7241,23.1811],[92.7252,23.187],[92.7341,23.1929],[92.7385,23.1918],[92.7483,23.1956],[92.7542,23.2017],[92.7586,23.1961],[92.7715,23.1993],[92.7991,23.1973],[92.8021,23.2004],[92.8096,23.1942],[92.8134,23.1942],[92.8137,23.1914],[92.8189,23.1921],[92.8279,23.1871],[92.845,23.1844],[92.8456,23.1814],[92.8546,23.1774],[92.8609,23.1696],[92.8628,23.1742],[92.8697,23.1756],[92.8751,23.1702],[92.8841,23.17],[92.8943,23.1789],[92.9051,23.1783],[92.9144,23.1827],[92.9187,23.1908],[92.9249,23.1869],[92.9352,23.1874],[92.9331,23.1767],[92.9345,23.1721],[92.9519,23.1673],[92.9569,23.1583],[92.9546,23.1524],[92.9578,23.1486],[92.9569,23.1354],[92.9599,23.1336],[92.958,23.131],[92.9573,23.1169],[92.964,23.1158],[92.9645,23.1121],[92.9816,23.1051],[92.992,23.0952],[93.0186,23.0797],[93.0365,23.0817],[93.0413,23.075],[93.0392,23.0711],[93.0386,23.0503],[93.0429,23.0467],[93.0582,23.045],[93.0774,23.0367],[93.0802,23.0347],[93.0788,23.0321],[93.0804,23.0292],[93.0928,23.0263],[93.1218,23.0061],[93.1278,23.031],[93.1256,23.0408],[93.1265,23.044],[93.1349,23.0482],[93.133,23.0545],[93.1345,23.0599],[93.1401,23.0593],[93.1405,23.0533],[93.1512,23.054],[93.1524,23.0445],[93.1552,23.0435],[93.1595,23.0445],[93.1606,23.0482],[93.1686,23.0466],[93.1803,23.0575],[93.1769,23.0588],[93.1752,23.0629],[93.1752,23.0689],[93.1772,23.0705],[93.1704,23.0775],[93.1753,23.0819],[93.1699,23.0859],[93.1706,23.0907],[93.1655,23.0941],[93.1628,23.0999],[93.1634,23.113],[93.1675,23.1247],[93.1655,23.1286],[93.1672,23.1356],[93.1727,23.1407],[93.1688,23.1438],[93.1715,23.1465],[93.1618,23.1631],[93.1602,23.1767],[93.1484,23.1798],[93.145,23.184],[93.1447,23.1896],[93.1508,23.1905],[93.1555,23.1946],[93.1604,23.1922],[93.1626,23.1972],[93.1599,23.1997],[93.1454,23.2017],[93.139,23.2142],[93.1192,23.2288],[93.1067,23.2301],[93.0971,23.236],[93.0795,23.2388],[93.0795,23.2502],[93.0745,23.2557],[93.072,23.2532],[93.0634,23.2654],[93.0579,23.2649],[93.0541,23.2411],[93.0513,23.2438],[93.0519,23.2404],[93.0491,23.2412],[93.0503,23.2387],[93.0413,23.2398],[93.0392,23.2392],[93.0403,23.237],[93.0382,23.2374],[93.0383,23.2429],[93.0352,23.2432],[93.0347,23.2454],[93.0388,23.2454],[93.0431,23.2488],[93.0379,23.2531],[93.0325,23.2538],[93.0313,23.2605],[93.0276,23.2615],[93.0312,23.2657],[93.0198,23.2677],[93.01,23.2754],[93.0049,23.29],[93.0067,23.3014],[93.0053,23.3048],[93.0172,23.3178],[93.0248,23.3206],[93.0274,23.3252],[93.0318,23.3266],[93.0371,23.344],[93.0357,23.347],[93.0394,23.3488],[93.0406,23.3577],[93.0492,23.371],[93.038,23.3829],[93.036,23.3925],[93.0322,23.3971],[93.0347,23.4127],[93.0262,23.432],[93.033,23.4391],[93.0334,23.4437],[93.0254,23.4531],[93.0272,23.4568],[93.0249,23.46],[93.0258,23.4665],[93.0289,23.4729],[93.0253,23.4805],[93.0252,23.4938],[93.0124,23.4991],[93.0139,23.5092],[93.0097,23.5138],[92.9966,23.5151],[92.9888,23.5125],[92.9793,23.5171],[92.971,23.5262],[92.9638,23.5282],[92.9599,23.5341],[92.9597,23.5405],[92.9464,23.5579],[92.9365,23.5596],[92.9231,23.5575],[92.9102,23.5604],[92.898,23.5705],[92.8979,23.5779],[92.8921,23.5751],[92.8936,23.5723],[92.8878,23.5726],[92.8802,23.5641],[92.8831,23.5626],[92.8809,23.5604],[92.8827,23.5577],[92.8762,23.5579],[92.8697,23.554],[92.843,23.5741],[92.8342,23.5758],[92.8292,23.5807],[92.828,23.5852],[92.8242,23.5856],[92.8213,23.5898],[92.8063,23.5872],[92.8029,23.5834],[92.7908,23.5824],[92.7859,23.5968],[92.7799,23.5997]]]},"properties":{"OBJECTID":426,"dtname":"Serchhip","stname":"MIZORAM","stcode11":"15","dtcode11":"285","year_stat":"2011_c","test":0,"Dist_LGD":268,"State_LGD":15,"Shape_Leng":334311.31991,"Shape.STArea()":0.12940558330433305,"Shape.STLength()":2.8773830191915404}},{"type":"Feature","id":431,"geometry":{"type":"Polygon","coordinates":[[[92.708,23.1929],[92.703,23.1961],[92.7035,23.1981],[92.7002,23.1986],[92.7044,23.2085],[92.6937,23.2173],[92.6883,23.2435],[92.6902,23.2614],[92.6861,23.2744],[92.6876,23.2801],[92.6835,23.2811],[92.6887,23.308],[92.684,23.3123],[92.6849,23.3181],[92.681,23.3271],[92.6866,23.3297],[92.6875,23.3556],[92.6844,23.3638],[92.6815,23.3679],[92.6718,23.3693],[92.6756,23.372],[92.6753,23.3796],[92.6695,23.3835],[92.6565,23.3814],[92.644,23.3825],[92.634,23.3917],[92.6272,23.3908],[92.6237,23.3866],[92.6184,23.3871],[92.6107,23.3948],[92.6005,23.3975],[92.5987,23.4017],[92.5889,23.4053],[92.5849,23.4017],[92.5873,23.3909],[92.5856,23.3848],[92.5758,23.3774],[92.5655,23.3783],[92.5624,23.372],[92.5549,23.3701],[92.5454,23.3789],[92.5404,23.3799],[92.5085,23.3793],[92.494,23.3906],[92.4926,23.3847],[92.4877,23.382],[92.4824,23.3836],[92.475,23.3904],[92.4637,23.3894],[92.4571,23.3803],[92.4568,23.3658],[92.4622,23.363],[92.4627,23.356],[92.4607,23.3571],[92.4595,23.3498],[92.4674,23.3425],[92.472,23.3223],[92.469,23.318],[92.4627,23.319],[92.4507,23.2871],[92.4334,23.2849],[92.4377,23.28],[92.423,23.2643],[92.4103,23.2624],[92.4055,23.2668],[92.401,23.2646],[92.3934,23.2664],[92.3922,23.2642],[92.388,23.266],[92.389,23.2596],[92.3979,23.256],[92.3951,23.2487],[92.3987,23.2421],[92.4035,23.2409],[92.3999,23.239],[92.4005,23.2364],[92.3463,23.2367],[92.3512,23.2324],[92.3542,23.2201],[92.3534,23.1862],[92.3613,23.182],[92.3609,23.1801],[92.3545,23.1788],[92.3573,23.1779],[92.3571,23.1716],[92.3617,23.1678],[92.3609,23.1625],[92.3643,23.157],[92.3612,23.1548],[92.3623,23.1526],[92.36,23.1532],[92.3606,23.1493],[92.3581,23.1462],[92.3614,23.1453],[92.3569,23.1345],[92.3676,23.1269],[92.3601,23.1131],[92.3577,23.103],[92.3627,23.0974],[92.3696,23.0965],[92.372,23.0873],[92.375,23.0854],[92.3797,23.0865],[92.3802,23.081],[92.3856,23.0778],[92.3825,23.0726],[92.3918,23.0574],[92.3874,23.0398],[92.3834,23.0379],[92.382,23.0337],[92.3844,23.0285],[92.3795,23.0121],[92.3843,23.0097],[92.3814,23.0],[92.3842,22.993],[92.3815,22.9892],[92.3839,22.9818],[92.3791,22.9811],[92.3799,22.9756],[92.3778,22.9765],[92.3742,22.9711],[92.3739,22.9608],[92.3767,22.9593],[92.3728,22.9582],[92.3747,22.954],[92.3761,22.9557],[92.3776,22.9541],[92.3757,22.95],[92.3774,22.9482],[92.3745,22.9471],[92.3724,22.9402],[92.3754,22.937],[92.3711,22.9361],[92.3762,22.934],[92.3762,22.9291],[92.3964,22.9298],[92.4004,22.9243],[92.3973,22.9168],[92.4009,22.9121],[92.4045,22.9177],[92.4137,22.9134],[92.4194,22.9185],[92.4199,22.9093],[92.4264,22.8971],[92.4327,22.8921],[92.4337,22.8859],[92.4371,22.8864],[92.4455,22.8966],[92.4499,22.8931],[92.4484,22.8762],[92.4601,22.8706],[92.4548,22.8694],[92.4527,22.8621],[92.4612,22.8613],[92.46,22.858],[92.4641,22.8543],[92.4566,22.8514],[92.4602,22.8497],[92.4584,22.8455],[92.4627,22.8418],[92.4528,22.8425],[92.4616,22.8303],[92.4554,22.8254],[92.458,22.8231],[92.4545,22.8192],[92.4588,22.8188],[92.4612,22.8078],[92.4625,22.8113],[92.4653,22.8099],[92.4651,22.803],[92.4718,22.7966],[92.4693,22.7825],[92.473,22.7822],[92.4725,22.7771],[92.4758,22.7716],[92.4729,22.7668],[92.4759,22.7645],[92.4735,22.7599],[92.4772,22.7588],[92.476,22.7557],[92.4793,22.7529],[92.4781,22.7509],[92.4825,22.747],[92.4939,22.7463],[92.5002,22.7432],[92.4972,22.7401],[92.4995,22.7385],[92.5055,22.7393],[92.5079,22.737],[92.5095,22.7403],[92.5055,22.7442],[92.5145,22.7564],[92.5208,22.7614],[92.5254,22.7586],[92.5369,22.7601],[92.5434,22.7573],[92.5574,22.7451],[92.5671,22.7315],[92.5775,22.738],[92.5777,22.7453],[92.5849,22.7477],[92.5908,22.7303],[92.5933,22.73],[92.5987,22.7212],[92.597,22.7049],[92.5993,22.6957],[92.6069,22.6866],[92.6087,22.6803],[92.6309,22.6635],[92.629,22.6575],[92.6353,22.6548],[92.6417,22.6469],[92.6459,22.6362],[92.6442,22.6177],[92.6718,22.6254],[92.681,22.6253],[92.6941,22.6174],[92.691,22.6078],[92.6953,22.5907],[92.7098,22.5811],[92.7204,22.5647],[92.7523,22.5424],[92.7537,22.5211],[92.7597,22.5016],[92.7616,22.4987],[92.7664,22.4983],[92.7727,22.5025],[92.7761,22.4985],[92.7787,22.499],[92.7747,22.5191],[92.7796,22.5391],[92.7952,22.5527],[92.8008,22.5678],[92.801,22.5753],[92.7933,22.6056],[92.8005,22.6079],[92.8,22.6221],[92.8049,22.628],[92.8337,22.6248],[92.8418,22.6214],[92.8472,22.6137],[92.8806,22.5824],[92.8965,22.5832],[92.9007,22.5755],[92.9057,22.5523],[92.9099,22.5456],[92.9256,22.5508],[92.9419,22.5647],[92.9462,22.576],[92.9458,22.5957],[92.9508,22.6027],[92.9486,22.6199],[92.952,22.6282],[92.9386,22.6459],[92.9308,22.6642],[92.9299,22.6851],[92.9338,22.7075],[92.9305,22.7145],[92.9179,22.7234],[92.9167,22.729],[92.9167,22.7651],[92.9278,22.7769],[92.9268,22.7808],[92.9197,22.781],[92.9156,22.7878],[92.913,22.8063],[92.9087,22.8122],[92.9107,22.8283],[92.9034,22.8293],[92.8971,22.826],[92.8872,22.83],[92.8889,22.8316],[92.8873,22.8351],[92.8739,22.8424],[92.8681,22.8506],[92.8703,22.8584],[92.8783,22.8604],[92.8784,22.8632],[92.8662,22.8724],[92.8657,22.8753],[92.8552,22.8705],[92.8508,22.8767],[92.8602,22.8835],[92.86,22.8894],[92.8635,22.8943],[92.8708,22.8974],[92.866,22.9038],[92.8653,22.9089],[92.86,22.9127],[92.8604,22.9164],[92.8887,22.9469],[92.8896,22.9558],[92.8875,22.9626],[92.8839,22.9653],[92.8896,22.9791],[92.8902,22.9894],[92.8858,22.9921],[92.8859,22.9962],[92.8778,23.0042],[92.8773,23.0083],[92.8574,23.0098],[92.8454,23.014],[92.8405,23.0202],[92.8415,23.0236],[92.8371,23.0249],[92.8363,23.0283],[92.8436,23.0334],[92.8394,23.0424],[92.841,23.0501],[92.8435,23.0514],[92.8428,23.0642],[92.8453,23.0663],[92.8427,23.0678],[92.8444,23.0697],[92.8411,23.074],[92.8368,23.0749],[92.8388,23.08],[92.8196,23.0834],[92.8126,23.0878],[92.8114,23.0851],[92.8042,23.0885],[92.7963,23.0887],[92.7921,23.0934],[92.7877,23.0912],[92.78,23.0941],[92.7748,23.1105],[92.7779,23.1306],[92.7683,23.1339],[92.7656,23.1398],[92.7713,23.1463],[92.7665,23.1546],[92.7663,23.1629],[92.7622,23.1653],[92.7677,23.1764],[92.763,23.181],[92.7571,23.2001],[92.7527,23.2013],[92.7494,23.1963],[92.7409,23.1923],[92.7341,23.1929],[92.7245,23.1863],[92.7241,23.1811],[92.719,23.1848],[92.7182,23.1913],[92.708,23.1929]]]},"properties":{"OBJECTID":431,"dtname":"Lunglei","stname":"MIZORAM","stcode11":"15","dtcode11":"286","year_stat":"2011_c","test":0,"Dist_LGD":265,"State_LGD":15,"Shape_Leng":413796.852641,"Shape.STArea()":0.3015505708276578,"Shape.STLength()":3.5469188286919606}},{"type":"Feature","id":497,"geometry":{"type":"Polygon","coordinates":[[[92.9869,22.6339],[92.9748,22.6295],[92.9697,22.6327],[92.962,22.6334],[92.9588,22.6269],[92.952,22.6282],[92.9486,22.6199],[92.9508,22.6027],[92.9458,22.5957],[92.9462,22.576],[92.9419,22.5647],[92.931,22.555],[92.931,22.5479],[92.9352,22.5446],[92.9379,22.5305],[92.9328,22.4989],[92.9333,22.4828],[92.943,22.4679],[92.9431,22.463],[92.9387,22.4588],[92.9397,22.4394],[92.9496,22.4017],[92.9614,22.3979],[92.9636,22.3936],[92.9596,22.3783],[92.9537,22.3731],[92.9376,22.3799],[92.9357,22.3851],[92.9401,22.3896],[92.929,22.3956],[92.8967,22.3676],[92.88,22.3577],[92.8625,22.3246],[92.8492,22.3238],[92.8388,22.332],[92.8227,22.3312],[92.8215,22.326],[92.8253,22.3203],[92.8245,22.3097],[92.8271,22.3012],[92.834,22.2949],[92.8371,22.2882],[92.8311,22.2755],[92.8339,22.265],[92.8316,22.2561],[92.8369,22.2335],[92.8381,22.1888],[92.8451,22.1353],[92.842,22.1156],[92.8445,22.1062],[92.8451,22.0817],[92.8511,22.0654],[92.8579,22.0676],[92.8627,22.0627],[92.8653,22.0494],[92.8631,22.0331],[92.8645,22.0242],[92.8797,22.0223],[92.8784,22.0151],[92.8913,22.0115],[92.8982,21.984],[92.898,21.9736],[92.9009,21.9652],[92.8993,21.9569],[92.902,21.9531],[92.9038,21.9412],[92.9068,21.9421],[92.9063,21.9448],[92.912,21.9518],[92.9117,21.9624],[92.9137,21.9663],[92.9119,21.9664],[92.9155,21.9798],[92.9193,21.9821],[92.9214,21.9929],[92.9295,21.9962],[92.935,22.0061],[92.9343,22.0106],[92.9285,22.0087],[92.9266,22.0154],[92.9304,22.0175],[92.9398,22.0141],[92.9417,22.0205],[92.9451,22.0217],[92.9512,22.03],[92.9563,22.0297],[92.9599,22.0262],[92.9601,22.0217],[92.9644,22.0175],[92.9626,22.0158],[92.9643,22.0112],[92.978,21.9982],[92.979,21.9849],[92.9814,21.9807],[93.0008,21.9784],[93.0034,21.9825],[93.0043,21.9946],[93.0015,22.0067],[93.0044,22.0171],[92.9945,22.0314],[92.9975,22.0361],[92.9941,22.0422],[92.9976,22.0547],[93.0018,22.058],[93.0018,22.0676],[93.0069,22.0714],[93.0039,22.0745],[93.0053,22.0805],[93.0091,22.0819],[93.0119,22.0889],[93.011,22.0924],[93.0071,22.0948],[93.0045,22.1047],[93.0473,22.0987],[93.0592,22.1012],[93.0567,22.122],[93.0541,22.1218],[93.0535,22.1261],[93.0447,22.134],[93.0446,22.1379],[93.0391,22.1392],[93.0436,22.1432],[93.0366,22.1448],[93.0366,22.1493],[93.0406,22.1507],[93.0439,22.1572],[93.0413,22.1596],[93.0473,22.1628],[93.0488,22.1694],[93.0486,22.1741],[93.0395,22.1873],[93.0415,22.1907],[93.0378,22.1954],[93.0424,22.196],[93.0425,22.1997],[93.0458,22.203],[93.0572,22.2017],[93.0627,22.2078],[93.0885,22.1968],[93.1018,22.1995],[93.1109,22.2043],[93.1145,22.1912],[93.1235,22.1795],[93.1236,22.174],[93.1507,22.1763],[93.1555,22.1814],[93.1612,22.1965],[93.1529,22.2094],[93.1483,22.2118],[93.1519,22.2173],[93.1473,22.2294],[93.1394,22.2355],[93.1433,22.2386],[93.1417,22.2457],[93.1474,22.2497],[93.1537,22.2474],[93.1628,22.2502],[93.1672,22.2463],[93.1771,22.246],[93.1992,22.2559],[93.1983,22.2601],[93.202,22.2641],[93.1981,22.2701],[93.1937,22.2882],[93.1992,22.2941],[93.1898,22.3005],[93.1907,22.3025],[93.1954,22.3016],[93.1906,22.3091],[93.1957,22.3144],[93.1891,22.3231],[93.1967,22.3281],[93.1935,22.3346],[93.1857,22.3399],[93.188,22.3453],[93.1881,22.3652],[93.1834,22.3737],[93.186,22.3809],[93.1898,22.3826],[93.1818,22.3949],[93.1843,22.4017],[93.1874,22.4032],[93.1817,22.4176],[93.1829,22.4226],[93.1856,22.424],[93.185,22.4283],[93.1779,22.4329],[93.1769,22.4401],[93.1682,22.4432],[93.1632,22.4512],[93.1515,22.4542],[93.1389,22.4542],[93.1312,22.4679],[93.1349,22.4921],[93.1262,22.5008],[93.1237,22.5085],[93.1284,22.5236],[93.1245,22.5255],[93.1075,22.5253],[93.1066,22.5282],[93.1123,22.533],[93.1091,22.5367],[93.1094,22.5407],[93.1063,22.5396],[93.0897,22.5463],[93.081,22.5544],[93.0778,22.5434],[93.074,22.539],[93.0742,22.5363],[93.0769,22.5355],[93.075,22.5256],[93.0726,22.524],[93.0733,22.5158],[93.0684,22.5098],[93.0601,22.4905],[93.0534,22.4914],[93.0447,22.4819],[93.0426,22.4623],[93.0409,22.4618],[93.038,22.468],[93.0287,22.4713],[93.0254,22.4797],[93.0277,22.487],[93.0224,22.4955],[93.0294,22.5069],[93.0285,22.5109],[93.024,22.5109],[93.0225,22.5172],[93.0241,22.5247],[93.0223,22.5391],[93.0298,22.5586],[93.025,22.5625],[93.0263,22.5842],[93.0088,22.5905],[93.0075,22.5931],[92.9958,22.5955],[92.9961,22.598],[92.9908,22.602],[92.9793,22.6064],[92.9805,22.6145],[92.9786,22.6168],[92.9844,22.626],[92.9878,22.6265],[92.9893,22.632],[92.9869,22.6339]]]},"properties":{"OBJECTID":497,"dtname":"Saiha","stname":"MIZORAM","stcode11":"15","dtcode11":"288","year_stat":"2011_c","test":0,"Dist_LGD":267,"State_LGD":15,"Shape_Leng":314684.856669,"Shape.STArea()":0.1328907994562769,"Shape.STLength()":2.6932602085885176}},{"type":"Feature","id":499,"geometry":{"type":"MultiPolygon","coordinates":[[[[92.5208,22.7614],[92.5055,22.7442],[92.5095,22.7403],[92.5085,22.7327],[92.5126,22.7329],[92.5102,22.7292],[92.5167,22.7219],[92.5178,22.7172],[92.5138,22.709],[92.5235,22.6791],[92.5227,22.6748],[92.5259,22.6735],[92.5259,22.666],[92.529,22.6659],[92.5266,22.6619],[92.5283,22.6599],[92.5237,22.6583],[92.5271,22.6518],[92.5244,22.648],[92.5247,22.6411],[92.5277,22.6362],[92.5261,22.6346],[92.5322,22.6331],[92.532,22.6283],[92.5272,22.6217],[92.5295,22.6206],[92.528,22.6165],[92.5314,22.6123],[92.5346,22.612],[92.5339,22.6084],[92.5295,22.6097],[92.5298,22.6044],[92.5349,22.6002],[92.5369,22.5941],[92.5354,22.5905],[92.5388,22.5896],[92.5325,22.5878],[92.534,22.5855],[92.5383,22.5862],[92.5363,22.5791],[92.5375,22.5748],[92.5329,22.572],[92.5272,22.5728],[92.5281,22.5654],[92.522,22.5597],[92.5305,22.5537],[92.5322,22.5444],[92.5369,22.545],[92.5398,22.5408],[92.5381,22.5351],[92.5412,22.534],[92.5389,22.5293],[92.5401,22.5252],[92.5426,22.5248],[92.541,22.5222],[92.5451,22.518],[92.5431,22.5139],[92.5465,22.5168],[92.5512,22.5131],[92.5463,22.5105],[92.5507,22.5097],[92.5505,22.5074],[92.5481,22.5073],[92.5491,22.5015],[92.5435,22.4993],[92.5509,22.4979],[92.5445,22.4944],[92.5437,22.4907],[92.547,22.4888],[92.545,22.4839],[92.5478,22.4753],[92.5469,22.4624],[92.5503,22.4574],[92.5487,22.4561],[92.5519,22.449],[92.5501,22.4439],[92.5526,22.4422],[92.5517,22.4379],[92.5544,22.4368],[92.5557,22.4296],[92.5514,22.4277],[92.5553,22.4277],[92.5564,22.4243],[92.5513,22.4231],[92.5544,22.4178],[92.5524,22.4097],[92.555,22.4111],[92.5572,22.4092],[92.5545,22.4058],[92.5601,22.4016],[92.5564,22.399],[92.56,22.3959],[92.5584,22.3914],[92.5611,22.385],[92.5593,22.382],[92.5626,22.3799],[92.5611,22.3781],[92.5636,22.375],[92.5626,22.3716],[92.5669,22.3703],[92.568,22.3611],[92.5719,22.3582],[92.5724,22.3427],[92.575,22.342],[92.5739,22.3383],[92.5759,22.3377],[92.5741,22.332],[92.5809,22.3218],[92.5781,22.3168],[92.5804,22.3115],[92.5779,22.311],[92.5818,22.3079],[92.5809,22.3049],[92.5837,22.3041],[92.5807,22.3028],[92.5835,22.2992],[92.5811,22.2856],[92.5837,22.2846],[92.581,22.2686],[92.5861,22.2631],[92.5843,22.261],[92.5856,22.2577],[92.5899,22.2552],[92.5911,22.249],[92.5894,22.2472],[92.5918,22.2406],[92.5901,22.2357],[92.5917,22.2349],[92.5891,22.233],[92.5904,22.2307],[92.5881,22.2301],[92.5879,22.2242],[92.59,22.2227],[92.5878,22.2156],[92.5914,22.2144],[92.5901,22.2131],[92.5944,22.2039],[92.5937,22.1963],[92.5968,22.1897],[92.5941,22.1817],[92.5956,22.1754],[92.6074,22.1721],[92.6058,22.1677],[92.6086,22.1647],[92.6072,22.1605],[92.6105,22.1382],[92.6048,22.1236],[92.5937,22.1259],[92.5891,22.1317],[92.5926,22.1386],[92.5781,22.1438],[92.5751,22.138],[92.5636,22.1338],[92.5621,22.1282],[92.5748,22.1153],[92.5759,22.106],[92.5818,22.0979],[92.5849,22.0822],[92.5895,22.0796],[92.5918,22.0654],[92.596,22.0614],[92.6019,22.0609],[92.5972,22.047],[92.5988,22.0421],[92.5933,22.0413],[92.5923,22.0371],[92.5946,22.0312],[92.5993,22.0288],[92.5976,22.0093],[92.6013,22.0035],[92.6097,21.9978],[92.6124,21.9913],[92.611,21.9837],[92.603,21.9806],[92.6037,21.9762],[92.6075,21.9746],[92.6244,21.9826],[92.6346,21.9835],[92.6363,21.9897],[92.6419,21.9928],[92.6435,22.0025],[92.6512,22.01],[92.6518,22.0163],[92.6671,22.0133],[92.67,22.0096],[92.6796,22.0115],[92.6854,22.0417],[92.6816,22.1035],[92.6878,22.1038],[92.6887,22.0724],[92.6903,22.0723],[92.6922,22.0756],[92.6915,22.1341],[92.6922,22.1393],[92.696,22.1372],[92.6968,22.1417],[92.6951,22.1538],[92.6995,22.155],[92.7036,22.1505],[92.7104,22.1512],[92.7129,22.1473],[92.727,22.1491],[92.7348,22.1345],[92.7414,22.1306],[92.7466,22.1307],[92.7533,22.1248],[92.76,22.1258],[92.7737,22.1074],[92.7901,22.1054],[92.7978,22.0939],[92.8039,22.0983],[92.81,22.0963],[92.8134,22.0895],[92.8178,22.0869],[92.8164,22.0814],[92.8183,22.0752],[92.8365,22.0722],[92.8409,22.0595],[92.8494,22.0628],[92.8511,22.0654],[92.8451,22.0817],[92.8445,22.1062],[92.842,22.1156],[92.8451,22.1353],[92.8381,22.1888],[92.8385,22.2173],[92.8358,22.2412],[92.8316,22.2561],[92.8339,22.265],[92.8311,22.2755],[92.8371,22.2882],[92.834,22.2949],[92.8271,22.3012],[92.8245,22.3097],[92.8253,22.3203],[92.8215,22.326],[92.8227,22.3312],[92.8388,22.332],[92.8492,22.3238],[92.8625,22.3246],[92.88,22.3577],[92.8967,22.3676],[92.9197,22.3894],[92.929,22.3956],[92.9363,22.3929],[92.9401,22.3896],[92.9357,22.3851],[92.9376,22.3799],[92.9537,22.3731],[92.9596,22.3783],[92.9636,22.3936],[92.9614,22.3979],[92.9496,22.4017],[92.9397,22.4394],[92.9387,22.4588],[92.9431,22.463],[92.943,22.4679],[92.9333,22.4828],[92.9328,22.4989],[92.9379,22.5305],[92.9352,22.5446],[92.931,22.5479],[92.931,22.555],[92.9256,22.5508],[92.9099,22.5456],[92.9057,22.5523],[92.9007,22.5755],[92.8965,22.5832],[92.8806,22.5824],[92.8472,22.6137],[92.8418,22.6214],[92.8337,22.6248],[92.8049,22.628],[92.8,22.6221],[92.8005,22.6079],[92.7933,22.6056],[92.801,22.5753],[92.8008,22.5678],[92.7952,22.5527],[92.7796,22.5391],[92.7771,22.5316],[92.7747,22.5191],[92.7787,22.499],[92.7761,22.4985],[92.7727,22.5025],[92.7664,22.4983],[92.7616,22.4987],[92.7537,22.5211],[92.7523,22.5424],[92.7204,22.5647],[92.7098,22.5811],[92.6953,22.5907],[92.691,22.6078],[92.6941,22.6174],[92.681,22.6253],[92.6718,22.6254],[92.6442,22.6177],[92.6459,22.6362],[92.6417,22.6469],[92.6353,22.6548],[92.629,22.6575],[92.6309,22.6635],[92.6087,22.6803],[92.6069,22.6866],[92.5993,22.6957],[92.597,22.7049],[92.5987,22.7212],[92.5933,22.73],[92.5908,22.7303],[92.5849,22.7477],[92.5777,22.7453],[92.5775,22.738],[92.5671,22.7315],[92.5574,22.7451],[92.5434,22.7573],[92.5369,22.7601],[92.5254,22.7586],[92.5208,22.7614]]],[[[93.0788,22.7979],[93.0832,22.8048],[93.0754,22.8071],[93.06,22.8009],[93.0601,22.7948],[93.0526,22.7926],[93.0283,22.7966],[93.0255,22.7843],[93.016,22.785],[93.0099,22.7773],[93.0088,22.7686],[93.0054,22.7634],[93.0057,22.7574],[93.0028,22.7543],[92.9878,22.7545],[92.977,22.7583],[92.9572,22.7812],[92.9388,22.7905],[92.9226,22.7903],[92.9223,22.7814],[92.9268,22.7808],[92.9278,22.7769],[92.9167,22.7651],[92.9167,22.729],[92.9179,22.7234],[92.9305,22.7145],[92.9338,22.7075],[92.9299,22.6851],[92.9308,22.6642],[92.9386,22.6459],[92.952,22.6282],[92.9559,22.6265],[92.959,22.6271],[92.9619,22.6333],[92.9697,22.6327],[92.9748,22.6295],[92.9875,22.6338],[92.9893,22.632],[92.9877,22.6263],[92.9844,22.626],[92.9786,22.6168],[92.9805,22.6145],[92.9793,22.6064],[92.9908,22.602],[92.9961,22.598],[92.9958,22.5955],[93.0075,22.5931],[93.0088,22.5905],[93.0263,22.5842],[93.025,22.5625],[93.0298,22.5586],[93.0223,22.5391],[93.0241,22.5247],[93.0225,22.5172],[93.024,22.5109],[93.0285,22.5109],[93.0294,22.5069],[93.0225,22.4951],[93.0277,22.487],[93.0253,22.4814],[93.0275,22.4728],[93.038,22.468],[93.0409,22.4618],[93.0446,22.4678],[93.0431,22.4719],[93.0447,22.4819],[93.0534,22.4914],[93.0601,22.4905],[93.0684,22.5098],[93.0733,22.5158],[93.0726,22.524],[93.075,22.5256],[93.0769,22.5355],[93.0742,22.5363],[93.074,22.539],[93.0778,22.5434],[93.081,22.5544],[93.0897,22.5463],[93.1063,22.5396],[93.1094,22.5407],[93.1106,22.5538],[93.1142,22.5618],[93.1236,22.5681],[93.1282,22.578],[93.1377,22.5829],[93.1401,22.5893],[93.1337,22.6144],[93.1276,22.6169],[93.1287,22.6227],[93.1268,22.6258],[93.1216,22.626],[93.1081,22.6363],[93.1069,22.6403],[93.1107,22.6476],[93.1096,22.6558],[93.1013,22.6612],[93.1013,22.6658],[93.0954,22.6723],[93.0945,22.6806],[93.1009,22.681],[93.102,22.6831],[93.1008,22.6869],[93.0966,22.6869],[93.0987,22.6943],[93.0969,22.6993],[93.0909,22.7048],[93.0925,22.7125],[93.0982,22.7188],[93.0984,22.728],[93.1062,22.7434],[93.1071,22.7532],[93.0997,22.7642],[93.102,22.7673],[93.0959,22.7865],[93.0788,22.7979]]]]},"properties":{"OBJECTID":499,"dtname":"Lawngtlai","stname":"MIZORAM","stcode11":"15","dtcode11":"287","year_stat":"2011_c","test":0,"Dist_LGD":264,"State_LGD":15,"Shape_Leng":523694.66914,"Shape.STArea()":0.2153212770756454,"Shape.STLength()":4.479509029855156}},{"type":"Feature","id":734,"geometry":{"type":"Polygon","coordinates":[[[92.8643,23.1746],[92.8609,23.1696],[92.8546,23.1774],[92.8456,23.1814],[92.845,23.1844],[92.8279,23.1871],[92.8189,23.1921],[92.8137,23.1914],[92.8134,23.1942],[92.8096,23.1942],[92.8021,23.2004],[92.7991,23.1973],[92.7715,23.1993],[92.7569,23.1962],[92.7611,23.1912],[92.763,23.181],[92.7677,23.1764],[92.7622,23.1653],[92.7663,23.1629],[92.7665,23.1546],[92.7713,23.1463],[92.7656,23.1398],[92.7683,23.1339],[92.7779,23.1306],[92.7748,23.1105],[92.78,23.0941],[92.7877,23.0912],[92.7921,23.0934],[92.7963,23.0887],[92.8042,23.0885],[92.8114,23.0851],[92.8126,23.0878],[92.8196,23.0834],[92.8388,23.08],[92.8368,23.0749],[92.8411,23.074],[92.8444,23.0697],[92.8427,23.0678],[92.8453,23.0663],[92.8428,23.0642],[92.8435,23.0514],[92.841,23.0501],[92.8394,23.0424],[92.8436,23.0334],[92.8363,23.0283],[92.8371,23.0249],[92.8415,23.0236],[92.8405,23.0202],[92.8454,23.014],[92.8574,23.0098],[92.8773,23.0083],[92.8778,23.0042],[92.8859,22.9962],[92.8858,22.9921],[92.8902,22.9894],[92.8896,22.9791],[92.8839,22.9653],[92.8875,22.9626],[92.8896,22.9558],[92.8888,22.9471],[92.8603,22.9162],[92.86,22.9127],[92.8653,22.9089],[92.866,22.9038],[92.8708,22.8974],[92.8635,22.8943],[92.86,22.8894],[92.8602,22.8835],[92.8509,22.878],[92.8539,22.8709],[92.8657,22.8753],[92.8662,22.8724],[92.8784,22.8632],[92.8783,22.8604],[92.8703,22.8584],[92.8681,22.8506],[92.8739,22.8424],[92.8873,22.8351],[92.8889,22.8316],[92.8872,22.83],[92.8971,22.826],[92.9034,22.8293],[92.9107,22.8283],[92.9087,22.8122],[92.913,22.8063],[92.9129,22.7966],[92.9197,22.781],[92.9249,22.781],[92.9223,22.7814],[92.9226,22.7903],[92.9388,22.7905],[92.9572,22.7812],[92.977,22.7583],[92.9878,22.7545],[93.0028,22.7543],[93.0057,22.7574],[93.0054,22.7634],[93.0088,22.7686],[93.0099,22.7773],[93.016,22.785],[93.0255,22.7843],[93.0283,22.7966],[93.0526,22.7926],[93.0601,22.7948],[93.06,22.8009],[93.0754,22.8071],[93.0832,22.8048],[93.0788,22.7979],[93.0959,22.7865],[93.0975,22.7926],[93.0942,22.8062],[93.11,22.8182],[93.1031,22.8241],[93.1128,22.8298],[93.1095,22.8332],[93.1145,22.8359],[93.1177,22.8425],[93.1159,22.8461],[93.1185,22.8594],[93.1171,22.8638],[93.126,22.871],[93.1256,22.8769],[93.1336,22.8911],[93.1294,22.9042],[93.1362,22.9133],[93.1397,22.9142],[93.1497,22.9084],[93.1641,22.9104],[93.1628,22.9158],[93.1542,22.9178],[93.1477,22.9257],[93.1447,22.9335],[93.145,22.946],[93.1377,22.951],[93.141,22.9584],[93.1368,22.9624],[93.1354,22.9708],[93.1415,22.9716],[93.1433,22.9756],[93.1386,22.9819],[93.1403,22.9897],[93.1358,22.9921],[93.1321,22.991],[93.1265,22.9969],[93.1253,23.0026],[93.1197,23.0024],[93.1218,23.0061],[93.0928,23.0263],[93.0804,23.0292],[93.0788,23.0321],[93.0802,23.0347],[93.0774,23.0367],[93.0582,23.045],[93.0429,23.0467],[93.0386,23.0503],[93.0392,23.0711],[93.0413,23.075],[93.0365,23.0817],[93.0186,23.0797],[92.992,23.0952],[92.9816,23.1051],[92.9645,23.1121],[92.964,23.1158],[92.9573,23.1169],[92.958,23.131],[92.9599,23.1336],[92.9569,23.1354],[92.9578,23.1486],[92.9546,23.1524],[92.9569,23.1583],[92.9519,23.1673],[92.9345,23.1721],[92.9331,23.1767],[92.9352,23.1874],[92.9249,23.1869],[92.9187,23.1908],[92.9144,23.1827],[92.9051,23.1783],[92.8943,23.1789],[92.8811,23.1695],[92.8751,23.1702],[92.8697,23.1756],[92.8643,23.1746]]]},"properties":{"OBJECTID":734,"dtname":"Hnahthial","stname":"MIZORAM","stcode11":"15","dtcode11":"793","year_stat":"201920","test":0,"Dist_LGD":726,"State_LGD":15,"Shape_Leng":212332.354415,"Shape.STArea()":0.09078868050642086,"Shape.STLength()":1.8316289057424453}},{"type":"Feature","id":735,"geometry":{"type":"Polygon","coordinates":[[[92.991,24.1156],[92.9727,24.1128],[92.9682,24.1092],[92.9685,24.1002],[92.9708,24.097],[92.9665,24.095],[92.9913,24.0901],[92.9933,24.0874],[92.9937,24.0584],[92.9955,24.0543],[92.9924,24.0495],[92.9948,24.0407],[92.9921,24.0335],[92.9945,24.022],[92.992,24.0128],[92.9974,23.9992],[92.9955,23.9947],[92.9977,23.9851],[92.9906,23.9724],[92.9928,23.9684],[92.9923,23.9614],[92.9856,23.9607],[92.9831,23.9577],[92.9871,23.9539],[92.9851,23.9504],[92.9875,23.9457],[92.9963,23.9379],[92.997,23.9315],[92.9942,23.931],[92.9909,23.9239],[92.979,23.9171],[92.9861,23.8902],[92.9768,23.8855],[92.9648,23.8851],[92.9577,23.8742],[92.944,23.8698],[92.9266,23.8732],[92.9133,23.8701],[92.8979,23.873],[92.896,23.8814],[92.8935,23.8782],[92.8936,23.872],[92.89,23.8653],[92.8908,23.8579],[92.8868,23.8544],[92.8906,23.8443],[92.8881,23.8334],[92.8857,23.8315],[92.8866,23.8284],[92.8834,23.8215],[92.872,23.8093],[92.8722,23.8057],[92.8812,23.8034],[92.8891,23.797],[92.8819,23.7888],[92.8845,23.785],[92.8817,23.7795],[92.8851,23.774],[92.8821,23.7723],[92.8844,23.7694],[92.8824,23.7593],[92.8875,23.7588],[92.8887,23.7522],[92.887,23.7449],[92.889,23.7443],[92.8883,23.7348],[92.8906,23.7315],[92.888,23.7273],[92.8902,23.7213],[92.8875,23.7125],[92.8893,23.7038],[92.8872,23.7022],[92.8911,23.6969],[92.8859,23.6904],[92.8873,23.6872],[92.8836,23.6768],[92.8839,23.6667],[92.8813,23.665],[92.8875,23.658],[92.8859,23.6551],[92.8887,23.6495],[92.8837,23.6417],[92.8771,23.6371],[92.8803,23.6359],[92.8779,23.6266],[92.8804,23.6256],[92.8836,23.6148],[92.8921,23.6063],[92.8895,23.6055],[92.8911,23.6038],[92.8885,23.5982],[92.9021,23.5871],[92.8983,23.5818],[92.9006,23.5795],[92.8977,23.5739],[92.901,23.5674],[92.9131,23.5594],[92.9464,23.5579],[92.9597,23.5405],[92.9599,23.5341],[92.9638,23.5282],[92.971,23.5262],[92.9793,23.5171],[92.9888,23.5125],[92.9966,23.5151],[93.0097,23.5138],[93.0153,23.5042],[93.0186,23.5083],[93.0174,23.51],[93.0245,23.5109],[93.0253,23.5142],[93.0345,23.5137],[93.0409,23.519],[93.0421,23.5237],[93.0392,23.5275],[93.0406,23.5368],[93.0372,23.5375],[93.0398,23.539],[93.0375,23.5515],[93.0353,23.5507],[93.0336,23.5535],[93.0343,23.5601],[93.0374,23.5619],[93.0331,23.5611],[93.0317,23.5653],[93.0355,23.5754],[93.0315,23.5788],[93.0287,23.5904],[93.0299,23.6066],[93.0283,23.609],[93.0305,23.6111],[93.0287,23.6258],[93.0305,23.6267],[93.0278,23.6304],[93.0317,23.6328],[93.0302,23.638],[93.0333,23.647],[93.0314,23.6549],[93.0287,23.655],[93.0302,23.659],[93.0275,23.6606],[93.0267,23.6765],[93.0347,23.6783],[93.0384,23.685],[93.0528,23.6775],[93.0588,23.6778],[93.0607,23.6789],[93.0598,23.6813],[93.0628,23.6809],[93.0621,23.6866],[93.0684,23.6863],[93.07,23.6796],[93.0749,23.6777],[93.0837,23.6689],[93.0878,23.6684],[93.0871,23.6837],[93.0901,23.6988],[93.0951,23.719],[93.0998,23.7223],[93.0996,23.7182],[93.1068,23.7122],[93.0994,23.7044],[93.0957,23.6951],[93.0946,23.6702],[93.0968,23.663],[93.1033,23.6549],[93.112,23.6457],[93.1204,23.6408],[93.1207,23.6481],[93.1161,23.6575],[93.1206,23.6703],[93.1177,23.6825],[93.1276,23.6874],[93.1254,23.691],[93.1275,23.7026],[93.1262,23.7142],[93.13,23.7161],[93.1353,23.7246],[93.1392,23.7398],[93.162,23.7479],[93.1629,23.7532],[93.1587,23.754],[93.1509,23.7612],[93.154,23.7631],[93.153,23.7662],[93.1573,23.7684],[93.1567,23.7701],[93.1626,23.7729],[93.1733,23.7701],[93.1774,23.7737],[93.1852,23.7753],[93.1945,23.7666],[93.1939,23.7628],[93.1976,23.7631],[93.1979,23.7587],[93.2013,23.7553],[93.2091,23.7552],[93.2158,23.749],[93.2249,23.7457],[93.2312,23.7466],[93.2398,23.7405],[93.2455,23.7414],[93.2499,23.739],[93.2582,23.7429],[93.2578,23.7462],[93.2508,23.7501],[93.2441,23.7492],[93.2357,23.7518],[93.2255,23.7639],[93.2301,23.769],[93.2329,23.7775],[93.2433,23.7814],[93.2464,23.7867],[93.246,23.7925],[93.2493,23.7979],[93.2449,23.8143],[93.2491,23.8255],[93.2544,23.8317],[93.255,23.8448],[93.2604,23.8575],[93.2569,23.8603],[93.2594,23.8693],[93.2663,23.8705],[93.2675,23.8595],[93.2726,23.855],[93.2764,23.8429],[93.2824,23.8429],[93.2856,23.846],[93.2938,23.8406],[93.3099,23.8434],[93.3234,23.8322],[93.3304,23.8368],[93.3466,23.8367],[93.3553,23.8393],[93.3586,23.8436],[93.3524,23.8469],[93.3548,23.8461],[93.3618,23.8511],[93.3579,23.8503],[93.3525,23.8532],[93.3588,23.8536],[93.3603,23.8553],[93.3562,23.8574],[93.3624,23.8589],[93.3683,23.8651],[93.364,23.8668],[93.366,23.8737],[93.3619,23.8791],[93.3586,23.8785],[93.3596,23.8813],[93.3569,23.8825],[93.359,23.8841],[93.3551,23.8868],[93.3587,23.8875],[93.3577,23.8925],[93.3627,23.8958],[93.3625,23.9144],[93.36,23.9187],[93.3639,23.9199],[93.3613,23.9255],[93.3647,23.9275],[93.3598,23.9326],[93.3641,23.9316],[93.3649,23.9369],[93.3596,23.9409],[93.3607,23.9449],[93.351,23.9419],[93.3547,23.9434],[93.3537,23.9466],[93.3488,23.9483],[93.3518,23.9485],[93.3538,23.9516],[93.3503,23.9547],[93.3513,23.9614],[93.3474,23.9612],[93.3411,23.9694],[93.3437,23.9705],[93.343,23.9749],[93.3366,23.9758],[93.3394,23.9803],[93.333,23.9789],[93.3343,23.985],[93.3287,23.985],[93.3372,23.9897],[93.3322,23.9995],[93.3333,24.0147],[93.3304,24.0155],[93.3298,24.0207],[93.3348,24.0192],[93.3389,24.0219],[93.3375,24.0257],[93.3308,24.0273],[93.3315,24.0304],[93.3259,24.0299],[93.3288,24.0341],[93.335,24.0357],[93.3324,24.0383],[93.3372,24.0392],[93.3374,24.0414],[93.3279,24.0422],[93.3262,24.0485],[93.3181,24.0532],[93.3029,24.0528],[93.2938,24.0489],[93.2867,24.0526],[93.2865,24.0477],[93.2822,24.043],[93.2738,24.0394],[93.2713,24.0339],[93.2531,24.0213],[93.2552,24.028],[93.2508,24.033],[93.2572,24.0514],[93.2631,24.0583],[93.261,24.0702],[93.2503,24.0802],[93.2247,24.0846],[93.2203,24.0834],[93.219,24.078],[93.2226,24.0709],[93.2204,24.0613],[93.2127,24.0493],[93.2097,24.0482],[93.1874,24.0538],[93.1675,24.0514],[93.1635,24.055],[93.1628,24.0599],[93.1659,24.0737],[93.1612,24.0733],[93.151,24.084],[93.1405,24.0879],[93.1334,24.0786],[93.126,24.0622],[93.1197,24.0605],[93.1211,24.0587],[93.1182,24.0591],[93.1179,24.0558],[93.1141,24.0557],[93.1065,24.0485],[93.1038,24.0497],[93.0994,24.0432],[93.0969,24.0441],[93.0973,24.0498],[93.1009,24.0528],[93.0971,24.0564],[93.0995,24.0632],[93.0976,24.0731],[93.092,24.0803],[93.0877,24.0814],[93.0784,24.1018],[93.0697,24.0993],[93.0606,24.0919],[93.0462,24.0901],[93.0417,24.0929],[93.0381,24.092],[93.0344,24.097],[93.0269,24.1008],[93.0128,24.1014],[93.0096,24.1068],[92.991,24.1156]]]},"properties":{"OBJECTID":735,"dtname":"Saitual","stname":"MIZORAM","stcode11":"15","dtcode11":"794","year_stat":"201920","test":0,"Dist_LGD":727,"State_LGD":15,"Shape_Leng":376828.385403,"Shape.STArea()":0.15574969300837438,"Shape.STLength()":3.228752753291875}},{"type":"Feature","id":736,"geometry":{"type":"Polygon","coordinates":[[[93.1855,23.7748],[93.1774,23.7737],[93.1733,23.7701],[93.1626,23.7729],[93.1567,23.7701],[93.1573,23.7684],[93.153,23.7662],[93.154,23.7631],[93.1509,23.7612],[93.1587,23.754],[93.1629,23.7532],[93.162,23.7479],[93.1392,23.7398],[93.1353,23.7246],[93.13,23.7161],[93.1262,23.7142],[93.1275,23.7026],[93.1254,23.691],[93.1276,23.6874],[93.1177,23.6825],[93.1206,23.6703],[93.1161,23.6575],[93.1207,23.6481],[93.1204,23.6408],[93.112,23.6457],[93.1033,23.6549],[93.0968,23.663],[93.0946,23.6702],[93.0957,23.6951],[93.0994,23.7044],[93.1068,23.7122],[93.0996,23.7182],[93.0998,23.7223],[93.0951,23.719],[93.0901,23.6988],[93.0871,23.6837],[93.0878,23.6684],[93.0837,23.6689],[93.0749,23.6777],[93.07,23.6796],[93.0684,23.6863],[93.0621,23.6866],[93.0628,23.6809],[93.0598,23.6813],[93.0607,23.6789],[93.0588,23.6778],[93.0528,23.6775],[93.0384,23.685],[93.0347,23.6783],[93.0265,23.6762],[93.0275,23.6606],[93.0302,23.6593],[93.0287,23.655],[93.0314,23.6549],[93.0333,23.647],[93.0302,23.638],[93.0317,23.6328],[93.0278,23.6304],[93.0305,23.6267],[93.0287,23.6258],[93.0305,23.6111],[93.0283,23.609],[93.0299,23.6066],[93.0287,23.5904],[93.0315,23.5788],[93.0355,23.5754],[93.0317,23.5653],[93.0331,23.5611],[93.0374,23.5619],[93.0343,23.5601],[93.0336,23.5535],[93.0353,23.5507],[93.0375,23.5515],[93.0398,23.539],[93.0372,23.5375],[93.0406,23.5368],[93.0392,23.5275],[93.0421,23.5237],[93.0409,23.519],[93.0342,23.5135],[93.0255,23.5143],[93.0245,23.5109],[93.0174,23.51],[93.0185,23.5082],[93.0122,23.5005],[93.0252,23.4938],[93.0253,23.4805],[93.0289,23.4729],[93.0258,23.4665],[93.0249,23.46],[93.0272,23.4568],[93.0254,23.4531],[93.0334,23.4437],[93.033,23.4391],[93.0262,23.432],[93.0347,23.4127],[93.0322,23.3971],[93.036,23.3925],[93.038,23.3829],[93.0492,23.371],[93.0406,23.3577],[93.0394,23.3488],[93.0357,23.347],[93.0371,23.344],[93.0318,23.3266],[93.0274,23.3252],[93.0248,23.3206],[93.0172,23.3178],[93.0053,23.3048],[93.0067,23.3014],[93.0049,23.29],[93.01,23.2754],[93.0198,23.2677],[93.0312,23.2657],[93.0276,23.2615],[93.0313,23.2605],[93.0325,23.2538],[93.0379,23.2531],[93.0431,23.2488],[93.0388,23.2454],[93.0347,23.2454],[93.0352,23.2432],[93.0383,23.2429],[93.0382,23.2374],[93.0403,23.237],[93.0392,23.2392],[93.0413,23.2398],[93.0503,23.2387],[93.0491,23.2412],[93.0519,23.2404],[93.0513,23.2438],[93.0541,23.2411],[93.0579,23.2649],[93.0634,23.2654],[93.072,23.2532],[93.0745,23.2557],[93.0795,23.2502],[93.0795,23.2388],[93.0971,23.236],[93.1067,23.2301],[93.1141,23.2309],[93.1193,23.2288],[93.139,23.2142],[93.1452,23.2019],[93.1548,23.199],[93.1599,23.1997],[93.1604,23.2059],[93.1625,23.2089],[93.1659,23.209],[93.159,23.2183],[93.1673,23.2299],[93.1671,23.2336],[93.1754,23.2404],[93.1749,23.2442],[93.1837,23.2566],[93.1841,23.2607],[93.1805,23.2628],[93.1777,23.2695],[93.1867,23.275],[93.1922,23.2746],[93.198,23.2797],[93.1928,23.2813],[93.1926,23.2874],[93.1978,23.2907],[93.2015,23.3014],[93.2049,23.3027],[93.2004,23.3149],[93.2006,23.3211],[93.206,23.3249],[93.2045,23.3272],[93.2111,23.3297],[93.2118,23.3368],[93.2081,23.3388],[93.21,23.3494],[93.2147,23.3483],[93.2176,23.3554],[93.222,23.3563],[93.2143,23.3644],[93.2153,23.3681],[93.2184,23.3694],[93.216,23.373],[93.22,23.3776],[93.2268,23.3773],[93.2284,23.38],[93.2263,23.3857],[93.2294,23.3834],[93.2294,23.3864],[93.2343,23.3886],[93.2396,23.3889],[93.2405,23.3863],[93.2463,23.3844],[93.2471,23.3892],[93.2558,23.3893],[93.2601,23.3867],[93.2581,23.39],[93.2606,23.3911],[93.2634,23.3886],[93.2668,23.3963],[93.2713,23.3981],[93.2666,23.4064],[93.2707,23.4069],[93.269,23.4098],[93.2753,23.4182],[93.2734,23.425],[93.2605,23.4416],[93.2604,23.4566],[93.2622,23.4588],[93.2581,23.4645],[93.2596,23.471],[93.2574,23.4698],[93.2567,23.4741],[93.2536,23.4744],[93.2575,23.4798],[93.2563,23.4844],[93.2591,23.4837],[93.2661,23.4943],[93.2715,23.4966],[93.2687,23.4996],[93.2719,23.5016],[93.2695,23.5027],[93.2702,23.5059],[93.2738,23.5054],[93.275,23.5101],[93.2727,23.5128],[93.2754,23.5159],[93.2737,23.5237],[93.2752,23.5267],[93.2732,23.5287],[93.2787,23.5322],[93.2807,23.5449],[93.2715,23.5621],[93.2596,23.5744],[93.2665,23.5867],[93.2702,23.5883],[93.2693,23.5912],[93.2725,23.5912],[93.2705,23.5997],[93.2679,23.5995],[93.2624,23.6063],[93.2559,23.6093],[93.2562,23.612],[93.2488,23.6185],[93.2496,23.6219],[93.2458,23.6294],[93.241,23.6323],[93.2461,23.6697],[93.243,23.6748],[93.245,23.688],[93.2496,23.6983],[93.2526,23.7001],[93.2465,23.7039],[93.2398,23.7023],[93.2381,23.711],[93.2432,23.7205],[93.2547,23.7256],[93.2569,23.7312],[93.2521,23.7334],[93.2503,23.7387],[93.2463,23.7411],[93.2398,23.7405],[93.2312,23.7466],[93.2249,23.7457],[93.2158,23.749],[93.2091,23.7552],[93.2011,23.7553],[93.1976,23.7631],[93.1939,23.7628],[93.1945,23.7666],[93.1855,23.7748]]]},"properties":{"OBJECTID":736,"dtname":"Khawzawl","stname":"MIZORAM","stcode11":"15","dtcode11":"795","year_stat":"201920","test":0,"Dist_LGD":728,"State_LGD":15,"Shape_Leng":270229.186096,"Shape.STArea()":0.10305396325156835,"Shape.STLength()":2.3074325394033126}}]}