{"type":"FeatureCollection","features":[{"type":"Feature","properties":{"objectid":"687","statecode":"11","district":"GYALSHING","state":"SIKKIM","shape_leng":"153437.150941","shape_area":"7.38590008699E8","dist_code":"242","D_CODE":"597","st_code":"30"},"geometry":{"type":"Polygon","coordinates":[[[88.2318,27.5364],[88.2317,27.5186],[88.2374,27.4672],[88.241,27.4609],[88.2452,27.4602],[88.255,27.4656],[88.2606,27.4735],[88.2687,27.4744],[88.2748,27.4777],[88.2782,27.4776],[88.2817,27.4695],[88.2869,27.4666],[88.2981,27.4767],[88.3032,27.4697],[88.3,27.4665],[88.3008,27.4629],[88.3097,27.4574],[88.3108,27.4463],[88.308,27.4391],[88.3111,27.4358],[88.3111,27.4294],[88.3023,27.4261],[88.2904,27.4147],[88.2871,27.4041],[88.2906,27.3993],[88.2869,27.3861],[88.2673,27.3618],[88.2683,27.3526],[88.2826,27.3428],[88.281,27.3284],[88.2686,27.3203],[88.2567,27.3058],[88.2567,27.3014],[88.2602,27.3023],[88.2666,27.2989],[88.2772,27.3014],[88.2749,27.2988],[88.269,27.2987],[88.2694,27.2949],[88.273,27.2942],[88.2689,27.2904],[88.2711,27.2864],[88.2688,27.2832],[88.2767,27.2767],[88.281,27.2764],[88.2841,27.2663],[88.2816,27.2516],[88.2557,27.2612],[88.2559,27.2642],[88.2508,27.264],[88.2469,27.2701],[88.2403,27.2706],[88.2388,27.2658],[88.2336,27.2673],[88.232,27.2705],[88.2241,27.2604],[88.2049,27.2562],[88.2011,27.258],[88.2027,27.2654],[88.1999,27.2661],[88.2002,27.2586],[88.1954,27.2601],[88.1898,27.266],[88.186,27.266],[88.1817,27.2614],[88.1862,27.2609],[88.1884,27.2571],[88.1826,27.2566],[88.1723,27.2609],[88.157,27.2521],[88.1505,27.2548],[88.1442,27.2534],[88.1382,27.2597],[88.1316,27.2602],[88.1234,27.2583],[88.1188,27.2543],[88.1143,27.245],[88.1071,27.244],[88.102,27.254],[88.0874,27.2523],[88.0746,27.2618],[88.0615,27.2608],[88.0549,27.2708],[88.0377,27.2734],[88.0357,27.2775],[88.032,27.2779],[88.0319,27.2865],[88.0384,27.292],[88.0445,27.2933],[88.0414,27.3042],[88.0487,27.3129],[88.0522,27.3243],[88.0668,27.3358],[88.0575,27.3563],[88.0506,27.3585],[88.0417,27.3704],[88.0447,27.3799],[88.0456,27.3959],[88.0483,27.4011],[88.0467,27.406],[88.0495,27.4073],[88.0506,27.4131],[88.055,27.418],[88.074,27.4269],[88.073,27.4309],[88.0749,27.4333],[88.0677,27.4384],[88.0723,27.4459],[88.0642,27.4537],[88.0667,27.4579],[88.0605,27.4608],[88.0571,27.467],[88.0441,27.4781],[88.044,27.4959],[88.0465,27.501],[88.0551,27.5045],[88.0618,27.5122],[88.058,27.5158],[88.0583,27.5205],[88.0609,27.5249],[88.0662,27.5274],[88.0585,27.5349],[88.0611,27.5404],[88.0687,27.5463],[88.0689,27.555],[88.0785,27.5605],[88.081,27.5652],[88.0754,27.5718],[88.0804,27.5776],[88.079,27.5792],[88.0843,27.5884],[88.0929,27.598],[88.1063,27.6028],[88.1137,27.6104],[88.1137,27.6163],[88.1632,27.6049],[88.1841,27.5973],[88.1893,27.5924],[88.2021,27.5754],[88.2102,27.5572],[88.2143,27.5528],[88.2304,27.5455],[88.2318,27.5364]]]}},{"type":"Feature","properties":{"objectid":"688","statecode":"11","district":"PAKYONG","state":"SIKKIM","shape_leng":"125295.607165","shape_area":"4.36791981908E8","dist_code":"741","D_CODE":"600","st_code":"30"},"geometry":{"type":"Polygon","coordinates":[[[88.8129,27.2976],[88.872,27.2995],[88.9077,27.3038],[88.9134,27.2901],[88.9036,27.273],[88.8998,27.2743],[88.8975,27.2702],[88.8864,27.268],[88.879,27.2611],[88.8664,27.2647],[88.832,27.2623],[88.828,27.2573],[88.8031,27.2479],[88.8031,27.22],[88.7987,27.2076],[88.789,27.1937],[88.7867,27.182],[88.7787,27.1835],[88.7644,27.177],[88.757,27.1654],[88.757,27.1587],[88.7602,27.1527],[88.7567,27.1481],[88.7491,27.1474],[88.7386,27.1354],[88.729,27.1363],[88.7178,27.1433],[88.7161,27.1598],[88.7101,27.1668],[88.7013,27.1741],[88.6851,27.1799],[88.674,27.1755],[88.6604,27.1606],[88.6468,27.1662],[88.6398,27.1648],[88.6355,27.1667],[88.6342,27.1726],[88.6267,27.1776],[88.626,27.1804],[88.6229,27.1794],[88.6223,27.1825],[88.6143,27.1817],[88.6016,27.1857],[88.5979,27.1898],[88.5944,27.1879],[88.5929,27.1912],[88.5888,27.1864],[88.5859,27.1904],[88.5833,27.1876],[88.581,27.1888],[88.5672,27.1848],[88.543,27.1832],[88.5396,27.1774],[88.5351,27.1789],[88.531,27.1722],[88.5112,27.1734],[88.5073,27.1768],[88.5055,27.1835],[88.4984,27.1893],[88.4925,27.1904],[88.49,27.1987],[88.4839,27.2056],[88.4806,27.2174],[88.4852,27.2226],[88.4865,27.2364],[88.4904,27.2453],[88.499,27.2486],[88.4977,27.252],[88.5017,27.2556],[88.5075,27.256],[88.5132,27.2603],[88.5207,27.2603],[88.5234,27.2618],[88.5207,27.2626],[88.5228,27.2665],[88.531,27.2715],[88.5387,27.2693],[88.5393,27.2718],[88.5557,27.2817],[88.5636,27.2827],[88.5687,27.2796],[88.5673,27.276],[88.5727,27.2736],[88.5712,27.2683],[88.5785,27.2703],[88.5853,27.2765],[88.596,27.2735],[88.5999,27.2806],[88.5983,27.2824],[88.6016,27.284],[88.6077,27.2977],[88.6172,27.3012],[88.6388,27.3016],[88.6446,27.2985],[88.6682,27.3115],[88.6708,27.3064],[88.6651,27.2998],[88.6656,27.2971],[88.6791,27.3062],[88.7123,27.3227],[88.7324,27.315],[88.7461,27.3059],[88.8129,27.2976]]]}},{"type":"Feature","properties":{"objectid":"689","statecode":"11","district":"NAMCHI","state":"SIKKIM","shape_leng":"181082.415093","shape_area":"8.71975107142E8","dist_code":"243","D_CODE":"599","st_code":"30"},"geometry":{"type":"Polygon","coordinates":[[[88.3756,27.4737],[88.3781,27.4644],[88.4115,27.4475],[88.4374,27.4527],[88.4642,27.4512],[88.468,27.4377],[88.4816,27.4286],[88.491,27.4274],[88.5054,27.4203],[88.5099,27.4114],[88.5023,27.4098],[88.4948,27.3939],[88.4953,27.3718],[88.4933,27.3633],[88.4753,27.3535],[88.4669,27.354],[88.4624,27.351],[88.4624,27.3429],[88.4553,27.3354],[88.4532,27.3196],[88.4474,27.3111],[88.447,27.2999],[88.454,27.2893],[88.4619,27.2882],[88.4696,27.2712],[88.4862,27.2614],[88.4903,27.2442],[88.4865,27.2364],[88.4852,27.2226],[88.4806,27.2179],[88.4839,27.2056],[88.49,27.1987],[88.4925,27.1904],[88.4984,27.1893],[88.5055,27.1835],[88.5073,27.1768],[88.5112,27.1734],[88.5212,27.1735],[88.5312,27.1655],[88.5276,27.1574],[88.5331,27.1554],[88.533,27.1518],[88.532,27.1498],[88.5193,27.1475],[88.5112,27.1372],[88.5059,27.1366],[88.4997,27.1309],[88.4977,27.1238],[88.4875,27.1259],[88.4851,27.1209],[88.4754,27.1217],[88.4679,27.114],[88.4664,27.1027],[88.462,27.0984],[88.4596,27.0906],[88.4505,27.0839],[88.4329,27.0793],[88.411,27.089],[88.3992,27.0903],[88.3874,27.0949],[88.3749,27.0975],[88.3587,27.096],[88.356,27.101],[88.3495,27.0998],[88.3414,27.1101],[88.3354,27.1068],[88.3294,27.1078],[88.3215,27.1047],[88.3237,27.1105],[88.3229,27.1176],[88.3164,27.1218],[88.3153,27.1262],[88.3108,27.1251],[88.3023,27.1293],[88.2972,27.1252],[88.2903,27.1278],[88.2861,27.1266],[88.279,27.1319],[88.2768,27.1313],[88.2765,27.1338],[88.2823,27.1358],[88.2844,27.1431],[88.283,27.148],[88.2911,27.159],[88.2891,27.1652],[88.2983,27.1691],[88.2994,27.1748],[88.3069,27.1818],[88.317,27.186],[88.3141,27.1919],[88.3169,27.1952],[88.306,27.2241],[88.3004,27.2288],[88.2897,27.2316],[88.2835,27.2408],[88.2816,27.2527],[88.2841,27.2663],[88.2827,27.2717],[88.2807,27.2767],[88.2767,27.2767],[88.2688,27.2832],[88.2711,27.2864],[88.2689,27.2904],[88.273,27.2942],[88.2694,27.2949],[88.269,27.2987],[88.2749,27.2988],[88.2772,27.3014],[88.2666,27.2989],[88.2602,27.3023],[88.2567,27.3014],[88.2567,27.3058],[88.2686,27.3203],[88.281,27.3284],[88.2826,27.3428],[88.2683,27.3526],[88.2673,27.3618],[88.2869,27.3861],[88.2906,27.3993],[88.2871,27.4041],[88.2904,27.4147],[88.3023,27.4261],[88.3111,27.4294],[88.3111,27.4358],[88.308,27.4391],[88.3108,27.4463],[88.3102,27.4535],[88.3094,27.4582],[88.3001,27.4642],[88.3032,27.4697],[88.2981,27.4767],[88.2869,27.4666],[88.2817,27.4695],[88.2782,27.4776],[88.2748,27.4777],[88.2687,27.4744],[88.2606,27.4735],[88.255,27.4656],[88.2452,27.4602],[88.241,27.4609],[88.2374,27.4672],[88.2317,27.5186],[88.2314,27.5474],[88.2353,27.5529],[88.2483,27.5618],[88.2916,27.5769],[88.3101,27.5773],[88.3217,27.5682],[88.3266,27.5534],[88.364,27.519],[88.3649,27.494],[88.3756,27.4737]]]}},{"type":"Feature","properties":{"objectid":"690","statecode":"11","district":"MANGAN","state":"SIKKIM","shape_leng":"333651.195283","shape_area":"3.96509744878E9","dist_code":"241","D_CODE":"598","st_code":"30"},"geometry":{"type":"Polygon","coordinates":[[[88.6515,28.0964],[88.6571,28.0898],[88.6642,28.0875],[88.6664,28.0761],[88.6719,28.0723],[88.6782,28.0715],[88.6836,28.0779],[88.6972,28.0759],[88.7092,28.0776],[88.7237,28.0742],[88.7564,28.076],[88.771,28.0661],[88.7774,28.0544],[88.7837,28.0541],[88.7929,28.0489],[88.7938,28.0439],[88.8032,28.0317],[88.8128,28.0233],[88.836,28.0152],[88.838,28.0009],[88.8438,27.9934],[88.8411,27.9676],[88.8432,27.9542],[88.8415,27.9453],[88.8387,27.944],[88.8371,27.93],[88.8608,27.9281],[88.8704,27.9167],[88.8696,27.9081],[88.8723,27.8996],[88.8829,27.8917],[88.8782,27.8765],[88.8795,27.8685],[88.888,27.8577],[88.8816,27.8512],[88.8803,27.8415],[88.8831,27.8353],[88.8807,27.8303],[88.8558,27.8166],[88.8621,27.7986],[88.8548,27.7828],[88.8565,27.7723],[88.8538,27.77],[88.8547,27.7577],[88.8567,27.7532],[88.8614,27.7543],[88.8653,27.7423],[88.8596,27.7382],[88.8567,27.7311],[88.8576,27.7269],[88.8543,27.7199],[88.8563,27.7167],[88.8398,27.7112],[88.8378,27.7056],[88.8424,27.7029],[88.8475,27.6935],[88.8418,27.6826],[88.8475,27.6752],[88.8482,27.6677],[88.8311,27.6466],[88.8231,27.6437],[88.8153,27.6466],[88.8045,27.6236],[88.8115,27.6185],[88.8059,27.609],[88.8091,27.6026],[88.8044,27.5943],[88.788,27.5849],[88.7908,27.575],[88.7838,27.5731],[88.7814,27.5699],[88.7696,27.5712],[88.7638,27.5648],[88.7735,27.5541],[88.7727,27.5484],[88.7748,27.5444],[88.7726,27.541],[88.7771,27.5325],[88.7829,27.5294],[88.7884,27.5315],[88.7922,27.5299],[88.7925,27.5249],[88.788,27.5223],[88.7902,27.5158],[88.7854,27.5071],[88.7867,27.5041],[88.7829,27.5007],[88.7867,27.4885],[88.7806,27.4815],[88.7836,27.475],[88.7769,27.4684],[88.784,27.4586],[88.7827,27.4497],[88.7909,27.4466],[88.7964,27.4476],[88.7917,27.4377],[88.7952,27.4288],[88.7999,27.4263],[88.8009,27.4224],[88.809,27.4235],[88.8047,27.415],[88.8074,27.41],[88.7821,27.415],[88.769,27.4215],[88.7552,27.4123],[88.7236,27.4181],[88.7121,27.4156],[88.6899,27.3972],[88.6827,27.397],[88.6367,27.4031],[88.6195,27.41],[88.6156,27.4195],[88.5927,27.4158],[88.5802,27.4176],[88.5631,27.4289],[88.5498,27.4326],[88.5433,27.4312],[88.5362,27.4236],[88.52,27.4203],[88.5099,27.4114],[88.5054,27.4203],[88.491,27.4274],[88.4816,27.4286],[88.468,27.4377],[88.4635,27.4515],[88.4374,27.4527],[88.4115,27.4475],[88.3781,27.4644],[88.3649,27.494],[88.364,27.519],[88.3266,27.5534],[88.3217,27.5682],[88.3101,27.5773],[88.2916,27.5769],[88.2483,27.5618],[88.2353,27.5529],[88.2304,27.5455],[88.2143,27.5528],[88.2102,27.5572],[88.1974,27.5827],[88.1841,27.5973],[88.1632,27.6049],[88.1137,27.6163],[88.1198,27.6277],[88.1169,27.6299],[88.1205,27.6385],[88.1201,27.6453],[88.1436,27.6638],[88.1468,27.6794],[88.154,27.6919],[88.1475,27.7029],[88.1553,27.7174],[88.1561,27.7362],[88.1584,27.7406],[88.1698,27.7412],[88.1783,27.7463],[88.1776,27.7585],[88.1835,27.7668],[88.1821,27.7758],[88.1952,27.7863],[88.1971,27.7912],[88.1873,27.8012],[88.1855,27.8107],[88.174,27.8174],[88.1735,27.8207],[88.1879,27.8255],[88.1924,27.833],[88.2027,27.8386],[88.1951,27.8546],[88.1788,27.8566],[88.1739,27.8627],[88.1648,27.8684],[88.1546,27.8708],[88.1489,27.8765],[88.1399,27.8775],[88.1346,27.8819],[88.1392,27.8896],[88.1228,27.9076],[88.1193,27.9158],[88.1205,27.9215],[88.1305,27.9261],[88.1317,27.9332],[88.1377,27.9369],[88.1352,27.9441],[88.129,27.9496],[88.1341,27.9518],[88.1449,27.9644],[88.1537,27.9578],[88.1635,27.9581],[88.1852,27.9436],[88.1958,27.9442],[88.2051,27.9417],[88.2071,27.9614],[88.2123,27.9648],[88.2245,27.9604],[88.229,27.9663],[88.2374,27.9712],[88.2415,27.9573],[88.2511,27.942],[88.2607,27.9469],[88.2659,27.9569],[88.2762,27.9548],[88.2813,27.9582],[88.2862,27.9662],[88.3078,27.9672],[88.3179,27.9786],[88.3301,27.973],[88.3363,27.9839],[88.346,27.9854],[88.352,27.9898],[88.3766,27.9899],[88.3801,27.9839],[88.3883,27.9789],[88.3991,27.9781],[88.403,27.9828],[88.4109,27.9834],[88.4123,27.996],[88.4157,27.9998],[88.4252,28.0019],[88.4309,28.008],[88.4431,28.009],[88.4567,28.0149],[88.4676,28.0167],[88.474,28.0332],[88.4803,28.0425],[88.4881,28.0444],[88.4953,28.0537],[88.5051,28.0474],[88.5098,28.0413],[88.5198,28.0437],[88.5229,28.0352],[88.5276,28.0377],[88.533,28.0336],[88.5437,28.0333],[88.5484,28.0359],[88.5513,28.0385],[88.5488,28.0469],[88.5564,28.0734],[88.5527,28.0814],[88.5661,28.0904],[88.5749,28.0848],[88.5833,28.083],[88.5909,28.0891],[88.6024,28.089],[88.6054,28.0977],[88.6194,28.098],[88.6177,28.118],[88.6091,28.1222],[88.6099,28.1288],[88.6284,28.1248],[88.6374,28.1162],[88.6461,28.0987],[88.6515,28.0964]]]}},{"type":"Feature","properties":{"objectid":"691","statecode":"11","district":"GANGTOK","state":"SIKKIM","shape_leng":"132940.221154","shape_area":"5.10248967758E8","dist_code":"244","D_CODE":"596","st_code":"30"},"geometry":{"type":"Polygon","coordinates":[[[88.7944,27.4126],[88.8074,27.41],[88.8066,27.4064],[88.8122,27.4013],[88.8194,27.4004],[88.8231,27.3907],[88.8305,27.3901],[88.8315,27.3857],[88.8378,27.3789],[88.8456,27.3847],[88.8563,27.3842],[88.861,27.3867],[88.8644,27.3783],[88.863,27.3693],[88.8754,27.3601],[88.8807,27.3599],[88.8804,27.3519],[88.8848,27.3509],[88.8818,27.3463],[88.8833,27.3425],[88.891,27.339],[88.8946,27.3323],[88.8986,27.3331],[88.9052,27.3288],[88.9153,27.3308],[88.9198,27.3269],[88.9182,27.3185],[88.9085,27.3037],[88.872,27.2995],[88.8129,27.2976],[88.7461,27.3059],[88.7324,27.315],[88.7123,27.3227],[88.6791,27.3062],[88.6656,27.2971],[88.6651,27.2998],[88.6708,27.3064],[88.6682,27.3115],[88.6446,27.2985],[88.6312,27.3024],[88.6092,27.2988],[88.6016,27.284],[88.5986,27.2828],[88.5999,27.2806],[88.596,27.2735],[88.5853,27.2765],[88.5785,27.2703],[88.5712,27.2683],[88.5727,27.2736],[88.5673,27.276],[88.5687,27.2796],[88.5636,27.2827],[88.555,27.2815],[88.5393,27.2718],[88.5387,27.2693],[88.531,27.2715],[88.5228,27.2665],[88.5207,27.2626],[88.5234,27.2618],[88.5207,27.2603],[88.5132,27.2603],[88.5075,27.256],[88.5017,27.2556],[88.4977,27.252],[88.499,27.2486],[88.4904,27.2453],[88.4862,27.2614],[88.4696,27.2712],[88.4619,27.2882],[88.454,27.2893],[88.4471,27.2988],[88.4474,27.3111],[88.4532,27.3196],[88.4553,27.3354],[88.4624,27.3429],[88.4629,27.3516],[88.4831,27.3567],[88.4943,27.365],[88.4948,27.3939],[88.5023,27.4098],[88.5099,27.4114],[88.52,27.4203],[88.5362,27.4236],[88.5457,27.4322],[88.5631,27.4289],[88.5802,27.4176],[88.5927,27.4158],[88.6156,27.4195],[88.6195,27.41],[88.6367,27.4031],[88.6827,27.397],[88.6899,27.3972],[88.7121,27.4156],[88.7236,27.4181],[88.7552,27.4123],[88.769,27.4215],[88.7821,27.415],[88.7944,27.4126]]]}},{"type":"Feature","properties":{"objectid":"692","statecode":"11","district":"SORENG","state":"SIKKIM","shape_leng":"103675.180233","shape_area":"3.32202312849E8","dist_code":"742","D_CODE":"601","st_code":"30"},"geometry":{"type":"Polygon","coordinates":[[[88.2406,27.2704],[88.2469,27.2701],[88.2508,27.264],[88.2559,27.2642],[88.2557,27.2612],[88.2816,27.2516],[88.2835,27.2408],[88.2883,27.2328],[88.3004,27.2288],[88.306,27.2241],[88.3167,27.1966],[88.3141,27.1919],[88.3174,27.1876],[88.3024,27.1783],[88.298,27.1689],[88.2891,27.1652],[88.2911,27.159],[88.283,27.148],[88.2844,27.1431],[88.2823,27.1358],[88.2765,27.1338],[88.277,27.1307],[88.2725,27.1281],[88.2684,27.1295],[88.2591,27.1253],[88.2486,27.1244],[88.2412,27.1194],[88.2289,27.1191],[88.2196,27.1251],[88.2194,27.1285],[88.2157,27.1317],[88.2115,27.1299],[88.2053,27.1335],[88.2014,27.1314],[88.1949,27.1349],[88.192,27.1325],[88.1854,27.1308],[88.181,27.1325],[88.1792,27.1298],[88.1759,27.1298],[88.1706,27.1226],[88.1673,27.1224],[88.1621,27.1134],[88.1586,27.1135],[88.1563,27.11],[88.151,27.11],[88.1498,27.1139],[88.1447,27.1119],[88.144,27.1156],[88.1364,27.1147],[88.1355,27.1205],[88.1235,27.121],[88.1117,27.1312],[88.0967,27.1328],[88.0888,27.1433],[88.0871,27.1642],[88.0774,27.1729],[88.0798,27.1744],[88.0785,27.1804],[88.0727,27.1872],[88.0793,27.2008],[88.0655,27.2092],[88.0647,27.2143],[88.0528,27.2134],[88.0439,27.2192],[88.0344,27.221],[88.0261,27.2204],[88.0142,27.2129],[88.0122,27.216],[88.017,27.2256],[88.0188,27.2251],[88.0193,27.236],[88.0245,27.2377],[88.0277,27.2495],[88.0308,27.25],[88.032,27.2779],[88.0357,27.2775],[88.0377,27.2734],[88.0442,27.271],[88.055,27.2708],[88.0616,27.2607],[88.0746,27.2618],[88.0904,27.2515],[88.102,27.254],[88.1074,27.244],[88.1156,27.2461],[88.1172,27.252],[88.1234,27.2583],[88.1316,27.2602],[88.1382,27.2597],[88.1442,27.2534],[88.1505,27.2548],[88.157,27.2521],[88.1723,27.2609],[88.1826,27.2566],[88.1884,27.2571],[88.1862,27.2609],[88.1817,27.2614],[88.186,27.266],[88.1898,27.266],[88.1954,27.2601],[88.2002,27.2586],[88.1999,27.2661],[88.2027,27.2654],[88.2011,27.258],[88.2049,27.2562],[88.2241,27.2604],[88.2315,27.2703],[88.2338,27.2697],[88.2336,27.2673],[88.2388,27.2658],[88.2406,27.2704]]]}}]}