{"type":"FeatureCollection","crs":{"type":"name","properties":{"name":"EPSG:4326"}},"features":[{"type":"Feature","id":390,"geometry":{"type":"Polygon","coordinates":[[[92.168,24.5275],[92.1557,24.5256],[92.1594,24.5235],[92.1584,24.5212],[92.1547,24.521],[92.1563,24.5135],[92.1523,24.5086],[92.1585,24.5076],[92.1525,24.503],[92.1497,24.491],[92.1536,24.4884],[92.1531,24.4831],[92.1562,24.4789],[92.1562,24.4641],[92.166,24.4459],[92.1644,24.4403],[92.1687,24.4343],[92.1679,24.4242],[92.163,24.4187],[92.154,24.4257],[92.1472,24.4217],[92.1396,24.4255],[92.1348,24.4184],[92.1333,24.4085],[92.1221,24.3973],[92.1141,24.3941],[92.1125,24.3918],[92.1152,24.3884],[92.1105,24.3834],[92.098,24.3782],[92.0971,24.3818],[92.0938,24.3823],[92.0908,24.3782],[92.089,24.3793],[92.0821,24.3749],[92.07,24.3767],[92.0683,24.3402],[92.0626,24.3124],[92.0714,24.3004],[92.0682,24.2706],[92.0777,24.2681],[92.0896,24.2611],[92.0972,24.264],[92.1,24.2595],[92.0996,24.2497],[92.1038,24.2377],[92.1117,24.2356],[92.1201,24.229],[92.1228,24.2178],[92.1249,24.2178],[92.1248,24.2226],[92.1319,24.2193],[92.1382,24.1918],[92.1412,24.1958],[92.1403,24.1993],[92.1441,24.2015],[92.1672,24.2027],[92.1721,24.1901],[92.177,24.1944],[92.1841,24.1921],[92.188,24.1844],[92.2038,24.1836],[92.2032,24.1582],[92.2019,24.1534],[92.1933,24.1487],[92.1909,24.1431],[92.181,24.1369],[92.1645,24.1312],[92.1514,24.1195],[92.1452,24.1171],[92.158,24.1149],[92.1645,24.11],[92.1672,24.1038],[92.1621,24.0911],[92.1607,24.0781],[92.1482,24.0635],[92.143,24.051],[92.1387,24.0469],[92.1428,24.0444],[92.1427,24.0408],[92.1381,24.0393],[92.1344,24.0324],[92.1222,24.0383],[92.1174,24.0337],[92.1168,24.0249],[92.1104,24.0238],[92.1117,24.0213],[92.1081,24.0165],[92.1081,24.0096],[92.1121,24.0049],[92.1187,24.0024],[92.1165,23.995],[92.1068,23.9918],[92.0966,23.9928],[92.083,23.9894],[92.0814,23.9821],[92.0838,23.9663],[92.0804,23.933],[92.0855,23.9281],[92.1012,23.9275],[92.1202,23.9315],[92.1308,23.9227],[92.1358,23.9],[92.1499,23.8728],[92.148,23.864],[92.1547,23.8517],[92.1543,23.8391],[92.1569,23.8326],[92.1532,23.8145],[92.1558,23.8117],[92.1546,23.7827],[92.1568,23.77],[92.1634,23.7566],[92.1716,23.7507],[92.1686,23.7209],[92.1745,23.7132],[92.1747,23.7082],[92.1803,23.7063],[92.1878,23.7086],[92.206,23.7049],[92.2167,23.6841],[92.2095,23.6699],[92.2106,23.6615],[92.2162,23.6565],[92.2171,23.6524],[92.2236,23.6518],[92.2303,23.6549],[92.2358,23.6685],[92.2361,23.685],[92.2452,23.6961],[92.239,23.713],[92.2412,23.7187],[92.254,23.7265],[92.2654,23.7251],[92.2672,23.7687],[92.2599,23.7936],[92.257,23.8129],[92.2662,23.816],[92.2824,23.8155],[92.2686,23.8418],[92.2691,23.847],[92.2792,23.8564],[92.2832,23.8652],[92.2875,23.8686],[92.2992,23.8598],[92.3084,23.8569],[92.3149,23.8606],[92.3166,23.8645],[92.3109,23.8699],[92.3131,23.8776],[92.3111,23.8802],[92.3165,23.8892],[92.3168,23.8997],[92.318,23.8985],[92.3239,23.905],[92.3219,23.9102],[92.3251,23.9142],[92.3192,23.9158],[92.3162,23.9282],[92.3089,23.9313],[92.3108,23.9483],[92.3079,23.9607],[92.3103,23.9724],[92.3144,23.9729],[92.3172,23.9752],[92.3172,23.9789],[92.32,23.9791],[92.3213,23.9877],[92.3235,23.9886],[92.3221,23.994],[92.3261,23.9979],[92.3227,24.0028],[92.3243,24.0048],[92.3188,24.0083],[92.3191,24.0153],[92.3139,24.0213],[92.3153,24.0235],[92.3187,24.022],[92.3197,24.0245],[92.3147,24.0261],[92.3168,24.0302],[92.312,24.0325],[92.3156,24.035],[92.3156,24.0378],[92.3119,24.0386],[92.3163,24.0457],[92.3121,24.0522],[92.3126,24.055],[92.3152,24.0533],[92.3175,24.0551],[92.3162,24.0596],[92.3198,24.0638],[92.3165,24.0701],[92.3212,24.0728],[92.3192,24.0783],[92.3241,24.0794],[92.3221,24.0816],[92.3248,24.0977],[92.3276,24.1016],[92.3268,24.1045],[92.3225,24.1045],[92.3278,24.112],[92.3242,24.1152],[92.327,24.1171],[92.3246,24.1198],[92.3245,24.1395],[92.3306,24.1398],[92.3286,24.1432],[92.3316,24.1519],[92.3286,24.1552],[92.3285,24.1664],[92.3243,24.1683],[92.3238,24.1713],[92.3264,24.1778],[92.332,24.1797],[92.3264,24.1814],[92.3225,24.1881],[92.3263,24.1915],[92.3218,24.1947],[92.3261,24.197],[92.319,24.198],[92.3214,24.2038],[92.3146,24.2065],[92.3162,24.2119],[92.3103,24.2214],[92.3042,24.2236],[92.2973,24.2316],[92.2912,24.2514],[92.2656,24.2509],[92.2369,24.2403],[92.2248,24.2411],[92.2199,24.2343],[92.2006,24.2422],[92.1923,24.2433],[92.2097,24.2483],[92.2094,24.2574],[92.2188,24.2857],[92.2374,24.3093],[92.2401,24.3264],[92.2598,24.3585],[92.2581,24.3894],[92.2538,24.4165],[92.2502,24.4216],[92.2465,24.4425],[92.2429,24.4453],[92.2367,24.4446],[92.23,24.4517],[92.2317,24.457],[92.2286,24.4615],[92.2303,24.4667],[92.2287,24.4757],[92.2312,24.4801],[92.2298,24.4817],[92.2365,24.4888],[92.2311,24.4953],[92.2303,24.5018],[92.2046,24.5066],[92.1897,24.5146],[92.1854,24.5205],[92.1758,24.5221],[92.168,24.5275]]]},"properties":{"dtname":"North Tripura","stname":"TRIPURA","stcode11":"16","dtcode11":"292","year_stat":"2011_c","Shape_Length":329669.56237909704,"Shape_Area":1638342693.9884975,"OBJECTID":390,"test":0,"Dist_LGD":270,"State_LGD":16}},{"type":"Feature","id":401,"geometry":{"type":"Polygon","coordinates":[[[91.7469,24.2452],[91.746,24.2145],[91.7571,24.1438],[91.752,24.1365],[91.7499,24.1377],[91.7501,24.1357],[91.7433,24.1322],[91.7446,24.1285],[91.7504,24.1256],[91.7539,24.1078],[91.7541,24.076],[91.7494,24.0315],[91.7519,24.0228],[91.7484,24.0112],[91.7472,23.995],[91.7488,23.9828],[91.7526,23.9747],[91.7528,23.9586],[91.7606,23.9517],[91.7612,23.9461],[91.7691,23.9429],[91.7711,23.9362],[91.7769,23.9331],[91.7796,23.9282],[91.7726,23.915],[91.7779,23.9131],[91.7798,23.9085],[91.7774,23.8945],[91.7806,23.8615],[91.7771,23.8381],[91.779,23.8274],[91.7844,23.8184],[91.7772,23.7829],[91.7802,23.7689],[91.7781,23.7582],[91.7793,23.748],[91.7721,23.742],[91.771,23.7379],[91.7783,23.7192],[91.7778,23.7088],[91.7706,23.7031],[91.7744,23.6918],[91.7676,23.6894],[91.7652,23.6844],[91.7691,23.6721],[91.7634,23.6642],[91.7576,23.6636],[91.7562,23.6627],[91.7589,23.6622],[91.7539,23.6605],[91.7627,23.6585],[91.7599,23.6544],[91.7524,23.6517],[91.7641,23.6519],[91.7658,23.6473],[91.7627,23.6453],[91.7673,23.6461],[91.7689,23.6442],[91.7681,23.6424],[91.7657,23.6437],[91.7693,23.6371],[91.7652,23.6241],[91.7711,23.6201],[91.7758,23.6098],[91.7766,23.5938],[91.7738,23.5864],[91.779,23.5718],[91.7781,23.5594],[91.7807,23.5577],[91.7819,23.5515],[91.7956,23.5365],[91.8011,23.5365],[91.8044,23.5327],[91.8041,23.5285],[91.8066,23.5259],[91.8008,23.5182],[91.8224,23.4987],[91.8219,23.4944],[91.8223,23.4981],[91.8263,23.4946],[91.8286,23.4765],[91.8307,23.4784],[91.8326,23.4772],[91.8333,23.4806],[91.8406,23.4624],[91.8424,23.4645],[91.8436,23.4616],[91.8435,23.4647],[91.846,23.4583],[91.8552,23.4543],[91.8552,23.4481],[91.8659,23.4456],[91.8565,23.4323],[91.8636,23.4083],[91.8667,23.4096],[91.8671,23.4124],[91.8687,23.4117],[91.8676,23.4186],[91.8704,23.4129],[91.873,23.4127],[91.8943,23.4201],[91.8981,23.426],[91.9006,23.4239],[91.9055,23.4327],[91.9066,23.4404],[91.9096,23.4397],[91.9145,23.4329],[91.9246,23.4365],[91.9298,23.4279],[91.9393,23.431],[91.9423,23.4273],[91.9474,23.4308],[91.9479,23.4354],[91.9436,23.464],[91.9402,23.4679],[91.9516,23.4689],[91.9517,23.4718],[91.9593,23.4782],[91.9629,23.4762],[91.9618,23.4817],[91.9736,23.4813],[91.9722,23.49],[91.976,23.4971],[91.9716,23.4982],[91.9709,23.5005],[91.9735,23.504],[91.9661,23.5136],[91.9674,23.5157],[91.9643,23.5167],[91.9648,23.5199],[91.961,23.5189],[91.9563,23.5264],[91.957,23.5308],[91.9652,23.5363],[91.9592,23.5538],[91.9609,23.5659],[91.9576,23.5782],[91.9579,23.5942],[91.9548,23.6028],[91.9559,23.6129],[91.9482,23.6248],[91.9483,23.6296],[91.943,23.635],[91.9467,23.6384],[91.9476,23.6477],[91.9413,23.661],[91.9434,23.6721],[91.937,23.6893],[91.9415,23.6922],[91.9437,23.6973],[91.9593,23.699],[91.9587,23.702],[91.9532,23.7044],[91.9551,23.7093],[91.9536,23.7207],[91.9593,23.7258],[91.9584,23.7386],[91.9664,23.7378],[91.9713,23.7318],[91.9776,23.7337],[91.9835,23.7282],[91.9851,23.7192],[91.9966,23.6964],[92.0015,23.6772],[91.9989,23.6758],[91.9991,23.6734],[92.0046,23.6722],[92.0066,23.6654],[92.011,23.6643],[92.0129,23.6614],[92.0215,23.6634],[92.0206,23.6588],[92.0286,23.6578],[92.0378,23.6483],[92.0432,23.6463],[92.0465,23.6489],[92.0514,23.6482],[92.0595,23.6432],[92.0647,23.6461],[92.069,23.6447],[92.0744,23.6464],[92.0776,23.668],[92.081,23.6688],[92.0869,23.6774],[92.089,23.6743],[92.0936,23.6743],[92.098,23.6864],[92.1027,23.6924],[92.1043,23.6894],[92.1064,23.6909],[92.1082,23.7051],[92.1108,23.7071],[92.1194,23.7322],[92.1247,23.7317],[92.1283,23.7356],[92.1357,23.7352],[92.1516,23.7276],[92.1547,23.7196],[92.1704,23.7058],[92.1756,23.7073],[92.1745,23.7132],[92.1684,23.7222],[92.1716,23.7507],[92.164,23.7556],[92.1561,23.7724],[92.1559,23.7896],[92.1537,23.7937],[92.1558,23.8117],[92.1532,23.8145],[92.1569,23.8326],[92.1543,23.8391],[92.1547,23.8517],[92.148,23.864],[92.1499,23.8728],[92.1358,23.9],[92.1308,23.9227],[92.1202,23.9315],[92.1012,23.9275],[92.0855,23.9281],[92.0807,23.9315],[92.0838,23.9663],[92.0814,23.9821],[92.0831,23.9903],[92.0807,23.9981],[92.0858,24.0071],[92.087,24.0165],[92.0757,24.019],[92.0593,24.0288],[92.0658,24.0498],[92.0642,24.0575],[92.0692,24.0743],[92.0663,24.0835],[92.0734,24.0957],[92.0507,24.1001],[92.0302,24.0904],[92.0234,24.0947],[92.0149,24.0926],[92.0106,24.0991],[92.0069,24.0996],[92.0021,24.0854],[92.0037,24.0804],[92.0019,24.0751],[91.9931,24.0817],[91.9886,24.0737],[91.9812,24.0669],[91.9788,24.0653],[91.9764,24.0674],[91.9745,24.0635],[91.9719,24.0641],[91.9685,24.0601],[91.9666,24.0621],[91.9672,24.0683],[91.9718,24.0722],[91.9696,24.0757],[91.9631,24.0777],[91.9509,24.0942],[91.9388,24.0979],[91.9311,24.1049],[91.9242,24.1075],[91.9232,24.1112],[91.9183,24.1149],[91.911,24.1308],[91.9033,24.1376],[91.8827,24.1426],[91.867,24.1614],[91.8651,24.173],[91.8598,24.1826],[91.8509,24.1861],[91.8369,24.1971],[91.8356,24.2012],[91.8471,24.2172],[91.8429,24.2189],[91.8461,24.2216],[91.8381,24.2208],[91.8412,24.2273],[91.8326,24.2269],[91.8271,24.215],[91.8217,24.2107],[91.816,24.2101],[91.8104,24.2117],[91.8032,24.2204],[91.7865,24.2224],[91.7469,24.2452]]]},"properties":{"dtname":"Dhalai","stname":"TRIPURA","stcode11":"16","dtcode11":"291","year_stat":"2011_c","Shape_Length":363801.74096116575,"Shape_Area":2710130247.788516,"OBJECTID":401,"test":1,"Dist_LGD":269,"State_LGD":16}},{"type":"Feature","id":403,"geometry":{"type":"Polygon","coordinates":[[[91.5634,23.7899],[91.5531,23.7856],[91.5456,23.7737],[91.5332,23.7746],[91.5303,23.7685],[91.5239,23.7687],[91.5224,23.7644],[91.5062,23.7544],[91.4907,23.7531],[91.4736,23.747],[91.4692,23.749],[91.4552,23.7481],[91.4408,23.7517],[91.4357,23.7669],[91.4183,23.7693],[91.4013,23.7667],[91.3886,23.7724],[91.3855,23.7574],[91.3866,23.7491],[91.378,23.7513],[91.3707,23.7448],[91.3592,23.7435],[91.3447,23.7552],[91.3363,23.7561],[91.333,23.7606],[91.3177,23.7621],[91.316,23.7551],[91.3184,23.7419],[91.3162,23.736],[91.3199,23.7338],[91.3136,23.7216],[91.3103,23.7235],[91.3081,23.7301],[91.3044,23.7298],[91.2994,23.7341],[91.2984,23.7439],[91.2966,23.7449],[91.2938,23.7449],[91.2844,23.7372],[91.2838,23.729],[91.2793,23.7293],[91.2762,23.7226],[91.2615,23.7267],[91.2566,23.7347],[91.2532,23.7315],[91.2467,23.7319],[91.2468,23.7374],[91.2432,23.7402],[91.2362,23.7399],[91.2312,23.7329],[91.2263,23.7317],[91.2211,23.7371],[91.2209,23.7424],[91.2172,23.7429],[91.2084,23.7521],[91.1673,23.7503],[91.1568,23.7421],[91.1581,23.7392],[91.1497,23.7133],[91.1535,23.6911],[91.1927,23.6934],[91.1956,23.6957],[91.2016,23.6904],[91.2068,23.6895],[91.2015,23.6847],[91.203,23.6839],[91.2003,23.6646],[91.2053,23.6598],[91.2137,23.66],[91.2145,23.6566],[91.2139,23.6529],[91.2131,23.6566],[91.2091,23.6547],[91.2055,23.6566],[91.2015,23.6548],[91.2027,23.6515],[91.1982,23.6507],[91.1978,23.6476],[91.1909,23.6471],[91.1913,23.6551],[91.1826,23.6577],[91.1823,23.656],[91.1706,23.6567],[91.157,23.6704],[91.1603,23.6527],[91.1586,23.6396],[91.1602,23.6315],[91.157,23.6233],[91.1583,23.61],[91.1617,23.6011],[91.1608,23.5945],[91.1659,23.5919],[91.1763,23.5913],[91.1739,23.5844],[91.1856,23.5764],[91.186,23.5716],[91.194,23.5607],[91.1931,23.5448],[91.1977,23.5447],[91.2009,23.5474],[91.2042,23.5433],[91.208,23.5429],[91.2131,23.5474],[91.2132,23.5428],[91.2078,23.5397],[91.2025,23.5251],[91.2004,23.5177],[91.202,23.514],[91.2086,23.5078],[91.2248,23.5104],[91.2206,23.4961],[91.2221,23.4943],[91.2259,23.493],[91.2386,23.4984],[91.2382,23.4929],[91.2414,23.4915],[91.2413,23.4854],[91.2548,23.4868],[91.2582,23.4783],[91.2579,23.4614],[91.2618,23.4574],[91.2606,23.4527],[91.2665,23.4429],[91.2789,23.4332],[91.2725,23.4273],[91.2836,23.4187],[91.2835,23.3834],[91.2926,23.381],[91.2974,23.3822],[91.2976,23.3759],[91.2875,23.3766],[91.288,23.3683],[91.2966,23.3653],[91.2926,23.355],[91.3027,23.3554],[91.317,23.3634],[91.3235,23.363],[91.3217,23.3539],[91.3138,23.3544],[91.3134,23.3408],[91.3045,23.3415],[91.296,23.3388],[91.2884,23.3145],[91.295,23.3091],[91.3097,23.3093],[91.3136,23.3015],[91.3158,23.2899],[91.3068,23.2933],[91.299,23.2853],[91.302,23.2782],[91.3101,23.2758],[91.3161,23.2801],[91.3201,23.2802],[91.3303,23.2768],[91.3447,23.281],[91.355,23.2886],[91.3559,23.2931],[91.3707,23.3029],[91.3697,23.3075],[91.3751,23.3131],[91.3783,23.3244],[91.3876,23.3256],[91.3864,23.3311],[91.3922,23.3417],[91.3893,23.3437],[91.3908,23.3487],[91.3876,23.3557],[91.3937,23.3609],[91.3985,23.3585],[91.4049,23.3638],[91.4051,23.3685],[91.4101,23.3672],[91.4129,23.3717],[91.4201,23.3739],[91.4227,23.3818],[91.419,23.3835],[91.4186,23.3899],[91.4086,23.3898],[91.4044,23.3957],[91.3851,23.4035],[91.3835,23.4204],[91.3877,23.4238],[91.3855,23.4262],[91.3889,23.4335],[91.3801,23.437],[91.3768,23.4445],[91.381,23.4679],[91.3923,23.4788],[91.3825,23.4865],[91.385,23.4936],[91.3831,23.497],[91.3862,23.5006],[91.3821,23.5023],[91.3799,23.508],[91.382,23.5116],[91.3797,23.5116],[91.3752,23.5178],[91.388,23.5258],[91.4007,23.5235],[91.4021,23.5294],[91.3974,23.5318],[91.3954,23.5368],[91.399,23.5408],[91.3968,23.5482],[91.398,23.5511],[91.3944,23.5541],[91.3951,23.5592],[91.3984,23.5621],[91.3994,23.5779],[91.3975,23.5848],[91.4144,23.5956],[91.4172,23.6005],[91.4245,23.6026],[91.4295,23.6087],[91.4328,23.609],[91.4329,23.6124],[91.4402,23.622],[91.4372,23.6249],[91.4479,23.6322],[91.4486,23.6389],[91.4594,23.6442],[91.4626,23.6627],[91.4719,23.665],[91.4796,23.673],[91.4842,23.6744],[91.4895,23.68],[91.494,23.6806],[91.4941,23.6854],[91.4975,23.6846],[91.5033,23.6876],[91.5075,23.7049],[91.5175,23.7034],[91.5187,23.7006],[91.5259,23.7013],[91.5252,23.7055],[91.5308,23.7072],[91.533,23.7112],[91.5385,23.7114],[91.5357,23.7167],[91.5381,23.722],[91.5372,23.7269],[91.5444,23.7254],[91.5585,23.7279],[91.5625,23.7347],[91.5682,23.7361],[91.5687,23.739],[91.5726,23.7406],[91.5764,23.7528],[91.5655,23.762],[91.5696,23.777],[91.5672,23.7868],[91.5634,23.7899]]]},"properties":{"dtname":"Sipahijala","stname":"TRIPURA","stcode11":"16","dtcode11":"707","year_stat":"update2014","Shape_Length":284706.449288588,"Shape_Area":1246303510.3731675,"OBJECTID":403,"test":0,"Dist_LGD":653,"State_LGD":16}},{"type":"Feature","id":420,"geometry":{"type":"Polygon","coordinates":[[[91.7171,23.7686],[91.7123,23.7681],[91.7056,23.7606],[91.6987,23.761],[91.6927,23.7577],[91.6732,23.7646],[91.6686,23.7625],[91.6489,23.7643],[91.6468,23.7687],[91.6403,23.7654],[91.6383,23.7682],[91.6358,23.7676],[91.6329,23.7648],[91.631,23.7682],[91.6227,23.7661],[91.6173,23.7681],[91.6098,23.7646],[91.6011,23.7642],[91.5955,23.7588],[91.5887,23.7572],[91.5818,23.7637],[91.5765,23.7597],[91.5727,23.7629],[91.5723,23.7595],[91.5764,23.7523],[91.5742,23.7497],[91.5743,23.743],[91.5687,23.739],[91.5683,23.7362],[91.5625,23.7347],[91.5585,23.7279],[91.5444,23.7254],[91.5372,23.7269],[91.5381,23.722],[91.5357,23.7167],[91.5381,23.711],[91.533,23.7112],[91.5308,23.7072],[91.5252,23.7055],[91.5255,23.7011],[91.5187,23.7006],[91.5175,23.7034],[91.5075,23.7049],[91.5033,23.6876],[91.4975,23.6846],[91.4941,23.6854],[91.494,23.6806],[91.4895,23.68],[91.4842,23.6744],[91.4796,23.673],[91.4719,23.665],[91.4626,23.6627],[91.4594,23.6442],[91.4486,23.6389],[91.4479,23.6322],[91.4372,23.6249],[91.4402,23.622],[91.4329,23.6124],[91.4328,23.609],[91.4295,23.6087],[91.4245,23.6026],[91.4172,23.6005],[91.4144,23.5956],[91.3975,23.5848],[91.3994,23.5779],[91.3984,23.5621],[91.3951,23.5592],[91.3944,23.5541],[91.398,23.5511],[91.3968,23.5482],[91.399,23.5408],[91.3954,23.5368],[91.3974,23.5318],[91.4021,23.5294],[91.4007,23.5235],[91.388,23.5258],[91.3752,23.5178],[91.3797,23.5116],[91.382,23.5116],[91.3799,23.508],[91.3821,23.5023],[91.3862,23.5006],[91.3831,23.497],[91.385,23.4936],[91.3825,23.4865],[91.3923,23.4788],[91.381,23.4679],[91.3768,23.4445],[91.3801,23.437],[91.3889,23.4335],[91.3855,23.4262],[91.3877,23.4238],[91.3835,23.4204],[91.3851,23.4035],[91.4044,23.3957],[91.4086,23.3898],[91.4186,23.3899],[91.419,23.3835],[91.4227,23.3818],[91.4202,23.3741],[91.4319,23.3797],[91.4411,23.3683],[91.4544,23.3685],[91.4508,23.3764],[91.4638,23.3833],[91.457,23.3918],[91.4569,23.3946],[91.4602,23.3966],[91.468,23.3946],[91.4757,23.3987],[91.4816,23.3955],[91.4971,23.398],[91.5026,23.3956],[91.5101,23.405],[91.5171,23.4079],[91.5243,23.401],[91.5277,23.4074],[91.5364,23.4016],[91.5424,23.408],[91.5478,23.404],[91.554,23.4071],[91.5578,23.4035],[91.5631,23.3892],[91.5751,23.3838],[91.5843,23.3876],[91.5983,23.3865],[91.6042,23.3909],[91.6052,23.396],[91.6015,23.4055],[91.6106,23.4027],[91.6136,23.4006],[91.6195,23.373],[91.6246,23.3644],[91.6367,23.3521],[91.6419,23.3508],[91.6686,23.3567],[91.6821,23.3467],[91.6832,23.3393],[91.7061,23.321],[91.7259,23.3139],[91.7227,23.3111],[91.7231,23.3006],[91.7195,23.2897],[91.7426,23.2629],[91.7538,23.2705],[91.7738,23.2699],[91.7666,23.2715],[91.7636,23.2768],[91.7615,23.2767],[91.7625,23.2804],[91.7599,23.2828],[91.7609,23.2913],[91.7634,23.2935],[91.7614,23.2958],[91.7644,23.3099],[91.7779,23.3171],[91.7831,23.3247],[91.8039,23.3321],[91.81,23.3445],[91.8154,23.3448],[91.8186,23.3511],[91.8245,23.3529],[91.8255,23.3633],[91.8285,23.3665],[91.8309,23.3651],[91.8322,23.3695],[91.8376,23.371],[91.8364,23.3856],[91.8424,23.3889],[91.8411,23.4],[91.8429,23.3995],[91.8387,23.4223],[91.8432,23.4245],[91.8413,23.4285],[91.8382,23.4285],[91.84,23.4325],[91.8349,23.4421],[91.8287,23.4428],[91.8282,23.4463],[91.8318,23.4505],[91.8292,23.4519],[91.8247,23.4673],[91.8133,23.4688],[91.8112,23.4764],[91.8082,23.4768],[91.8087,23.4794],[91.8056,23.4792],[91.8067,23.4829],[91.8014,23.4843],[91.7978,23.4894],[91.8007,23.4928],[91.7981,23.4976],[91.8007,23.4989],[91.8016,23.5039],[91.7985,23.5062],[91.8042,23.5125],[91.8009,23.5186],[91.8066,23.5259],[91.8022,23.5357],[91.7958,23.5363],[91.7915,23.5401],[91.7781,23.5594],[91.779,23.5718],[91.7736,23.588],[91.7766,23.5938],[91.7758,23.6098],[91.7711,23.6201],[91.7652,23.6241],[91.7693,23.6371],[91.7657,23.6437],[91.7681,23.6424],[91.7689,23.6442],[91.7673,23.6461],[91.7627,23.6453],[91.7658,23.6473],[91.7641,23.6519],[91.7524,23.6517],[91.7599,23.6544],[91.7627,23.6585],[91.7539,23.6605],[91.7589,23.6622],[91.7562,23.6627],[91.7576,23.6636],[91.7634,23.6642],[91.7691,23.6721],[91.7649,23.6807],[91.7679,23.689],[91.7574,23.6833],[91.7514,23.6944],[91.7413,23.6981],[91.7362,23.7031],[91.7363,23.7099],[91.7393,23.7108],[91.74,23.7143],[91.7432,23.7142],[91.7438,23.7294],[91.7395,23.732],[91.7377,23.7411],[91.7327,23.742],[91.7312,23.747],[91.727,23.7461],[91.7226,23.7507],[91.7222,23.7581],[91.7172,23.7597],[91.7171,23.7686]]]},"properties":{"dtname":"Gomati","stname":"TRIPURA","stcode11":"16","dtcode11":"709","year_stat":"update2014","Shape_Length":257852.24953868656,"Shape_Area":1929615606.869988,"OBJECTID":420,"test":0,"Dist_LGD":654,"State_LGD":16}},{"type":"Feature","id":543,"geometry":{"type":"Polygon","coordinates":[[[91.6632,24.2319],[91.6541,24.2264],[91.6468,24.2174],[91.6464,24.2126],[91.6493,24.2071],[91.6479,24.2],[91.6497,24.1949],[91.654,24.194],[91.6564,24.1855],[91.6523,24.1758],[91.6417,24.1784],[91.6391,24.1707],[91.6402,24.1553],[91.6291,24.1383],[91.6348,24.1251],[91.6356,24.1167],[91.6308,24.1031],[91.6173,24.0957],[91.6108,24.0956],[91.6071,24.0914],[91.6012,24.0925],[91.5978,24.0962],[91.5909,24.0965],[91.5875,24.0905],[91.5934,24.086],[91.5903,24.0801],[91.581,24.0744],[91.5705,24.0794],[91.5676,24.0741],[91.5576,24.0763],[91.5397,24.0732],[91.5108,24.084],[91.4953,24.085],[91.4906,24.0917],[91.491,24.0957],[91.4864,24.0971],[91.4798,24.0921],[91.4777,24.0797],[91.4698,24.0696],[91.47,24.0615],[91.4785,24.0598],[91.4842,24.0508],[91.4922,24.044],[91.4927,24.0245],[91.5012,24.0127],[91.4973,24.0092],[91.4968,24.0037],[91.5059,23.9958],[91.5074,23.9887],[91.5216,23.9662],[91.517,23.9594],[91.5188,23.9531],[91.5301,23.935],[91.5396,23.9359],[91.5374,23.9267],[91.5307,23.9179],[91.5311,23.912],[91.5432,23.9064],[91.551,23.9093],[91.5501,23.9044],[91.5548,23.895],[91.553,23.8801],[91.5608,23.87],[91.562,23.8633],[91.5625,23.8533],[91.5595,23.8453],[91.5589,23.8331],[91.5626,23.8092],[91.5656,23.803],[91.5656,23.7889],[91.5696,23.777],[91.5656,23.7631],[91.5671,23.7595],[91.575,23.7556],[91.5727,23.7629],[91.5765,23.7597],[91.5818,23.7637],[91.5887,23.7572],[91.5955,23.7588],[91.6011,23.7642],[91.6098,23.7646],[91.6173,23.7681],[91.6227,23.7661],[91.631,23.7682],[91.6329,23.7648],[91.6358,23.7676],[91.6383,23.7682],[91.6403,23.7654],[91.6468,23.7687],[91.6489,23.7643],[91.6686,23.7625],[91.6732,23.7646],[91.6927,23.7577],[91.6987,23.761],[91.7056,23.7606],[91.7123,23.7681],[91.7171,23.7689],[91.7172,23.7597],[91.7222,23.7581],[91.7226,23.7507],[91.727,23.7461],[91.7312,23.747],[91.7327,23.742],[91.7377,23.7411],[91.7395,23.732],[91.7438,23.7294],[91.7432,23.7142],[91.74,23.7143],[91.7393,23.7108],[91.7363,23.7099],[91.7362,23.7031],[91.7413,23.6981],[91.7514,23.6944],[91.7587,23.6832],[91.7662,23.6893],[91.7744,23.6918],[91.7706,23.7031],[91.7778,23.7088],[91.7783,23.7192],[91.771,23.7379],[91.7721,23.742],[91.7793,23.748],[91.7781,23.7582],[91.7802,23.7689],[91.7772,23.7829],[91.7844,23.8184],[91.779,23.8274],[91.7771,23.8381],[91.7806,23.8615],[91.7774,23.8945],[91.7798,23.9085],[91.7779,23.9131],[91.7726,23.915],[91.7796,23.9282],[91.7769,23.9331],[91.7711,23.9362],[91.7691,23.9429],[91.7612,23.9461],[91.7606,23.9517],[91.7528,23.9586],[91.7526,23.9747],[91.7488,23.9828],[91.7472,23.995],[91.7484,24.0112],[91.7519,24.0228],[91.7494,24.0315],[91.7541,24.076],[91.7539,24.1078],[91.7504,24.1256],[91.7446,24.1285],[91.7433,24.1322],[91.7501,24.1357],[91.7499,24.1377],[91.752,24.1365],[91.7563,24.1418],[91.7497,24.1438],[91.7374,24.1411],[91.7343,24.1441],[91.7264,24.1412],[91.7205,24.1498],[91.7091,24.1505],[91.7039,24.1533],[91.6993,24.1618],[91.6898,24.1584],[91.6826,24.1624],[91.6742,24.1975],[91.6632,24.2129],[91.6651,24.2282],[91.6632,24.2319]]]},"properties":{"dtname":"Khowai","stname":"TRIPURA","stcode11":"16","dtcode11":"708","year_stat":"update2014","Shape_Length":218085.48779810892,"Shape_Area":1204653793.5733485,"OBJECTID":543,"test":0,"Dist_LGD":652,"State_LGD":16}},{"type":"Feature","id":544,"geometry":{"type":"Polygon","coordinates":[[[91.403,24.1097],[91.3946,24.1063],[91.3759,24.1056],[91.3783,24.0791],[91.397,24.0472],[91.3899,24.0239],[91.3733,24.0023],[91.3757,23.9988],[91.3746,23.9949],[91.3789,23.9913],[91.3762,23.9875],[91.3793,23.9745],[91.3727,23.9748],[91.3605,23.9855],[91.3555,23.9858],[91.3526,23.981],[91.3472,23.9832],[91.3396,23.9817],[91.3292,23.9919],[91.325,23.9917],[91.3213,23.9947],[91.3131,23.9907],[91.3004,23.9974],[91.2985,23.9949],[91.3001,23.9885],[91.2935,23.977],[91.293,23.9713],[91.2839,23.9678],[91.2802,23.9823],[91.2616,23.9537],[91.2574,23.9427],[91.2663,23.9359],[91.2686,23.9234],[91.2558,23.919],[91.2328,23.92],[91.2415,23.9131],[91.2431,23.9035],[91.221,23.8927],[91.2195,23.8792],[91.2222,23.8703],[91.227,23.8667],[91.2309,23.8544],[91.2478,23.8298],[91.2377,23.8132],[91.235,23.8125],[91.2318,23.7978],[91.2279,23.7926],[91.2316,23.784],[91.2316,23.7674],[91.2271,23.7595],[91.2275,23.7534],[91.2207,23.7415],[91.2211,23.7371],[91.2263,23.7317],[91.2312,23.7329],[91.2362,23.7399],[91.2432,23.7402],[91.2468,23.7374],[91.2467,23.7319],[91.2532,23.7315],[91.2566,23.7347],[91.2615,23.7267],[91.2774,23.7226],[91.2793,23.7293],[91.2838,23.729],[91.2844,23.7372],[91.2938,23.7449],[91.2966,23.7449],[91.2984,23.7439],[91.2994,23.7341],[91.3044,23.7298],[91.3081,23.7301],[91.3103,23.7235],[91.3136,23.7216],[91.3199,23.7338],[91.3162,23.736],[91.3184,23.7419],[91.316,23.7551],[91.3177,23.7621],[91.333,23.7606],[91.3363,23.7561],[91.3447,23.7552],[91.3592,23.7435],[91.3707,23.7448],[91.378,23.7513],[91.3866,23.7491],[91.3855,23.7574],[91.3886,23.7724],[91.4013,23.7667],[91.4183,23.7693],[91.4357,23.7669],[91.4408,23.7517],[91.4552,23.7481],[91.4692,23.749],[91.474,23.747],[91.4907,23.7531],[91.5062,23.7544],[91.5224,23.7644],[91.5239,23.7687],[91.5303,23.7685],[91.5332,23.7746],[91.5447,23.7732],[91.5544,23.7867],[91.5609,23.79],[91.5656,23.789],[91.5656,23.803],[91.5626,23.8092],[91.5589,23.8331],[91.5595,23.8453],[91.5625,23.8533],[91.562,23.8633],[91.5608,23.87],[91.553,23.8801],[91.5548,23.895],[91.5501,23.9044],[91.551,23.9093],[91.5432,23.9064],[91.5311,23.912],[91.5307,23.9179],[91.5374,23.9267],[91.5396,23.9359],[91.5301,23.935],[91.5188,23.9531],[91.517,23.9594],[91.5216,23.9662],[91.5074,23.9887],[91.5059,23.9958],[91.4968,24.0037],[91.4973,24.0092],[91.5012,24.0127],[91.4927,24.0245],[91.4922,24.044],[91.4842,24.0508],[91.4785,24.0598],[91.47,24.0615],[91.4698,24.0696],[91.4777,24.0797],[91.4807,24.0933],[91.4761,24.096],[91.4765,24.0983],[91.4735,24.0986],[91.4631,24.0941],[91.4603,24.0959],[91.4559,24.0947],[91.4511,24.0994],[91.4439,24.0954],[91.4417,24.1005],[91.4378,24.1012],[91.438,24.0938],[91.4311,24.0995],[91.4302,24.1069],[91.4258,24.1055],[91.4147,24.1082],[91.4043,24.1076],[91.403,24.1097]]]},"properties":{"dtname":"West Tripura","stname":"TRIPURA","stcode11":"16","dtcode11":"289","year_stat":"2011_c","Shape_Length":201636.34571413038,"Shape_Area":1130627355.707499,"OBJECTID":544,"test":0,"Dist_LGD":272,"State_LGD":16}},{"type":"Feature","id":545,"geometry":{"type":"Polygon","coordinates":[[[91.6073,23.4044],[91.6015,23.4055],[91.6052,23.396],[91.6042,23.3909],[91.5983,23.3865],[91.5843,23.3876],[91.5751,23.3838],[91.5631,23.3892],[91.5578,23.4035],[91.554,23.4071],[91.5478,23.404],[91.5424,23.408],[91.5364,23.4016],[91.5277,23.4074],[91.5243,23.401],[91.5171,23.4079],[91.5101,23.405],[91.5026,23.3956],[91.4971,23.398],[91.4816,23.3955],[91.4757,23.3987],[91.468,23.3946],[91.4583,23.3958],[91.457,23.3918],[91.4638,23.3833],[91.4508,23.3764],[91.4544,23.3685],[91.4392,23.3691],[91.4319,23.3797],[91.4129,23.3717],[91.4101,23.3672],[91.4051,23.3685],[91.4049,23.3638],[91.3985,23.3585],[91.3937,23.3609],[91.3876,23.3557],[91.3908,23.3487],[91.3893,23.3437],[91.3922,23.3417],[91.3864,23.3311],[91.3876,23.3256],[91.3804,23.3258],[91.3777,23.3236],[91.3751,23.3131],[91.3697,23.3075],[91.3705,23.3027],[91.3628,23.299],[91.3559,23.2931],[91.3565,23.2899],[91.3408,23.2792],[91.327,23.2766],[91.3161,23.2801],[91.3098,23.2765],[91.318,23.2531],[91.3265,23.2524],[91.3255,23.2473],[91.3186,23.2445],[91.3189,23.24],[91.3236,23.2377],[91.3232,23.1583],[91.333,23.153],[91.337,23.1312],[91.3417,23.129],[91.3415,23.1183],[91.3474,23.1188],[91.3469,23.1024],[91.3697,23.0705],[91.3957,23.0561],[91.4158,23.0628],[91.4172,23.0651],[91.411,23.0668],[91.4173,23.083],[91.408,23.0835],[91.405,23.087],[91.406,23.097],[91.4001,23.0966],[91.4032,23.1137],[91.3968,23.1178],[91.3973,23.1304],[91.3918,23.1399],[91.3892,23.1529],[91.3847,23.1563],[91.3851,23.1753],[91.3818,23.1751],[91.3829,23.1847],[91.3798,23.1847],[91.3808,23.1917],[91.3854,23.1918],[91.3876,23.208],[91.3808,23.2087],[91.3919,23.2201],[91.3863,23.2276],[91.4009,23.2293],[91.4003,23.2351],[91.3924,23.246],[91.4086,23.2477],[91.4005,23.2562],[91.3972,23.2564],[91.3975,23.2652],[91.4003,23.2658],[91.4054,23.2568],[91.4112,23.2559],[91.4087,23.2853],[91.4133,23.2816],[91.4155,23.2828],[91.4165,23.2757],[91.4196,23.2733],[91.418,23.2697],[91.4158,23.2696],[91.4173,23.2646],[91.4153,23.2634],[91.4182,23.2556],[91.4211,23.2619],[91.4248,23.2581],[91.4312,23.2625],[91.4541,23.2605],[91.4546,23.2553],[91.4436,23.2488],[91.4439,23.2467],[91.4456,23.2438],[91.4578,23.2461],[91.4702,23.2278],[91.4538,23.2237],[91.4504,23.2193],[91.4582,23.2158],[91.4585,23.2135],[91.4753,23.2205],[91.4844,23.2094],[91.4827,23.2002],[91.4707,23.1965],[91.4849,23.1885],[91.4885,23.1923],[91.4922,23.189],[91.5031,23.1922],[91.5042,23.1894],[91.501,23.1854],[91.5074,23.1838],[91.5066,23.18],[91.4917,23.1776],[91.4923,23.172],[91.4981,23.1717],[91.491,23.1578],[91.4943,23.1524],[91.5071,23.1544],[91.4946,23.1472],[91.4987,23.1426],[91.508,23.1398],[91.5097,23.1434],[91.5152,23.1451],[91.5147,23.1387],[91.5031,23.1306],[91.5037,23.1273],[91.5175,23.1255],[91.5141,23.1227],[91.5153,23.1177],[91.5191,23.1179],[91.5203,23.1146],[91.5122,23.1133],[91.5112,23.1043],[91.5222,23.1041],[91.5188,23.0943],[91.5297,23.0918],[91.5299,23.0859],[91.525,23.0829],[91.534,23.0658],[91.5316,23.063],[91.5246,23.0615],[91.5237,23.0569],[91.5352,23.0561],[91.5304,23.0384],[91.5503,23.0385],[91.5383,23.0193],[91.5481,23.0193],[91.5423,22.9996],[91.5474,22.9944],[91.557,22.9967],[91.5573,22.9786],[91.575,22.9688],[91.5763,22.9657],[91.5897,22.9768],[91.5929,22.9729],[91.5981,22.9761],[91.601,22.9718],[91.606,22.9721],[91.6051,22.9662],[91.6115,22.9628],[91.6133,22.959],[91.6047,22.9626],[91.5998,22.9546],[91.6088,22.9572],[91.6068,22.9509],[91.615,22.9521],[91.6157,22.9502],[91.6126,22.948],[91.614,22.9447],[91.6177,22.9439],[91.6194,22.9392],[91.6254,22.9434],[91.6241,22.9501],[91.6273,22.9555],[91.6252,22.9619],[91.6317,22.9592],[91.6372,22.9624],[91.6413,22.9747],[91.6458,22.9766],[91.6456,22.9847],[91.6498,22.9832],[91.6515,22.9762],[91.6569,22.9775],[91.6585,22.9818],[91.6627,22.9793],[91.6662,22.9809],[91.669,22.9781],[91.6772,22.9803],[91.6842,22.9773],[91.694,22.9882],[91.7037,22.9883],[91.7054,22.9845],[91.7101,22.9827],[91.7125,22.984],[91.713,22.9894],[91.7197,22.9874],[91.7265,22.999],[91.744,23.0069],[91.7541,23.0225],[91.7611,23.0256],[91.7616,23.0298],[91.7683,23.034],[91.7718,23.0331],[91.7689,23.0412],[91.7715,23.0417],[91.7746,23.0384],[91.7737,23.028],[91.7803,23.029],[91.7793,23.0365],[91.7821,23.0342],[91.7842,23.0384],[91.7825,23.0485],[91.7774,23.0565],[91.7795,23.0577],[91.779,23.061],[91.7738,23.0662],[91.7744,23.0696],[91.784,23.0716],[91.7892,23.0675],[91.7894,23.0717],[91.7901,23.0689],[91.7956,23.0673],[91.7942,23.0624],[91.799,23.0649],[91.8057,23.0633],[91.8061,23.0668],[91.812,23.0662],[91.8129,23.073],[91.8178,23.0728],[91.8157,23.0747],[91.8172,23.0786],[91.8148,23.0807],[91.8179,23.083],[91.8199,23.0799],[91.8242,23.0835],[91.8222,23.0862],[91.8352,23.0933],[91.8255,23.0992],[91.8204,23.0998],[91.8202,23.0976],[91.8135,23.0992],[91.8177,23.1021],[91.8181,23.1085],[91.8162,23.11],[91.818,23.1119],[91.8153,23.1194],[91.8114,23.1218],[91.8151,23.1328],[91.809,23.134],[91.8087,23.1389],[91.8114,23.1441],[91.8145,23.145],[91.8065,23.1576],[91.81,23.1651],[91.8053,23.1677],[91.8071,23.1723],[91.8032,23.1766],[91.8062,23.1798],[91.7952,23.1868],[91.7985,23.1939],[91.7892,23.2044],[91.7886,23.2077],[91.7928,23.2093],[91.7887,23.2152],[91.792,23.2181],[91.7914,23.2266],[91.7848,23.2322],[91.7859,23.2391],[91.7839,23.2435],[91.781,23.2427],[91.7802,23.2394],[91.7769,23.2437],[91.7806,23.2471],[91.7784,23.2562],[91.7755,23.2563],[91.7775,23.2601],[91.7758,23.2616],[91.7769,23.2697],[91.7538,23.2705],[91.7405,23.2634],[91.7195,23.2897],[91.7231,23.3006],[91.7227,23.3111],[91.7259,23.3139],[91.7061,23.321],[91.6832,23.3393],[91.6821,23.3467],[91.6686,23.3567],[91.6419,23.3508],[91.6367,23.3521],[91.6229,23.3665],[91.6165,23.38],[91.6136,23.4006],[91.6073,23.4044]]]},"properties":{"dtname":"South Tripura","stname":"TRIPURA","stcode11":"16","dtcode11":"290","year_stat":"2011_c","Shape_Length":354877.2879833936,"Shape_Area":1785393551.5861042,"OBJECTID":545,"test":0,"Dist_LGD":271,"State_LGD":16}},{"type":"Feature","id":546,"geometry":{"type":"Polygon","coordinates":[[[92.001,24.3952],[91.999,24.3905],[91.9933,24.3912],[91.9915,24.3828],[91.9883,24.3802],[91.9858,24.3837],[91.9766,24.3871],[91.9718,24.3831],[91.9769,24.3742],[91.9813,24.3735],[91.982,24.3676],[91.9853,24.366],[91.9812,24.3636],[91.9809,24.3604],[91.9922,24.3477],[91.9951,24.3386],[91.9912,24.3373],[91.9938,24.3289],[91.9846,24.3271],[91.9801,24.329],[91.9792,24.3333],[91.9767,24.3319],[91.9671,24.3557],[91.9601,24.3587],[91.9446,24.3509],[91.942,24.3459],[91.9276,24.3424],[91.9222,24.338],[91.9404,24.2831],[91.9423,24.2631],[91.9261,24.2132],[91.9171,24.1722],[91.9191,24.1662],[91.9168,24.1643],[91.9201,24.1546],[91.9178,24.1542],[91.9168,24.1487],[91.9138,24.1474],[91.9136,24.1423],[91.9101,24.1411],[91.9178,24.131],[91.9183,24.1149],[91.9232,24.1112],[91.9235,24.1082],[91.9388,24.0979],[91.9509,24.0942],[91.9631,24.0777],[91.9696,24.0757],[91.9718,24.0722],[91.9672,24.0683],[91.9666,24.0621],[91.9685,24.0601],[91.9719,24.0641],[91.9745,24.0635],[91.9764,24.0674],[91.9788,24.0653],[91.9812,24.0669],[91.9886,24.0737],[91.9931,24.0817],[92.0019,24.0751],[92.0037,24.0804],[92.0021,24.0854],[92.0069,24.0996],[92.0106,24.0991],[92.0149,24.0926],[92.0234,24.0947],[92.0302,24.0904],[92.0507,24.1001],[92.0734,24.0957],[92.0663,24.0835],[92.0692,24.0743],[92.0642,24.0575],[92.066,24.0507],[92.0593,24.0284],[92.0757,24.019],[92.0868,24.0169],[92.0858,24.0071],[92.0807,23.9981],[92.083,23.9894],[92.0966,23.9928],[92.1117,23.9931],[92.1165,23.995],[92.1187,24.0024],[92.1085,24.0085],[92.1081,24.0165],[92.1117,24.0213],[92.1104,24.0238],[92.1168,24.0249],[92.1174,24.0337],[92.1222,24.0383],[92.1344,24.0324],[92.1381,24.0393],[92.1427,24.0408],[92.1428,24.0444],[92.1387,24.0469],[92.143,24.051],[92.1482,24.0635],[92.1607,24.0781],[92.1647,24.1001],[92.1678,24.1019],[92.1645,24.11],[92.158,24.1149],[92.1452,24.1171],[92.1514,24.1195],[92.1645,24.1312],[92.181,24.1369],[92.1909,24.1431],[92.1933,24.1487],[92.2019,24.1534],[92.2048,24.1819],[92.2027,24.1841],[92.1932,24.1827],[92.188,24.1844],[92.1841,24.1921],[92.177,24.1944],[92.1721,24.1901],[92.1672,24.2027],[92.1642,24.2033],[92.1441,24.2015],[92.1403,24.1993],[92.1412,24.1958],[92.1382,24.1918],[92.1319,24.2193],[92.1248,24.2226],[92.1249,24.2178],[92.1228,24.2178],[92.1201,24.229],[92.1117,24.2356],[92.1038,24.2377],[92.0996,24.2497],[92.1,24.2595],[92.0972,24.264],[92.0896,24.2611],[92.0777,24.2681],[92.0682,24.2706],[92.0714,24.3004],[92.0626,24.3124],[92.0683,24.3402],[92.07,24.3767],[92.0431,24.3787],[92.0403,24.3771],[92.0341,24.3825],[92.0264,24.3835],[92.0246,24.3869],[92.0215,24.3862],[92.0225,24.3883],[92.0202,24.389],[92.0079,24.3842],[92.0067,24.39],[92.001,24.3952]]]},"properties":{"dtname":"Unokoti","stname":"TRIPURA","stcode11":"16","dtcode11":"710","year_stat":"update2014","Shape_Length":191409.63928075813,"Shape_Area":827079369.9402747,"OBJECTID":546,"test":0,"Dist_LGD":655,"State_LGD":16}}]}