{"type":"FeatureCollection","crs":{"type":"name","properties":{"name":"EPSG:4326"}},"features":[{"type":"Feature","id":196,"geometry":{"type":"Polygon","coordinates":[[[93.9897,28.6878],[93.9621,28.7124],[93.9587,28.704],[93.9363,28.6764],[93.9213,28.6697],[93.9059,28.676],[93.8671,28.7031],[93.8459,28.7068],[93.8207,28.6943],[93.7872,28.6708],[93.7771,28.668],[93.7335,28.6888],[93.7016,28.6795],[93.6875,28.6789],[93.6714,28.6715],[93.6221,28.6573],[93.609,28.6555],[93.5633,28.6592],[93.5359,28.6585],[93.5266,28.6609],[93.5223,28.6653],[93.5206,28.6735],[93.5114,28.6795],[93.4933,28.6837],[93.4814,28.6747],[93.4764,28.6533],[93.4689,28.6518],[93.459,28.6681],[93.4479,28.6758],[93.432,28.662],[93.4141,28.6526],[93.3919,28.6492],[93.3531,28.6386],[93.3392,28.6399],[93.3346,28.6335],[93.3299,28.608],[93.3021,28.5993],[93.2997,28.5918],[93.3074,28.566],[93.291,28.5431],[93.2779,28.5045],[93.2373,28.4824],[93.2095,28.4519],[93.1846,28.4396],[93.183,28.4324],[93.2277,28.4079],[93.2334,28.4002],[93.2241,28.3775],[93.2211,28.361],[93.2245,28.3405],[93.2216,28.335],[93.223,28.3342],[93.2265,28.3357],[93.2293,28.3445],[93.2394,28.3509],[93.2457,28.3609],[93.2597,28.3671],[93.2828,28.3649],[93.2848,28.3552],[93.2942,28.3404],[93.3369,28.3534],[93.3442,28.3455],[93.3604,28.3437],[93.3589,28.3369],[93.3608,28.3299],[93.3785,28.3235],[93.3801,28.3217],[93.3788,28.3116],[93.3839,28.3128],[93.3862,28.3064],[93.4001,28.3092],[93.4085,28.3068],[93.4143,28.2885],[93.4248,28.2827],[93.4317,28.28],[93.4368,28.2828],[93.4452,28.2832],[93.453,28.272],[93.4552,28.2717],[93.4687,28.2738],[93.4761,28.2812],[93.4797,28.2815],[93.5018,28.2753],[93.5049,28.2711],[93.5124,28.2681],[93.5314,28.2703],[93.5453,28.2673],[93.5547,28.2591],[93.5651,28.2638],[93.5671,28.2591],[93.5767,28.2665],[93.5907,28.2706],[93.6116,28.2714],[93.6249,28.2927],[93.6277,28.3069],[93.6346,28.3082],[93.6471,28.3033],[93.6602,28.3047],[93.6677,28.3154],[93.6794,28.32],[93.6799,28.322],[93.702,28.308],[93.722,28.2913],[93.7461,28.2846],[93.758,28.2684],[93.7656,28.2629],[93.8181,28.2489],[93.8395,28.2392],[93.8418,28.2363],[93.8408,28.2298],[93.8465,28.2078],[93.8761,28.161],[93.8926,28.1288],[93.8805,28.1257],[93.8764,28.1209],[93.8762,28.1152],[93.8808,28.1078],[93.8627,28.0924],[93.8538,28.0834],[93.8546,28.0813],[93.8747,28.0732],[93.876,28.0715],[93.8722,28.0594],[93.874,28.0534],[93.888,28.0379],[93.9097,28.0294],[93.9119,28.0253],[93.9124,28.0128],[93.941,28.0004],[93.9451,27.9931],[93.9439,27.986],[93.949,27.9807],[93.9547,27.9794],[93.9611,27.9813],[93.969,27.9775],[93.9878,27.975],[94.011,27.9563],[94.0182,27.9548],[94.0384,27.9568],[94.049,27.9527],[94.0681,27.9392],[94.057,27.9222],[94.0477,27.9146],[94.0476,27.912],[94.0561,27.9063],[94.0601,27.8695],[94.0741,27.8494],[94.0865,27.8532],[94.0964,27.8599],[94.122,27.8619],[94.1285,27.8579],[94.1414,27.8663],[94.149,27.8661],[94.1539,27.852],[94.1601,27.8439],[94.1704,27.8455],[94.1918,27.8366],[94.1934,27.8115],[94.2527,27.8082],[94.2607,27.8123],[94.2684,27.812],[94.3202,27.7752],[94.3293,27.7607],[94.3348,27.7602],[94.3506,27.772],[94.3559,27.772],[94.3608,27.7777],[94.366,27.7797],[94.3736,27.7897],[94.38,27.7918],[94.382,27.7974],[94.3868,27.7994],[94.3947,27.7966],[94.406,27.8014],[94.4048,27.8055],[94.4114,27.806],[94.4139,27.8098],[94.4385,27.8129],[94.4439,27.8222],[94.4441,27.8287],[94.4562,27.8284],[94.4699,27.8382],[94.4772,27.8353],[94.48,27.8389],[94.4924,27.8405],[94.5037,27.8364],[94.5335,27.85],[94.5592,27.8563],[94.5771,27.8561],[94.5891,27.8617],[94.5948,27.8708],[94.5929,27.8901],[94.558,27.9025],[94.5425,27.9255],[94.5377,27.9334],[94.5358,27.944],[94.5251,27.9583],[94.5227,27.9665],[94.5253,27.9772],[94.532,27.986],[94.5129,28.0155],[94.5062,28.0194],[94.4842,28.0218],[94.4753,28.0394],[94.467,28.0488],[94.4393,28.061],[94.4256,28.0627],[94.4083,28.0692],[94.3993,28.08],[94.3918,28.0828],[94.3976,28.1048],[94.3865,28.1211],[94.3918,28.1366],[94.3914,28.142],[94.3777,28.1587],[94.3746,28.1681],[94.3765,28.1766],[94.3744,28.1811],[94.3607,28.1906],[94.3564,28.1986],[94.3677,28.2115],[94.3692,28.2442],[94.3834,28.2581],[94.4041,28.253],[94.4169,28.2543],[94.3941,28.2636],[94.3898,28.2786],[94.3748,28.295],[94.3776,28.309],[94.4032,28.3279],[94.4013,28.3404],[94.3861,28.3359],[94.3766,28.3406],[94.3727,28.3443],[94.3708,28.3518],[94.3679,28.3532],[94.3296,28.3579],[94.3221,28.3687],[94.3085,28.3756],[94.3017,28.396],[94.3085,28.417],[94.2964,28.4228],[94.2928,28.4288],[94.2834,28.432],[94.2675,28.4323],[94.2417,28.4468],[94.2367,28.4419],[94.2367,28.4336],[94.2316,28.4282],[94.2192,28.4363],[94.1925,28.4299],[94.1845,28.4295],[94.1733,28.4351],[94.1626,28.4324],[94.1518,28.4362],[94.1391,28.4445],[94.1327,28.4515],[94.1264,28.4671],[94.1148,28.4758],[94.1114,28.4892],[94.1056,28.4976],[94.109,28.5032],[94.1088,28.5213],[94.1073,28.5244],[94.1031,28.5254],[94.0968,28.5361],[94.0851,28.5338],[94.0715,28.5393],[94.058,28.5496],[94.0497,28.5512],[94.0014,28.5778],[94.0034,28.6109],[94.0061,28.6218],[94.0102,28.6319],[94.0233,28.6513],[94.0156,28.6686],[94.0041,28.6747],[93.9897,28.6878]]]},"properties":{"dtname":"Upper Subansiri","stname":"ARUNACHAL PRADESH","stcode11":"12","dtcode11":"249","year_stat":"2011_c","Shape_Length":544536.6352909873,"Shape_Area":8288549159.479194,"OBJECTID":196,"test":0,"Dist_LGD":241,"State_LGD":12}},{"type":"Feature","id":198,"geometry":{"type":"Polygon","coordinates":[[[96.6628,28.4603],[96.6374,28.4587],[96.5969,28.4609],[96.5779,28.4578],[96.5578,28.4477],[96.5494,28.4369],[96.5321,28.4293],[96.5085,28.413],[96.495,28.4183],[96.4783,28.4194],[96.4566,28.414],[96.4303,28.3865],[96.4211,28.3457],[96.4109,28.3415],[96.3976,28.3393],[96.3904,28.3575],[96.3783,28.3589],[96.3732,28.3822],[96.3693,28.3893],[96.3183,28.3812],[96.3137,28.3835],[96.304,28.374],[96.3113,28.3655],[96.3285,28.3544],[96.3371,28.3396],[96.3344,28.328],[96.3017,28.2838],[96.295,28.2679],[96.2954,28.2493],[96.2978,28.2366],[96.3355,28.1851],[96.3355,28.1722],[96.3259,28.1479],[96.3272,28.1312],[96.3023,28.1058],[96.2795,28.0963],[96.273,28.0913],[96.2733,28.0804],[96.2878,28.0618],[96.334,28.0229],[96.3709,27.9979],[96.3918,27.975],[96.3965,27.9575],[96.4164,27.9233],[96.4309,27.914],[96.5102,27.9058],[96.5288,27.9007],[96.5507,27.886],[96.5727,27.863],[96.5859,27.8533],[96.6083,27.8598],[96.6139,27.8576],[96.6202,27.8482],[96.6191,27.8359],[96.6302,27.8275],[96.6344,27.8151],[96.6346,27.8037],[96.6126,27.7739],[96.6133,27.7661],[96.631,27.7503],[96.6398,27.7379],[96.6346,27.7297],[96.6206,27.7203],[96.6162,27.7094],[96.6189,27.6987],[96.6292,27.6847],[96.6487,27.6739],[96.6924,27.6656],[96.6999,27.6605],[96.7055,27.6508],[96.7269,27.6474],[96.7466,27.6327],[96.7564,27.6214],[96.7648,27.6171],[96.7683,27.6162],[96.7732,27.6236],[96.7739,27.6312],[96.7826,27.6426],[96.7913,27.64],[96.8023,27.6326],[96.8259,27.6328],[96.8299,27.6289],[96.8488,27.6241],[96.8613,27.631],[96.8831,27.6241],[96.9035,27.6138],[96.9117,27.6224],[96.9126,27.6288],[96.9214,27.6329],[96.9234,27.6393],[96.9301,27.645],[96.9351,27.6617],[96.9509,27.6644],[96.9663,27.6626],[96.9696,27.6678],[96.9773,27.6637],[96.983,27.6665],[96.9814,27.6701],[96.9854,27.6859],[96.9905,27.69],[96.9933,27.6973],[97.0084,27.7103],[97.0091,27.7173],[97.0181,27.7278],[97.019,27.7311],[97.0165,27.7339],[97.0193,27.7395],[97.0225,27.7421],[97.0315,27.7429],[97.0315,27.7495],[97.0403,27.7481],[97.0475,27.7393],[97.0565,27.7475],[97.0615,27.7486],[97.0719,27.7387],[97.0877,27.7342],[97.0976,27.7505],[97.0973,27.7587],[97.1009,27.7667],[97.0946,27.7801],[97.0986,27.785],[97.1204,27.79],[97.1301,27.798],[97.1335,27.8066],[97.1565,27.8141],[97.1651,27.8209],[97.164,27.8277],[97.1832,27.8374],[97.1988,27.8559],[97.233,27.8814],[97.2435,27.8954],[97.2527,27.901],[97.3049,27.9213],[97.311,27.9165],[97.3201,27.9031],[97.3173,27.8807],[97.3396,27.8852],[97.3609,27.8762],[97.3851,27.8874],[97.3836,27.8947],[97.3759,27.9037],[97.3747,27.9091],[97.3838,27.9177],[97.3838,27.9219],[97.3718,27.9356],[97.3748,27.9545],[97.3744,27.9775],[97.3875,28.0033],[97.4079,28.0064],[97.4115,28.0154],[97.3949,28.0255],[97.3786,28.0316],[97.3735,28.0306],[97.3644,28.044],[97.3704,28.0541],[97.37,28.0618],[97.3282,28.057],[97.3083,28.0617],[97.3043,28.0689],[97.3068,28.0851],[97.3357,28.1114],[97.3367,28.1164],[97.3234,28.1336],[97.3214,28.1402],[97.3275,28.1549],[97.356,28.1804],[97.3604,28.1884],[97.3688,28.1924],[97.389,28.1831],[97.3972,28.1854],[97.3973,28.1924],[97.3715,28.2176],[97.3619,28.2237],[97.3483,28.2264],[97.3244,28.2431],[97.31,28.2441],[97.3047,28.2504],[97.3033,28.2563],[97.2791,28.2687],[97.2652,28.2707],[97.2384,28.2677],[97.2313,28.2734],[97.2214,28.2926],[97.1898,28.2871],[97.1711,28.2919],[97.1666,28.2951],[97.1561,28.3198],[97.1493,28.327],[97.1234,28.3493],[97.1103,28.352],[97.0901,28.3629],[97.0636,28.3528],[97.0493,28.3513],[97.0428,28.3474],[97.0339,28.3319],[97.0202,28.3195],[96.994,28.3095],[96.9845,28.3155],[96.9716,28.3171],[96.9504,28.3334],[96.9235,28.3386],[96.9186,28.3458],[96.9176,28.357],[96.908,28.365],[96.8964,28.3796],[96.8603,28.3721],[96.85,28.3621],[96.8243,28.3611],[96.7804,28.3643],[96.7722,28.3681],[96.7611,28.3983],[96.7555,28.4096],[96.7491,28.4159],[96.7321,28.425],[96.7149,28.4272],[96.7043,28.4318],[96.6796,28.4456],[96.6628,28.4603]]]},"properties":{"dtname":"Anjaw","stname":"ARUNACHAL PRADESH","stcode11":"12","dtcode11":"260","year_stat":"2011_c","Shape_Length":466057.05058363255,"Shape_Area":8393805761.943263,"OBJECTID":198,"test":0,"Dist_LGD":628,"State_LGD":12}},{"type":"Feature","id":228,"geometry":{"type":"Polygon","coordinates":[[[96.7055,27.6508],[96.6999,27.6605],[96.6822,27.6548],[96.6691,27.6474],[96.6581,27.6338],[96.6407,27.628],[96.6252,27.6317],[96.6138,27.6382],[96.6081,27.6432],[96.6088,27.6467],[96.6035,27.6468],[96.5962,27.6541],[96.5882,27.6532],[96.582,27.6562],[96.5664,27.6569],[96.5495,27.6469],[96.5306,27.6468],[96.5191,27.6367],[96.5085,27.6432],[96.5028,27.6419],[96.4802,27.6461],[96.4734,27.6458],[96.4689,27.6425],[96.4524,27.6412],[96.4469,27.6451],[96.444,27.6522],[96.4397,27.6525],[96.4226,27.6485],[96.4195,27.6511],[96.4129,27.6513],[96.4111,27.6495],[96.3941,27.6488],[96.3937,27.6455],[96.3837,27.6389],[96.3727,27.645],[96.3518,27.6246],[96.3483,27.6062],[96.3362,27.5985],[96.3276,27.5793],[96.2889,27.5555],[96.2759,27.5591],[96.2684,27.5579],[96.2642,27.5634],[96.2426,27.5637],[96.2372,27.5673],[96.2247,27.5683],[96.2158,27.5773],[96.2096,27.5774],[96.1997,27.5841],[96.1968,27.5832],[96.1923,27.5884],[96.1817,27.5902],[96.1715,27.5948],[96.1699,27.598],[96.167,27.5971],[96.1608,27.6012],[96.1401,27.6072],[96.1327,27.6065],[96.1304,27.6094],[96.1348,27.6119],[96.1331,27.6152],[96.1277,27.6165],[96.1257,27.6197],[96.0614,27.6064],[96.0534,27.593],[96.041,27.5867],[96.0018,27.5568],[95.9986,27.5597],[95.8741,27.5469],[95.8768,27.543],[95.8784,27.5189],[95.8757,27.5125],[95.8787,27.505],[95.8868,27.4972],[95.8799,27.4971],[95.8742,27.4933],[95.8706,27.4667],[95.8565,27.4614],[95.8532,27.457],[95.8567,27.445],[95.8467,27.4387],[95.8422,27.4278],[95.8444,27.4217],[95.8499,27.4179],[95.8529,27.4112],[95.8601,27.4081],[95.8624,27.4116],[95.8569,27.4157],[95.857,27.42],[95.8708,27.4264],[95.8756,27.4349],[95.8831,27.4354],[95.8848,27.4322],[95.8839,27.4141],[95.8882,27.4091],[95.8839,27.4026],[95.8856,27.3982],[95.8909,27.4013],[95.8986,27.413],[95.8999,27.4221],[95.9079,27.4344],[95.9181,27.4348],[95.9278,27.4386],[95.9343,27.4357],[95.9412,27.4374],[95.9474,27.4331],[95.9451,27.4267],[95.9547,27.4197],[95.9567,27.4266],[95.9602,27.4291],[95.9631,27.4273],[95.9617,27.4181],[95.9645,27.4181],[95.9654,27.4271],[95.9693,27.428],[95.9695,27.4236],[95.9753,27.4195],[95.9701,27.415],[95.974,27.4115],[95.9832,27.4119],[95.9845,27.4045],[95.99,27.4025],[95.9964,27.3947],[95.9981,27.388],[96.0178,27.3695],[96.0177,27.365],[96.0126,27.3651],[95.9964,27.3565],[95.9932,27.358],[95.9891,27.3566],[95.9868,27.3457],[95.9764,27.3375],[95.9715,27.3366],[95.9709,27.3329],[95.9652,27.328],[95.9676,27.3258],[95.972,27.3275],[95.9755,27.3246],[95.9627,27.3232],[95.9609,27.3165],[95.955,27.3178],[95.9565,27.3127],[95.9599,27.311],[95.9465,27.3039],[95.9416,27.3053],[95.9375,27.3009],[95.93,27.3004],[95.9179,27.2914],[95.9147,27.2921],[95.9133,27.2892],[95.9071,27.2891],[95.906,27.2823],[95.901,27.284],[95.8971,27.2823],[95.9043,27.274],[95.9,27.2743],[95.8994,27.2688],[95.8935,27.2677],[95.8945,27.2611],[95.8923,27.2554],[95.8812,27.256],[95.8764,27.2597],[95.8693,27.2601],[95.8563,27.2712],[95.8537,27.2793],[95.8592,27.2873],[95.8153,27.2786],[95.8051,27.273],[95.8054,27.2759],[95.7994,27.2766],[95.8025,27.283],[95.8008,27.2844],[95.7878,27.2787],[95.7881,27.2768],[95.7795,27.2698],[95.742,27.2668],[95.7346,27.2605],[95.727,27.2597],[95.7201,27.2496],[95.7137,27.2503],[95.7119,27.2529],[95.7014,27.2487],[95.6923,27.2533],[95.6814,27.2518],[95.6759,27.2471],[95.6338,27.2304],[95.6409,27.2088],[95.6406,27.1931],[95.6683,27.1787],[95.6721,27.1683],[95.6709,27.1501],[95.6637,27.1251],[95.6445,27.1115],[95.639,27.1001],[95.6489,27.0808],[95.6498,27.0633],[95.6289,27.0269],[95.631,27.0111],[95.6428,26.9907],[95.6595,26.9853],[95.681,26.985],[95.6819,26.9619],[95.6933,26.9444],[95.694,26.9177],[95.6872,26.9037],[95.6778,26.8986],[95.6793,26.896],[95.6945,26.8921],[95.7058,26.8806],[95.7166,26.8789],[95.7241,26.8822],[95.7345,26.894],[95.745,26.8963],[95.7467,26.9043],[95.7506,26.909],[95.7465,26.9155],[95.7474,26.9231],[95.7495,26.924],[95.7479,26.9261],[95.7553,26.9293],[95.7559,26.9344],[95.7598,26.9367],[95.7589,26.9462],[95.7552,26.954],[95.7591,26.9555],[95.7603,26.9638],[95.7652,26.9688],[95.7684,26.977],[95.7812,26.9777],[95.7834,26.9901],[95.7961,26.9981],[95.802,27.0065],[95.8023,27.0151],[95.8125,27.0145],[95.8136,27.0122],[95.831,27.0075],[95.8426,27.0142],[95.8509,27.0146],[95.8579,27.0119],[95.8702,27.0131],[95.8755,27.0149],[95.8758,27.0198],[95.879,27.0227],[95.8858,27.0262],[95.8892,27.0239],[95.894,27.0258],[95.904,27.0391],[95.9101,27.0366],[95.926,27.0449],[95.9457,27.0514],[95.9529,27.0658],[95.9558,27.078],[95.9646,27.0867],[95.9635,27.0928],[95.9671,27.0955],[95.9674,27.0985],[95.9847,27.1124],[95.9988,27.1354],[96.0101,27.1423],[96.0097,27.1458],[96.0146,27.1505],[96.0184,27.1612],[96.0179,27.1694],[96.0223,27.1797],[96.054,27.1959],[96.0574,27.2016],[96.064,27.2058],[96.0716,27.205],[96.0772,27.2082],[96.0899,27.2232],[96.099,27.2241],[96.1119,27.2317],[96.1203,27.2315],[96.1363,27.2413],[96.1481,27.2426],[96.1551,27.2484],[96.1853,27.2492],[96.1939,27.2615],[96.2095,27.2614],[96.2111,27.2652],[96.2243,27.2726],[96.2286,27.2788],[96.2319,27.2763],[96.2454,27.2766],[96.248,27.2728],[96.2555,27.2747],[96.2592,27.2722],[96.2714,27.2714],[96.2754,27.2796],[96.2742,27.2834],[96.2838,27.2849],[96.2945,27.2914],[96.3062,27.2941],[96.3257,27.2888],[96.3301,27.2898],[96.3308,27.2872],[96.3402,27.2849],[96.3459,27.2854],[96.3522,27.2949],[96.3669,27.2868],[96.3692,27.29],[96.3748,27.285],[96.3821,27.2867],[96.3862,27.2847],[96.4026,27.2932],[96.4077,27.2878],[96.4214,27.3014],[96.4358,27.3024],[96.4406,27.3063],[96.4442,27.302],[96.4509,27.3012],[96.4551,27.3026],[96.4577,27.3066],[96.4882,27.2962],[96.4902,27.3025],[96.5076,27.299],[96.5117,27.2964],[96.512,27.2923],[96.5176,27.2855],[96.5236,27.2863],[96.5315,27.2963],[96.5413,27.3002],[96.5425,27.3089],[96.5511,27.3136],[96.5509,27.3183],[96.5549,27.3203],[96.5643,27.3186],[96.5673,27.3221],[96.5746,27.3239],[96.5799,27.3307],[96.5885,27.3357],[96.5962,27.3336],[96.5955,27.3405],[96.5912,27.348],[96.6005,27.3549],[96.6057,27.3658],[96.6257,27.3664],[96.647,27.3594],[96.6603,27.3644],[96.6651,27.3613],[96.6688,27.3619],[96.6725,27.3577],[96.6756,27.3614],[96.6977,27.3577],[96.7023,27.36],[96.7009,27.3626],[96.7042,27.3723],[96.721,27.3636],[96.7296,27.362],[96.7295,27.3594],[96.7452,27.3584],[96.7513,27.3526],[96.7619,27.3538],[96.7668,27.3574],[96.7893,27.3458],[96.7967,27.3458],[96.805,27.3293],[96.8222,27.3091],[96.8355,27.3027],[96.8387,27.2972],[96.8481,27.2904],[96.8501,27.2782],[96.8469,27.2716],[96.8628,27.2597],[96.885,27.2593],[96.8842,27.2559],[96.8879,27.2478],[96.8815,27.2398],[96.8827,27.2366],[96.8878,27.2355],[96.8852,27.2323],[96.8856,27.2269],[96.8767,27.2207],[96.8671,27.2178],[96.8601,27.2107],[96.8547,27.2108],[96.8582,27.204],[96.8562,27.1936],[96.8599,27.1898],[96.8742,27.1806],[96.9013,27.1686],[96.909,27.1685],[96.9313,27.1616],[96.9429,27.164],[96.953,27.1622],[96.9559,27.1642],[96.964,27.1613],[96.9653,27.158],[96.9842,27.1544],[96.9929,27.1402],[97.0087,27.1402],[97.0272,27.1295],[97.0306,27.1314],[97.0362,27.1242],[97.0339,27.1185],[97.0415,27.1158],[97.0444,27.1128],[97.0445,27.1084],[97.0484,27.1056],[97.0521,27.1063],[97.062,27.0992],[97.0634,27.0918],[97.0709,27.0898],[97.0766,27.0992],[97.088,27.0953],[97.0968,27.0968],[97.098,27.0987],[97.0948,27.104],[97.1004,27.109],[97.1054,27.1046],[97.1191,27.1043],[97.125,27.0958],[97.1357,27.094],[97.1382,27.0915],[97.1439,27.0999],[97.144,27.1037],[97.1481,27.1074],[97.1495,27.1176],[97.1558,27.1187],[97.1616,27.1232],[97.1608,27.1289],[97.1657,27.1351],[97.1636,27.1422],[97.1588,27.1469],[97.151,27.1493],[97.147,27.1653],[97.1363,27.1655],[97.1323,27.1706],[97.1246,27.1747],[97.1219,27.1904],[97.0905,27.2136],[97.0925,27.2256],[97.0882,27.2388],[97.0738,27.2472],[97.0738,27.251],[97.0683,27.2574],[97.0549,27.2654],[97.0547,27.2752],[97.0405,27.2822],[97.0349,27.2951],[97.0288,27.3016],[97.0281,27.3085],[97.0243,27.3062],[97.0149,27.313],[97.0087,27.3105],[97.0073,27.3137],[96.9984,27.3188],[96.9954,27.3248],[96.9959,27.3328],[96.9902,27.3441],[96.981,27.3458],[96.9786,27.3564],[96.9621,27.3729],[96.9676,27.3812],[96.9604,27.3946],[96.9624,27.4016],[96.9537,27.4069],[96.9441,27.4088],[96.9347,27.4153],[96.9316,27.4196],[96.9336,27.4265],[96.9324,27.4314],[96.9164,27.4464],[96.9083,27.4483],[96.9034,27.4528],[96.9045,27.4707],[96.9102,27.481],[96.9105,27.4867],[96.926,27.508],[96.9353,27.5083],[96.9277,27.5121],[96.9265,27.527],[96.9196,27.5367],[96.9067,27.5443],[96.9097,27.5587],[96.9068,27.5682],[96.9084,27.5794],[96.9052,27.5817],[96.8902,27.5794],[96.8925,27.591],[96.8919,27.602],[96.8895,27.6045],[96.8929,27.6159],[96.8965,27.616],[96.8831,27.6241],[96.8613,27.631],[96.8488,27.6241],[96.8299,27.6289],[96.8259,27.6328],[96.8023,27.6326],[96.7913,27.64],[96.7826,27.6426],[96.7739,27.6312],[96.7732,27.6236],[96.7683,27.6162],[96.7564,27.6214],[96.7466,27.6327],[96.7269,27.6474],[96.7055,27.6508]]]},"properties":{"dtname":"Changlang","stname":"ARUNACHAL PRADESH","stcode11":"12","dtcode11":"253","year_stat":"2011_c","Shape_Length":675151.5498153158,"Shape_Area":6401658095.448293,"OBJECTID":228,"test":0,"Dist_LGD":229,"State_LGD":12}},{"type":"Feature","id":233,"geometry":{"type":"Polygon","coordinates":[[[92.257,27.8619],[92.236,27.8624],[92.2022,27.8568],[92.158,27.8368],[92.0572,27.7589],[92.0396,27.757],[91.9858,27.7698],[91.9677,27.7512],[91.9575,27.7505],[91.947,27.7285],[91.9207,27.7149],[91.9103,27.7261],[91.9042,27.7269],[91.8806,27.7217],[91.8724,27.7343],[91.8625,27.7368],[91.8533,27.7649],[91.8473,27.7755],[91.8356,27.7798],[91.8301,27.8075],[91.8264,27.8103],[91.8175,27.8033],[91.8127,27.8029],[91.8063,27.8088],[91.7734,27.8012],[91.7604,27.8012],[91.7119,27.8133],[91.6965,27.8221],[91.6718,27.8567],[91.6644,27.8583],[91.6443,27.8542],[91.6241,27.8577],[91.6099,27.854],[91.5966,27.8621],[91.587,27.8563],[91.5797,27.8621],[91.5723,27.8608],[91.567,27.8528],[91.5613,27.8518],[91.5551,27.8586],[91.5465,27.8556],[91.5484,27.8469],[91.5679,27.8154],[91.5754,27.8127],[91.5866,27.8188],[91.6013,27.8209],[91.6305,27.8008],[91.6335,27.7716],[91.6419,27.7652],[91.6423,27.758],[91.6319,27.747],[91.6314,27.7318],[91.6256,27.7153],[91.626,27.7059],[91.6183,27.7019],[91.6167,27.6959],[91.6123,27.6929],[91.6047,27.6949],[91.5986,27.6925],[91.6007,27.6865],[91.594,27.6832],[91.5919,27.6718],[91.569,27.6524],[91.5599,27.6334],[91.5653,27.6199],[91.5782,27.6082],[91.5789,27.5995],[91.5641,27.5841],[91.5688,27.5749],[91.5835,27.5622],[91.5964,27.5394],[91.6074,27.5436],[91.6112,27.5415],[91.6224,27.5132],[91.6459,27.4988],[91.6492,27.4846],[91.655,27.4828],[91.6762,27.4942],[91.6854,27.5022],[91.6919,27.5026],[91.7017,27.4953],[91.7124,27.491],[91.7155,27.4734],[91.7217,27.4701],[91.735,27.47],[91.7436,27.4736],[91.7515,27.474],[91.7583,27.4731],[91.7644,27.4662],[91.7754,27.4643],[91.811,27.4723],[91.8301,27.4687],[91.8507,27.4823],[91.8646,27.4818],[91.8738,27.4725],[91.8925,27.4729],[91.9,27.4679],[91.9104,27.4709],[91.9242,27.471],[91.9408,27.4603],[91.9561,27.4611],[91.9668,27.4664],[91.9805,27.4646],[91.9905,27.4739],[92.0126,27.4814],[92.0136,27.4914],[92.0196,27.5021],[92.0492,27.5167],[92.0932,27.5182],[92.1123,27.5252],[92.1244,27.5395],[92.1328,27.5626],[92.1521,27.5774],[92.1671,27.5808],[92.1835,27.5812],[92.2028,27.5775],[92.2094,27.5803],[92.2224,27.603],[92.2222,27.6273],[92.2334,27.6439],[92.2448,27.6509],[92.2645,27.6496],[92.2657,27.6512],[92.2699,27.6485],[92.343,27.6726],[92.356,27.6721],[92.3797,27.6662],[92.3934,27.6727],[92.4134,27.709],[92.409,27.7175],[92.4172,27.7408],[92.4128,27.7557],[92.4218,27.7667],[92.4583,27.7778],[92.4684,27.7939],[92.4724,27.8076],[92.4685,27.8147],[92.4564,27.8028],[92.4453,27.8003],[92.4154,27.8226],[92.4084,27.8217],[92.3845,27.8151],[92.3814,27.7946],[92.3519,27.7902],[92.3176,27.7778],[92.309,27.7788],[92.2864,27.8072],[92.2692,27.8536],[92.257,27.8619]]]},"properties":{"dtname":"Tawang","stname":"ARUNACHAL PRADESH","stcode11":"12","dtcode11":"245","year_stat":"2011_c","Shape_Length":326814.44942260295,"Shape_Area":3016230295.775791,"OBJECTID":233,"test":0,"Dist_LGD":238,"State_LGD":12}},{"type":"Feature","id":234,"geometry":{"type":"Polygon","coordinates":[[[93.5624,27.602],[93.5147,27.6502],[93.3992,27.6653],[93.3293,27.6697],[93.2913,27.6577],[93.2486,27.6208],[93.2387,27.6148],[93.2281,27.6027],[93.2404,27.6035],[93.2449,27.5991],[93.2594,27.5934],[93.2668,27.5959],[93.2718,27.5949],[93.2734,27.5909],[93.2841,27.588],[93.2821,27.5771],[93.3002,27.5789],[93.3107,27.5676],[93.3177,27.5671],[93.325,27.562],[93.3272,27.5572],[93.3306,27.5564],[93.3286,27.5496],[93.3183,27.5444],[93.3159,27.5333],[93.2953,27.5242],[93.2942,27.5214],[93.3021,27.5171],[93.3061,27.5062],[93.3107,27.5047],[93.3147,27.4988],[93.316,27.4909],[93.3208,27.4871],[93.3188,27.4821],[93.3222,27.4669],[93.3274,27.4607],[93.3241,27.4565],[93.3235,27.4495],[93.3147,27.4413],[93.3218,27.4403],[93.33,27.4424],[93.3346,27.4345],[93.3462,27.4256],[93.3635,27.4204],[93.3701,27.4154],[93.3681,27.4049],[93.3732,27.3904],[93.3675,27.3791],[93.3739,27.3701],[93.3396,27.3558],[93.3226,27.3525],[93.3032,27.3412],[93.295,27.3303],[93.2883,27.3277],[93.2918,27.3244],[93.2908,27.3138],[93.294,27.3078],[93.2908,27.303],[93.2942,27.2898],[93.2686,27.277],[93.2536,27.2729],[93.2504,27.2694],[93.2529,27.2653],[93.2257,27.2519],[93.2264,27.2475],[93.2318,27.2432],[93.2338,27.2381],[93.2298,27.2387],[93.224,27.235],[93.2225,27.2262],[93.226,27.2208],[93.2195,27.2157],[93.222,27.2039],[93.2196,27.1997],[93.2279,27.1965],[93.2461,27.2011],[93.2566,27.2075],[93.274,27.2109],[93.2801,27.2053],[93.2818,27.1996],[93.2854,27.1996],[93.291,27.1919],[93.3006,27.1866],[93.2988,27.1812],[93.3009,27.1788],[93.3117,27.1729],[93.3072,27.1721],[93.2933,27.1628],[93.2848,27.1635],[93.2764,27.1603],[93.2697,27.1536],[93.2468,27.1552],[93.2423,27.1532],[93.235,27.1437],[93.224,27.139],[93.2143,27.1379],[93.2112,27.1303],[93.2121,27.1175],[93.2147,27.1138],[93.2308,27.1083],[93.2376,27.1106],[93.2521,27.1092],[93.2719,27.1036],[93.293,27.0779],[93.2994,27.0762],[93.3041,27.0793],[93.3125,27.0794],[93.3229,27.062],[93.3292,27.0583],[93.3424,27.0367],[93.34,27.0323],[93.3427,27.024],[93.3408,27.0167],[93.3441,27.0109],[93.3393,27.0069],[93.34,26.9927],[93.3647,26.9824],[93.3806,26.9849],[93.3819,26.982],[93.3788,26.9798],[93.3783,26.9759],[93.3877,26.9736],[93.3925,26.9648],[93.3904,26.9628],[93.3911,26.9583],[93.4487,26.9509],[93.4624,26.938],[93.4706,26.9367],[93.4862,26.9424],[93.489,26.9363],[93.521,26.9478],[93.5409,26.9491],[93.5449,26.9513],[93.5491,26.9501],[93.5603,26.9528],[93.5866,26.9506],[93.6146,26.9604],[93.665,26.9686],[93.6936,26.9891],[93.7088,27.0082],[93.7233,27.0209],[93.7329,27.026],[93.7435,27.0278],[93.7673,27.0395],[93.7666,27.053],[93.7679,27.0546],[93.7678,27.0514],[93.7718,27.0542],[93.7708,27.0621],[93.7782,27.049],[93.7811,27.0656],[93.783,27.0645],[93.7837,27.0516],[93.7893,27.0507],[93.7938,27.0546],[93.7943,27.062],[93.7951,27.0571],[93.8001,27.058],[93.793,27.0684],[93.7937,27.0724],[93.8033,27.0582],[93.8113,27.059],[93.8083,27.066],[93.8107,27.0676],[93.8149,27.0616],[93.8211,27.0645],[93.8219,27.0679],[93.8291,27.0669],[93.8285,27.069],[93.8356,27.0744],[93.8331,27.0817],[93.8377,27.0855],[93.8314,27.0869],[93.8313,27.091],[93.8266,27.0971],[93.825,27.1165],[93.8199,27.1228],[93.814,27.1214],[93.8094,27.1234],[93.812,27.1312],[93.8031,27.1329],[93.7965,27.1292],[93.7943,27.1354],[93.7959,27.1377],[93.8053,27.1372],[93.8059,27.1489],[93.8253,27.1686],[93.8386,27.1724],[93.8641,27.1962],[93.8993,27.2392],[93.9282,27.2643],[93.9912,27.3284],[94.022,27.3463],[94.0302,27.3458],[94.0308,27.3485],[94.0597,27.3616],[94.0608,27.3654],[94.0691,27.3736],[94.0757,27.3898],[94.0895,27.4071],[94.1049,27.4141],[94.1178,27.4298],[94.1276,27.4347],[94.1314,27.441],[94.1593,27.4617],[94.1566,27.475],[94.1645,27.4769],[94.1691,27.4813],[94.1761,27.4822],[94.1922,27.4936],[94.2006,27.495],[94.209,27.4926],[94.2139,27.5009],[94.2198,27.5049],[94.2111,27.5124],[94.2054,27.5312],[94.1909,27.5359],[94.1505,27.5306],[94.1428,27.5259],[94.1388,27.5141],[94.1197,27.4974],[94.0939,27.4833],[94.0685,27.4825],[94.0452,27.4993],[93.9418,27.5113],[93.8888,27.4912],[93.8526,27.465],[93.8498,27.4403],[93.8273,27.4248],[93.8277,27.4073],[93.8352,27.3925],[93.8355,27.3635],[93.8269,27.3581],[93.8065,27.3712],[93.7847,27.3505],[93.7671,27.3462],[93.7407,27.3528],[93.7118,27.3466],[93.6853,27.3356],[93.6658,27.3362],[93.6557,27.3484],[93.631,27.3603],[93.613,27.3573],[93.6003,27.3676],[93.5959,27.4009],[93.5786,27.4348],[93.5694,27.4329],[93.5573,27.438],[93.5554,27.4525],[93.5679,27.472],[93.6074,27.4937],[93.6177,27.5322],[93.5624,27.602]]]},"properties":{"dtname":"Papum Pare","stname":"ARUNACHAL PRADESH","stcode11":"12","dtcode11":"248","year_stat":"2011_c","Shape_Length":481660.0371085522,"Shape_Area":4797625773.713977,"OBJECTID":234,"test":0,"Dist_LGD":237,"State_LGD":12}},{"type":"Feature","id":245,"geometry":{"type":"Polygon","coordinates":[[[95.535,27.2644],[95.5315,27.2611],[95.53,27.2646],[95.5254,27.2639],[95.5181,27.2577],[95.5087,27.262],[95.5046,27.2495],[95.4842,27.2413],[95.4828,27.2366],[95.4788,27.2342],[95.4774,27.2269],[95.4714,27.2228],[95.4723,27.219],[95.4675,27.2184],[95.4675,27.214],[95.4643,27.2112],[95.458,27.2099],[95.4558,27.2026],[95.4591,27.1955],[95.4624,27.1945],[95.4601,27.1914],[95.4665,27.1817],[95.4594,27.1758],[95.4646,27.1723],[95.4654,27.1665],[95.4624,27.1618],[95.4532,27.1574],[95.4621,27.1498],[95.4574,27.1442],[95.4567,27.1356],[95.4526,27.1293],[95.4493,27.1298],[95.4492,27.1347],[95.4443,27.1353],[95.4423,27.1315],[95.4446,27.1289],[95.4405,27.1288],[95.4395,27.126],[95.4206,27.1259],[95.3984,27.1088],[95.3837,27.1049],[95.3829,27.0983],[95.3746,27.0928],[95.387,27.0843],[95.3851,27.0644],[95.3888,27.0447],[95.3698,27.0395],[95.3602,27.0327],[95.3757,27.0179],[95.3772,27.0088],[95.3767,26.9865],[95.3696,26.956],[95.3681,26.9355],[95.3767,26.9251],[95.3791,26.9127],[95.3852,26.9092],[95.4066,26.8857],[95.414,26.8857],[95.4404,26.8672],[95.4718,26.8679],[95.5048,26.8767],[95.4965,26.8178],[95.5056,26.7997],[95.5071,26.8088],[95.5224,26.8135],[95.5246,26.8227],[95.5314,26.8272],[95.5361,26.827],[95.5432,26.8354],[95.5521,26.8316],[95.5566,26.8326],[95.5564,26.8296],[95.5696,26.8163],[95.5858,26.8171],[95.6007,26.8111],[95.608,26.8132],[95.612,26.8243],[95.6207,26.832],[95.6266,26.8428],[95.6291,26.8579],[95.6263,26.8619],[95.6342,26.8684],[95.6315,26.8737],[95.6382,26.8765],[95.6439,26.8761],[95.6461,26.8845],[95.6672,26.9029],[95.6778,26.8986],[95.6872,26.9037],[95.694,26.9177],[95.6933,26.9444],[95.6819,26.9619],[95.681,26.985],[95.6595,26.9853],[95.6428,26.9907],[95.631,27.0111],[95.6289,27.0269],[95.6498,27.0633],[95.6489,27.0808],[95.639,27.1001],[95.6445,27.1115],[95.6637,27.1251],[95.6709,27.1501],[95.6721,27.1683],[95.6683,27.1787],[95.6406,27.1931],[95.6409,27.2088],[95.6338,27.2304],[95.6189,27.2326],[95.6037,27.2243],[95.5875,27.223],[95.5745,27.2345],[95.5772,27.2382],[95.5742,27.2441],[95.5642,27.2448],[95.558,27.2491],[95.5534,27.249],[95.5509,27.2505],[95.5519,27.2532],[95.5481,27.254],[95.5482,27.2577],[95.5351,27.2617],[95.535,27.2644]]]},"properties":{"dtname":"Tirap","stname":"ARUNACHAL PRADESH","stcode11":"12","dtcode11":"254","year_stat":"2011_c","Shape_Length":193458.46192859276,"Shape_Area":1375923043.5763276,"OBJECTID":245,"test":0,"Dist_LGD":239,"State_LGD":12}},{"type":"Feature","id":504,"geometry":{"type":"Polygon","coordinates":[[[95.1363,27.8157],[95.3087,27.8681],[95.3795,27.8393],[95.5147,27.8796],[95.5145,27.8765],[95.5147,27.8796],[95.5201,27.8814],[95.5144,27.9163],[95.5084,27.9271],[95.5064,27.9363],[95.5015,27.9425],[95.5043,27.9672],[95.5311,27.992],[95.5397,28.0047],[95.5446,28.0203],[95.5563,28.0335],[95.563,28.0565],[95.5677,28.0889],[95.5696,28.1149],[95.5679,28.1342],[95.5621,28.1465],[95.5597,28.1691],[95.5639,28.255],[95.5623,28.2586],[95.549,28.2683],[95.5498,28.2757],[95.5408,28.2753],[95.543,28.2798],[95.535,28.2848],[95.5165,28.2775],[95.5142,28.2739],[95.4926,28.2683],[95.4868,28.2709],[95.4819,28.2698],[95.4778,28.2642],[95.4726,28.264],[95.4653,28.2575],[95.4603,28.2648],[95.4625,28.2773],[95.4509,28.2881],[95.4492,28.3002],[95.4366,28.3143],[95.419,28.3131],[95.412,28.3159],[95.3984,28.315],[95.3893,28.3076],[95.3832,28.3121],[95.3528,28.2922],[95.3462,28.284],[95.3422,28.2673],[95.342,28.2446],[95.3051,28.2239],[95.2982,28.2141],[95.3031,28.2025],[95.2957,28.1988],[95.2787,28.2021],[95.27,28.1974],[95.2596,28.1785],[95.2473,28.1703],[95.2357,28.1571],[95.2239,28.1521],[95.2305,28.1549],[95.2508,28.1502],[95.262,28.145],[95.2955,28.1211],[95.2881,28.1032],[95.2888,28.0906],[95.2404,28.0473],[95.2239,28.0481],[95.2172,28.0563],[95.177,28.0481],[95.1539,28.0399],[95.1427,28.0331],[95.1307,28.0309],[95.1151,28.0242],[95.08,28.022],[95.0674,28.0234],[95.0738,27.9905],[95.0857,27.981],[95.0891,27.9677],[95.0881,27.952],[95.0753,27.9401],[95.0719,27.916],[95.0858,27.9099],[95.1207,27.9035],[95.1152,27.8568],[95.1228,27.8482],[95.1363,27.8157]]]},"properties":{"dtname":"East Siang","stname":"ARUNACHAL PRADESH","stcode11":"12","dtcode11":"251","year_stat":"2011_c","Shape_Length":231673.86903228902,"Shape_Area":2110245771.5527132,"OBJECTID":504,"test":0,"Dist_LGD":232,"State_LGD":12}},{"type":"Feature","id":505,"geometry":{"type":"Polygon","coordinates":[[[96.3113,28.3655],[96.304,28.374],[96.3016,28.3723],[96.2944,28.3618],[96.2904,28.3447],[96.2667,28.3304],[96.2575,28.3169],[96.2552,28.3092],[96.2382,28.2996],[96.2434,28.2851],[96.2617,28.2554],[96.2678,28.239],[96.2301,28.2388],[96.2154,28.231],[96.2033,28.2221],[96.1904,28.2067],[96.1746,28.1967],[96.1684,28.1871],[96.1438,28.1753],[96.1419,28.17],[96.1176,28.1779],[96.1045,28.1897],[96.0973,28.1918],[96.0827,28.1894],[96.0677,28.1941],[96.0646,28.1906],[96.0627,28.182],[96.0662,28.1684],[96.0649,28.1617],[96.076,28.1423],[96.0749,28.1357],[96.0715,28.1305],[96.07,28.1192],[96.0575,28.1023],[96.0568,28.099],[96.0601,28.0955],[96.0587,28.0881],[96.0501,28.0762],[96.0359,28.0634],[96.0294,28.0526],[96.0224,28.0477],[96.0168,28.0373],[96.0138,28.0246],[96.0141,27.9954],[96.0078,27.99],[96.0002,27.9751],[95.9865,27.9586],[95.9712,27.9614],[95.9651,27.9518],[95.949,27.9383],[95.9482,27.9325],[95.9547,27.9313],[95.9485,27.9245],[95.9528,27.9205],[95.9459,27.9164],[95.9426,27.9108],[95.9381,27.9126],[95.9354,27.9076],[95.941,27.9057],[95.9297,27.9028],[95.9377,27.8983],[95.9284,27.8952],[95.9262,27.899],[95.9259,27.8954],[95.9191,27.8951],[95.9236,27.8882],[95.9154,27.8895],[95.9167,27.8851],[95.925,27.8818],[95.9194,27.8807],[95.9155,27.8839],[95.9169,27.8806],[95.91,27.8725],[95.9106,27.8703],[95.9072,27.8705],[95.9085,27.8688],[95.9065,27.8661],[95.9016,27.8686],[95.9048,27.8622],[95.8947,27.8621],[95.8953,27.8575],[95.8902,27.8601],[95.8911,27.8569],[95.8884,27.8567],[95.8836,27.8462],[95.8713,27.8336],[95.8377,27.8242],[95.8376,27.8099],[95.8248,27.808],[95.8116,27.7977],[95.8103,27.7908],[95.8038,27.7847],[95.8003,27.7738],[95.7868,27.7598],[95.7759,27.7537],[95.7804,27.7358],[95.7709,27.7297],[95.8048,27.736],[95.8291,27.7532],[95.8976,27.7903],[96.0232,27.8502],[96.0489,27.8502],[96.2079,27.8775],[96.2734,27.7878],[96.2751,27.7795],[96.2609,27.7194],[96.27,27.6867],[96.27,27.6516],[96.292,27.6278],[96.2855,27.5951],[96.3116,27.5699],[96.3276,27.5793],[96.3362,27.5985],[96.3483,27.6062],[96.3518,27.6246],[96.3727,27.645],[96.3837,27.6389],[96.3937,27.6455],[96.3941,27.6488],[96.4111,27.6495],[96.4129,27.6513],[96.4195,27.6511],[96.4226,27.6485],[96.4397,27.6525],[96.444,27.6522],[96.4469,27.6451],[96.4524,27.6412],[96.4689,27.6425],[96.4734,27.6458],[96.4802,27.6461],[96.5028,27.6419],[96.5085,27.6432],[96.5191,27.6367],[96.5306,27.6468],[96.5495,27.6469],[96.5664,27.6569],[96.582,27.6562],[96.5882,27.6532],[96.5962,27.6541],[96.6035,27.6468],[96.6088,27.6467],[96.6081,27.6432],[96.6138,27.6382],[96.6252,27.6317],[96.6407,27.628],[96.6581,27.6338],[96.6691,27.6474],[96.6822,27.6548],[96.6999,27.6605],[96.6924,27.6656],[96.68,27.669],[96.6487,27.6739],[96.6292,27.6847],[96.6189,27.6987],[96.6162,27.7094],[96.6206,27.7203],[96.6346,27.7297],[96.6398,27.7379],[96.631,27.7503],[96.6133,27.7661],[96.6126,27.7739],[96.6346,27.8037],[96.6344,27.8151],[96.6302,27.8275],[96.6191,27.8359],[96.6202,27.8482],[96.6139,27.8576],[96.6083,27.8598],[96.5859,27.8533],[96.5727,27.863],[96.5507,27.886],[96.5288,27.9007],[96.5102,27.9058],[96.4309,27.914],[96.4164,27.9233],[96.3965,27.9575],[96.3918,27.975],[96.3709,27.9979],[96.334,28.0229],[96.2878,28.0618],[96.2733,28.0804],[96.273,28.0913],[96.2795,28.0963],[96.3023,28.1058],[96.3272,28.1312],[96.3259,28.1479],[96.3355,28.1722],[96.3355,28.1851],[96.2978,28.2366],[96.2954,28.2493],[96.295,28.2679],[96.3017,28.2838],[96.3344,28.328],[96.3371,28.3396],[96.3285,28.3544],[96.3113,28.3655]]]},"properties":{"dtname":"Lohit","stname":"ARUNACHAL PRADESH","stcode11":"12","dtcode11":"259","year_stat":"2011_c","Shape_Length":419558.81133323535,"Shape_Area":3180209499.9921637,"OBJECTID":505,"test":1,"Dist_LGD":234,"State_LGD":12}},{"type":"Feature","id":506,"geometry":{"type":"Polygon","coordinates":[[[93.2828,28.3649],[93.2597,28.3671],[93.2457,28.3609],[93.2394,28.3509],[93.2293,28.3445],[93.2265,28.3357],[93.2216,28.335],[93.2086,28.3227],[93.1955,28.3175],[93.1567,28.318],[93.1266,28.3263],[93.1139,28.315],[93.0972,28.3066],[93.0889,28.3058],[93.0739,28.3088],[93.0481,28.302],[93.0255,28.3028],[93.0238,28.2995],[93.0355,28.2627],[93.0221,28.2518],[93.0021,28.2303],[92.9964,28.2298],[92.9917,28.234],[92.9878,28.2509],[92.9763,28.2592],[92.9664,28.2614],[92.9436,28.2482],[92.9247,28.2422],[92.9148,28.2346],[92.9071,28.2148],[92.897,28.2042],[92.8414,28.1789],[92.8298,28.1711],[92.8231,28.1735],[92.8195,28.1839],[92.8212,28.197],[92.818,28.2012],[92.8094,28.2037],[92.8015,28.2019],[92.7849,28.1834],[92.7384,28.1512],[92.6889,28.1254],[92.682,28.1176],[92.669,28.0779],[92.6629,28.0673],[92.6647,28.0624],[92.683,28.0582],[92.6971,28.0479],[92.7112,28.0328],[92.7228,28.0159],[92.7294,28.001],[92.741,27.9889],[92.7342,27.9767],[92.7568,27.9578],[92.7812,27.956],[92.7865,27.952],[92.8006,27.9567],[92.8105,27.957],[92.8174,27.9606],[92.8329,27.9572],[92.8372,27.9617],[92.8404,27.9591],[92.8599,27.9583],[92.86,27.9501],[92.8656,27.9459],[92.8689,27.9493],[92.876,27.9428],[92.8809,27.9422],[92.8889,27.9366],[92.9013,27.9349],[92.9083,27.9294],[92.9237,27.9249],[92.9315,27.925],[92.933,27.9173],[92.9272,27.9103],[92.9311,27.9021],[92.9314,27.8783],[92.9384,27.8713],[92.9376,27.8662],[92.9429,27.8594],[92.9442,27.8507],[92.9463,27.8466],[92.9518,27.8481],[92.9605,27.8455],[92.9662,27.8309],[92.9771,27.8264],[92.9786,27.8238],[93.0035,27.8283],[93.0078,27.8277],[93.0116,27.8225],[93.0289,27.8257],[93.0747,27.827],[93.0796,27.8245],[93.0908,27.8109],[93.096,27.8093],[93.1109,27.8177],[93.1228,27.8168],[93.1306,27.8224],[93.1529,27.8212],[93.1572,27.8176],[93.1638,27.8212],[93.1759,27.8214],[93.1867,27.8322],[93.1869,27.8409],[93.1915,27.8461],[93.1988,27.8445],[93.206,27.8372],[93.2173,27.8322],[93.2209,27.8292],[93.2233,27.8207],[93.2288,27.8189],[93.2293,27.8129],[93.2388,27.8008],[93.2362,27.799],[93.232,27.7775],[93.2232,27.7662],[93.2253,27.7605],[93.2145,27.751],[93.2079,27.7386],[93.2014,27.7318],[93.2015,27.7272],[93.2072,27.7273],[93.2092,27.7239],[93.2204,27.7181],[93.2236,27.7107],[93.2077,27.6945],[93.2096,27.6898],[93.2004,27.6837],[93.1953,27.6749],[93.2023,27.6698],[93.2032,27.6647],[93.2087,27.6617],[93.2131,27.6551],[93.2295,27.6463],[93.228,27.6368],[93.2342,27.6286],[93.2335,27.6203],[93.2387,27.6148],[93.2486,27.6208],[93.2913,27.6577],[93.3293,27.6697],[93.3992,27.6653],[93.5147,27.6502],[93.5376,27.6739],[93.5323,27.722],[93.5095,27.7429],[93.5485,27.7857],[93.5637,27.7953],[93.5799,27.8124],[93.5923,27.8333],[93.6018,27.8809],[93.6018,27.9076],[93.5847,27.9057],[93.6094,27.9437],[93.6185,27.9536],[93.588,27.9775],[93.5773,28.0358],[93.5702,28.0572],[93.5475,28.0656],[93.5059,28.0692],[93.5059,28.0767],[93.4859,28.1034],[93.4602,28.1129],[93.4469,28.2005],[93.4469,28.2281],[93.4574,28.2721],[93.453,28.272],[93.4452,28.2832],[93.4368,28.2828],[93.4317,28.28],[93.4143,28.2885],[93.4085,28.3068],[93.4001,28.3092],[93.3862,28.3064],[93.3839,28.3128],[93.3788,28.3116],[93.3801,28.3217],[93.3785,28.3235],[93.3608,28.3299],[93.3589,28.3369],[93.3604,28.3437],[93.3442,28.3455],[93.3369,28.3534],[93.2942,28.3404],[93.2848,28.3552],[93.2828,28.3649]]]},"properties":{"dtname":"Kurung Kumey","stname":"ARUNACHAL PRADESH","stcode11":"12","dtcode11":"256","year_stat":"2011_c","Shape_Length":388281.6014587637,"Shape_Area":5538812982.588168,"OBJECTID":506,"test":0,"Dist_LGD":233,"State_LGD":12}},{"type":"Feature","id":507,"geometry":{"type":"Polygon","coordinates":[[[93.9418,27.5113],[94.072,27.5155],[94.1062,27.5441],[94.1062,27.5541],[94.0491,27.5826],[94.0532,27.608],[94.0161,27.6116],[93.9471,27.6294],[93.9399,27.6377],[93.9256,27.6591],[93.9197,27.7234],[93.8905,27.7431],[93.8923,27.7436],[93.9078,27.7972],[93.8902,27.8201],[93.8741,27.8158],[93.8384,27.8146],[93.7861,27.7979],[93.7682,27.7896],[93.7652,27.745],[93.7694,27.739],[93.7676,27.7301],[93.7468,27.7146],[93.7224,27.7033],[93.7087,27.6861],[93.6873,27.6873],[93.6766,27.6849],[93.6605,27.6676],[93.6421,27.6617],[93.5776,27.6175],[93.5431,27.6218],[93.5624,27.602],[93.6177,27.5322],[93.6074,27.4937],[93.5679,27.472],[93.5554,27.4525],[93.5573,27.438],[93.5694,27.4329],[93.5786,27.4348],[93.5959,27.4009],[93.6003,27.3676],[93.613,27.3573],[93.631,27.3603],[93.6557,27.3484],[93.6658,27.3362],[93.6853,27.3356],[93.7118,27.3466],[93.7407,27.3528],[93.7671,27.3462],[93.7847,27.3505],[93.8065,27.3712],[93.8269,27.3581],[93.8355,27.3635],[93.8352,27.3925],[93.8277,27.4073],[93.8273,27.4248],[93.8498,27.4403],[93.8526,27.465],[93.8888,27.4912],[93.9418,27.5113]]]},"properties":{"dtname":"Lower Subansiri","stname":"ARUNACHAL PRADESH","stcode11":"12","dtcode11":"255","year_stat":"2011_c","Shape_Length":219664.61855650146,"Shape_Area":1862064097.626597,"OBJECTID":507,"test":0,"Dist_LGD":236,"State_LGD":12}},{"type":"Feature","id":508,"geometry":{"type":"Polygon","coordinates":[[[93.33,27.3546],[93.3396,27.3558],[93.3739,27.3701],[93.3675,27.3791],[93.3732,27.3904],[93.3681,27.4049],[93.3704,27.4148],[93.3641,27.4202],[93.3462,27.4256],[93.3346,27.4345],[93.33,27.4424],[93.3218,27.4403],[93.3147,27.4413],[93.3235,27.4495],[93.3241,27.4565],[93.3274,27.4607],[93.3222,27.4669],[93.3188,27.4821],[93.3208,27.4871],[93.316,27.4909],[93.3147,27.4988],[93.3107,27.5047],[93.3061,27.5062],[93.3021,27.5171],[93.2942,27.5214],[93.2953,27.5242],[93.3159,27.5333],[93.3183,27.5444],[93.3286,27.5496],[93.3306,27.5564],[93.3272,27.5572],[93.325,27.562],[93.3177,27.5671],[93.3107,27.5676],[93.3002,27.5789],[93.2821,27.5771],[93.2841,27.588],[93.2734,27.5909],[93.2718,27.5949],[93.2668,27.5959],[93.2594,27.5934],[93.2449,27.5991],[93.2404,27.6035],[93.2282,27.6026],[93.2389,27.614],[93.2335,27.6203],[93.2342,27.6286],[93.228,27.6368],[93.2295,27.6463],[93.2131,27.6551],[93.2087,27.6617],[93.2032,27.6647],[93.2023,27.6698],[93.1953,27.6748],[93.2004,27.6837],[93.2096,27.6898],[93.2077,27.6945],[93.2236,27.7107],[93.2204,27.7181],[93.2092,27.7239],[93.2072,27.7273],[93.2015,27.7272],[93.2014,27.7318],[93.2079,27.7386],[93.2145,27.751],[93.2253,27.7605],[93.2232,27.7662],[93.232,27.7775],[93.2362,27.799],[93.2388,27.8008],[93.2293,27.8129],[93.2288,27.8189],[93.2232,27.8209],[93.2205,27.8297],[93.2045,27.8382],[93.1988,27.8445],[93.1915,27.8461],[93.1882,27.8431],[93.1867,27.8322],[93.1759,27.8214],[93.1638,27.8212],[93.1572,27.8176],[93.1529,27.8212],[93.1306,27.8224],[93.1228,27.8168],[93.1109,27.8177],[93.096,27.8093],[93.0908,27.8109],[93.0796,27.8245],[93.0747,27.827],[93.0289,27.8257],[93.0116,27.8225],[93.0078,27.8277],[93.0035,27.8283],[92.9789,27.8237],[92.9771,27.8264],[92.9662,27.8309],[92.9605,27.8455],[92.9518,27.8481],[92.9463,27.8466],[92.9442,27.8507],[92.9429,27.8594],[92.9376,27.8662],[92.9384,27.8713],[92.9314,27.8783],[92.9311,27.9021],[92.9272,27.9103],[92.933,27.9173],[92.9315,27.925],[92.9237,27.9249],[92.9083,27.9294],[92.9013,27.9349],[92.8889,27.9366],[92.8809,27.9422],[92.876,27.9428],[92.8689,27.9493],[92.8656,27.9459],[92.86,27.9501],[92.8603,27.9582],[92.8404,27.9591],[92.8372,27.9617],[92.8329,27.9572],[92.8174,27.9606],[92.8105,27.957],[92.8006,27.9567],[92.7861,27.952],[92.7812,27.956],[92.7568,27.9578],[92.7342,27.9767],[92.7027,27.9333],[92.6706,27.8996],[92.6065,27.877],[92.5872,27.8563],[92.5621,27.8205],[92.5453,27.8169],[92.5166,27.8397],[92.5028,27.841],[92.494,27.8363],[92.4685,27.8147],[92.4724,27.8076],[92.4684,27.7939],[92.461,27.7821],[92.4815,27.7705],[92.516,27.7345],[92.5119,27.7283],[92.5105,27.7143],[92.5145,27.7017],[92.5301,27.68],[92.5352,27.6462],[92.5309,27.6289],[92.5392,27.6195],[92.5516,27.6191],[92.5946,27.6304],[92.6102,27.6191],[92.6073,27.5976],[92.6119,27.5908],[92.6186,27.5915],[92.6201,27.5872],[92.6103,27.5746],[92.6064,27.5626],[92.6096,27.5553],[92.6436,27.5521],[92.6473,27.5351],[92.6578,27.5254],[92.6517,27.5006],[92.6551,27.4945],[92.6535,27.4915],[92.6602,27.4824],[92.6711,27.4757],[92.6846,27.4727],[92.6848,27.4624],[92.7006,27.4502],[92.714,27.4506],[92.7236,27.4553],[92.7308,27.4503],[92.7455,27.4492],[92.7468,27.447],[92.7609,27.4442],[92.7655,27.4467],[92.7689,27.4437],[92.7755,27.4441],[92.7775,27.4487],[92.7854,27.453],[92.8037,27.4483],[92.8052,27.4366],[92.8085,27.4349],[92.8051,27.429],[92.811,27.4254],[92.8038,27.4172],[92.8125,27.4164],[92.8151,27.4136],[92.8164,27.4169],[92.8192,27.4147],[92.823,27.4],[92.8207,27.3904],[92.823,27.3787],[92.8206,27.3772],[92.8158,27.3798],[92.8121,27.3789],[92.8148,27.3546],[92.8092,27.3584],[92.8052,27.3577],[92.8071,27.3557],[92.8054,27.3511],[92.8004,27.35],[92.8052,27.3456],[92.8069,27.3317],[92.8046,27.3296],[92.8208,27.3129],[92.8309,27.3101],[92.84,27.3039],[92.8446,27.2932],[92.8426,27.2892],[92.8211,27.2871],[92.8159,27.2902],[92.8117,27.2965],[92.806,27.2952],[92.8058,27.2848],[92.8027,27.2795],[92.8075,27.2729],[92.8032,27.2718],[92.7995,27.2601],[92.8019,27.2558],[92.8178,27.2534],[92.8255,27.2394],[92.8366,27.2326],[92.8282,27.2246],[92.8343,27.2181],[92.8338,27.2141],[92.8229,27.2137],[92.816,27.2035],[92.8084,27.2],[92.8089,27.1967],[92.8151,27.1912],[92.8147,27.1764],[92.8089,27.1768],[92.8286,27.1616],[92.8393,27.1319],[92.8571,27.1402],[92.875,27.1343],[92.8952,27.1343],[92.9369,27.1521],[92.9583,27.1581],[92.9702,27.1581],[92.9892,27.1533],[93.0118,27.1426],[93.0297,27.1569],[93.0689,27.1712],[93.0749,27.1759],[93.0808,27.1866],[93.0725,27.2033],[93.0094,27.2009],[92.9844,27.2199],[93.0023,27.2497],[93.0749,27.2747],[93.1653,27.3116],[93.195,27.3782],[93.289,27.3936],[93.2997,27.3996],[93.33,27.3546]]]},"properties":{"dtname":"East Kameng","stname":"ARUNACHAL PRADESH","stcode11":"12","dtcode11":"247","year_stat":"2011_c","Shape_Length":451310.2108148551,"Shape_Area":5566351187.933693,"OBJECTID":508,"test":0,"Dist_LGD":231,"State_LGD":12}},{"type":"Feature","id":509,"geometry":{"type":"Polygon","coordinates":[[[92.4694,27.7773],[92.461,27.7821],[92.4583,27.7778],[92.4218,27.7667],[92.4128,27.7557],[92.4172,27.7408],[92.409,27.7175],[92.4134,27.709],[92.3934,27.6727],[92.3797,27.6662],[92.356,27.6721],[92.343,27.6726],[92.2699,27.6485],[92.2657,27.6512],[92.2645,27.6496],[92.2448,27.6509],[92.2334,27.6439],[92.2222,27.6273],[92.2224,27.603],[92.2094,27.5803],[92.2028,27.5775],[92.1835,27.5812],[92.1671,27.5808],[92.1521,27.5774],[92.1328,27.5626],[92.1244,27.5395],[92.1123,27.5252],[92.0932,27.5182],[92.0492,27.5167],[92.0196,27.5021],[92.0136,27.4914],[92.0126,27.4814],[92.0201,27.4793],[92.0212,27.4677],[92.0181,27.4576],[92.0205,27.4472],[92.0252,27.4412],[92.04,27.4361],[92.0452,27.4249],[92.0433,27.4124],[92.0485,27.4061],[92.0541,27.4037],[92.0557,27.3996],[92.0472,27.3788],[92.0475,27.3679],[92.0495,27.3578],[92.0613,27.3448],[92.0599,27.3267],[92.079,27.3098],[92.1036,27.3009],[92.1183,27.2922],[92.1215,27.287],[92.1199,27.2753],[92.1161,27.2727],[92.1108,27.2734],[92.1025,27.2685],[92.096,27.2725],[92.0841,27.2715],[92.0791,27.2753],[92.071,27.2768],[92.0498,27.271],[92.0406,27.2661],[92.0409,27.2613],[92.0506,27.2561],[92.0534,27.2512],[92.0667,27.2444],[92.0705,27.2231],[92.0676,27.2143],[92.0581,27.2025],[92.0571,27.189],[92.0519,27.1838],[92.0418,27.1807],[92.0261,27.1712],[92.0242,27.1618],[92.0251,27.1537],[92.0372,27.1378],[92.0229,27.1143],[92.0232,27.1076],[92.0283,27.0966],[92.0285,27.078],[92.0369,27.0696],[92.0344,27.0642],[92.0425,27.0597],[92.0455,27.0513],[92.0646,27.0516],[92.0772,27.0392],[92.0803,27.0199],[92.1038,27.007],[92.1026,26.9823],[92.1045,26.977],[92.1136,26.975],[92.1178,26.9595],[92.1123,26.9486],[92.1174,26.9317],[92.1092,26.9067],[92.1082,26.8931],[92.1121,26.8919],[92.114,26.8939],[92.12,26.8891],[92.1698,26.8918],[92.1947,26.8901],[92.238,26.9059],[92.2551,26.9097],[92.276,26.9021],[92.3029,26.9072],[92.3026,26.9227],[92.323,26.9276],[92.3631,26.9346],[92.367,26.9288],[92.3983,26.9248],[92.4119,26.9429],[92.4257,26.9411],[92.4474,26.9589],[92.4968,26.9635],[92.5629,26.9579],[92.5833,26.9596],[92.6007,26.9668],[92.6447,26.9868],[92.6568,27.0082],[92.6355,27.024],[92.6238,27.0288],[92.5977,27.053],[92.5902,27.0791],[92.5919,27.0855],[92.6002,27.0971],[92.5942,27.1047],[92.6018,27.1082],[92.6016,27.1199],[92.607,27.1256],[92.608,27.1403],[92.6246,27.1489],[92.6323,27.1476],[92.6499,27.152],[92.6705,27.1614],[92.688,27.1658],[92.6972,27.1726],[92.7167,27.176],[92.7495,27.1945],[92.7659,27.1934],[92.7827,27.1789],[92.7985,27.1794],[92.8145,27.1763],[92.815,27.1922],[92.8088,27.1969],[92.8092,27.2017],[92.816,27.2035],[92.8229,27.2137],[92.8338,27.2141],[92.8343,27.2181],[92.8282,27.2246],[92.8365,27.2327],[92.8255,27.2394],[92.8178,27.2534],[92.8019,27.2558],[92.7995,27.2599],[92.8032,27.2718],[92.8075,27.2729],[92.8027,27.2795],[92.8058,27.2848],[92.806,27.2952],[92.8117,27.2965],[92.8159,27.2902],[92.8211,27.2871],[92.8426,27.2892],[92.8446,27.2932],[92.84,27.3039],[92.8309,27.3101],[92.8208,27.3129],[92.8046,27.3296],[92.8069,27.3317],[92.8052,27.3456],[92.8004,27.35],[92.8054,27.3511],[92.8071,27.3557],[92.8052,27.3577],[92.8092,27.3584],[92.8148,27.3546],[92.8121,27.3789],[92.8158,27.3798],[92.8206,27.3772],[92.823,27.3787],[92.8207,27.3904],[92.823,27.4],[92.8192,27.4147],[92.8164,27.4169],[92.8151,27.4136],[92.8125,27.4164],[92.8038,27.4172],[92.811,27.4254],[92.8051,27.429],[92.8085,27.4349],[92.8052,27.4366],[92.8037,27.4483],[92.7854,27.453],[92.7775,27.4487],[92.7755,27.4441],[92.7689,27.4437],[92.7655,27.4467],[92.7609,27.4442],[92.7468,27.447],[92.7455,27.4492],[92.7308,27.4503],[92.7236,27.4553],[92.714,27.4506],[92.7006,27.4502],[92.6848,27.4624],[92.6846,27.4727],[92.6711,27.4757],[92.6602,27.4824],[92.6535,27.4915],[92.6551,27.4945],[92.6517,27.5006],[92.6578,27.5254],[92.6473,27.5351],[92.6436,27.5521],[92.6096,27.5553],[92.6064,27.5626],[92.6103,27.5746],[92.6201,27.5872],[92.6186,27.5915],[92.6119,27.5908],[92.6073,27.5976],[92.6102,27.6191],[92.5946,27.6304],[92.567,27.622],[92.5516,27.6191],[92.5392,27.6195],[92.5309,27.6289],[92.5352,27.6462],[92.5301,27.68],[92.5145,27.7017],[92.5105,27.7143],[92.5119,27.7283],[92.516,27.7345],[92.4815,27.7705],[92.4694,27.7773]]]},"properties":{"dtname":"West Kameng","stname":"ARUNACHAL PRADESH","stcode11":"12","dtcode11":"246","year_stat":"2011_c","Shape_Length":424977.05755921506,"Shape_Area":6395584434.683022,"OBJECTID":509,"test":0,"Dist_LGD":242,"State_LGD":12}},{"type":"Feature","id":558,"geometry":{"type":"Polygon","coordinates":[[[93.702,28.308],[93.6799,28.322],[93.6794,28.32],[93.6677,28.3154],[93.6602,28.3047],[93.6471,28.3033],[93.6346,28.3082],[93.6277,28.3069],[93.6249,28.2927],[93.6133,28.2725],[93.5907,28.2706],[93.5767,28.2665],[93.5668,28.259],[93.5651,28.2638],[93.5543,28.2592],[93.5453,28.2673],[93.5318,28.2702],[93.5124,28.2681],[93.5049,28.2711],[93.5018,28.2753],[93.4797,28.2815],[93.4761,28.2812],[93.4687,28.2738],[93.4552,28.2717],[93.4574,28.2721],[93.4469,28.2281],[93.4469,28.2005],[93.4602,28.1129],[93.4859,28.1034],[93.5059,28.0767],[93.5059,28.0692],[93.5475,28.0656],[93.5702,28.0572],[93.5773,28.0358],[93.588,27.9775],[93.6185,27.9536],[93.6094,27.9437],[93.5847,27.9057],[93.6018,27.9076],[93.6018,27.8809],[93.5923,27.8333],[93.5799,27.8124],[93.5637,27.7953],[93.5485,27.7857],[93.5095,27.7429],[93.5323,27.722],[93.5376,27.6739],[93.5147,27.6502],[93.5431,27.6218],[93.5776,27.6175],[93.6421,27.6617],[93.6605,27.6676],[93.6766,27.6849],[93.6873,27.6873],[93.7087,27.6861],[93.7224,27.7033],[93.7468,27.7146],[93.7676,27.7301],[93.7694,27.739],[93.7652,27.745],[93.7682,27.7896],[93.7861,27.7979],[93.8384,27.8146],[93.8741,27.8158],[93.8919,27.8205],[93.9109,27.8307],[93.9106,27.8377],[93.9274,27.875],[93.9272,27.8851],[93.9218,27.8928],[93.9096,27.8967],[93.8907,27.8973],[93.8835,27.9007],[93.8826,27.9097],[93.8909,27.9163],[93.911,27.9207],[93.9265,27.9197],[93.9317,27.9416],[93.9403,27.9473],[93.9445,27.9644],[93.963,27.9798],[93.949,27.9807],[93.9439,27.986],[93.9451,27.9931],[93.941,28.0004],[93.9124,28.0128],[93.9119,28.0253],[93.9097,28.0294],[93.888,28.0379],[93.874,28.0534],[93.8722,28.0594],[93.876,28.0715],[93.8747,28.0732],[93.8546,28.0813],[93.8538,28.0834],[93.8627,28.0924],[93.8808,28.1078],[93.8762,28.1152],[93.8764,28.1209],[93.8805,28.1257],[93.8926,28.1288],[93.8761,28.161],[93.8465,28.2078],[93.8408,28.2298],[93.8418,28.2363],[93.8181,28.2489],[93.7656,28.2629],[93.758,28.2684],[93.7461,28.2846],[93.722,28.2913],[93.702,28.308]]]},"properties":{"dtname":"Kra Daadi","stname":"ARUNACHAL PRADESH","stcode11":"12","dtcode11":"763","year_stat":"2015_c","Shape_Length":284805.9012038151,"Shape_Area":2835094488.0775504,"OBJECTID":558,"test":0,"Dist_LGD":677,"State_LGD":12}},{"type":"Feature","id":559,"geometry":{"type":"Polygon","coordinates":[[[96.2198,27.8598],[96.2079,27.8775],[96.0489,27.8502],[96.0232,27.8502],[95.8976,27.7903],[95.8291,27.7532],[95.8048,27.736],[95.7709,27.7297],[95.7655,27.7265],[95.7541,27.7258],[95.7523,27.7239],[95.7532,27.7192],[95.7653,27.7147],[95.7624,27.7133],[95.7628,27.7091],[95.7679,27.7022],[95.7645,27.6998],[95.7637,27.6939],[95.7675,27.6874],[95.7732,27.685],[95.7771,27.6876],[95.7828,27.6873],[95.7829,27.6847],[95.785,27.6852],[95.7861,27.6818],[95.7904,27.6802],[95.775,27.6744],[95.7703,27.658],[95.7742,27.6509],[95.7957,27.6418],[95.7959,27.638],[95.7943,27.639],[95.7882,27.6349],[95.7894,27.6264],[95.7792,27.6256],[95.7784,27.619],[95.7902,27.6119],[95.7894,27.6035],[95.7924,27.598],[95.8055,27.601],[95.8176,27.5971],[95.8118,27.5833],[95.8142,27.5743],[95.8234,27.5746],[95.8333,27.5601],[95.8412,27.5621],[95.8608,27.5431],[95.8625,27.5455],[95.8736,27.5471],[95.9986,27.5597],[96.0018,27.5568],[96.041,27.5867],[96.0534,27.593],[96.0614,27.6064],[96.1257,27.6197],[96.1277,27.6165],[96.1331,27.6152],[96.1348,27.6119],[96.1304,27.6094],[96.1327,27.6065],[96.1401,27.6072],[96.1608,27.6012],[96.167,27.5971],[96.1699,27.598],[96.1715,27.5948],[96.1817,27.5902],[96.1923,27.5884],[96.1968,27.5832],[96.1997,27.5841],[96.2096,27.5774],[96.2158,27.5773],[96.2247,27.5683],[96.2372,27.5673],[96.2426,27.5637],[96.2642,27.5634],[96.2684,27.5579],[96.2759,27.5591],[96.2889,27.5555],[96.2956,27.5584],[96.3116,27.5699],[96.2855,27.5951],[96.292,27.6278],[96.27,27.6516],[96.27,27.6867],[96.2609,27.7194],[96.2751,27.7795],[96.2734,27.7878],[96.2484,27.8241],[96.2198,27.8598]]]},"properties":{"dtname":"Namsai","stname":"ARUNACHAL PRADESH","stcode11":"12","dtcode11":"762","year_stat":"2014_c","Shape_Length":199586.1868651245,"Shape_Area":1717611162.5868142,"OBJECTID":559,"test":0,"Dist_LGD":678,"State_LGD":12}},{"type":"Feature","id":560,"geometry":{"type":"Polygon","coordinates":[[[95.3667,27.1081],[95.3547,27.104],[95.2917,27.0666],[95.2762,27.0523],[95.277,27.0425],[95.2715,27.0413],[95.2633,27.0352],[95.26,27.0356],[95.2589,27.0304],[95.2463,27.0239],[95.2394,27.0365],[95.2329,27.0376],[95.2321,27.0428],[95.2292,27.0416],[95.2302,27.0358],[95.2234,27.0362],[95.2106,27.0286],[95.2105,27.0311],[95.2052,27.0325],[95.2046,27.0378],[95.1955,27.0359],[95.197,26.9968],[95.1905,26.9929],[95.1912,26.9867],[95.193,26.9865],[95.1915,26.9849],[95.1999,26.9806],[95.2024,26.982],[95.2047,26.9791],[95.2013,26.9771],[95.2016,26.9739],[95.2113,26.9663],[95.2079,26.9611],[95.202,26.9581],[95.209,26.9525],[95.2069,26.9514],[95.2096,26.9481],[95.2076,26.9475],[95.2067,26.942],[95.2122,26.9301],[95.2217,26.9285],[95.23,26.9226],[95.2324,26.916],[95.2286,26.9129],[95.2302,26.9117],[95.2288,26.9083],[95.2322,26.9028],[95.2267,26.8948],[95.2296,26.8911],[95.2303,26.8837],[95.2281,26.8808],[95.221,26.8806],[95.2149,26.8836],[95.2087,26.8823],[95.2081,26.879],[95.1995,26.871],[95.186,26.8657],[95.1815,26.8613],[95.1809,26.856],[95.1851,26.8544],[95.187,26.8478],[95.1936,26.8452],[95.1934,26.8482],[95.2,26.8445],[95.2029,26.8464],[95.2035,26.8438],[95.197,26.8361],[95.1967,26.8305],[95.1993,26.8279],[95.1973,26.8226],[95.2047,26.8047],[95.212,26.7995],[95.2075,26.7979],[95.2083,26.7951],[95.2173,26.7892],[95.2287,26.7855],[95.2383,26.7858],[95.238,26.7826],[95.2422,26.7834],[95.2419,26.7809],[95.2354,26.779],[95.2351,26.7767],[95.2321,26.7777],[95.2288,26.7753],[95.2278,26.7712],[95.2325,26.7682],[95.2311,26.7651],[95.2244,26.7617],[95.2208,26.7561],[95.2165,26.7556],[95.2149,26.7482],[95.2194,26.7458],[95.2099,26.7285],[95.2221,26.7224],[95.227,26.7161],[95.2258,26.7103],[95.2303,26.7096],[95.2328,26.7058],[95.2302,26.694],[95.2328,26.6833],[95.2492,26.6839],[95.2573,26.6761],[95.2565,26.6619],[95.2596,26.6554],[95.2743,26.6588],[95.3034,26.6508],[95.3137,26.6627],[95.3262,26.6645],[95.327,26.6684],[95.3351,26.6736],[95.3445,26.6753],[95.3483,26.6748],[95.3484,26.6726],[95.3602,26.6709],[95.374,26.684],[95.3945,26.6849],[95.401,26.6888],[95.4033,26.6944],[95.418,26.6935],[95.4269,26.6978],[95.4326,26.7025],[95.4307,26.7064],[95.4322,26.7152],[95.4454,26.7249],[95.4593,26.7429],[95.4673,26.7437],[95.4739,26.7404],[95.4824,26.7465],[95.4846,26.7584],[95.5047,26.7925],[95.5056,26.7997],[95.4965,26.8178],[95.5048,26.8767],[95.4718,26.8679],[95.4404,26.8672],[95.414,26.8857],[95.4066,26.8857],[95.3852,26.9092],[95.3791,26.9127],[95.3767,26.9251],[95.3681,26.9355],[95.3696,26.956],[95.3767,26.9865],[95.3772,27.0088],[95.3757,27.0179],[95.3602,27.0327],[95.3698,27.0395],[95.3888,27.0447],[95.3851,27.0644],[95.387,27.0843],[95.3703,27.0942],[95.3711,27.1009],[95.3637,27.1026],[95.3688,27.1077],[95.3667,27.1081]]]},"properties":{"dtname":"Longding","stname":"ARUNACHAL PRADESH","stcode11":"12","dtcode11":"761","year_stat":"2012_c","Shape_Length":206109.32164208608,"Shape_Area":1181908404.8346188,"OBJECTID":560,"test":0,"Dist_LGD":666,"State_LGD":12}},{"type":"Feature","id":669,"geometry":{"type":"Polygon","coordinates":[[[94.7986,29.1949],[94.8,29.2094],[94.793,29.2256],[94.7688,29.2523],[94.7506,29.2658],[94.739,29.2816],[94.7135,29.3041],[94.6798,29.3276],[94.6686,29.3316],[94.6441,29.3468],[94.6308,29.3485],[94.6262,29.3455],[94.6216,29.3126],[94.6079,29.2968],[94.5803,29.2806],[94.5764,29.275],[94.5746,29.2503],[94.5603,29.2286],[94.5355,29.2184],[94.4969,29.2164],[94.4337,29.2267],[94.4164,29.2125],[94.3794,29.1943],[94.3748,29.19],[94.3701,29.1661],[94.3661,29.157],[94.3594,29.1523],[94.3526,29.15],[94.3001,29.1503],[94.2902,29.148],[94.2601,29.1166],[94.2171,29.0838],[94.1873,29.0388],[94.3427,28.9839],[94.3676,28.9566],[94.4799,28.8585],[94.517,28.8366],[94.5153,28.8209],[94.5253,28.8116],[94.5615,28.8103],[94.5922,28.7919],[94.6078,28.7971],[94.6201,28.7939],[94.6333,28.7843],[94.6339,28.7667],[94.6966,28.7284],[94.7298,28.7012],[94.7455,28.6864],[94.7477,28.6652],[94.7445,28.6109],[94.7466,28.588],[94.7601,28.56],[94.7775,28.5593],[94.7707,28.5512],[94.762,28.5472],[94.7588,28.534],[94.7738,28.5353],[94.7956,28.5463],[94.8037,28.5518],[94.8089,28.5623],[94.8196,28.5681],[94.8368,28.5692],[94.8578,28.5639],[94.8781,28.5524],[94.9016,28.5488],[94.9396,28.5692],[94.9578,28.5729],[94.9724,28.5654],[94.9888,28.5291],[95.0382,28.5155],[95.0841,28.5267],[95.1105,28.5008],[95.1016,28.4835],[95.1107,28.4629],[95.1045,28.4443],[95.0817,28.4151],[95.0824,28.3952],[95.1043,28.3788],[95.1174,28.3765],[95.1065,28.2634],[95.139,28.2288],[95.1308,28.2169],[95.1373,28.2035],[95.1687,28.2005],[95.1782,28.195],[95.1824,28.1898],[95.1836,28.1742],[95.1924,28.1646],[95.2117,28.1544],[95.2239,28.1521],[95.2357,28.1571],[95.2473,28.1703],[95.2596,28.1785],[95.27,28.1974],[95.2787,28.2021],[95.2957,28.1988],[95.3031,28.2025],[95.2982,28.2141],[95.3051,28.2239],[95.342,28.2446],[95.3422,28.2673],[95.3462,28.284],[95.3528,28.2922],[95.3832,28.3121],[95.3743,28.3214],[95.3774,28.3337],[95.3714,28.3366],[95.3687,28.3442],[95.3678,28.3503],[95.3709,28.3558],[95.3692,28.3583],[95.3582,28.3583],[95.3379,28.3658],[95.3364,28.3762],[95.3404,28.3842],[95.3371,28.3962],[95.3392,28.4069],[95.3332,28.4144],[95.3289,28.4161],[95.3289,28.4185],[95.3235,28.4201],[95.3199,28.4263],[95.3224,28.4294],[95.3346,28.4343],[95.3352,28.438],[95.3394,28.4409],[95.3377,28.4497],[95.3346,28.4526],[95.3367,28.4603],[95.3345,28.4682],[95.3388,28.4803],[95.3437,28.4814],[95.353,28.4904],[95.3665,28.4923],[95.3766,28.509],[95.3948,28.5132],[95.3953,28.5315],[95.4118,28.5507],[95.4108,28.5564],[95.4065,28.5584],[95.4076,28.5602],[95.4028,28.5699],[95.3834,28.5728],[95.3775,28.6159],[95.3668,28.6277],[95.3687,28.6463],[95.3635,28.6584],[95.3606,28.6603],[95.3624,28.6678],[95.3596,28.6824],[95.3611,28.6867],[95.3539,28.7067],[95.3695,28.7164],[95.3777,28.7296],[95.3871,28.7322],[95.393,28.7421],[95.3888,28.7479],[95.3834,28.7484],[95.3731,28.7652],[95.3727,28.7702],[95.3776,28.779],[95.3607,28.7909],[95.3572,28.8005],[95.3574,28.8106],[95.3538,28.8181],[95.3561,28.8258],[95.3463,28.8274],[95.3394,28.8351],[95.3311,28.8349],[95.3238,28.8443],[95.323,28.8508],[95.3277,28.8533],[95.328,28.8579],[95.3222,28.8643],[95.3247,28.8776],[95.3174,28.8868],[95.3255,28.8901],[95.3281,28.8952],[95.3244,28.9014],[95.3266,28.9076],[95.3189,28.9115],[95.3304,28.9202],[95.3277,28.9283],[95.3248,28.9322],[95.3148,28.9345],[95.3149,28.9417],[95.3071,28.9465],[95.3094,28.9555],[95.3014,28.9585],[95.2811,28.9459],[95.2692,28.9452],[95.257,28.9516],[95.2578,28.9584],[95.2633,28.9655],[95.2569,28.9703],[95.258,28.9813],[95.2453,28.9886],[95.2455,29.0014],[95.2557,29.007],[95.2654,29.025],[95.276,29.0289],[95.2756,29.044],[95.2688,29.0481],[95.2678,29.0561],[95.2514,29.0671],[95.2527,29.0843],[95.2492,29.0924],[95.2521,29.1085],[95.1981,29.1063],[95.179,29.1073],[95.1474,29.1144],[95.1233,29.1151],[95.1151,29.12],[95.1,29.1427],[95.0414,29.1514],[94.9993,29.1721],[94.9885,29.1727],[94.9938,29.1649],[95.006,29.1568],[95.02,29.142],[95.0274,29.1326],[95.0245,29.1296],[94.9968,29.14],[94.9695,29.1589],[94.9207,29.1615],[94.9089,29.1657],[94.8831,29.181],[94.8738,29.1836],[94.8486,29.1823],[94.8115,29.166],[94.8,29.1639],[94.7949,29.1691],[94.7949,29.1797],[94.7986,29.1949]]]},"properties":{"dtname":"Upper Siang","stname":"ARUNACHAL PRADESH","stcode11":"12","dtcode11":"252","year_stat":"2011_c","Shape_Length":550669.5646199563,"Shape_Area":8863006013.56892,"OBJECTID":669,"test":0,"Dist_LGD":240,"State_LGD":12}},{"type":"Feature","id":676,"geometry":{"type":"Polygon","coordinates":[[[95.0696,28.0105],[95.0674,28.0234],[95.0346,28.0331],[94.9935,28.0399],[94.9622,28.0413],[94.9279,28.052],[94.9304,28.0479],[94.9095,28.035],[94.9017,28.0204],[94.8864,28.0123],[94.8803,28.0004],[94.9001,27.9958],[94.9215,27.9975],[94.9277,27.9924],[94.9403,27.9899],[94.9469,27.987],[94.9505,27.9821],[94.957,27.9809],[94.9534,27.9557],[94.9461,27.9493],[94.9468,27.9373],[94.9409,27.9234],[94.9268,27.906],[94.9228,27.8944],[94.9242,27.8895],[94.9055,27.8804],[94.9085,27.8706],[94.9064,27.8643],[94.9091,27.8599],[94.9209,27.8606],[94.9289,27.8571],[94.9163,27.8467],[94.9051,27.8424],[94.9089,27.8339],[94.9008,27.8291],[94.9004,27.8229],[94.8388,27.8037],[94.809,27.7858],[94.7688,27.7739],[94.746,27.773],[94.7241,27.7949],[94.7174,27.8251],[94.7019,27.8346],[94.6853,27.8405],[94.646,27.8501],[94.6318,27.8667],[94.5951,27.8708],[94.5893,27.8616],[94.5774,27.856],[94.5595,27.8561],[94.5338,27.8499],[94.504,27.8362],[94.4927,27.8404],[94.4803,27.8387],[94.4775,27.8352],[94.4702,27.838],[94.4565,27.8282],[94.4444,27.8286],[94.4442,27.8221],[94.4388,27.8128],[94.4142,27.8097],[94.4117,27.8059],[94.4051,27.8053],[94.4063,27.8013],[94.395,27.7965],[94.3871,27.7993],[94.3823,27.7973],[94.3803,27.7917],[94.3739,27.7895],[94.3663,27.7795],[94.3611,27.7775],[94.3562,27.7718],[94.3509,27.7718],[94.3353,27.76],[94.3296,27.7606],[94.3186,27.7761],[94.3124,27.7561],[94.3127,27.7409],[94.3358,27.7249],[94.3402,27.7258],[94.3471,27.7318],[94.3532,27.7308],[94.3566,27.7247],[94.3543,27.7172],[94.3175,27.7019],[94.3074,27.6885],[94.2924,27.6804],[94.2797,27.6696],[94.2642,27.6626],[94.258,27.6549],[94.2448,27.6491],[94.2396,27.6427],[94.2284,27.6353],[94.2099,27.6088],[94.2176,27.6072],[94.2288,27.6184],[94.2373,27.6323],[94.2487,27.634],[94.2517,27.6376],[94.2619,27.6358],[94.2676,27.6295],[94.2658,27.6242],[94.2608,27.6218],[94.2612,27.6181],[94.2545,27.6142],[94.2566,27.6105],[94.2727,27.6029],[94.2749,27.5998],[94.274,27.5949],[94.2779,27.5893],[94.2885,27.5892],[94.2901,27.5961],[94.2985,27.6019],[94.302,27.601],[94.3095,27.5907],[94.323,27.5886],[94.3245,27.5846],[94.3338,27.5865],[94.3372,27.5792],[94.3451,27.5821],[94.3509,27.5771],[94.367,27.5742],[94.3701,27.5747],[94.3767,27.5823],[94.3821,27.5816],[94.3916,27.5886],[94.4018,27.5849],[94.4187,27.5975],[94.4319,27.6003],[94.4336,27.5884],[94.4516,27.5717],[94.4567,27.5598],[94.462,27.5552],[94.478,27.5761],[94.4992,27.5721],[94.5027,27.5774],[94.5217,27.5845],[94.5222,27.5914],[94.5298,27.5914],[94.5324,27.5945],[94.5362,27.5925],[94.5448,27.601],[94.5555,27.6007],[94.5624,27.6049],[94.5688,27.6023],[94.5743,27.6038],[94.58,27.6123],[94.5878,27.6184],[94.6002,27.6181],[94.6031,27.6212],[94.6068,27.6186],[94.6237,27.6278],[94.6334,27.6241],[94.6416,27.6294],[94.6469,27.638],[94.6629,27.6453],[94.673,27.6472],[94.6829,27.6459],[94.6869,27.651],[94.684,27.6601],[94.6881,27.6651],[94.6911,27.6617],[94.7007,27.6614],[94.7093,27.6565],[94.7162,27.6575],[94.7207,27.6669],[94.7254,27.669],[94.7292,27.6645],[94.7416,27.6599],[94.7545,27.6605],[94.7611,27.665],[94.7694,27.6795],[94.7789,27.6797],[94.7893,27.6851],[94.7939,27.6951],[94.8085,27.6919],[94.821,27.692],[94.8412,27.7006],[94.8481,27.7055],[94.8486,27.7171],[94.8526,27.7276],[95.1363,27.8157],[95.1228,27.8482],[95.1152,27.8568],[95.1207,27.9035],[95.0858,27.9099],[95.0719,27.916],[95.0753,27.9401],[95.0881,27.952],[95.0891,27.9677],[95.0857,27.981],[95.0738,27.9905],[95.0696,28.0105]],[[94.8952,27.8081],[94.891,27.8099],[94.891,27.8099],[94.8949,27.8083],[94.8956,27.808],[94.8956,27.808],[94.8952,27.8081]]]},"properties":{"dtname":"Lower Siang","stname":"ARUNACHAL PRADESH","stcode11":"12","dtcode11":"779","year_stat":"2018","Shape_Length":350337.18830941035,"Shape_Area":2244445248.246104,"OBJECTID":676,"test":0,"Dist_LGD":719,"State_LGD":12}},{"type":"Feature","id":686,"geometry":{"type":"Polygon","coordinates":[[[96.0887,29.46],[96.0821,29.4617],[96.0709,29.4607],[96.0571,29.4568],[96.0362,29.4414],[96.016,29.4197],[96.0039,29.4104],[95.9886,29.4052],[95.9673,29.3857],[95.9585,29.381],[95.8823,29.39],[95.8497,29.3571],[95.8417,29.3522],[95.8282,29.3542],[95.7979,29.3348],[95.7925,29.3364],[95.7846,29.3549],[95.7791,29.3549],[95.7469,29.3276],[95.7449,29.3147],[95.7285,29.3009],[95.7166,29.2968],[95.7033,29.2989],[95.6845,29.2757],[95.6443,29.2545],[95.6394,29.2483],[95.6326,29.2475],[95.6065,29.261],[95.6001,29.2604],[95.589,29.2409],[95.5871,29.2164],[95.5391,29.2125],[95.5385,29.2067],[95.5466,29.179],[95.5479,29.1269],[95.5047,29.1414],[95.4975,29.1387],[95.493,29.122],[95.4931,29.1075],[95.4869,29.0745],[95.4659,29.0528],[95.4553,29.0352],[95.4484,29.0342],[95.4304,29.0395],[95.4226,29.0394],[95.4111,29.0324],[95.401,29.0336],[95.3466,29.0445],[95.3194,29.0535],[95.304,29.0614],[95.2874,29.0607],[95.2678,29.0561],[95.2688,29.0481],[95.2756,29.044],[95.276,29.0289],[95.2654,29.025],[95.2557,29.007],[95.2455,29.0014],[95.2453,28.9886],[95.258,28.9813],[95.2569,28.9703],[95.2633,28.9655],[95.2578,28.9584],[95.2572,28.9513],[95.2692,28.9452],[95.2811,28.9459],[95.3014,28.9585],[95.3094,28.9555],[95.3071,28.9465],[95.3149,28.9417],[95.3148,28.9345],[95.3248,28.9322],[95.3277,28.9283],[95.3304,28.9202],[95.3189,28.9115],[95.3266,28.9076],[95.3244,28.9014],[95.3281,28.8952],[95.3255,28.8901],[95.3174,28.8868],[95.3247,28.8776],[95.3222,28.8643],[95.328,28.8579],[95.3277,28.8533],[95.323,28.8508],[95.3238,28.8443],[95.3311,28.8349],[95.3394,28.8351],[95.3463,28.8274],[95.3561,28.8258],[95.3538,28.8181],[95.3574,28.8106],[95.3572,28.8005],[95.3607,28.7909],[95.3776,28.779],[95.3727,28.7702],[95.3731,28.7652],[95.3834,28.7484],[95.3888,28.7479],[95.3929,28.7423],[95.3871,28.7322],[95.3777,28.7296],[95.3695,28.7164],[95.3539,28.7067],[95.3611,28.6867],[95.3596,28.6824],[95.3624,28.6678],[95.3606,28.6603],[95.3635,28.6584],[95.3687,28.6463],[95.3668,28.6277],[95.3775,28.6159],[95.3834,28.5728],[95.4028,28.5699],[95.4076,28.5602],[95.4065,28.5584],[95.4109,28.5562],[95.4116,28.5501],[95.3947,28.5301],[95.4512,28.5216],[95.478,28.5151],[95.4946,28.5056],[95.5149,28.5026],[95.5178,28.4871],[95.5273,28.4802],[95.5594,28.485],[95.5802,28.463],[95.5772,28.4243],[95.5689,28.3838],[95.5732,28.3708],[95.5922,28.3661],[95.6198,28.368],[95.6407,28.3594],[95.676,28.3623],[95.6855,28.3489],[95.7188,28.3404],[95.7597,28.3261],[95.7645,28.3175],[95.7959,28.3156],[95.833,28.2747],[95.8834,28.3061],[95.8758,28.3194],[95.8444,28.3385],[95.8501,28.3661],[95.8911,28.3918],[95.9084,28.3994],[95.9097,28.3975],[95.9461,28.4025],[95.9547,28.4064],[95.96,28.4132],[95.944,28.431],[95.9454,28.4712],[95.9483,28.4819],[95.9697,28.4826],[95.9968,28.489],[96.0147,28.5076],[96.0361,28.499],[96.0461,28.4983],[96.0639,28.5026],[96.1032,28.489],[96.1246,28.489],[96.1717,28.4969],[96.1767,28.5147],[96.2038,28.5276],[96.2252,28.5333],[96.2409,28.534],[96.2538,28.5418],[96.2602,28.5383],[96.2674,28.5154],[96.2759,28.5069],[96.2895,28.5019],[96.3066,28.5033],[96.3257,28.5108],[96.326,28.5241],[96.3231,28.5257],[96.3244,28.5294],[96.3336,28.5339],[96.342,28.5465],[96.3534,28.556],[96.3696,28.5595],[96.3995,28.5577],[96.4053,28.5593],[96.4049,28.5732],[96.3988,28.5858],[96.3997,28.5897],[96.4062,28.5898],[96.4213,28.5804],[96.4268,28.5825],[96.4432,28.6013],[96.4717,28.6178],[96.4929,28.6335],[96.494,28.6391],[96.4828,28.6607],[96.4695,28.6801],[96.4717,28.6837],[96.4895,28.684],[96.5213,28.7045],[96.5312,28.707],[96.5589,28.7073],[96.5713,28.7101],[96.5849,28.717],[96.6145,28.7603],[96.6151,28.7741],[96.6075,28.7936],[96.5943,28.8108],[96.5835,28.8172],[96.5751,28.8262],[96.5462,28.8704],[96.5369,28.88],[96.5355,28.8931],[96.5382,28.917],[96.535,28.9261],[96.5233,28.9441],[96.5185,28.9672],[96.4929,28.9586],[96.4872,28.9616],[96.4772,28.9904],[96.4884,29.0069],[96.5251,29.0758],[96.5186,29.075],[96.4771,29.0567],[96.4665,29.0506],[96.4588,29.0424],[96.4357,29.0342],[96.3467,29.029],[96.3215,29.0095],[96.2937,28.9954],[96.2818,28.9804],[96.2556,28.9559],[96.2482,28.9395],[96.228,28.926],[96.1859,28.9087],[96.1746,28.9009],[96.1664,28.9026],[96.1629,28.9188],[96.1452,28.9343],[96.1541,28.9433],[96.1552,28.9524],[96.1805,28.9654],[96.1846,28.9746],[96.1849,28.985],[96.1803,28.9963],[96.169,29.0099],[96.161,29.0336],[96.1507,29.0503],[96.137,29.0616],[96.1149,29.0748],[96.1699,29.0848],[96.186,29.0918],[96.2007,29.1031],[96.2179,29.1353],[96.2282,29.1436],[96.2493,29.1474],[96.2607,29.1574],[96.291,29.1593],[96.308,29.1656],[96.3467,29.1681],[96.3589,29.1787],[96.3719,29.2152],[96.3882,29.2309],[96.3934,29.2538],[96.3828,29.2737],[96.3757,29.2811],[96.3697,29.2837],[96.3638,29.283],[96.346,29.2647],[96.3133,29.2565],[96.2936,29.2332],[96.2664,29.234],[96.2515,29.2307],[96.2442,29.2326],[96.2349,29.241],[96.227,29.2574],[96.2109,29.2725],[96.2041,29.2913],[96.184,29.307],[96.1868,29.3424],[96.1764,29.3625],[96.159,29.3811],[96.1512,29.3973],[96.1145,29.4257],[96.0887,29.46]]]},"properties":{"dtname":"Upper Dibang Valley","stname":"ARUNACHAL PRADESH","stcode11":"12","dtcode11":"257","year_stat":"2011_c","Shape_Length":672728.7576670225,"Shape_Area":12577378777.289345,"OBJECTID":686,"test":0,"Dist_LGD":230,"State_LGD":12}},{"type":"Feature","id":687,"geometry":{"type":"Polygon","coordinates":[[[96.2602,28.5383],[96.2538,28.5418],[96.2409,28.534],[96.2252,28.5333],[96.2038,28.5276],[96.1767,28.5147],[96.1717,28.4969],[96.1246,28.489],[96.1032,28.489],[96.0639,28.5026],[96.0461,28.4983],[96.0361,28.499],[96.0147,28.5076],[95.9968,28.489],[95.9697,28.4826],[95.9483,28.4819],[95.9454,28.4712],[95.944,28.431],[95.96,28.4132],[95.9547,28.4064],[95.9461,28.4025],[95.9097,28.3975],[95.9084,28.3994],[95.8911,28.3918],[95.8501,28.3661],[95.8444,28.3385],[95.8758,28.3194],[95.8834,28.3061],[95.833,28.2747],[95.7959,28.3156],[95.7645,28.3175],[95.7597,28.3261],[95.7188,28.3404],[95.6855,28.3489],[95.676,28.3623],[95.6407,28.3594],[95.6198,28.368],[95.5922,28.3661],[95.5732,28.3708],[95.5689,28.3838],[95.5772,28.4243],[95.5802,28.463],[95.5594,28.485],[95.5273,28.4802],[95.5178,28.4871],[95.5149,28.5026],[95.4946,28.5056],[95.478,28.5151],[95.4512,28.5216],[95.3947,28.5301],[95.3964,28.5269],[95.3948,28.5132],[95.3766,28.509],[95.3665,28.4923],[95.3607,28.493],[95.3518,28.4898],[95.3437,28.4814],[95.3388,28.4803],[95.3364,28.4753],[95.3346,28.4526],[95.3377,28.4497],[95.3394,28.4409],[95.3352,28.438],[95.3346,28.4343],[95.3224,28.4294],[95.3199,28.4263],[95.3235,28.4201],[95.3289,28.4185],[95.3289,28.4161],[95.3332,28.4144],[95.3392,28.4069],[95.3371,28.3962],[95.3404,28.3842],[95.3364,28.3762],[95.3379,28.3658],[95.3582,28.3583],[95.3692,28.3583],[95.3709,28.3558],[95.3678,28.3503],[95.3687,28.3442],[95.3714,28.3366],[95.3774,28.3337],[95.3744,28.3211],[95.3891,28.3076],[95.3984,28.315],[95.4369,28.3141],[95.4492,28.3002],[95.4509,28.2881],[95.4625,28.2773],[95.4603,28.2648],[95.4653,28.2575],[95.4726,28.264],[95.4778,28.2642],[95.4819,28.2698],[95.4868,28.2709],[95.4926,28.2683],[95.5142,28.2739],[95.5165,28.2775],[95.5358,28.2848],[95.543,28.2798],[95.5408,28.2753],[95.5498,28.2757],[95.549,28.2683],[95.5638,28.2554],[95.5597,28.1691],[95.5621,28.1465],[95.5679,28.1342],[95.5696,28.1149],[95.563,28.0565],[95.5563,28.0335],[95.5446,28.0203],[95.5397,28.0047],[95.5311,27.992],[95.5059,27.9698],[95.5009,27.9501],[95.5015,27.9425],[95.5064,27.9363],[95.5084,27.9271],[95.5144,27.9163],[95.5201,27.8814],[95.534,27.8982],[95.5399,27.8966],[95.5442,27.8999],[95.5421,27.9064],[95.5446,27.9109],[95.5635,27.9194],[95.5647,27.9294],[95.5685,27.936],[95.5759,27.9398],[95.586,27.9368],[95.5936,27.9469],[95.6052,27.9547],[95.8238,27.9716],[95.9712,27.9628],[95.9865,27.9586],[96.0002,27.9751],[96.0078,27.99],[96.0141,27.9954],[96.0138,28.0246],[96.0201,28.0443],[96.0584,28.0876],[96.0601,28.0955],[96.0568,28.099],[96.0575,28.1023],[96.0708,28.121],[96.0715,28.1305],[96.076,28.1423],[96.0649,28.1617],[96.0662,28.1684],[96.0627,28.1825],[96.0646,28.1906],[96.0677,28.1941],[96.0827,28.1894],[96.0973,28.1918],[96.1045,28.1897],[96.1176,28.1779],[96.1419,28.17],[96.1438,28.1753],[96.1684,28.1871],[96.1746,28.1967],[96.1904,28.2067],[96.2033,28.2221],[96.2154,28.231],[96.2301,28.2388],[96.2678,28.239],[96.2617,28.2554],[96.2434,28.2851],[96.2382,28.2996],[96.2552,28.3092],[96.2575,28.3169],[96.2667,28.3304],[96.2904,28.3447],[96.2965,28.3667],[96.3137,28.3835],[96.3031,28.3998],[96.2659,28.4054],[96.2623,28.4086],[96.273,28.4192],[96.3224,28.4502],[96.34,28.4652],[96.3655,28.4747],[96.3715,28.4822],[96.3703,28.492],[96.3652,28.5],[96.3517,28.5102],[96.326,28.5241],[96.3257,28.5108],[96.3066,28.5033],[96.2895,28.5019],[96.2759,28.5069],[96.2674,28.5154],[96.2602,28.5383]]]},"properties":{"dtname":"Lower Dibang Valley","stname":"ARUNACHAL PRADESH","stcode11":"12","dtcode11":"258","year_stat":"2011_c","Shape_Length":455337.2541231055,"Shape_Area":4615056116.543232,"OBJECTID":687,"test":0,"Dist_LGD":235,"State_LGD":12}},{"type":"Feature","id":690,"geometry":{"type":"Polygon","coordinates":[[[94.4418,28.8919],[94.3957,28.9322],[94.3815,28.9033],[94.3785,28.892],[94.3946,28.854],[94.4124,28.8373],[94.416,28.8254],[94.4237,28.8129],[94.4362,28.8099],[94.4427,28.7772],[94.4338,28.7641],[94.4341,28.7548],[94.4436,28.7462],[94.4503,28.731],[94.4588,28.7186],[94.4769,28.7053],[94.4845,28.691],[94.4807,28.6653],[94.4675,28.6259],[94.4504,28.6155],[94.4572,28.5913],[94.481,28.6002],[94.5134,28.5964],[94.5362,28.5888],[94.5419,28.5774],[94.5381,28.5336],[94.5438,28.5127],[94.56,28.4965],[94.561,28.4898],[94.5429,28.4813],[94.5448,28.4687],[94.5347,28.47],[94.5118,28.4664],[94.5004,28.4607],[94.5004,28.4328],[94.4968,28.4128],[94.4854,28.3958],[94.4893,28.3754],[94.5065,28.3482],[94.5286,28.3318],[94.555,28.3318],[94.5614,28.3268],[94.58,28.2826],[94.5964,28.2769],[94.6135,28.2576],[94.6164,28.2309],[94.6126,28.2148],[94.605,28.2024],[94.6164,28.1833],[94.6149,28.1498],[94.6301,28.1546],[94.6415,28.166],[94.6605,28.2069],[94.691,28.2164],[94.7272,28.2221],[94.7671,28.1945],[94.7748,28.1869],[94.8005,28.186],[94.8366,28.2193],[94.8766,28.2164],[94.8945,28.221],[94.9019,28.2111],[94.9092,28.2058],[94.9141,28.1962],[94.9094,28.1761],[94.9081,28.1589],[94.9169,28.1465],[94.9312,28.1449],[94.9374,28.1373],[94.9489,28.129],[94.9431,28.1149],[94.928,28.0967],[94.9154,28.0914],[94.9,28.0768],[94.9279,28.052],[94.9622,28.0413],[94.9935,28.0399],[95.0346,28.0331],[95.0674,28.0234],[95.08,28.022],[95.1151,28.0242],[95.1307,28.0309],[95.1427,28.0331],[95.1539,28.0399],[95.177,28.0481],[95.2008,28.0533],[95.2172,28.0563],[95.2239,28.0481],[95.2404,28.0473],[95.2888,28.0906],[95.2881,28.1032],[95.2955,28.1211],[95.262,28.145],[95.2508,28.1502],[95.2305,28.1549],[95.2239,28.1521],[95.2117,28.1544],[95.1924,28.1646],[95.1836,28.1742],[95.1824,28.1898],[95.1782,28.195],[95.1687,28.2005],[95.1373,28.2035],[95.1308,28.2169],[95.139,28.2288],[95.1065,28.2634],[95.1174,28.3765],[95.1043,28.3788],[95.0824,28.3952],[95.0817,28.4151],[95.1045,28.4443],[95.1107,28.4629],[95.1016,28.4835],[95.1105,28.5008],[95.0841,28.5267],[95.0382,28.5155],[94.9888,28.5291],[94.9724,28.5654],[94.9578,28.5729],[94.9396,28.5692],[94.9016,28.5488],[94.8781,28.5524],[94.8578,28.5639],[94.8368,28.5692],[94.8196,28.5681],[94.8089,28.5623],[94.8037,28.5518],[94.7956,28.5463],[94.7738,28.5353],[94.7588,28.534],[94.762,28.5472],[94.7707,28.5512],[94.7775,28.5593],[94.7601,28.56],[94.7466,28.588],[94.7445,28.6109],[94.7477,28.6652],[94.7455,28.6864],[94.6966,28.7284],[94.6339,28.7667],[94.6333,28.7843],[94.6201,28.7939],[94.6078,28.7971],[94.5922,28.7919],[94.5615,28.8103],[94.5253,28.8116],[94.5153,28.8209],[94.517,28.8366],[94.4799,28.8585],[94.4418,28.8919]]]},"properties":{"dtname":"Siang","stname":"ARUNACHAL PRADESH","stcode11":"12","dtcode11":"764","year_stat":"2015_c","Shape_Length":433635.9214948326,"Shape_Area":4472923809.597326,"OBJECTID":690,"test":0,"Dist_LGD":679,"State_LGD":12}},{"type":"Feature","id":723,"geometry":{"type":"Polygon","coordinates":[[[94.4854,28.3958],[94.4968,28.4128],[94.5004,28.4328],[94.5004,28.4607],[94.5118,28.4664],[94.5347,28.47],[94.5448,28.4687],[94.5429,28.4813],[94.561,28.4898],[94.56,28.4965],[94.5438,28.5127],[94.5381,28.5336],[94.5419,28.5774],[94.5362,28.5888],[94.5134,28.5964],[94.481,28.6002],[94.4572,28.5913],[94.4504,28.6155],[94.4675,28.6259],[94.4807,28.6653],[94.4845,28.691],[94.4769,28.7053],[94.4588,28.7186],[94.4503,28.731],[94.4436,28.7462],[94.4341,28.7548],[94.4338,28.7641],[94.4427,28.7772],[94.4362,28.8099],[94.4237,28.8129],[94.416,28.8254],[94.4124,28.8373],[94.3946,28.854],[94.3827,28.8784],[94.3785,28.892],[94.3815,28.9033],[94.3957,28.9322],[94.3676,28.9566],[94.3427,28.9839],[94.1873,29.0388],[94.1775,29.0202],[94.1742,29.0074],[94.1752,28.9914],[94.169,28.9808],[94.1605,28.9737],[94.1573,28.9543],[94.1386,28.9399],[94.081,28.9054],[94.0686,28.8956],[94.0461,28.8734],[94.0321,28.853],[94.0169,28.8507],[94.0049,28.8465],[93.997,28.8409],[94.002,28.8193],[93.9875,28.8062],[93.9872,28.7978],[94.0035,28.7837],[94.0033,28.7749],[93.9704,28.7508],[93.9669,28.7424],[93.9673,28.7226],[93.9621,28.7124],[94.0041,28.6747],[94.0156,28.6686],[94.0233,28.6513],[94.0102,28.6319],[94.0061,28.6218],[94.0034,28.6109],[94.0014,28.5778],[94.0497,28.5512],[94.058,28.5496],[94.0715,28.5393],[94.0851,28.5338],[94.0968,28.5361],[94.1031,28.5254],[94.1073,28.5244],[94.1088,28.5213],[94.109,28.5032],[94.1056,28.4976],[94.1114,28.4892],[94.1148,28.4758],[94.1264,28.4671],[94.1327,28.4515],[94.1391,28.4445],[94.1518,28.4362],[94.1626,28.4324],[94.1733,28.4351],[94.1845,28.4295],[94.2192,28.4363],[94.2316,28.4282],[94.2367,28.4336],[94.2367,28.4419],[94.2417,28.4468],[94.2675,28.4323],[94.2834,28.432],[94.2928,28.4288],[94.2964,28.4228],[94.3085,28.417],[94.3017,28.396],[94.3085,28.3756],[94.3221,28.3687],[94.3296,28.3579],[94.3372,28.3584],[94.3435,28.3553],[94.3708,28.3518],[94.3727,28.3443],[94.3861,28.3359],[94.4013,28.3404],[94.4016,28.3385],[94.4133,28.3579],[94.4347,28.3736],[94.4462,28.4036],[94.4669,28.3979],[94.4854,28.3958]]]},"properties":{"dtname":"Shi Yomi","stname":"ARUNACHAL PRADESH","stcode11":"12","dtcode11":"785","year_stat":"2018","Shape_Length":274667.10471269867,"Shape_Area":3442420522.3500314,"OBJECTID":723,"test":0,"Dist_LGD":725,"State_LGD":12}},{"type":"Feature","id":724,"geometry":{"type":"Polygon","coordinates":[[[93.33,27.3546],[93.2997,27.3996],[93.289,27.3936],[93.195,27.3782],[93.1653,27.3116],[93.0749,27.2747],[93.0023,27.2497],[92.9844,27.2199],[93.0094,27.2009],[93.0725,27.2033],[93.0808,27.1866],[93.0749,27.1759],[93.0689,27.1712],[93.0297,27.1569],[93.0118,27.1426],[92.9892,27.1533],[92.9702,27.1581],[92.9583,27.1581],[92.9369,27.1521],[92.8952,27.1343],[92.875,27.1343],[92.8571,27.1402],[92.8393,27.1319],[92.8286,27.1616],[92.8089,27.1768],[92.7985,27.1794],[92.7823,27.1789],[92.7664,27.1931],[92.756,27.1949],[92.7426,27.1918],[92.7167,27.176],[92.6972,27.1726],[92.688,27.1658],[92.6705,27.1614],[92.6499,27.152],[92.6172,27.1462],[92.608,27.1403],[92.607,27.1256],[92.6016,27.1199],[92.6018,27.1082],[92.5942,27.1047],[92.6002,27.0971],[92.5919,27.0855],[92.5902,27.0791],[92.5977,27.053],[92.6238,27.0288],[92.6355,27.024],[92.6568,27.0082],[92.6674,27.0272],[92.6724,27.0317],[92.6774,27.0318],[92.6926,27.0273],[92.6976,27.0228],[92.7128,27.0228],[92.7228,27.0183],[92.7329,27.0228],[92.7531,27.0229],[92.7632,27.0274],[92.7783,27.0229],[92.7934,27.0229],[92.8388,27.0049],[92.8865,26.9998],[92.9183,26.9824],[92.9155,26.974],[92.9171,26.963],[92.9818,26.9361],[93.0218,26.9135],[93.0626,26.9224],[93.0882,26.9145],[93.1073,26.9259],[93.2616,26.9536],[93.324,26.9602],[93.3986,26.9573],[93.3909,26.9584],[93.3904,26.9628],[93.3925,26.9648],[93.3877,26.9736],[93.3783,26.9759],[93.3788,26.9798],[93.3819,26.982],[93.3806,26.9849],[93.3647,26.9824],[93.3398,26.9929],[93.3393,27.0069],[93.3441,27.0109],[93.3408,27.0167],[93.3427,27.024],[93.34,27.0323],[93.3424,27.0367],[93.3292,27.0583],[93.3229,27.062],[93.3125,27.0794],[93.3041,27.0793],[93.2994,27.0762],[93.293,27.0779],[93.2719,27.1036],[93.2521,27.1092],[93.2376,27.1106],[93.2308,27.1083],[93.2147,27.1138],[93.212,27.1176],[93.2112,27.1303],[93.2143,27.1379],[93.224,27.139],[93.235,27.1437],[93.2423,27.1532],[93.2468,27.1552],[93.2697,27.1536],[93.2764,27.1603],[93.2848,27.1635],[93.2933,27.1628],[93.3072,27.1721],[93.3117,27.1729],[93.3009,27.1788],[93.2988,27.1812],[93.3006,27.1866],[93.291,27.1919],[93.2854,27.1996],[93.2818,27.1996],[93.2801,27.2053],[93.274,27.2109],[93.2566,27.2075],[93.2461,27.2011],[93.2275,27.1964],[93.2195,27.1999],[93.222,27.2039],[93.2195,27.2157],[93.226,27.2208],[93.2225,27.2262],[93.2241,27.2352],[93.2298,27.2387],[93.2338,27.2381],[93.2318,27.2432],[93.2264,27.2475],[93.2257,27.2519],[93.2529,27.2653],[93.2504,27.2694],[93.2536,27.2729],[93.2686,27.277],[93.2942,27.2898],[93.2908,27.303],[93.294,27.3078],[93.2908,27.3138],[93.2918,27.3244],[93.2883,27.3277],[93.295,27.3303],[93.3032,27.3412],[93.33,27.3546]]]},"properties":{"dtname":"Pakke Kessang","stname":"ARUNACHAL PRADESH","stcode11":"12","dtcode11":"783","year_stat":"2018","Shape_Length":336176.7936990218,"Shape_Area":2411873690.5818124,"OBJECTID":724,"test":0,"Dist_LGD":723,"State_LGD":12}},{"type":"Feature","id":725,"geometry":{"type":"Polygon","coordinates":[[[94.8975,28.0169],[94.9017,28.0204],[94.9095,28.035],[94.9304,28.0479],[94.9,28.0768],[94.9154,28.0914],[94.928,28.0967],[94.9431,28.1149],[94.9489,28.129],[94.9374,28.1373],[94.9312,28.1449],[94.9169,28.1465],[94.9081,28.1589],[94.9094,28.1761],[94.9141,28.1962],[94.9092,28.2058],[94.9019,28.2111],[94.8945,28.221],[94.8766,28.2164],[94.8366,28.2193],[94.8005,28.186],[94.7748,28.1869],[94.7671,28.1945],[94.7272,28.2221],[94.691,28.2164],[94.6605,28.2069],[94.6415,28.166],[94.6301,28.1546],[94.6149,28.1498],[94.6164,28.1833],[94.605,28.2024],[94.6126,28.2148],[94.6164,28.2309],[94.6135,28.2576],[94.5964,28.2769],[94.58,28.2826],[94.5614,28.3268],[94.555,28.3318],[94.5286,28.3318],[94.5065,28.3482],[94.4893,28.3754],[94.4854,28.3958],[94.4669,28.3979],[94.4462,28.4036],[94.4347,28.3736],[94.4133,28.3579],[94.4016,28.3385],[94.4032,28.3279],[94.3776,28.309],[94.3748,28.295],[94.3898,28.2786],[94.3941,28.2636],[94.4169,28.2543],[94.4041,28.253],[94.3834,28.2581],[94.3692,28.2442],[94.3677,28.2115],[94.3564,28.1986],[94.3607,28.1906],[94.3744,28.1811],[94.3765,28.1766],[94.3746,28.1681],[94.3777,28.1587],[94.3914,28.142],[94.3918,28.1366],[94.3865,28.1211],[94.3976,28.1048],[94.3918,28.0828],[94.3993,28.08],[94.4083,28.0692],[94.4256,28.0627],[94.4393,28.061],[94.467,28.0488],[94.4753,28.0394],[94.4842,28.0218],[94.4897,28.0342],[94.4997,28.0435],[94.5061,28.0556],[94.5332,28.0492],[94.5675,28.0492],[94.5932,28.0528],[94.6032,28.0621],[94.6253,28.0556],[94.6403,28.0435],[94.6689,28.0414],[94.6996,28.0192],[94.7381,28.0092],[94.7524,28.0114],[94.7909,27.9871],[94.8197,27.9859],[94.8975,28.0169]]]},"properties":{"dtname":"West Siang","stname":"ARUNACHAL PRADESH","stcode11":"12","dtcode11":"250","year_stat":"2011_c","Shape_Length":236887.84056045325,"Shape_Area":1749824315.4304938,"OBJECTID":725,"test":0,"Dist_LGD":243,"State_LGD":12}},{"type":"Feature","id":727,"geometry":{"type":"Polygon","coordinates":[[[94.891,27.8099],[94.9007,27.8228],[94.9011,27.8289],[94.9092,27.8337],[94.9054,27.8423],[94.9166,27.8466],[94.9292,27.8569],[94.9212,27.8605],[94.9094,27.8598],[94.9067,27.8642],[94.9088,27.8704],[94.9058,27.8803],[94.9245,27.8893],[94.9231,27.8942],[94.9271,27.9058],[94.9412,27.9233],[94.9471,27.9372],[94.9464,27.9491],[94.9537,27.9556],[94.9573,27.9808],[94.9508,27.9819],[94.9472,27.9869],[94.9406,27.9898],[94.928,27.9923],[94.9218,27.9974],[94.9004,27.9957],[94.8806,28.0002],[94.8867,28.0122],[94.8978,28.0168],[94.82,27.9858],[94.7912,27.987],[94.7527,28.0113],[94.7384,28.0091],[94.6999,28.0191],[94.6692,28.0412],[94.6406,28.0434],[94.6256,28.0555],[94.6035,28.0619],[94.5935,28.0527],[94.5678,28.0491],[94.5335,28.0491],[94.5064,28.0555],[94.5,28.0434],[94.49,28.0341],[94.4845,28.0217],[94.5065,28.0192],[94.5132,28.0154],[94.5323,27.9859],[94.5256,27.9771],[94.523,27.9664],[94.5253,27.9582],[94.5312,27.9522],[94.5361,27.9438],[94.538,27.9333],[94.5583,27.9024],[94.5932,27.89],[94.5951,27.8708],[94.6318,27.8667],[94.646,27.8501],[94.6853,27.8405],[94.7019,27.8346],[94.7174,27.8251],[94.7241,27.7949],[94.746,27.773],[94.7688,27.7739],[94.809,27.7858],[94.8388,27.8037],[94.9004,27.8229],[94.891,27.8099]]]},"properties":{"dtname":"Lepa Rada","stname":"ARUNACHAL PRADESH","stcode11":"12","dtcode11":"784","year_stat":"2018","Shape_Length":163287.1050716279,"Shape_Area":1076190710.4917305,"OBJECTID":727,"test":0,"Dist_LGD":724,"State_LGD":12}},{"type":"Feature","id":728,"geometry":{"type":"Polygon","coordinates":[[[93.9418,27.5113],[94.0452,27.4993],[94.0685,27.4825],[94.0939,27.4833],[94.1197,27.4974],[94.1388,27.5141],[94.1428,27.5259],[94.1505,27.5306],[94.1909,27.5359],[94.2054,27.5312],[94.2111,27.5124],[94.2198,27.5049],[94.2682,27.5209],[94.2574,27.5371],[94.2586,27.5556],[94.2466,27.5696],[94.2347,27.5693],[94.2249,27.5742],[94.2228,27.5883],[94.2266,27.5978],[94.2122,27.601],[94.2094,27.6088],[94.2281,27.6355],[94.2393,27.6428],[94.2445,27.6492],[94.2578,27.655],[94.2639,27.6628],[94.2794,27.6697],[94.2921,27.6806],[94.3071,27.6886],[94.3172,27.702],[94.3538,27.717],[94.3563,27.7249],[94.3537,27.7305],[94.3472,27.732],[94.3355,27.725],[94.3137,27.7394],[94.3113,27.7512],[94.3145,27.7685],[94.3183,27.7763],[94.2738,27.8097],[94.2676,27.8122],[94.2607,27.8123],[94.2527,27.8082],[94.1934,27.8115],[94.1918,27.8366],[94.1704,27.8455],[94.1601,27.8439],[94.1539,27.852],[94.149,27.8661],[94.1414,27.8663],[94.1285,27.8579],[94.122,27.8619],[94.0964,27.8599],[94.0865,27.8532],[94.0741,27.8494],[94.0601,27.8695],[94.0561,27.9063],[94.0476,27.912],[94.0477,27.9146],[94.057,27.9222],[94.0681,27.9392],[94.049,27.9527],[94.0384,27.9568],[94.0182,27.9548],[94.011,27.9563],[93.9878,27.975],[93.963,27.9798],[93.9445,27.9644],[93.9403,27.9473],[93.9317,27.9416],[93.9265,27.9197],[93.911,27.9207],[93.8909,27.9163],[93.8826,27.9097],[93.8835,27.9007],[93.8907,27.8973],[93.9096,27.8967],[93.9218,27.8928],[93.9272,27.8851],[93.9274,27.875],[93.9106,27.8377],[93.9109,27.8307],[93.8902,27.8201],[93.9078,27.7972],[93.8923,27.7436],[93.8905,27.7431],[93.9197,27.7234],[93.9256,27.6591],[93.9471,27.6294],[94.0161,27.6116],[94.0532,27.608],[94.0491,27.5826],[94.1062,27.5541],[94.1062,27.5441],[94.072,27.5155],[93.9418,27.5113]]]},"properties":{"dtname":"Kamle","stname":"ARUNACHAL PRADESH","stcode11":"12","dtcode11":"778","year_stat":"2018","Shape_Length":256025.83303506352,"Shape_Area":1672478556.749403,"OBJECTID":728,"test":0,"Dist_LGD":718,"State_LGD":12}}]}