{"type":"FeatureCollection","crs":{"type":"name","properties":{"name":"EPSG:4326"}},"features":[{"type":"Feature","id":646,"geometry":{"type":"Polygon","coordinates":[[[76.7718,30.795],[76.7617,30.7915],[76.7517,30.7843],[76.7522,30.7803],[76.7436,30.7762],[76.7454,30.7727],[76.7439,30.7697],[76.7102,30.7607],[76.7052,30.7561],[76.7084,30.7504],[76.7052,30.743],[76.7074,30.7395],[76.7142,30.741],[76.7212,30.73],[76.7311,30.7236],[76.7312,30.7175],[76.7287,30.7159],[76.7313,30.7126],[76.7291,30.7118],[76.73,30.7069],[76.7391,30.7058],[76.7393,30.6929],[76.7471,30.6956],[76.7477,30.6876],[76.7499,30.6884],[76.7524,30.6845],[76.764,30.6864],[76.7766,30.6704],[76.7812,30.6743],[76.7897,30.6757],[76.7965,30.6676],[76.8003,30.6703],[76.8024,30.6665],[76.8086,30.6674],[76.8208,30.6749],[76.8218,30.6785],[76.8319,30.6833],[76.8251,30.6883],[76.8355,30.7036],[76.8472,30.7123],[76.8467,30.7169],[76.8494,30.7183],[76.845,30.7172],[76.8436,30.7193],[76.8494,30.7234],[76.8464,30.7297],[76.8483,30.7304],[76.8372,30.7335],[76.8315,30.7396],[76.8368,30.7427],[76.8349,30.7419],[76.8334,30.7466],[76.8381,30.7549],[76.8265,30.7635],[76.82,30.7611],[76.815,30.753],[76.805,30.7653],[76.818,30.7713],[76.8197,30.7747],[76.8173,30.7749],[76.8183,30.7782],[76.8105,30.7798],[76.7912,30.7675],[76.7901,30.7708],[76.7826,30.7708],[76.7793,30.778],[76.787,30.7796],[76.7828,30.7892],[76.7754,30.7906],[76.7718,30.795]]]},"properties":{"dtname":"Chandigarh","stname":"CHANDIGARH","stcode11":"04","dtcode11":"055","year_stat":"2011_c","Shape_Length":73471.99190239848,"Shape_Area":155610321.23274165,"OBJECTID":646,"test":0,"Dist_LGD":44,"State_LGD":4}}]}