{"type":"FeatureCollection","crs":{"type":"name","properties":{"name":"EPSG:4326"}},"features":[{"type":"Feature","id":171,"geometry":{"type":"MultiPolygon","coordinates":[[[[72.7326,19.4672],[72.7303,19.4692],[72.7288,19.4657],[72.7328,19.4592],[72.7369,19.4658],[72.7326,19.4672]]],[[[72.9767,20.3313],[72.9617,20.3323],[72.9528,20.3153],[72.9705,20.2971],[72.9743,20.3108],[72.9831,20.3189],[72.9817,20.3267],[72.9786,20.3319],[72.9767,20.3313]]],[[[73.0971,20.3602],[73.09,20.3584],[73.089,20.3492],[73.0908,20.3448],[73.0849,20.331],[73.0776,20.3229],[73.071,20.3247],[73.0673,20.3294],[73.0522,20.3242],[73.0426,20.325],[73.0383,20.3173],[73.0347,20.2914],[73.0263,20.2903],[73.0162,20.2936],[73.0172,20.3089],[73.0077,20.3124],[73.0119,20.2996],[73.0101,20.2911],[73.0055,20.2889],[72.9936,20.2924],[72.9849,20.2881],[72.9813,20.2898],[72.9819,20.2765],[72.9733,20.2703],[72.9628,20.2712],[72.9556,20.2802],[72.9549,20.2843],[72.9446,20.289],[72.9415,20.2933],[72.9325,20.2953],[72.9268,20.286],[72.917,20.2813],[72.9166,20.2757],[72.9122,20.2755],[72.9119,20.269],[72.9188,20.257],[72.9239,20.2553],[72.9309,20.2427],[72.9371,20.2432],[72.954,20.2369],[72.9661,20.2238],[72.9648,20.2115],[72.9614,20.2086],[72.9599,20.1999],[72.9615,20.1848],[72.9631,20.1821],[72.9672,20.1832],[72.9776,20.1794],[72.9734,20.1732],[72.974,20.1583],[72.9604,20.134],[72.9644,20.126],[72.9687,20.1242],[72.9719,20.1147],[72.9771,20.1127],[72.9796,20.1156],[72.9917,20.1168],[72.9958,20.1325],[72.9949,20.1376],[72.9982,20.1428],[73.0037,20.14],[73.0061,20.1355],[73.0115,20.1346],[73.0126,20.1296],[72.9999,20.1225],[72.9988,20.1191],[73.0013,20.1117],[73.0084,20.1082],[73.0141,20.0962],[73.0221,20.09],[73.0235,20.0846],[73.0287,20.0815],[73.0396,20.0671],[73.0527,20.0645],[73.054,20.0949],[73.0559,20.099],[73.0643,20.0985],[73.0856,20.0907],[73.1037,20.0895],[73.1069,20.0845],[73.1071,20.0779],[73.112,20.0742],[73.1152,20.0765],[73.1193,20.0751],[73.1196,20.0787],[73.1249,20.0779],[73.1263,20.0827],[73.1314,20.0813],[73.1342,20.0858],[73.1372,20.086],[73.1378,20.0787],[73.1423,20.0795],[73.1467,20.0734],[73.1496,20.0748],[73.1496,20.0782],[73.155,20.0752],[73.153,20.0719],[73.1572,20.0628],[73.1605,20.0633],[73.1641,20.0605],[73.1661,20.0547],[73.1776,20.0511],[73.1789,20.0471],[73.1836,20.0503],[73.1923,20.0495],[73.1928,20.0543],[73.1875,20.0588],[73.1904,20.0727],[73.1893,20.0773],[73.1973,20.0756],[73.2043,20.0787],[73.2107,20.0858],[73.2132,20.091],[73.2151,20.1192],[73.2033,20.1195],[73.1977,20.1262],[73.1872,20.1294],[73.1856,20.1558],[73.1899,20.1642],[73.1904,20.1624],[73.2062,20.1625],[73.2147,20.1697],[73.2185,20.18],[73.218,20.1859],[73.2085,20.1894],[73.207,20.188],[73.192,20.1974],[73.1903,20.195],[73.1782,20.1926],[73.1791,20.1977],[73.1717,20.1984],[73.1685,20.2082],[73.1574,20.1983],[73.1525,20.2038],[73.1478,20.2007],[73.1388,20.2044],[73.1378,20.2075],[73.1332,20.2057],[73.1329,20.1919],[73.1349,20.1845],[73.1392,20.1844],[73.1421,20.1773],[73.1363,20.17],[73.1327,20.1693],[73.1287,20.1734],[73.1194,20.1681],[73.1197,20.164],[73.1159,20.1621],[73.1151,20.1589],[73.1159,20.1521],[73.1084,20.1578],[73.0997,20.1561],[73.0905,20.1603],[73.0873,20.1702],[73.0795,20.1732],[73.0738,20.1555],[73.0605,20.1618],[73.0631,20.1775],[73.0598,20.1939],[73.0535,20.1954],[73.0491,20.2008],[73.0537,20.2053],[73.0637,20.2276],[73.0706,20.2319],[73.0712,20.23],[73.0849,20.2283],[73.0876,20.2251],[73.0979,20.2275],[73.0981,20.2393],[73.1139,20.2559],[73.1269,20.2594],[73.1316,20.2737],[73.1369,20.2714],[73.1425,20.2738],[73.1456,20.2865],[73.1517,20.2905],[73.153,20.2846],[73.1582,20.2802],[73.1657,20.2829],[73.1671,20.2885],[73.1641,20.2975],[73.1662,20.3094],[73.1589,20.3085],[73.1514,20.3172],[73.1294,20.3174],[73.1248,20.3039],[73.1172,20.3053],[73.1081,20.3043],[73.1038,20.3013],[73.1014,20.3028],[73.1118,20.3369],[73.1047,20.346],[73.1054,20.3498],[73.0993,20.3543],[73.0971,20.3602]],[[72.9749,20.2256],[72.9795,20.234],[72.9898,20.2387],[72.9987,20.2367],[73.0086,20.2289],[73.0014,20.2144],[72.9906,20.2133],[72.984,20.213],[72.9793,20.2155],[72.975,20.2192],[72.9749,20.2256]]]]},"properties":{"dtname":"Dadra & Nagar Haveli","stname":"DADRA & NAGAR HAVE","stcode11":"26","dtcode11":"496","year_stat":"2011_c","Shape_Length":247012.13205881338,"Shape_Area":565676122.3823775,"OBJECTID":171,"test":0,"Dist_LGD":465,"State_LGD":26}}]}