{"type":"FeatureCollection","crs":{"type":"name","properties":{"name":"EPSG:4326"}},"features":[{"type":"Feature","id":200,"geometry":{"type":"Polygon","coordinates":[[[77.0826,28.8836],[77.0776,28.8772],[77.0792,28.872],[77.0746,28.8675],[77.0717,28.869],[77.0692,28.8672],[77.061,28.8711],[77.0578,28.8678],[77.0457,28.8475],[77.0451,28.841],[77.04,28.8318],[77.0233,28.8394],[77.0065,28.8406],[76.9918,28.8384],[76.9797,28.8213],[76.9729,28.8268],[76.9658,28.8275],[76.9618,28.8151],[76.969,28.8121],[76.9682,28.8102],[76.9707,28.8085],[76.968,28.8024],[76.9694,28.7995],[76.9796,28.794],[76.9835,28.7942],[76.9924,28.7868],[77.0151,28.7805],[77.0132,28.7657],[77.0168,28.7567],[77.0258,28.7525],[77.0599,28.7432],[77.0814,28.7298],[77.0892,28.7388],[77.0939,28.7386],[77.0957,28.7407],[77.108,28.7379],[77.1177,28.7207],[77.1196,28.7097],[77.1236,28.7078],[77.1288,28.711],[77.132,28.719],[77.1375,28.7222],[77.1406,28.7281],[77.1438,28.7302],[77.1509,28.7276],[77.1583,28.7342],[77.1615,28.7278],[77.1585,28.7202],[77.1611,28.7158],[77.1583,28.7059],[77.1657,28.7019],[77.1786,28.7026],[77.1769,28.7006],[77.1784,28.6988],[77.1833,28.6954],[77.1853,28.6963],[77.1857,28.6936],[77.1903,28.6923],[77.1964,28.6845],[77.2136,28.7027],[77.2205,28.716],[77.2152,28.7224],[77.2153,28.7266],[77.1957,28.7283],[77.1923,28.7255],[77.1893,28.731],[77.1769,28.7394],[77.1755,28.746],[77.1826,28.7506],[77.1828,28.753],[77.1789,28.7551],[77.1798,28.7581],[77.1746,28.7599],[77.1752,28.7641],[77.1719,28.7671],[77.1717,28.7716],[77.1863,28.7712],[77.1989,28.7817],[77.1982,28.7839],[77.2087,28.7884],[77.1994,28.7981],[77.2015,28.8124],[77.2189,28.8083],[77.2202,28.8192],[77.2244,28.8254],[77.223,28.8334],[77.2166,28.8415],[77.2167,28.8527],[77.2098,28.8579],[77.1754,28.8584],[77.173,28.8573],[77.1721,28.8499],[77.1659,28.8491],[77.1568,28.8391],[77.1577,28.8367],[77.1438,28.8383],[77.1417,28.8447],[77.1453,28.8537],[77.142,28.8563],[77.1403,28.8621],[77.1322,28.8636],[77.1249,28.8577],[77.1209,28.8583],[77.1098,28.8701],[77.0949,28.8714],[77.0875,28.8755],[77.0868,28.881],[77.0826,28.8836]]]},"properties":{"dtname":"North","stname":"DELHI","stcode11":"07","dtcode11":"091","year_stat":"2011_c","Shape_Length":124517.06009008209,"Shape_Area":374781983.7772975,"OBJECTID":200,"test":0,"Dist_LGD":80,"State_LGD":7}},{"type":"Feature","id":204,"geometry":{"type":"Polygon","coordinates":[[[77.2319,28.7711],[77.22,28.7703],[77.2185,28.7685],[77.222,28.7587],[77.2213,28.7509],[77.2416,28.7437],[77.2401,28.7353],[77.2418,28.7339],[77.2371,28.725],[77.2397,28.7219],[77.2378,28.7185],[77.2425,28.7185],[77.2527,28.7105],[77.2505,28.7052],[77.2297,28.7121],[77.2339,28.6975],[77.2392,28.6914],[77.2456,28.69],[77.248,28.6782],[77.2527,28.676],[77.2528,28.6733],[77.2618,28.6712],[77.2658,28.6765],[77.2723,28.6968],[77.2862,28.6978],[77.2953,28.6949],[77.2968,28.7045],[77.2874,28.7103],[77.2862,28.7146],[77.2908,28.7224],[77.2764,28.7355],[77.2608,28.7342],[77.2552,28.7398],[77.2545,28.7436],[77.2592,28.75],[77.2564,28.7562],[77.2488,28.7553],[77.2355,28.7609],[77.2359,28.7708],[77.2319,28.7711]]]},"properties":{"dtname":"North East","stname":"DELHI","stcode11":"07","dtcode11":"092","year_stat":"2011_c","Shape_Length":45699.265032093244,"Shape_Area":44876677.76962693,"OBJECTID":204,"test":0,"Dist_LGD":81,"State_LGD":7}},{"type":"Feature","id":205,"geometry":{"type":"Polygon","coordinates":[[[76.9745,28.7017],[76.9677,28.6996],[76.9633,28.694],[76.9574,28.6833],[76.9534,28.6673],[76.968,28.6585],[76.9775,28.6571],[76.9797,28.6543],[76.9887,28.6608],[76.9931,28.6583],[76.9927,28.6563],[77.0021,28.6513],[76.9997,28.6496],[76.9998,28.646],[77.0069,28.628],[77.0043,28.6249],[77.022,28.6264],[77.0225,28.621],[77.0343,28.6164],[77.0329,28.6137],[77.0363,28.604],[77.053,28.5967],[77.0619,28.5997],[77.0523,28.6075],[77.0549,28.6117],[77.0518,28.6164],[77.0531,28.6183],[77.0604,28.6177],[77.0636,28.6212],[77.0797,28.6119],[77.0895,28.6181],[77.1039,28.6128],[77.1153,28.6182],[77.1253,28.639],[77.1363,28.6411],[77.1456,28.6382],[77.1471,28.6402],[77.1497,28.6373],[77.1532,28.6395],[77.1655,28.628],[77.1754,28.6301],[77.1741,28.6403],[77.1789,28.6485],[77.1778,28.6541],[77.1693,28.6531],[77.1665,28.6567],[77.1722,28.6672],[77.1616,28.6713],[77.1614,28.6735],[77.1494,28.6729],[77.1485,28.6692],[77.1354,28.6743],[77.1307,28.6782],[77.1355,28.6965],[77.1266,28.6978],[77.1148,28.6831],[77.1077,28.6886],[77.1036,28.6847],[77.0979,28.6893],[77.0924,28.686],[77.0879,28.6889],[77.0837,28.6885],[77.076,28.683],[77.0645,28.692],[77.0541,28.6834],[77.0451,28.695],[77.0374,28.6985],[77.0127,28.6953],[77.0094,28.6883],[77.0,28.6792],[76.9834,28.6901],[76.9745,28.7017]]]},"properties":{"dtname":"West","stname":"DELHI","stcode11":"07","dtcode11":"096","year_stat":"2011_c","Shape_Length":87103.57625559672,"Shape_Area":174920314.45104852,"OBJECTID":205,"test":0,"Dist_LGD":85,"State_LGD":7}},{"type":"Feature","id":207,"geometry":{"type":"Polygon","coordinates":[[[77.2927,28.6558],[77.2891,28.6599],[77.2647,28.6517],[77.2665,28.6444],[77.2587,28.6306],[77.2572,28.6231],[77.2593,28.6144],[77.2557,28.6136],[77.2556,28.6106],[77.2652,28.5917],[77.2671,28.592],[77.267,28.5967],[77.2753,28.6008],[77.2846,28.5987],[77.2882,28.5894],[77.2921,28.5904],[77.2988,28.5805],[77.3102,28.5905],[77.3134,28.5966],[77.3252,28.5981],[77.3397,28.6038],[77.3424,28.6089],[77.3426,28.622],[77.3163,28.6412],[77.3026,28.6423],[77.2941,28.651],[77.2927,28.6558]]]},"properties":{"dtname":"East","stname":"DELHI","stcode11":"07","dtcode11":"093","year_stat":"2011_c","Shape_Length":34869.90287427888,"Shape_Area":57149646.224429354,"OBJECTID":207,"test":0,"Dist_LGD":78,"State_LGD":7}},{"type":"Feature","id":208,"geometry":{"type":"Polygon","coordinates":[[[76.9491,28.6698],[76.935,28.6675],[76.925,28.6499],[76.9381,28.6363],[76.9452,28.633],[76.9353,28.6183],[76.9201,28.6315],[76.9142,28.6323],[76.9063,28.6238],[76.8932,28.6317],[76.8883,28.6319],[76.8643,28.5858],[76.8396,28.5825],[76.8389,28.573],[76.8454,28.5503],[76.8647,28.5433],[76.8675,28.5352],[76.8732,28.5326],[76.877,28.5244],[76.8871,28.5206],[76.8796,28.5047],[76.8839,28.5007],[76.8914,28.5008],[76.8975,28.5083],[76.9023,28.5089],[76.908,28.5137],[76.9208,28.507],[76.9275,28.5104],[76.9335,28.5097],[76.9417,28.5046],[76.9517,28.5042],[76.9781,28.5213],[76.9904,28.5135],[76.9966,28.5197],[77.0103,28.5147],[77.017,28.5209],[77.0005,28.5321],[77.0066,28.5413],[77.0136,28.5405],[77.024,28.5329],[77.0319,28.5313],[77.0435,28.5248],[77.0484,28.5209],[77.0466,28.5166],[77.0673,28.5121],[77.0722,28.5202],[77.0986,28.5115],[77.1018,28.5171],[77.0842,28.5315],[77.0872,28.538],[77.0696,28.5436],[77.0691,28.5482],[77.0502,28.5596],[77.0585,28.5717],[77.0642,28.5706],[77.0691,28.5758],[77.0805,28.5724],[77.1018,28.5991],[77.0985,28.6026],[77.1053,28.6134],[77.0895,28.6181],[77.0797,28.6119],[77.0636,28.6212],[77.0604,28.6177],[77.0531,28.6183],[77.0518,28.6164],[77.0549,28.6117],[77.0523,28.6075],[77.0619,28.5997],[77.053,28.5967],[77.0363,28.604],[77.0329,28.6137],[77.0343,28.6164],[77.0225,28.621],[77.022,28.6264],[77.0043,28.6249],[77.0069,28.628],[76.9998,28.646],[76.9997,28.6496],[77.0021,28.6513],[76.9927,28.6563],[76.9931,28.6583],[76.9887,28.6608],[76.9797,28.6543],[76.9491,28.6698]]]},"properties":{"dtname":"South West","stname":"DELHI","stcode11":"07","dtcode11":"097","year_stat":"2011_c","Shape_Length":127028.154482153,"Shape_Area":365433875.3776858,"OBJECTID":208,"test":0,"Dist_LGD":84,"State_LGD":7}},{"type":"Feature","id":209,"geometry":{"type":"Polygon","coordinates":[[[77.2096,28.7877],[77.1982,28.7839],[77.1989,28.7817],[77.1863,28.7712],[77.1792,28.7703],[77.1718,28.7727],[77.1746,28.7599],[77.1798,28.7581],[77.1789,28.7551],[77.1828,28.753],[77.175,28.7445],[77.1769,28.7394],[77.1893,28.731],[77.1923,28.7255],[77.1957,28.7283],[77.2153,28.7266],[77.2152,28.7224],[77.2205,28.716],[77.2136,28.7027],[77.1964,28.6845],[77.1923,28.6905],[77.182,28.6846],[77.1841,28.6822],[77.1779,28.6809],[77.1742,28.6714],[77.17,28.6726],[77.1662,28.6707],[77.1722,28.6672],[77.1665,28.6567],[77.1693,28.6531],[77.1778,28.6541],[77.1789,28.6485],[77.1745,28.6416],[77.174,28.6333],[77.1805,28.6237],[77.1874,28.6296],[77.1975,28.6456],[77.217,28.6344],[77.2224,28.6364],[77.2426,28.6251],[77.249,28.6137],[77.2593,28.6144],[77.2572,28.6231],[77.2583,28.6295],[77.2663,28.6438],[77.2659,28.6494],[77.2594,28.6616],[77.2488,28.6673],[77.2486,28.6737],[77.2528,28.6733],[77.2527,28.676],[77.248,28.6782],[77.2456,28.69],[77.2392,28.6914],[77.2339,28.6975],[77.2297,28.7121],[77.2505,28.7052],[77.2527,28.7105],[77.2425,28.7185],[77.2378,28.7185],[77.2397,28.7219],[77.2371,28.725],[77.2383,28.729],[77.2412,28.73],[77.2417,28.7434],[77.2213,28.7509],[77.222,28.7587],[77.2179,28.767],[77.22,28.7703],[77.2319,28.7711],[77.2314,28.7744],[77.2219,28.7774],[77.2341,28.7837],[77.2285,28.7866],[77.2152,28.7852],[77.2096,28.7877]]]},"properties":{"dtname":"Central","stname":"DELHI","stcode11":"07","dtcode11":"095","year_stat":"2011_c","Shape_Length":87017.18791683158,"Shape_Area":120270537.31193629,"OBJECTID":209,"test":0,"Dist_LGD":77,"State_LGD":7}},{"type":"Feature","id":211,"geometry":{"type":"Polygon","coordinates":[[[77.1977,28.6453],[77.1874,28.6296],[77.1805,28.6237],[77.1755,28.6301],[77.1655,28.628],[77.1532,28.6395],[77.1497,28.6373],[77.1471,28.6402],[77.1456,28.6382],[77.1363,28.6411],[77.1253,28.639],[77.1153,28.6182],[77.1053,28.6134],[77.0985,28.6026],[77.1018,28.5991],[77.0805,28.5724],[77.0691,28.5758],[77.0642,28.5706],[77.0585,28.5717],[77.0502,28.5596],[77.0691,28.5482],[77.0696,28.5436],[77.0872,28.538],[77.0842,28.5315],[77.1018,28.5171],[77.096,28.5072],[77.1207,28.4963],[77.1189,28.4887],[77.1444,28.484],[77.15,28.4995],[77.1434,28.4975],[77.1359,28.5065],[77.1293,28.51],[77.1336,28.5212],[77.1315,28.5239],[77.1562,28.5213],[77.1599,28.5259],[77.1633,28.5253],[77.1645,28.5275],[77.1687,28.5251],[77.1724,28.5366],[77.1594,28.544],[77.1657,28.5574],[77.17,28.5607],[77.1817,28.5599],[77.1984,28.5699],[77.1997,28.5626],[77.2059,28.5621],[77.2121,28.5894],[77.2343,28.5922],[77.2319,28.6026],[77.2414,28.6082],[77.2443,28.6056],[77.2566,28.6077],[77.2557,28.6136],[77.2488,28.6138],[77.2426,28.6251],[77.2224,28.6364],[77.217,28.6344],[77.1977,28.6453]]]},"properties":{"dtname":"New Delhi","stname":"DELHI","stcode11":"07","dtcode11":"094","year_stat":"2011_c","Shape_Length":87850.72652853755,"Shape_Area":204409942.1712512,"OBJECTID":211,"test":0,"Dist_LGD":79,"State_LGD":7}},{"type":"Feature","id":213,"geometry":{"type":"Polygon","coordinates":[[[77.1985,28.5689],[77.1817,28.5599],[77.17,28.5607],[77.1657,28.5574],[77.1594,28.544],[77.1724,28.5366],[77.1687,28.5251],[77.1645,28.5275],[77.1633,28.5253],[77.1599,28.5259],[77.1562,28.5213],[77.1316,28.5242],[77.1336,28.5212],[77.1293,28.51],[77.1359,28.5065],[77.1434,28.4975],[77.1499,28.4997],[77.1479,28.4926],[77.1444,28.484],[77.1189,28.4887],[77.1149,28.4815],[77.113,28.4713],[77.1109,28.4713],[77.1218,28.4585],[77.1238,28.4454],[77.1323,28.4391],[77.1484,28.4373],[77.1623,28.429],[77.1659,28.4257],[77.1652,28.4143],[77.1744,28.4047],[77.1844,28.4104],[77.1905,28.4072],[77.216,28.4115],[77.2166,28.4097],[77.2276,28.4135],[77.2384,28.4208],[77.2492,28.4241],[77.2526,28.4329],[77.2488,28.4329],[77.2491,28.4461],[77.2458,28.4542],[77.2425,28.4562],[77.2344,28.4547],[77.2329,28.4579],[77.2356,28.4712],[77.2433,28.4788],[77.2538,28.4823],[77.2523,28.4913],[77.2478,28.4948],[77.2449,28.504],[77.2472,28.5272],[77.2352,28.5341],[77.2349,28.5459],[77.2305,28.5483],[77.23,28.5533],[77.223,28.5553],[77.2242,28.5643],[77.2195,28.5647],[77.2174,28.5682],[77.2084,28.5593],[77.2042,28.5636],[77.1997,28.5626],[77.1985,28.5689]]]},"properties":{"dtname":"South","stname":"DELHI","stcode11":"07","dtcode11":"098","year_stat":"2011_c","Shape_Length":77287.3341355143,"Shape_Area":211694293.71210545,"OBJECTID":213,"test":0,"Dist_LGD":83,"State_LGD":7}},{"type":"Feature","id":547,"geometry":{"type":"Polygon","coordinates":[[[77.3201,28.713],[77.3062,28.7133],[77.2986,28.7098],[77.2954,28.7032],[77.2953,28.6949],[77.2862,28.6978],[77.2723,28.6968],[77.2658,28.6765],[77.2618,28.6712],[77.2486,28.6737],[77.2488,28.6673],[77.2594,28.6616],[77.2647,28.6517],[77.2891,28.6599],[77.3026,28.6423],[77.3163,28.6412],[77.3237,28.669],[77.3236,28.6767],[77.3301,28.6783],[77.3329,28.682],[77.3303,28.6904],[77.3233,28.6986],[77.3257,28.7029],[77.3254,28.7089],[77.3311,28.7131],[77.3201,28.713]]]},"properties":{"dtname":"Shahdara","stname":"DELHI","stcode11":"07","dtcode11":"702","year_stat":"update2014","Shape_Length":36101.7078938543,"Shape_Area":47163332.61027998,"OBJECTID":547,"test":0,"Dist_LGD":671,"State_LGD":7}},{"type":"Feature","id":548,"geometry":{"type":"Polygon","coordinates":[[[77.242,28.6076],[77.2319,28.6026],[77.2343,28.5922],[77.2121,28.5894],[77.2059,28.5621],[77.2084,28.5593],[77.2174,28.5682],[77.2195,28.5647],[77.2242,28.5643],[77.223,28.5553],[77.23,28.5533],[77.2305,28.5483],[77.2349,28.5459],[77.2352,28.5341],[77.2472,28.5272],[77.2449,28.504],[77.2478,28.4948],[77.2523,28.4913],[77.2538,28.4823],[77.2694,28.4867],[77.2765,28.4933],[77.2903,28.4966],[77.3006,28.4942],[77.3008,28.4899],[77.3065,28.4894],[77.3141,28.4836],[77.3268,28.4901],[77.3361,28.5052],[77.3454,28.5133],[77.3474,28.5206],[77.3345,28.525],[77.3209,28.5409],[77.3038,28.5525],[77.3,28.5598],[77.3012,28.5627],[77.2971,28.566],[77.2997,28.5786],[77.2921,28.5904],[77.2882,28.5894],[77.2846,28.5987],[77.2753,28.6008],[77.267,28.5967],[77.2671,28.592],[77.2652,28.5917],[77.2566,28.6077],[77.2443,28.6056],[77.242,28.6076]]]},"properties":{"dtname":"South East","stname":"DELHI","stcode11":"07","dtcode11":"703","year_stat":"update2014","Shape_Length":60225.190123475,"Shape_Area":132151569.75452973,"OBJECTID":548,"test":0,"Dist_LGD":670,"State_LGD":7}},{"type":"Feature","id":549,"geometry":{"type":"Polygon","coordinates":[[[76.9517,28.818],[76.9462,28.8114],[76.9421,28.7985],[76.9463,28.7979],[76.9538,28.7909],[76.9498,28.7771],[76.9559,28.7674],[76.9446,28.7541],[76.9586,28.743],[76.9559,28.7382],[76.96,28.7327],[76.9482,28.7128],[76.9679,28.6995],[76.9744,28.7021],[76.9834,28.6901],[77.0,28.6792],[77.0094,28.6883],[77.0127,28.6953],[77.0388,28.6983],[77.0451,28.695],[77.0541,28.6834],[77.0645,28.692],[77.076,28.683],[77.0837,28.6885],[77.0879,28.6889],[77.0924,28.686],[77.0979,28.6893],[77.1036,28.6847],[77.1077,28.6886],[77.1148,28.6831],[77.1266,28.6978],[77.136,28.6962],[77.1307,28.6782],[77.1394,28.6712],[77.1485,28.6692],[77.1494,28.6729],[77.1614,28.6735],[77.1616,28.6713],[77.1722,28.6672],[77.1662,28.6707],[77.17,28.6726],[77.1742,28.6714],[77.1779,28.6809],[77.1841,28.6822],[77.182,28.6846],[77.1923,28.6905],[77.1784,28.6988],[77.1769,28.7006],[77.1786,28.7026],[77.1657,28.7019],[77.1583,28.7059],[77.1611,28.7158],[77.1585,28.7202],[77.1615,28.7278],[77.1583,28.7342],[77.1509,28.7276],[77.1438,28.7302],[77.1406,28.7281],[77.1375,28.7222],[77.132,28.719],[77.1288,28.711],[77.1236,28.7078],[77.1196,28.7097],[77.1177,28.7207],[77.108,28.7379],[77.0957,28.7407],[77.0939,28.7386],[77.0892,28.7388],[77.0814,28.7298],[77.0599,28.7432],[77.0168,28.7567],[77.0132,28.7657],[77.0151,28.7805],[76.9924,28.7868],[76.9835,28.7942],[76.9796,28.794],[76.9694,28.7995],[76.968,28.8024],[76.9707,28.8085],[76.9682,28.8102],[76.969,28.8121],[76.9517,28.818]]]},"properties":{"dtname":"North West","stname":"DELHI","stcode11":"07","dtcode11":"090","year_stat":"2011_c","Shape_Length":104192.92572276549,"Shape_Area":202363736.96342188,"OBJECTID":549,"test":0,"Dist_LGD":82,"State_LGD":7}}]}