{"type":"FeatureCollection","crs":{"type":"name","properties":{"name":"EPSG:4326"}},"features":[{"type":"Feature","id":67,"geometry":{"type":"Polygon","coordinates":[[[74.0714,15.4125],[74.1036,15.4272],[74.1099,15.4189],[74.1108,15.4278],[74.1184,15.4316],[74.1242,15.4378],[74.1331,15.4346],[74.1383,15.4388],[74.1481,15.4384],[74.1516,15.4418],[74.1555,15.4397],[74.1685,15.4432],[74.1704,15.4395],[74.1787,15.4372],[74.1874,15.4443],[74.1895,15.4554],[74.1995,15.4665],[74.2217,15.4753],[74.2274,15.4812],[74.2303,15.4808],[74.2313,15.4839],[74.2511,15.4914],[74.255,15.5028],[74.2737,15.5119],[74.2783,15.5172],[74.2782,15.5229],[74.2818,15.5262],[74.2827,15.5314],[74.278,15.5461],[74.2654,15.5584],[74.2618,15.5649],[74.2584,15.5617],[74.2493,15.5679],[74.2453,15.5666],[74.2506,15.5774],[74.2488,15.5803],[74.2603,15.5927],[74.2601,15.6066],[74.2644,15.6155],[74.2538,15.6268],[74.2483,15.6229],[74.2442,15.6261],[74.252,15.6543],[74.2505,15.6573],[74.2449,15.6582],[74.2431,15.6625],[74.2384,15.6636],[74.2364,15.6686],[74.2285,15.6645],[74.2238,15.669],[74.2176,15.6624],[74.215,15.6626],[74.222,15.6555],[74.2175,15.6528],[74.2052,15.6511],[74.2018,15.6564],[74.2041,15.6637],[74.1869,15.6675],[74.1862,15.6743],[74.1908,15.6761],[74.1909,15.679],[74.181,15.6822],[74.1672,15.6718],[74.1645,15.6535],[74.1575,15.6547],[74.1544,15.6499],[74.1492,15.652],[74.1356,15.6484],[74.1191,15.6524],[74.1131,15.646],[74.104,15.645],[74.0983,15.6404],[74.0948,15.6417],[74.0787,15.6308],[74.0491,15.6241],[74.031,15.6227],[74.0265,15.6098],[74.0211,15.6061],[74.0032,15.6117],[73.9908,15.6115],[73.9789,15.627],[73.9707,15.6272],[73.9676,15.6302],[73.9673,15.6349],[73.9614,15.6415],[73.9611,15.6477],[73.9678,15.66],[73.9628,15.6733],[73.9639,15.691],[73.9593,15.6992],[73.953,15.6993],[73.9514,15.6972],[73.9437,15.6985],[73.9486,15.702],[73.95,15.7082],[73.9473,15.7095],[73.9505,15.7116],[73.9518,15.7163],[73.9457,15.7203],[73.943,15.7254],[73.9387,15.7427],[73.9148,15.7444],[73.9069,15.7483],[73.906,15.7462],[73.8991,15.7448],[73.8928,15.7483],[73.8752,15.7507],[73.8721,15.7587],[73.8796,15.7741],[73.8657,15.7847],[73.865,15.7909],[73.8673,15.7965],[73.8565,15.8008],[73.8467,15.7864],[73.8517,15.7808],[73.8433,15.7811],[73.8378,15.7671],[73.8298,15.7645],[73.8308,15.7526],[73.8231,15.7399],[73.8176,15.739],[73.809,15.7425],[73.8066,15.7382],[73.8009,15.7351],[73.79,15.7349],[73.7884,15.7282],[73.7849,15.7254],[73.7637,15.7335],[73.7425,15.7356],[73.7346,15.7305],[73.7312,15.7215],[73.7283,15.7198],[73.7208,15.7244],[73.7112,15.7258],[73.6943,15.7228],[73.6926,15.7277],[73.6901,15.7287],[73.6769,15.7292],[73.6755,15.7269],[73.6807,15.7246],[73.6795,15.7209],[73.6902,15.7221],[73.6892,15.7177],[73.6942,15.7013],[73.6974,15.6983],[73.6994,15.6993],[73.6981,15.6925],[73.702,15.6906],[73.723,15.6308],[73.7281,15.6276],[73.7343,15.6161],[73.7375,15.6171],[73.7399,15.6068],[73.7381,15.6087],[73.7317,15.6078],[73.734,15.6037],[73.7344,15.5939],[73.7319,15.5906],[73.7372,15.5841],[73.7416,15.5643],[73.7452,15.5615],[73.749,15.5625],[73.755,15.5464],[73.7676,15.5007],[73.7653,15.4978],[73.7662,15.4947],[73.7693,15.4914],[73.7758,15.4906],[73.778,15.4932],[73.7874,15.4941],[73.7826,15.498],[73.7916,15.5005],[73.8016,15.4958],[73.81,15.4958],[73.8147,15.4917],[73.8097,15.4871],[73.808,15.4724],[73.8027,15.4616],[73.7992,15.4599],[73.7878,15.4639],[73.8013,15.454],[73.8028,15.4505],[73.8042,15.4547],[73.8127,15.456],[73.8165,15.4527],[73.8306,15.4535],[73.8408,15.4481],[73.8434,15.4511],[73.8494,15.4523],[73.8604,15.4418],[73.8632,15.429],[73.8721,15.4319],[73.8818,15.431],[73.8806,15.4351],[73.8891,15.4287],[73.8946,15.4197],[73.9042,15.4176],[73.9095,15.4197],[73.9106,15.4251],[73.9207,15.4271],[73.922,15.4314],[73.9275,15.4356],[73.9452,15.4388],[73.9459,15.4558],[73.9487,15.4602],[73.9553,15.4616],[73.9574,15.4645],[73.9565,15.4695],[73.9505,15.477],[73.9552,15.4872],[73.9535,15.4987],[73.9617,15.503],[73.9576,15.5097],[73.9492,15.5143],[73.949,15.518],[73.9441,15.5243],[73.9534,15.5273],[73.9575,15.537],[73.9615,15.5398],[73.9705,15.5254],[73.9951,15.5141],[74.0011,15.5007],[74.0167,15.4969],[74.0211,15.4921],[74.0229,15.4807],[74.0308,15.4789],[74.0256,15.4738],[74.0343,15.4668],[74.0342,15.4589],[74.041,15.4514],[74.0388,15.4494],[74.0342,15.4514],[74.0344,15.4466],[74.0385,15.4465],[74.0468,15.4405],[74.0476,15.4332],[74.0507,15.4359],[74.0535,15.4344],[74.0533,15.4305],[74.0505,15.4292],[74.0521,15.4253],[74.0483,15.4204],[74.0513,15.4178],[74.0515,15.4131],[74.0546,15.4121],[74.0556,15.4067],[74.0619,15.4094],[74.0637,15.4126],[74.0714,15.4125]]]},"properties":{"dtname":"North Goa","stname":"GOA","stcode11":"30","dtcode11":"585","year_stat":"2011_c","Shape_Length":283353.0459885956,"Shape_Area":1549627781.5334766,"OBJECTID":67,"test":0,"Dist_LGD":551,"State_LGD":30}},{"type":"Feature","id":71,"geometry":{"type":"Polygon","coordinates":[[[73.9714,15.5248],[73.9615,15.5398],[73.9575,15.537],[73.9534,15.5273],[73.9441,15.5243],[73.949,15.518],[73.9492,15.5143],[73.9585,15.5089],[73.9617,15.5025],[73.9535,15.4987],[73.9552,15.4872],[73.9505,15.4775],[73.9565,15.4695],[73.9572,15.4635],[73.9487,15.4602],[73.9459,15.4558],[73.9459,15.4392],[73.9359,15.436],[73.9361,15.4317],[73.9261,15.4225],[73.9257,15.4162],[73.9398,15.4086],[73.9159,15.404],[73.9067,15.409],[73.9071,15.4046],[73.9032,15.4035],[73.8922,15.4087],[73.8832,15.3989],[73.874,15.3964],[73.8662,15.4023],[73.8587,15.3977],[73.8542,15.4011],[73.8466,15.3982],[73.843,15.4017],[73.8442,15.4076],[73.8403,15.4105],[73.8347,15.4095],[73.8316,15.4054],[73.8286,15.407],[73.8286,15.4033],[73.826,15.403],[73.8227,15.4037],[73.8231,15.4084],[73.8172,15.4105],[73.8161,15.4033],[73.8074,15.3993],[73.7949,15.4144],[73.7841,15.414],[73.7838,15.409],[73.7914,15.4004],[73.7899,15.3978],[73.7915,15.3943],[73.8037,15.3957],[73.806,15.3939],[73.8082,15.3771],[73.8125,15.3772],[73.8274,15.3698],[73.8333,15.3703],[73.837,15.3631],[73.8417,15.3603],[73.8517,15.3612],[73.8541,15.3663],[73.8623,15.3666],[73.8599,15.3701],[73.8711,15.3712],[73.8744,15.37],[73.8842,15.3545],[73.8949,15.3318],[73.9161,15.2679],[73.9496,15.1448],[73.9491,15.1424],[73.9442,15.1412],[73.9423,15.136],[73.936,15.1339],[73.9399,15.1298],[73.9409,15.1206],[73.9374,15.1187],[73.9354,15.1121],[73.9328,15.1139],[73.918,15.1081],[73.925,15.1057],[73.9269,15.0969],[73.9216,15.0903],[73.9121,15.0857],[73.9171,15.0839],[73.9226,15.0873],[73.9255,15.0865],[73.9311,15.0842],[73.9318,15.0791],[73.9414,15.075],[73.9539,15.074],[73.9539,15.0711],[73.9664,15.0666],[73.9719,15.0523],[73.975,15.051],[73.9794,15.0536],[73.9794,15.0564],[73.9819,15.0549],[73.9901,15.0341],[73.9853,15.0265],[73.9883,15.0256],[73.9889,15.0204],[73.9928,15.0181],[73.9972,15.0217],[74.0027,15.0166],[74.0067,15.0174],[74.0129,15.0105],[74.0166,15.0127],[74.0213,15.0115],[74.0273,15.0056],[74.0241,15.0026],[74.0301,15.0011],[74.028,14.9983],[74.0323,14.9998],[74.0349,14.9972],[74.0393,14.9849],[74.0353,14.9836],[74.0404,14.9824],[74.0499,14.9592],[74.048,14.9504],[74.0433,14.9476],[74.0475,14.9346],[74.0469,14.931],[74.044,14.9298],[74.0458,14.9252],[74.0426,14.9238],[74.044,14.9175],[74.0565,14.9149],[74.0667,14.9073],[74.0694,14.9098],[74.0712,14.9076],[74.081,14.9106],[74.0857,14.9006],[74.1015,14.9155],[74.1046,14.9126],[74.1144,14.918],[74.1198,14.9166],[74.1241,14.925],[74.1297,14.9251],[74.1349,14.9218],[74.14,14.9229],[74.162,14.9118],[74.166,14.9186],[74.1626,14.9269],[74.1586,14.9303],[74.1542,14.9433],[74.1584,14.9493],[74.1592,14.9556],[74.165,14.9582],[74.1793,14.9567],[74.1796,14.9505],[74.1911,14.9447],[74.1946,14.9396],[74.1915,14.9327],[74.2014,14.9254],[74.2127,14.9403],[74.2135,14.9473],[74.2174,14.9456],[74.2296,14.9502],[74.2328,14.9638],[74.2365,14.9665],[74.2474,14.9616],[74.2491,14.9587],[74.2524,14.9588],[74.2552,14.9701],[74.2589,14.9697],[74.261,14.9762],[74.2644,14.9786],[74.2522,14.9927],[74.2535,14.9979],[74.2679,15.0017],[74.2665,15.0068],[74.2835,15.0236],[74.2833,15.0315],[74.2966,15.0412],[74.2947,15.0492],[74.2903,15.0536],[74.2896,15.0649],[74.2808,15.0689],[74.2797,15.0881],[74.2727,15.0975],[74.2764,15.1051],[74.2825,15.1064],[74.2829,15.1128],[74.2849,15.1139],[74.2851,15.1487],[74.2955,15.1509],[74.3141,15.1772],[74.317,15.1863],[74.3105,15.1947],[74.3087,15.2018],[74.3101,15.2063],[74.3058,15.2094],[74.3046,15.2168],[74.2999,15.22],[74.3017,15.2244],[74.2916,15.2339],[74.2868,15.2328],[74.2812,15.2363],[74.2596,15.2411],[74.2523,15.251],[74.2548,15.2541],[74.2514,15.2586],[74.2609,15.2599],[74.2714,15.2809],[74.2762,15.2832],[74.2816,15.2801],[74.2932,15.2842],[74.2943,15.2888],[74.3078,15.283],[74.3262,15.2834],[74.3363,15.2946],[74.3245,15.3099],[74.3171,15.3292],[74.3173,15.3352],[74.3219,15.3436],[74.3163,15.3628],[74.3233,15.3677],[74.2988,15.382],[74.2831,15.383],[74.2759,15.3916],[74.2784,15.4057],[74.2688,15.4191],[74.27,15.426],[74.277,15.4352],[74.2751,15.4365],[74.2774,15.4405],[74.2755,15.4492],[74.264,15.4724],[74.2511,15.4914],[74.2313,15.4839],[74.2303,15.4808],[74.2274,15.4812],[74.2217,15.4753],[74.1995,15.4665],[74.1895,15.4554],[74.1874,15.4443],[74.1787,15.4372],[74.1704,15.4395],[74.1685,15.4432],[74.1555,15.4397],[74.1516,15.4418],[74.1481,15.4384],[74.1383,15.4388],[74.1331,15.4346],[74.1242,15.4378],[74.1184,15.4316],[74.1108,15.4278],[74.1099,15.4189],[74.1036,15.4272],[74.0845,15.4202],[74.0716,15.4125],[74.0637,15.4126],[74.0564,15.406],[74.0483,15.4204],[74.0521,15.4253],[74.0505,15.4292],[74.0533,15.4305],[74.0535,15.4344],[74.0507,15.4359],[74.0476,15.4332],[74.0468,15.4405],[74.0385,15.4465],[74.0344,15.4466],[74.0342,15.4514],[74.0388,15.4494],[74.041,15.4514],[74.0342,15.4589],[74.0343,15.4668],[74.0256,15.4738],[74.0308,15.4789],[74.0229,15.4807],[74.0211,15.4921],[74.0167,15.4969],[74.0011,15.5007],[73.9951,15.5141],[73.9714,15.5248]]]},"properties":{"dtname":"South Goa","stname":"GOA","stcode11":"30","dtcode11":"586","year_stat":"2011_c","Shape_Length":328620.2753211977,"Shape_Area":2367914623.797834,"OBJECTID":71,"test":0,"Dist_LGD":552,"State_LGD":30}}]}