{"type":"FeatureCollection","crs":{"type":"name","properties":{"name":"EPSG:4326"}},"features":[{"type":"Feature","id":90,"geometry":{"type":"Polygon","coordinates":[[[74.9896,12.7955],[74.9874,12.7937],[74.9921,12.7883],[74.9852,12.7816],[74.9825,12.7824],[74.982,12.7797],[74.9669,12.7764],[74.9644,12.7817],[74.963,12.7788],[74.96,12.779],[74.9582,12.7847],[74.9507,12.7844],[74.9418,12.7801],[74.933,12.7806],[74.9117,12.7712],[74.8989,12.7627],[74.8931,12.7625],[74.8823,12.7541],[74.8742,12.755],[74.8723,12.7611],[74.8692,12.7606],[74.8677,12.7514],[74.8853,12.7095],[74.8872,12.709],[74.8851,12.7106],[74.8867,12.7126],[74.8983,12.7143],[74.8915,12.7124],[74.8984,12.6989],[74.9061,12.6945],[74.8969,12.6972],[74.8906,12.7071],[74.888,12.7075],[74.9281,12.6118],[74.9424,12.6374],[74.9424,12.6353],[74.95,12.6363],[74.9417,12.6324],[74.9321,12.6134],[74.9395,12.5957],[74.9418,12.5976],[74.9418,12.6075],[74.9435,12.6062],[74.9465,12.6088],[74.9541,12.6052],[74.9478,12.6061],[74.9403,12.5954],[74.942,12.5865],[74.9392,12.5928],[74.9385,12.5914],[74.9546,12.5493],[74.9565,12.5509],[74.9538,12.5584],[74.9599,12.5663],[74.9757,12.5711],[74.9655,12.5656],[74.9622,12.5662],[74.9553,12.5586],[74.9639,12.5295],[74.9561,12.5475],[74.9563,12.5457],[74.9741,12.5011],[74.9984,12.4511],[75.0055,12.4409],[75.015,12.4181],[75.022,12.4137],[75.0317,12.3918],[75.0392,12.3919],[75.0418,12.3886],[75.0929,12.2726],[75.1166,12.2096],[75.1195,12.2045],[75.1269,12.2024],[75.1358,12.1726],[75.1411,12.1662],[75.1427,12.1551],[75.149,12.1453],[75.1479,12.1364],[75.1562,12.1187],[75.1566,12.11],[75.1655,12.0895],[75.1766,12.1019],[75.1827,12.0953],[75.1878,12.0954],[75.1935,12.1026],[75.191,12.114],[75.1939,12.118],[75.1881,12.129],[75.191,12.1341],[75.1951,12.1357],[75.1963,12.14],[75.1911,12.1466],[75.1878,12.1651],[75.1735,12.1896],[75.1923,12.1931],[75.203,12.1907],[75.2082,12.1982],[75.2161,12.2027],[75.224,12.2143],[75.2326,12.2213],[75.2377,12.2176],[75.2504,12.22],[75.2522,12.2185],[75.2784,12.2318],[75.2891,12.2333],[75.2915,12.2426],[75.2873,12.2604],[75.2987,12.2695],[75.3141,12.2711],[75.3193,12.2742],[75.3271,12.2707],[75.3302,12.266],[75.3398,12.2688],[75.3453,12.267],[75.3658,12.2779],[75.3699,12.2852],[75.3758,12.2829],[75.3879,12.2873],[75.3869,12.2932],[75.3896,12.2961],[75.3917,12.2958],[75.3927,12.2897],[75.3979,12.2935],[75.4103,12.2947],[75.4137,12.2924],[75.4193,12.2952],[75.4252,12.3007],[75.4241,12.303],[75.432,12.3086],[75.4236,12.3139],[75.4203,12.3191],[75.4154,12.34],[75.4104,12.3473],[75.4155,12.3497],[75.4196,12.357],[75.4217,12.3732],[75.4135,12.3801],[75.4056,12.3789],[75.4018,12.3824],[75.3992,12.381],[75.3923,12.3899],[75.3793,12.3924],[75.3779,12.3983],[75.3725,12.4003],[75.3708,12.4087],[75.3659,12.412],[75.3715,12.4378],[75.3689,12.4423],[75.3703,12.4489],[75.3662,12.4583],[75.3713,12.4566],[75.3742,12.4598],[75.3819,12.4567],[75.3863,12.4584],[75.3922,12.4552],[75.3934,12.4514],[75.4133,12.4586],[75.4157,12.466],[75.4233,12.4668],[75.4249,12.469],[75.4248,12.4743],[75.4203,12.4798],[75.4206,12.4886],[75.4158,12.5005],[75.4114,12.5019],[75.4027,12.4981],[75.3979,12.5038],[75.3916,12.4997],[75.3819,12.5021],[75.3783,12.496],[75.3678,12.4918],[75.3678,12.4886],[75.3714,12.487],[75.3722,12.477],[75.367,12.4755],[75.3601,12.465],[75.3363,12.4642],[75.3407,12.4704],[75.3353,12.4783],[75.3366,12.4891],[75.3327,12.4933],[75.3322,12.4996],[75.3145,12.4975],[75.3138,12.502],[75.3042,12.5033],[75.303,12.5227],[75.2965,12.522],[75.2912,12.5257],[75.2801,12.5242],[75.2786,12.5302],[75.2739,12.5345],[75.2737,12.5412],[75.2697,12.5496],[75.2714,12.5554],[75.2692,12.5597],[75.2721,12.5702],[75.2777,12.5729],[75.2839,12.5708],[75.2897,12.5839],[75.3072,12.5796],[75.3146,12.5738],[75.3179,12.5788],[75.3256,12.5827],[75.3272,12.5923],[75.3113,12.591],[75.3011,12.6067],[75.2907,12.6032],[75.2888,12.6117],[75.2852,12.6125],[75.2809,12.6177],[75.2755,12.6198],[75.2663,12.6159],[75.2643,12.6124],[75.2659,12.6064],[75.2613,12.5977],[75.2568,12.5957],[75.2495,12.5836],[75.2409,12.5787],[75.2388,12.58],[75.2375,12.5684],[75.2203,12.5682],[75.217,12.5776],[75.2118,12.5794],[75.2087,12.5923],[75.2003,12.589],[75.2009,12.5946],[75.2071,12.597],[75.2092,12.6015],[75.2059,12.6093],[75.1985,12.6133],[75.2017,12.629],[75.1822,12.6317],[75.1703,12.6215],[75.1645,12.6231],[75.1611,12.621],[75.1541,12.6239],[75.1436,12.6418],[75.1377,12.6447],[75.15,12.6513],[75.1513,12.6574],[75.1605,12.6716],[75.1501,12.6739],[75.1525,12.6823],[75.147,12.6815],[75.1432,12.6772],[75.1398,12.6795],[75.1379,12.6759],[75.1351,12.6772],[75.1331,12.6746],[75.1249,12.6805],[75.1222,12.6782],[75.1117,12.6808],[75.1154,12.6828],[75.1107,12.6831],[75.1118,12.6865],[75.1098,12.6918],[75.1065,12.6923],[75.1055,12.6981],[75.0994,12.7009],[75.0915,12.7011],[75.0852,12.7053],[75.0802,12.7003],[75.085,12.6946],[75.085,12.6833],[75.0875,12.6784],[75.0853,12.6739],[75.0732,12.6709],[75.0693,12.6639],[75.0652,12.6641],[75.0599,12.6709],[75.0576,12.6651],[75.0538,12.6693],[75.0466,12.6668],[75.0424,12.6721],[75.0407,12.68],[75.0422,12.6835],[75.0397,12.6866],[75.0431,12.6939],[75.0478,12.6953],[75.0519,12.6937],[75.0527,12.691],[75.0548,12.6947],[75.0494,12.7056],[75.0535,12.7084],[75.0503,12.7195],[75.0444,12.7222],[75.0425,12.7199],[75.0393,12.7228],[75.0339,12.7226],[75.0265,12.7184],[75.0188,12.7202],[75.0153,12.7134],[75.001,12.7155],[75.0002,12.7208],[75.0042,12.7215],[75.0112,12.728],[74.9992,12.7318],[74.9924,12.7387],[74.9865,12.733],[74.9825,12.7385],[74.9837,12.7452],[74.9866,12.7437],[74.9976,12.7576],[75.0031,12.7592],[75.0055,12.7654],[75.0095,12.7676],[75.0034,12.778],[75.0051,12.7904],[74.9993,12.7908],[75.0025,12.7884],[74.9983,12.786],[74.9988,12.7892],[74.9896,12.7955]]]},"properties":{"dtname":"Kasaragod","stname":"KERALA","stcode11":"32","dtcode11":"588","year_stat":"2011_c","Shape_Length":382258.96522422665,"Shape_Area":2078638107.4161358,"OBJECTID":90,"test":0,"Dist_LGD":558,"State_LGD":32}},{"type":"Feature","id":96,"geometry":{"type":"Polygon","coordinates":[[[76.1125,11.9777],[76.0897,11.9675],[76.0773,11.9688],[76.0701,11.9672],[76.0519,11.9515],[76.0446,11.9505],[76.0422,11.946],[76.0335,11.9403],[76.0222,11.9441],[76.0133,11.9418],[76.0075,11.9393],[76.0032,11.9315],[75.9904,11.9348],[75.9764,11.9338],[75.9564,11.942],[75.9374,11.9422],[75.9394,11.9404],[75.9365,11.9343],[75.9294,11.9345],[75.9256,11.9316],[75.9246,11.9203],[75.9354,11.9113],[75.9391,11.9026],[75.9362,11.8998],[75.9362,11.89],[75.9302,11.8817],[75.9187,11.8796],[75.9111,11.8741],[75.9198,11.8703],[75.9311,11.8576],[75.929,11.8572],[75.9253,11.848],[75.927,11.8424],[75.9258,11.8466],[75.9213,11.8468],[75.9174,11.8442],[75.9116,11.8458],[75.9093,11.8432],[75.8914,11.8422],[75.8877,11.8463],[75.8828,11.8445],[75.8717,11.8485],[75.8612,11.8495],[75.8545,11.8472],[75.8438,11.8554],[75.8283,11.8505],[75.8226,11.8528],[75.8191,11.8582],[75.8168,11.8553],[75.8088,11.8559],[75.8055,11.8532],[75.8045,11.847],[75.8004,11.8447],[75.7933,11.8452],[75.7901,11.841],[75.7896,11.8354],[75.7978,11.8275],[75.7985,11.8189],[75.7725,11.8019],[75.7769,11.8011],[75.7939,11.7896],[75.7922,11.7783],[75.7872,11.7745],[75.7897,11.7716],[75.7881,11.7644],[75.7832,11.7598],[75.794,11.753],[75.7997,11.7521],[75.7992,11.747],[75.7923,11.7425],[75.8103,11.742],[75.8214,11.7327],[75.8242,11.7267],[75.828,11.7263],[75.8322,11.7192],[75.8457,11.7134],[75.8454,11.7059],[75.8503,11.7022],[75.8628,11.7034],[75.8727,11.7005],[75.8753,11.7036],[75.8824,11.6981],[75.9001,11.6985],[75.9153,11.6898],[75.9147,11.6866],[75.9,11.6754],[75.9052,11.6613],[75.9026,11.6562],[75.9033,11.6509],[75.8969,11.642],[75.8996,11.6363],[75.8978,11.6223],[75.9056,11.6111],[75.9091,11.5998],[75.9142,11.5995],[75.9176,11.5952],[75.9253,11.5942],[75.9281,11.5899],[75.9365,11.5903],[75.9393,11.5837],[75.9464,11.5803],[75.9515,11.581],[75.9575,11.5745],[75.9576,11.5599],[75.9638,11.5567],[75.9729,11.5454],[75.9963,11.5322],[75.9994,11.5261],[76.0156,11.5172],[76.0179,11.5137],[76.0322,11.5104],[76.0355,11.5078],[76.0368,11.5022],[76.0451,11.5062],[76.052,11.503],[76.0573,11.5082],[76.0627,11.5093],[76.0733,11.5218],[76.0776,11.5213],[76.0824,11.514],[76.0889,11.5121],[76.0903,11.5092],[76.0886,11.5047],[76.0928,11.4928],[76.0874,11.4897],[76.0868,11.4866],[76.0922,11.4816],[76.1056,11.4817],[76.1114,11.4753],[76.1231,11.4729],[76.1259,11.4656],[76.1309,11.4638],[76.1428,11.4509],[76.1524,11.4519],[76.1589,11.4585],[76.1608,11.4566],[76.1644,11.4577],[76.1693,11.4651],[76.1858,11.4728],[76.1867,11.4782],[76.1815,11.4835],[76.1847,11.4841],[76.1844,11.4871],[76.1891,11.4917],[76.1912,11.4978],[76.1992,11.5056],[76.2212,11.5105],[76.224,11.5085],[76.2282,11.5212],[76.2339,11.5277],[76.2393,11.5252],[76.24,11.5271],[76.2444,11.5252],[76.2502,11.527],[76.2515,11.5369],[76.2501,11.5358],[76.2448,11.5416],[76.2461,11.5455],[76.2423,11.5502],[76.2442,11.5533],[76.2407,11.555],[76.2338,11.5707],[76.2491,11.58],[76.2535,11.5855],[76.2646,11.591],[76.2649,11.594],[76.2743,11.5938],[76.279,11.6009],[76.2861,11.5903],[76.296,11.5902],[76.3024,11.5713],[76.3105,11.5775],[76.3159,11.5767],[76.3212,11.5863],[76.3359,11.5958],[76.3399,11.5932],[76.3412,11.5873],[76.3546,11.5894],[76.3671,11.5984],[76.378,11.602],[76.3783,11.6086],[76.3839,11.6121],[76.3833,11.6241],[76.3881,11.6297],[76.4066,11.6343],[76.4271,11.6335],[76.4319,11.631],[76.4434,11.6437],[76.444,11.6473],[76.4364,11.6535],[76.428,11.6702],[76.4159,11.6729],[76.413,11.6861],[76.4084,11.6898],[76.4096,11.6945],[76.4124,11.6951],[76.4089,11.7065],[76.4034,11.7078],[76.4036,11.7117],[76.4085,11.7151],[76.4126,11.7155],[76.414,11.7113],[76.4166,11.7178],[76.4241,11.7204],[76.4274,11.7261],[76.4181,11.7427],[76.4129,11.7402],[76.4105,11.7422],[76.415,11.7556],[76.414,11.7602],[76.3986,11.7509],[76.3913,11.7548],[76.3839,11.7473],[76.377,11.7446],[76.3628,11.7484],[76.3525,11.7384],[76.3502,11.7403],[76.3397,11.7391],[76.3291,11.7484],[76.3184,11.7514],[76.3111,11.768],[76.3077,11.7849],[76.3018,11.786],[76.2883,11.7952],[76.2802,11.8124],[76.2584,11.8088],[76.2456,11.803],[76.2237,11.8083],[76.2182,11.8144],[76.2171,11.8209],[76.2097,11.8275],[76.2129,11.8421],[76.21,11.8437],[76.2075,11.8616],[76.202,11.8625],[76.1904,11.8713],[76.1735,11.8713],[76.1648,11.8676],[76.156,11.8702],[76.1494,11.8665],[76.1461,11.8671],[76.1323,11.854],[76.12,11.8504],[76.117,11.8549],[76.1181,11.857],[76.1128,11.8585],[76.1149,11.8667],[76.1117,11.8877],[76.1134,11.895],[76.1125,11.9777]]]},"properties":{"dtname":"Wayanad","stname":"KERALA","stcode11":"32","dtcode11":"590","year_stat":"2011_c","Shape_Length":292261.7977888073,"Shape_Area":2240878255.645273,"OBJECTID":96,"test":1,"Dist_LGD":567,"State_LGD":32}},{"type":"Feature","id":99,"geometry":{"type":"Polygon","coordinates":[[[75.7657,11.8026],[75.7564,11.8048],[75.7501,11.803],[75.7459,11.7983],[75.7576,11.7886],[75.7531,11.7835],[75.7491,11.7822],[75.7457,11.7863],[75.7375,11.7865],[75.7379,11.7809],[75.729,11.7796],[75.7236,11.7911],[75.7164,11.7964],[75.6914,11.7988],[75.6914,11.7937],[75.6828,11.7742],[75.6687,11.7699],[75.6658,11.758],[75.6612,11.7586],[75.6577,11.7548],[75.6545,11.7555],[75.6513,11.7492],[75.6484,11.7493],[75.6483,11.7453],[75.6462,11.7463],[75.6442,11.7424],[75.6415,11.7434],[75.6356,11.7357],[75.6265,11.737],[75.6226,11.7325],[75.6238,11.7308],[75.6153,11.7236],[75.6111,11.7247],[75.6072,11.7178],[75.6065,11.7218],[75.6026,11.7177],[75.5991,11.7183],[75.5947,11.712],[75.5877,11.7118],[75.5936,11.7062],[75.5933,11.6964],[75.6026,11.6938],[75.6036,11.6891],[75.6005,11.6861],[75.5877,11.6867],[75.5693,11.6744],[75.5667,11.6786],[75.5618,11.6804],[75.5636,11.6934],[75.5534,11.7024],[75.5444,11.7048],[75.5418,11.6963],[75.5366,11.6939],[75.5669,11.6294],[75.6186,11.4875],[75.618,11.4774],[75.6273,11.4734],[75.634,11.4622],[75.6454,11.4685],[75.6603,11.462],[75.6643,11.4626],[75.6753,11.4511],[75.6807,11.4509],[75.6978,11.4251],[75.7128,11.3942],[75.7157,11.3931],[75.732,11.3561],[75.7357,11.3454],[75.7364,11.3384],[75.7332,11.335],[75.7368,11.3299],[75.7367,11.325],[75.7415,11.3215],[75.7464,11.3215],[75.7483,11.3184],[75.8016,11.1664],[75.8093,11.163],[75.8051,11.1605],[75.8045,11.1565],[75.8147,11.1493],[75.8262,11.1226],[75.8454,11.1419],[75.8512,11.1426],[75.8559,11.1382],[75.8588,11.1407],[75.8522,11.1527],[75.8591,11.1574],[75.8608,11.1665],[75.8648,11.1709],[75.8705,11.1718],[75.8707,11.1687],[75.8777,11.1657],[75.8806,11.1707],[75.8879,11.1715],[75.886,11.1744],[75.8883,11.1782],[75.8846,11.1845],[75.8755,11.1818],[75.8754,11.1845],[75.8712,11.1872],[75.8619,11.1881],[75.8618,11.1906],[75.8574,11.1934],[75.8599,11.1942],[75.8601,11.1977],[75.8592,11.2001],[75.8557,11.2005],[75.8564,11.2043],[75.8577,11.2076],[75.86,11.2043],[75.8648,11.205],[75.8758,11.2157],[75.8782,11.2224],[75.8887,11.2282],[75.8973,11.2293],[75.9006,11.2414],[75.9125,11.2357],[75.9183,11.2356],[75.9269,11.2452],[75.9591,11.2524],[75.9655,11.2616],[75.9744,11.268],[75.9935,11.2556],[76.0088,11.2585],[76.0135,11.267],[76.0233,11.2681],[76.0325,11.265],[76.0368,11.2671],[76.045,11.264],[76.0449,11.2662],[76.0491,11.2664],[76.0519,11.2713],[76.0577,11.2742],[76.0608,11.2815],[76.0719,11.2857],[76.0687,11.2931],[76.0841,11.3035],[76.0834,11.3067],[76.0914,11.3106],[76.1037,11.3106],[76.1062,11.3142],[76.114,11.3142],[76.1184,11.3193],[76.1185,11.3252],[76.1148,11.3293],[76.1173,11.3365],[76.0995,11.341],[76.092,11.3511],[76.0947,11.3607],[76.1019,11.3677],[76.0973,11.3819],[76.0992,11.395],[76.106,11.4016],[76.1053,11.4093],[76.1124,11.4103],[76.1177,11.4077],[76.1214,11.4105],[76.1222,11.4149],[76.1297,11.4211],[76.1312,11.4263],[76.1389,11.4194],[76.1423,11.4191],[76.146,11.4292],[76.1401,11.4379],[76.1428,11.4508],[76.1309,11.4638],[76.1259,11.4656],[76.1231,11.4729],[76.1114,11.4753],[76.1056,11.4817],[76.0922,11.4816],[76.0868,11.4866],[76.0874,11.4897],[76.0928,11.4928],[76.0886,11.5047],[76.0903,11.5092],[76.0889,11.5121],[76.0824,11.514],[76.0781,11.521],[76.0733,11.5218],[76.0627,11.5093],[76.0573,11.5082],[76.052,11.503],[76.0451,11.5062],[76.0368,11.5022],[76.0355,11.5078],[76.0322,11.5104],[76.0179,11.5137],[76.0156,11.5172],[75.9994,11.5261],[75.9963,11.5322],[75.9729,11.5454],[75.9638,11.5567],[75.9576,11.5599],[75.9575,11.5745],[75.9515,11.581],[75.9464,11.5803],[75.9393,11.5837],[75.9365,11.5903],[75.9281,11.5899],[75.9253,11.5942],[75.9176,11.5952],[75.9142,11.5995],[75.9091,11.5998],[75.9056,11.6111],[75.8978,11.6223],[75.8996,11.6363],[75.8969,11.642],[75.9033,11.6509],[75.9026,11.6562],[75.9052,11.6613],[75.9,11.6754],[75.9147,11.6866],[75.9153,11.6898],[75.9001,11.6985],[75.8824,11.6981],[75.8753,11.7036],[75.8727,11.7005],[75.8628,11.7034],[75.8503,11.7022],[75.8454,11.7059],[75.8457,11.7134],[75.8322,11.7192],[75.828,11.7263],[75.8242,11.7267],[75.8214,11.7327],[75.8103,11.742],[75.7923,11.7425],[75.7992,11.747],[75.7997,11.7521],[75.794,11.753],[75.7832,11.7598],[75.7881,11.7644],[75.7897,11.7716],[75.7872,11.7745],[75.7922,11.7783],[75.7939,11.7896],[75.7769,11.8011],[75.7657,11.8026]]]},"properties":{"dtname":"Kozhikode","stname":"KERALA","stcode11":"32","dtcode11":"591","year_stat":"2011_c","Shape_Length":298776.56732616597,"Shape_Area":2451415831.380417,"OBJECTID":99,"test":0,"Dist_LGD":561,"State_LGD":32}},{"type":"Feature","id":101,"geometry":{"type":"Polygon","coordinates":[[[76.2342,11.5277],[76.2287,11.5222],[76.224,11.5085],[76.2212,11.5105],[76.1992,11.5056],[76.1912,11.4978],[76.1891,11.4917],[76.1844,11.4871],[76.1847,11.4841],[76.1815,11.4835],[76.1867,11.4782],[76.1858,11.4728],[76.1693,11.4651],[76.1644,11.4577],[76.1608,11.4566],[76.1589,11.4585],[76.1524,11.4519],[76.1428,11.4509],[76.1401,11.4379],[76.146,11.428],[76.1423,11.4191],[76.1389,11.4194],[76.1312,11.4263],[76.1297,11.4211],[76.1222,11.4149],[76.1214,11.4105],[76.1177,11.4077],[76.1124,11.4103],[76.1053,11.4093],[76.1062,11.4021],[76.0992,11.395],[76.0973,11.3825],[76.1019,11.3677],[76.0957,11.3623],[76.0919,11.3518],[76.0995,11.341],[76.1173,11.3365],[76.1148,11.3293],[76.1185,11.3252],[76.1184,11.3193],[76.114,11.3142],[76.1062,11.3142],[76.1037,11.3106],[76.0914,11.3106],[76.0834,11.3067],[76.0841,11.3035],[76.0687,11.2931],[76.0719,11.2857],[76.0608,11.2815],[76.0577,11.2742],[76.0519,11.2713],[76.0491,11.2664],[76.0449,11.2662],[76.045,11.264],[76.0368,11.2671],[76.0325,11.265],[76.0233,11.2681],[76.0135,11.267],[76.0088,11.2585],[75.9935,11.2556],[75.9744,11.268],[75.9655,11.2616],[75.9591,11.2524],[75.9269,11.2452],[75.9183,11.2356],[75.9125,11.2357],[75.9006,11.2414],[75.8973,11.2293],[75.8887,11.2282],[75.8782,11.2224],[75.8758,11.2157],[75.8648,11.205],[75.86,11.2043],[75.8577,11.2076],[75.8564,11.2043],[75.8557,11.2005],[75.8592,11.2001],[75.8601,11.1977],[75.8599,11.1942],[75.8574,11.1934],[75.8618,11.1906],[75.8619,11.1881],[75.8712,11.1872],[75.8754,11.1845],[75.8755,11.1818],[75.8846,11.1845],[75.8883,11.1782],[75.886,11.1744],[75.8879,11.1715],[75.8806,11.1707],[75.8777,11.1657],[75.8707,11.1687],[75.8705,11.1718],[75.8648,11.1709],[75.8608,11.1665],[75.8591,11.1574],[75.8522,11.1527],[75.8588,11.1407],[75.8559,11.1382],[75.8512,11.1426],[75.8454,11.1419],[75.8262,11.1226],[75.8302,11.1167],[75.8428,11.0776],[75.8626,11.0017],[75.91,10.7934],[75.9572,10.6854],[75.9668,10.6939],[75.9712,10.691],[75.9742,10.6936],[75.977,10.6916],[75.9768,10.6958],[75.9799,10.6941],[75.9828,10.6868],[75.9863,10.691],[76.001,10.695],[76.0067,10.69],[76.0121,10.6906],[76.0198,10.6974],[76.0342,10.7007],[76.037,10.7075],[76.0412,10.7054],[76.0435,10.7072],[76.0444,10.7053],[76.0482,10.7069],[76.0487,10.7047],[76.0515,10.7045],[76.0539,10.7128],[76.061,10.7198],[76.0593,10.7277],[76.067,10.7236],[76.0656,10.7294],[76.0692,10.7301],[76.069,10.7378],[76.0638,10.7436],[76.0541,10.74],[76.0489,10.741],[76.0447,10.747],[76.0473,10.752],[76.0394,10.7557],[76.0427,10.7953],[76.049,10.7963],[76.0499,10.8002],[76.0459,10.7992],[76.0467,10.8011],[76.0382,10.8043],[76.035,10.8078],[76.0368,10.8151],[76.0272,10.8216],[76.0293,10.8258],[76.0342,10.8268],[76.0322,10.8307],[76.0431,10.8475],[76.0511,10.8462],[76.064,10.838],[76.0963,10.8407],[76.1027,10.8464],[76.1021,10.8676],[76.1037,10.8714],[76.1118,10.8658],[76.1156,10.8815],[76.1309,10.8778],[76.1305,10.8959],[76.1373,10.8952],[76.1459,10.8887],[76.1509,10.8898],[76.1584,10.9014],[76.1602,10.9109],[76.1696,10.9146],[76.174,10.9052],[76.1881,10.9097],[76.1869,10.8995],[76.1932,10.8967],[76.2057,10.8978],[76.2122,10.9121],[76.2155,10.9143],[76.23,10.8866],[76.2331,10.8854],[76.2526,10.8855],[76.2683,10.9147],[76.2785,10.9156],[76.2846,10.9124],[76.2956,10.9196],[76.3041,10.9117],[76.3193,10.9112],[76.3217,10.9048],[76.3322,10.9045],[76.335,10.9112],[76.3317,10.9134],[76.3332,10.922],[76.3232,10.9304],[76.3207,10.9354],[76.3204,10.9506],[76.3283,10.9641],[76.3257,10.9673],[76.3282,10.979],[76.3351,10.9808],[76.3372,10.9764],[76.3538,10.9743],[76.3581,10.976],[76.3608,10.9735],[76.3709,10.9964],[76.3647,10.9989],[76.3522,10.9989],[76.3515,10.9951],[76.3344,10.9987],[76.3242,11.005],[76.328,11.0243],[76.3193,11.0262],[76.3178,11.0294],[76.3117,11.0297],[76.3068,11.027],[76.2984,11.0285],[76.2959,11.0248],[76.292,11.0256],[76.2884,11.0215],[76.2845,11.0243],[76.287,11.033],[76.289,11.0336],[76.2842,11.0355],[76.2885,11.0403],[76.2925,11.0406],[76.2957,11.0474],[76.2946,11.0506],[76.309,11.0468],[76.3106,11.0506],[76.316,11.0515],[76.3189,11.0495],[76.3205,11.0521],[76.3229,11.0498],[76.3312,11.0548],[76.3301,11.0572],[76.3328,11.058],[76.3346,11.0628],[76.3294,11.074],[76.3317,11.0728],[76.3395,11.0778],[76.3441,11.0881],[76.3477,11.0884],[76.351,11.0924],[76.3577,11.0933],[76.3605,11.098],[76.3755,11.0971],[76.3822,11.1004],[76.3883,11.0988],[76.3894,11.1034],[76.3854,11.1087],[76.3859,11.1116],[76.3991,11.1138],[76.4085,11.1186],[76.4084,11.1317],[76.4135,11.1428],[76.4061,11.1538],[76.4137,11.171],[76.4023,11.1877],[76.4062,11.1934],[76.4065,11.2004],[76.4044,11.2012],[76.403,11.2078],[76.4047,11.2097],[76.4082,11.2085],[76.4137,11.2111],[76.4266,11.2088],[76.4335,11.202],[76.4489,11.2056],[76.4531,11.2395],[76.4871,11.2584],[76.5217,11.2707],[76.5268,11.2886],[76.5457,11.3004],[76.5393,11.3047],[76.5373,11.3141],[76.5499,11.3311],[76.5478,11.359],[76.5082,11.3542],[76.5151,11.3598],[76.5177,11.3716],[76.4604,11.3889],[76.4156,11.4233],[76.4187,11.4419],[76.3979,11.4364],[76.3687,11.4563],[76.3476,11.4637],[76.3422,11.4677],[76.326,11.4541],[76.3051,11.4679],[76.2948,11.4658],[76.2915,11.4699],[76.2946,11.4742],[76.2844,11.483],[76.2735,11.4771],[76.2647,11.4813],[76.2472,11.468],[76.2514,11.5024],[76.248,11.5157],[76.2405,11.5271],[76.2393,11.5252],[76.2342,11.5277]]]},"properties":{"dtname":"Malappuram","stname":"KERALA","stcode11":"32","dtcode11":"592","year_stat":"2011_c","Shape_Length":409487.62875906774,"Shape_Area":3710886919.5249085,"OBJECTID":101,"test":0,"Dist_LGD":562,"State_LGD":32}},{"type":"Feature","id":108,"geometry":{"type":"Polygon","coordinates":[[[76.7193,11.2275],[76.7058,11.2404],[76.707,11.2383],[76.6973,11.2394],[76.6842,11.2339],[76.6853,11.2313],[76.6826,11.2299],[76.6843,11.2279],[76.6764,11.2202],[76.6524,11.2098],[76.6289,11.1943],[76.6247,11.1958],[76.6155,11.1924],[76.6008,11.1976],[76.5338,11.1857],[76.5157,11.1946],[76.5094,11.2083],[76.499,11.2114],[76.4723,11.2088],[76.4734,11.195],[76.4666,11.1934],[76.4584,11.1878],[76.4516,11.1995],[76.4386,11.199],[76.4382,11.2042],[76.4345,11.202],[76.4306,11.203],[76.4285,11.2076],[76.4246,11.2094],[76.4137,11.2111],[76.4082,11.2085],[76.4047,11.2097],[76.403,11.2078],[76.4044,11.2012],[76.4065,11.2004],[76.4062,11.1934],[76.4023,11.1877],[76.4137,11.171],[76.4061,11.1538],[76.4135,11.1428],[76.4084,11.1317],[76.4085,11.1186],[76.3991,11.1138],[76.3859,11.1116],[76.3854,11.1087],[76.3894,11.1034],[76.3883,11.0988],[76.3822,11.1004],[76.3755,11.0971],[76.3605,11.098],[76.3577,11.0933],[76.351,11.0924],[76.3477,11.0884],[76.3441,11.0881],[76.3395,11.0778],[76.3317,11.0728],[76.3294,11.074],[76.3346,11.0628],[76.3328,11.058],[76.3301,11.0572],[76.3312,11.0548],[76.3229,11.0498],[76.3205,11.0521],[76.3189,11.0495],[76.316,11.0515],[76.3106,11.0506],[76.309,11.0468],[76.2946,11.0506],[76.2957,11.0474],[76.2925,11.0406],[76.2885,11.0403],[76.2841,11.0353],[76.289,11.0336],[76.287,11.033],[76.2845,11.0243],[76.2884,11.0215],[76.292,11.0256],[76.2959,11.0248],[76.2984,11.0285],[76.3068,11.027],[76.3117,11.0297],[76.3178,11.0294],[76.3193,11.0262],[76.328,11.0243],[76.3242,11.005],[76.3344,10.9987],[76.3515,10.9951],[76.3522,10.9989],[76.3647,10.9989],[76.3709,10.9964],[76.3608,10.9735],[76.3581,10.976],[76.3538,10.9743],[76.3372,10.9764],[76.3351,10.9808],[76.3282,10.979],[76.3257,10.9673],[76.3283,10.9641],[76.3204,10.9506],[76.3207,10.9354],[76.3232,10.9304],[76.3332,10.922],[76.3317,10.9134],[76.335,10.9112],[76.3322,10.9045],[76.3217,10.9048],[76.3193,10.9112],[76.3041,10.9117],[76.2956,10.9196],[76.2846,10.9124],[76.2785,10.9156],[76.2683,10.9147],[76.2526,10.8855],[76.2331,10.8854],[76.23,10.8866],[76.2155,10.9143],[76.2122,10.9121],[76.2057,10.8978],[76.1932,10.8967],[76.1869,10.8995],[76.1881,10.9097],[76.174,10.9052],[76.1696,10.9146],[76.1602,10.9109],[76.1584,10.9014],[76.1509,10.8898],[76.1459,10.8887],[76.1373,10.8952],[76.1305,10.8959],[76.1309,10.8778],[76.1156,10.8815],[76.1118,10.8658],[76.1037,10.8714],[76.1021,10.8676],[76.1027,10.8464],[76.1,10.843],[76.0905,10.839],[76.0693,10.8374],[76.0607,10.8388],[76.0541,10.8447],[76.0442,10.8481],[76.0406,10.8459],[76.0379,10.8374],[76.0322,10.8307],[76.0342,10.8268],[76.0293,10.8258],[76.0272,10.8216],[76.0368,10.8151],[76.035,10.8078],[76.0382,10.8043],[76.0467,10.8011],[76.0459,10.7992],[76.0499,10.8002],[76.049,10.7963],[76.0427,10.7953],[76.039,10.7673],[76.0398,10.7548],[76.0473,10.752],[76.0447,10.747],[76.0466,10.7424],[76.0541,10.74],[76.0638,10.7436],[76.0692,10.7374],[76.068,10.7313],[76.0696,10.7297],[76.0826,10.7263],[76.0964,10.7284],[76.0969,10.7262],[76.1226,10.7105],[76.1301,10.7164],[76.1329,10.7225],[76.136,10.7197],[76.1448,10.7199],[76.1537,10.7117],[76.157,10.7181],[76.1627,10.7061],[76.1653,10.7115],[76.1717,10.7136],[76.1748,10.7232],[76.1813,10.7297],[76.1809,10.7343],[76.1896,10.7424],[76.1918,10.7502],[76.1942,10.752],[76.2032,10.7513],[76.2055,10.7678],[76.1941,10.7773],[76.1918,10.7759],[76.1886,10.7819],[76.2114,10.7771],[76.2202,10.7814],[76.2313,10.7715],[76.2436,10.7719],[76.247,10.7606],[76.2451,10.7501],[76.2515,10.7458],[76.2649,10.7528],[76.2819,10.7518],[76.2884,10.7557],[76.3247,10.7454],[76.3369,10.7495],[76.3534,10.7423],[76.3585,10.7442],[76.3643,10.7623],[76.381,10.7676],[76.3897,10.7636],[76.393,10.7489],[76.3962,10.7456],[76.4323,10.7512],[76.4432,10.7489],[76.469,10.7513],[76.4725,10.7486],[76.4683,10.7408],[76.4789,10.7342],[76.4774,10.7298],[76.4642,10.7208],[76.4654,10.7178],[76.4614,10.7055],[76.4562,10.6987],[76.4513,10.7015],[76.4403,10.6957],[76.4459,10.6898],[76.4515,10.6749],[76.4504,10.6642],[76.4487,10.6608],[76.4435,10.6637],[76.4407,10.6621],[76.435,10.6548],[76.434,10.6491],[76.4238,10.6491],[76.4173,10.6264],[76.4203,10.6222],[76.4201,10.628],[76.4255,10.6266],[76.4265,10.6206],[76.4235,10.6193],[76.4263,10.6189],[76.4285,10.6139],[76.4219,10.6051],[76.4207,10.6067],[76.4134,10.6056],[76.4129,10.6012],[76.4151,10.5997],[76.4127,10.5947],[76.4041,10.6002],[76.4014,10.5954],[76.4089,10.5784],[76.4202,10.5777],[76.4209,10.5722],[76.4252,10.5713],[76.4266,10.5647],[76.4299,10.5633],[76.4303,10.5578],[76.4355,10.5549],[76.4389,10.5563],[76.4314,10.5365],[76.439,10.5291],[76.4409,10.5236],[76.4502,10.5211],[76.4595,10.5107],[76.4591,10.5077],[76.467,10.5022],[76.4668,10.4984],[76.4716,10.496],[76.4739,10.4864],[76.4867,10.4858],[76.49,10.4781],[76.5022,10.4781],[76.5053,10.4736],[76.5231,10.4685],[76.5262,10.4629],[76.5319,10.459],[76.5364,10.4479],[76.5572,10.4436],[76.556,10.4387],[76.5581,10.4344],[76.5674,10.4372],[76.5883,10.435],[76.5949,10.4255],[76.5952,10.4215],[76.6012,10.4183],[76.6049,10.4106],[76.6035,10.4083],[76.607,10.4047],[76.6068,10.3992],[76.6181,10.3902],[76.6192,10.3834],[76.6231,10.379],[76.6278,10.3832],[76.6309,10.3808],[76.6288,10.3773],[76.6327,10.3764],[76.6367,10.381],[76.6403,10.3802],[76.6446,10.3828],[76.6543,10.3768],[76.6574,10.3798],[76.6573,10.3837],[76.6611,10.3855],[76.6702,10.3732],[76.6792,10.3677],[76.6837,10.3674],[76.6869,10.3631],[76.7022,10.3627],[76.7045,10.3685],[76.7141,10.373],[76.749,10.3659],[76.7559,10.3606],[76.7635,10.3612],[76.765,10.3575],[76.7623,10.3524],[76.7571,10.3475],[76.7522,10.3469],[76.7536,10.344],[76.7511,10.338],[76.7537,10.3357],[76.7714,10.3335],[76.7768,10.3414],[76.7876,10.3354],[76.8038,10.3362],[76.8053,10.3434],[76.8156,10.3484],[76.8279,10.3366],[76.8323,10.3361],[76.8373,10.3371],[76.836,10.3454],[76.8459,10.3568],[76.8449,10.3623],[76.8486,10.3674],[76.8437,10.377],[76.834,10.3826],[76.8233,10.3946],[76.8337,10.4028],[76.8333,10.4073],[76.8302,10.4108],[76.8243,10.4096],[76.8229,10.4166],[76.816,10.423],[76.828,10.4497],[76.8303,10.4973],[76.8431,10.5367],[76.842,10.5402],[76.8353,10.5446],[76.8356,10.5574],[76.8397,10.5636],[76.8339,10.5734],[76.838,10.5815],[76.8387,10.5959],[76.8324,10.5992],[76.8263,10.5961],[76.8175,10.6027],[76.816,10.6072],[76.8185,10.6106],[76.8167,10.6159],[76.8117,10.6196],[76.8101,10.6238],[76.8149,10.629],[76.8143,10.635],[76.8208,10.6336],[76.8309,10.6369],[76.8394,10.6336],[76.8466,10.6351],[76.8596,10.6317],[76.8821,10.639],[76.8841,10.648],[76.8779,10.6669],[76.8782,10.6744],[76.8773,10.6763],[76.8698,10.6763],[76.867,10.6792],[76.866,10.6848],[76.8706,10.6922],[76.8675,10.6943],[76.8822,10.7168],[76.8912,10.7165],[76.8922,10.7185],[76.8882,10.7318],[76.896,10.7448],[76.8963,10.7525],[76.9037,10.7618],[76.9027,10.7715],[76.9054,10.7721],[76.9073,10.7834],[76.9007,10.8016],[76.9008,10.808],[76.8891,10.8103],[76.8701,10.809],[76.864,10.818],[76.8482,10.8195],[76.8452,10.8268],[76.8533,10.8336],[76.8539,10.8397],[76.8485,10.8501],[76.832,10.8609],[76.8308,10.8707],[76.8284,10.8726],[76.8168,10.8735],[76.8115,10.8786],[76.8082,10.8775],[76.7919,10.8818],[76.791,10.8852],[76.7815,10.8912],[76.768,10.8878],[76.7613,10.8942],[76.7525,10.8958],[76.749,10.8926],[76.7407,10.8911],[76.7385,10.8953],[76.7149,10.9087],[76.6952,10.9103],[76.6767,10.9181],[76.6591,10.9306],[76.6558,10.9391],[76.6647,10.9436],[76.6658,10.9475],[76.6636,10.951],[76.6674,10.9597],[76.6667,10.9684],[76.686,10.9893],[76.6891,11.0086],[76.6997,11.0267],[76.7182,11.041],[76.7418,11.0382],[76.7666,11.0292],[76.7736,11.0336],[76.7918,11.0374],[76.7931,11.0435],[76.8008,11.054],[76.7962,11.0559],[76.7878,11.0448],[76.7781,11.0422],[76.7689,11.0435],[76.762,11.0481],[76.7607,11.0524],[76.7465,11.0568],[76.7438,11.0731],[76.7497,11.0756],[76.7501,11.079],[76.7527,11.0775],[76.7546,11.0791],[76.7516,11.0933],[76.7478,11.0934],[76.7434,11.1026],[76.7499,11.1191],[76.7468,11.1327],[76.7481,11.1355],[76.7463,11.1375],[76.7431,11.1344],[76.7345,11.1363],[76.7314,11.1317],[76.7237,11.1389],[76.7189,11.1495],[76.712,11.1509],[76.7118,11.1482],[76.7083,11.1467],[76.7121,11.1423],[76.7057,11.1418],[76.695,11.1668],[76.698,11.1742],[76.7025,11.1758],[76.7143,11.1877],[76.7228,11.1872],[76.7286,11.1914],[76.7302,11.1937],[76.7269,11.2075],[76.7355,11.2157],[76.7345,11.2181],[76.7316,11.2173],[76.7252,11.2257],[76.7193,11.2275]]]},"properties":{"dtname":"Palakkad","stname":"KERALA","stcode11":"32","dtcode11":"593","year_stat":"2011_c","Shape_Length":551293.2720555329,"Shape_Area":4671519968.139278,"OBJECTID":108,"test":0,"Dist_LGD":563,"State_LGD":32}},{"type":"Feature","id":112,"geometry":{"type":"Polygon","coordinates":[[[76.1899,10.7819],[76.188,10.7803],[76.1918,10.7759],[76.1941,10.7773],[76.2055,10.7678],[76.2032,10.7513],[76.1942,10.752],[76.1918,10.7502],[76.1896,10.7424],[76.1809,10.7343],[76.1813,10.7297],[76.1748,10.7232],[76.1717,10.7136],[76.1653,10.7115],[76.1641,10.7064],[76.1612,10.707],[76.1569,10.7181],[76.1537,10.7117],[76.1448,10.7199],[76.136,10.7197],[76.1329,10.7225],[76.1301,10.7164],[76.1226,10.7105],[76.0969,10.7262],[76.0964,10.7284],[76.0826,10.7263],[76.0688,10.7304],[76.0656,10.7294],[76.067,10.7236],[76.0593,10.7277],[76.061,10.7198],[76.0539,10.7128],[76.0515,10.7045],[76.0487,10.7047],[76.0482,10.7069],[76.0444,10.7053],[76.0435,10.7072],[76.0412,10.7054],[76.037,10.7075],[76.0342,10.7007],[76.0198,10.6974],[76.0131,10.6912],[76.0073,10.6897],[76.001,10.695],[75.9863,10.691],[75.9828,10.6868],[75.9787,10.6952],[75.9768,10.6958],[75.9754,10.6913],[75.9742,10.6936],[75.9712,10.691],[75.9668,10.6939],[75.9572,10.6854],[76.0002,10.593],[76.0326,10.516],[76.0371,10.5083],[76.0403,10.5072],[76.0671,10.456],[76.0835,10.4219],[76.0991,10.3811],[76.1005,10.3818],[76.1167,10.3339],[76.1376,10.2581],[76.1629,10.1836],[76.1676,10.1819],[76.1691,10.1846],[76.1873,10.1911],[76.2138,10.1935],[76.2117,10.2004],[76.2197,10.2064],[76.2334,10.2022],[76.244,10.2048],[76.2495,10.2],[76.2541,10.202],[76.2634,10.2001],[76.2631,10.1976],[76.2595,10.1976],[76.2612,10.1891],[76.2709,10.1841],[76.2738,10.1745],[76.2805,10.1741],[76.2873,10.1775],[76.2968,10.1757],[76.3012,10.1846],[76.3118,10.1817],[76.3105,10.2048],[76.3303,10.2083],[76.3351,10.2129],[76.3374,10.2246],[76.3409,10.2257],[76.3392,10.2304],[76.3793,10.2446],[76.3779,10.2544],[76.3913,10.2547],[76.3896,10.2633],[76.3967,10.2669],[76.4009,10.2756],[76.4131,10.2807],[76.4111,10.2879],[76.4169,10.2882],[76.4151,10.2935],[76.4276,10.2887],[76.4372,10.294],[76.4432,10.2926],[76.4471,10.2963],[76.4581,10.2962],[76.4715,10.2911],[76.4907,10.2933],[76.4965,10.2871],[76.5083,10.2888],[76.5244,10.2841],[76.5446,10.2895],[76.5543,10.2826],[76.5735,10.2844],[76.5661,10.2933],[76.5765,10.3025],[76.5852,10.2981],[76.5897,10.2989],[76.5903,10.2919],[76.6031,10.2802],[76.6187,10.2803],[76.6211,10.2734],[76.6394,10.2739],[76.6456,10.2802],[76.6617,10.2799],[76.6617,10.2768],[76.6692,10.2714],[76.6954,10.2638],[76.7043,10.2668],[76.706,10.2695],[76.7287,10.2701],[76.7471,10.2776],[76.7518,10.277],[76.7525,10.274],[76.7592,10.2687],[76.7684,10.2682],[76.7741,10.2705],[76.7747,10.2758],[76.7862,10.2766],[76.7927,10.2796],[76.7967,10.2766],[76.8034,10.2843],[76.8093,10.2854],[76.826,10.2802],[76.8287,10.2746],[76.8321,10.2753],[76.8371,10.2829],[76.8426,10.2794],[76.8473,10.28],[76.8596,10.2725],[76.8655,10.2723],[76.8667,10.2686],[76.8753,10.2701],[76.8797,10.2665],[76.8778,10.2596],[76.8891,10.2551],[76.8956,10.2578],[76.8961,10.2532],[76.9007,10.2518],[76.897,10.2619],[76.8913,10.2623],[76.8839,10.2701],[76.8733,10.2757],[76.8732,10.2975],[76.8701,10.2981],[76.862,10.2912],[76.8549,10.2921],[76.851,10.2891],[76.8521,10.2843],[76.8486,10.2845],[76.8423,10.2894],[76.8444,10.2944],[76.8403,10.2991],[76.8299,10.3032],[76.8284,10.3071],[76.8373,10.3371],[76.8279,10.3366],[76.8156,10.3484],[76.8053,10.3434],[76.8038,10.3362],[76.7876,10.3354],[76.7768,10.3414],[76.7714,10.3335],[76.7537,10.3357],[76.7511,10.338],[76.7536,10.344],[76.7522,10.3469],[76.7571,10.3475],[76.7623,10.3524],[76.765,10.3575],[76.7635,10.3612],[76.7559,10.3606],[76.749,10.3659],[76.7141,10.373],[76.7045,10.3685],[76.7022,10.3627],[76.6869,10.3631],[76.6837,10.3674],[76.6792,10.3677],[76.6702,10.3732],[76.6611,10.3855],[76.6573,10.3837],[76.6574,10.3798],[76.6543,10.3768],[76.6446,10.3828],[76.6403,10.3802],[76.6367,10.381],[76.6327,10.3764],[76.6288,10.3773],[76.6309,10.3808],[76.6278,10.3832],[76.6231,10.379],[76.6192,10.3834],[76.6181,10.3902],[76.6068,10.3992],[76.607,10.4047],[76.6035,10.4083],[76.6049,10.4106],[76.6012,10.4183],[76.5952,10.4215],[76.5949,10.4255],[76.5883,10.435],[76.5674,10.4372],[76.5581,10.4344],[76.556,10.4387],[76.5572,10.4436],[76.5364,10.4479],[76.5319,10.459],[76.5262,10.4629],[76.5231,10.4685],[76.5053,10.4736],[76.5022,10.4781],[76.49,10.4781],[76.4867,10.4858],[76.4739,10.4864],[76.4716,10.496],[76.4668,10.4984],[76.467,10.5022],[76.4591,10.5077],[76.4595,10.5107],[76.4502,10.5211],[76.4409,10.5236],[76.439,10.5291],[76.4314,10.5365],[76.4389,10.5563],[76.4355,10.5549],[76.4303,10.5578],[76.4299,10.5633],[76.4266,10.5647],[76.4252,10.5713],[76.4209,10.5722],[76.4202,10.5777],[76.4089,10.5784],[76.4014,10.5954],[76.4041,10.6002],[76.4127,10.5947],[76.4151,10.5997],[76.4129,10.6012],[76.4134,10.6056],[76.4207,10.6067],[76.4219,10.6051],[76.4285,10.6139],[76.4263,10.6189],[76.4235,10.6193],[76.4265,10.6206],[76.4255,10.6266],[76.4201,10.628],[76.4203,10.6222],[76.4173,10.6264],[76.4238,10.6491],[76.434,10.6491],[76.435,10.6548],[76.4407,10.6621],[76.4435,10.6637],[76.4487,10.6608],[76.4504,10.6642],[76.4515,10.6749],[76.4459,10.6898],[76.4403,10.6957],[76.4513,10.7015],[76.4562,10.6987],[76.4614,10.7055],[76.4654,10.7178],[76.4642,10.7208],[76.4774,10.7298],[76.4789,10.7342],[76.4683,10.7408],[76.4725,10.7486],[76.469,10.7513],[76.4432,10.7489],[76.4323,10.7512],[76.3962,10.7456],[76.393,10.7489],[76.3897,10.7636],[76.381,10.7676],[76.3643,10.7623],[76.3585,10.7442],[76.3534,10.7423],[76.3369,10.7495],[76.3247,10.7454],[76.2884,10.7557],[76.2819,10.7518],[76.2649,10.7528],[76.2515,10.7458],[76.2451,10.7501],[76.247,10.7606],[76.2436,10.7719],[76.2313,10.7715],[76.2202,10.7814],[76.2114,10.7771],[76.1899,10.7819]]]},"properties":{"dtname":"Thrissur","stname":"KERALA","stcode11":"32","dtcode11":"594","year_stat":"2011_c","Shape_Length":397475.61072847055,"Shape_Area":3147925914.306576,"OBJECTID":112,"test":0,"Dist_LGD":566,"State_LGD":32}},{"type":"Feature","id":114,"geometry":{"type":"Polygon","coordinates":[[[77.1809,10.3576],[77.176,10.3586],[77.1682,10.3541],[77.1512,10.3382],[77.1284,10.3263],[77.1202,10.318],[77.102,10.3156],[77.0957,10.3087],[77.0914,10.3151],[77.0785,10.3029],[77.066,10.2982],[77.0632,10.2917],[77.0436,10.2841],[77.0528,10.2723],[77.0505,10.2619],[77.0615,10.2485],[77.0612,10.2414],[77.0547,10.234],[77.0479,10.2352],[77.0203,10.2295],[77.0153,10.2255],[77.0152,10.2226],[77.0196,10.2158],[77.0333,10.2085],[77.0481,10.2085],[77.0524,10.212],[77.0644,10.2124],[77.0685,10.206],[77.0696,10.1967],[77.081,10.1933],[77.0889,10.1848],[77.0837,10.1765],[77.0717,10.176],[77.0637,10.1718],[77.0623,10.1765],[77.0591,10.1781],[77.0489,10.1785],[77.0322,10.174],[77.0306,10.1789],[77.0247,10.1797],[77.0036,10.1701],[77.001,10.1632],[76.9887,10.1603],[76.983,10.165],[76.9631,10.1623],[76.9528,10.1699],[76.9268,10.1783],[76.914,10.1662],[76.906,10.1525],[76.9048,10.1427],[76.8878,10.1188],[76.8665,10.0946],[76.8634,10.0883],[76.8646,10.073],[76.8449,10.0787],[76.8269,10.0886],[76.8182,10.0854],[76.8148,10.0818],[76.8167,10.0704],[76.8224,10.0624],[76.809,10.0628],[76.8111,10.0586],[76.8044,10.0577],[76.8006,10.0607],[76.8048,10.0656],[76.7916,10.0638],[76.7819,10.0674],[76.7693,10.0664],[76.7749,10.0595],[76.7825,10.0576],[76.7856,10.0495],[76.7961,10.0418],[76.8049,10.0399],[76.8093,10.0353],[76.817,10.0349],[76.8317,10.0255],[76.8395,10.0244],[76.8307,10.0124],[76.8248,10.013],[76.805,10.0261],[76.7832,10.0354],[76.7642,10.01],[76.7674,10.004],[76.7658,9.9968],[76.7701,9.9939],[76.7679,9.9918],[76.7645,9.9927],[76.763,9.9903],[76.7648,9.9889],[76.7597,9.9911],[76.7659,9.9808],[76.7455,9.991],[76.7344,9.9838],[76.7229,9.9816],[76.7164,9.9851],[76.712,9.9791],[76.7124,9.973],[76.7161,9.9695],[76.7151,9.9652],[76.7244,9.957],[76.7194,9.9507],[76.7178,9.9531],[76.713,9.9519],[76.7143,9.9425],[76.711,9.9447],[76.7101,9.9418],[76.7048,9.939],[76.6995,9.9283],[76.6938,9.9321],[76.6906,9.9265],[76.6848,9.9234],[76.6932,9.9206],[76.6954,9.9146],[76.6985,9.9187],[76.7016,9.9159],[76.6983,9.9146],[76.699,9.9104],[76.6958,9.9078],[76.6926,9.9064],[76.684,9.9093],[76.6809,9.912],[76.6808,9.9166],[76.6717,9.9181],[76.6608,9.9154],[76.657,9.9194],[76.6542,9.917],[76.6482,9.9205],[76.6409,9.9168],[76.634,9.9165],[76.6291,9.9127],[76.6314,9.9046],[76.6277,9.9005],[76.6313,9.8842],[76.6356,9.8841],[76.636,9.8741],[76.6319,9.8721],[76.6328,9.8646],[76.6347,9.8639],[76.6275,9.8506],[76.6462,9.8399],[76.6634,9.8391],[76.6674,9.8439],[76.6787,9.838],[76.6821,9.8391],[76.6849,9.8327],[76.6957,9.8332],[76.6991,9.825],[76.7166,9.8176],[76.7215,9.8119],[76.7298,9.812],[76.7421,9.8036],[76.7507,9.8058],[76.7493,9.8134],[76.754,9.8167],[76.7788,9.8074],[76.8079,9.7886],[76.8284,9.7688],[76.8274,9.7629],[76.839,9.7555],[76.8468,9.7419],[76.8603,9.7292],[76.8666,9.7348],[76.8678,9.7281],[76.8877,9.7168],[76.9028,9.6844],[76.902,9.6769],[76.911,9.6706],[76.9141,9.664],[76.9267,9.6533],[76.9252,9.65],[76.922,9.6497],[76.9214,9.6462],[76.9193,9.6473],[76.9178,9.6434],[76.9346,9.6207],[76.9319,9.62],[76.9293,9.6141],[76.9085,9.627],[76.9025,9.6335],[76.8948,9.6332],[76.8922,9.63],[76.8931,9.6211],[76.8871,9.6194],[76.8909,9.6149],[76.8873,9.6095],[76.8914,9.6095],[76.8891,9.6058],[76.893,9.6031],[76.8916,9.5983],[76.8949,9.5857],[76.8818,9.5801],[76.8843,9.5763],[76.8836,9.5619],[76.8875,9.5462],[76.8856,9.5393],[76.9005,9.5377],[76.9031,9.5313],[76.9016,9.5263],[76.9042,9.5267],[76.9054,9.5233],[76.9034,9.5205],[76.9186,9.5105],[76.9243,9.5039],[76.9333,9.5049],[76.9376,9.503],[76.9497,9.4894],[76.9544,9.4913],[76.9586,9.5],[76.957,9.5036],[76.9612,9.5086],[76.9656,9.5069],[76.9693,9.5005],[76.9739,9.501],[76.9776,9.4974],[76.9836,9.4859],[76.9813,9.4828],[76.9836,9.4795],[76.9842,9.47],[76.9813,9.4663],[76.9715,9.4667],[76.9687,9.4641],[76.9997,9.4478],[77.0171,9.4416],[77.0184,9.4314],[77.0079,9.4293],[77.0084,9.4219],[77.0119,9.4187],[77.0097,9.4087],[77.0204,9.4062],[77.0249,9.4092],[77.0287,9.4072],[77.0358,9.4098],[77.0377,9.4134],[77.047,9.4144],[77.0523,9.418],[77.0659,9.4172],[77.0613,9.427],[77.0579,9.4281],[77.0597,9.4324],[77.0577,9.4432],[77.0606,9.4485],[77.0685,9.4548],[77.0819,9.458],[77.0947,9.4648],[77.0977,9.4655],[77.0985,9.4631],[77.1006,9.4685],[77.1041,9.4676],[77.1049,9.4696],[77.1352,9.4588],[77.1431,9.4607],[77.1545,9.471],[77.1663,9.4698],[77.1663,9.4652],[77.1692,9.4658],[77.1687,9.4617],[77.1811,9.4722],[77.1843,9.4622],[77.1822,9.4568],[77.1836,9.4542],[77.1878,9.4563],[77.1907,9.4495],[77.1982,9.4519],[77.2001,9.4497],[77.2033,9.4515],[77.209,9.4487],[77.2078,9.4415],[77.2117,9.4438],[77.2154,9.4377],[77.224,9.4345],[77.2205,9.4214],[77.2289,9.4197],[77.2286,9.41],[77.2315,9.404],[77.239,9.399],[77.2451,9.3895],[77.2482,9.3776],[77.2436,9.3738],[77.241,9.3681],[77.2412,9.3609],[77.2347,9.3501],[77.238,9.3398],[77.2304,9.3311],[77.235,9.3248],[77.2247,9.3122],[77.2244,9.2961],[77.2289,9.2975],[77.2358,9.2927],[77.2372,9.2826],[77.2393,9.2853],[77.2429,9.2837],[77.2445,9.2901],[77.249,9.2897],[77.2615,9.2824],[77.273,9.28],[77.2827,9.2733],[77.2885,9.275],[77.2821,9.2987],[77.283,9.3014],[77.2884,9.3018],[77.2995,9.311],[77.3026,9.3191],[77.3018,9.3247],[77.2972,9.3293],[77.3009,9.3302],[77.3,9.3368],[77.3057,9.3379],[77.3155,9.335],[77.32,9.3376],[77.3252,9.3372],[77.326,9.3467],[77.3357,9.3611],[77.338,9.3687],[77.3345,9.3813],[77.3365,9.3874],[77.3413,9.3899],[77.3397,9.3938],[77.3438,9.4022],[77.3364,9.4124],[77.3396,9.4208],[77.3445,9.4245],[77.3489,9.4406],[77.3659,9.4602],[77.3771,9.4529],[77.3925,9.4595],[77.3915,9.4689],[77.3972,9.4704],[77.402,9.4777],[77.3989,9.4815],[77.3992,9.4965],[77.4123,9.5091],[77.4082,9.5149],[77.4003,9.518],[77.4032,9.5231],[77.4004,9.5275],[77.3851,9.5193],[77.3801,9.5255],[77.3733,9.527],[77.3687,9.5349],[77.3655,9.5352],[77.365,9.5528],[77.3612,9.558],[77.3528,9.5597],[77.3502,9.5672],[77.3529,9.573],[77.3581,9.574],[77.3598,9.5775],[77.3582,9.584],[77.3549,9.5868],[77.3574,9.5945],[77.3608,9.5979],[77.3623,9.5957],[77.3661,9.5961],[77.3657,9.5998],[77.3611,9.6024],[77.3545,9.6042],[77.3394,9.5734],[77.3324,9.5789],[77.3253,9.5801],[77.3245,9.5934],[77.3299,9.5991],[77.3223,9.5984],[77.3177,9.6026],[77.3037,9.5988],[77.2945,9.5893],[77.29,9.5888],[77.2903,9.5849],[77.2769,9.5759],[77.2719,9.5766],[77.2696,9.5729],[77.2583,9.5766],[77.253,9.5831],[77.2427,9.5853],[77.2371,9.5812],[77.2342,9.5816],[77.2225,9.5929],[77.2221,9.5978],[77.2098,9.6051],[77.2089,9.6136],[77.1981,9.6145],[77.197,9.6109],[77.1908,9.6093],[77.1886,9.6062],[77.174,9.6113],[77.1702,9.6098],[77.1658,9.6129],[77.1691,9.6241],[77.1762,9.6296],[77.174,9.6374],[77.1792,9.6449],[77.1811,9.6593],[77.1875,9.6615],[77.1868,9.6665],[77.1941,9.6706],[77.2067,9.6947],[77.2019,9.704],[77.2061,9.7176],[77.2035,9.7222],[77.2075,9.7248],[77.2183,9.7262],[77.2239,9.7304],[77.2202,9.7451],[77.2253,9.7533],[77.2276,9.7648],[77.2325,9.7691],[77.2251,9.7761],[77.2228,9.7884],[77.2361,9.7906],[77.2403,9.7975],[77.2468,9.7985],[77.2452,9.8034],[77.2469,9.8086],[77.2413,9.8162],[77.2327,9.818],[77.2328,9.8221],[77.2251,9.8209],[77.2219,9.8231],[77.2266,9.8313],[77.2276,9.8387],[77.223,9.8455],[77.2282,9.8498],[77.2373,9.852],[77.2364,9.8602],[77.2214,9.8637],[77.2125,9.8775],[77.2154,9.878],[77.2176,9.885],[77.2208,9.8851],[77.2183,9.9049],[77.2302,9.9131],[77.2305,9.9213],[77.2357,9.927],[77.2344,9.9312],[77.2363,9.936],[77.248,9.9475],[77.2466,9.952],[77.2609,9.9526],[77.2728,9.9643],[77.2708,9.971],[77.2726,9.9764],[77.2679,9.98],[77.2643,9.9873],[77.2668,9.9904],[77.261,9.9918],[77.2649,10.0043],[77.2547,10.0124],[77.2579,10.0144],[77.2583,10.0191],[77.2627,10.0217],[77.2639,10.0293],[77.2509,10.0458],[77.2358,10.0585],[77.2316,10.0669],[77.223,10.0707],[77.2185,10.0794],[77.204,10.0885],[77.2012,10.1072],[77.2075,10.1191],[77.2164,10.1164],[77.2305,10.1223],[77.2336,10.1281],[77.2385,10.1308],[77.2445,10.1319],[77.2519,10.1256],[77.2677,10.1222],[77.2681,10.1278],[77.2749,10.1313],[77.2745,10.1408],[77.2712,10.1424],[77.2746,10.1849],[77.2785,10.1945],[77.2835,10.1977],[77.2857,10.2044],[77.2829,10.2086],[77.2871,10.2097],[77.2891,10.2146],[77.2933,10.2151],[77.2953,10.2185],[77.2882,10.2323],[77.2809,10.2367],[77.272,10.2351],[77.2695,10.237],[77.2591,10.2305],[77.2573,10.2595],[77.2636,10.2639],[77.2509,10.2815],[77.2468,10.2837],[77.2391,10.2957],[77.2348,10.309],[77.2314,10.3088],[77.2273,10.3166],[77.2288,10.3311],[77.2357,10.34],[77.2353,10.3529],[77.2086,10.3536],[77.2041,10.3543],[77.2018,10.3581],[77.1954,10.3547],[77.1809,10.3576]]]},"properties":{"dtname":"Idukki","stname":"KERALA","stcode11":"32","dtcode11":"596","year_stat":"2011_c","Shape_Length":570539.4729943279,"Shape_Area":4518943973.947189,"OBJECTID":114,"test":0,"Dist_LGD":556,"State_LGD":32}},{"type":"Feature","id":115,"geometry":{"type":"Polygon","coordinates":[[[76.577,10.3024],[76.5661,10.2933],[76.5735,10.2844],[76.5543,10.2826],[76.5446,10.2895],[76.5244,10.2841],[76.5083,10.2888],[76.4965,10.2871],[76.4907,10.2933],[76.4715,10.2911],[76.4581,10.2962],[76.4471,10.2963],[76.4432,10.2926],[76.4372,10.294],[76.4276,10.2887],[76.4151,10.2935],[76.4169,10.2882],[76.4111,10.2879],[76.4131,10.2807],[76.4009,10.2756],[76.3967,10.2669],[76.3896,10.2633],[76.3913,10.2547],[76.3779,10.2544],[76.3793,10.2446],[76.3392,10.2304],[76.3409,10.2257],[76.3374,10.2246],[76.3361,10.2154],[76.3309,10.2088],[76.3105,10.2048],[76.3118,10.1817],[76.3012,10.1846],[76.2962,10.1755],[76.2873,10.1775],[76.2805,10.1741],[76.2738,10.1745],[76.2709,10.1841],[76.2612,10.1891],[76.2595,10.1976],[76.2639,10.1987],[76.2599,10.2016],[76.2495,10.2],[76.244,10.2048],[76.2355,10.2021],[76.2197,10.2064],[76.2117,10.2004],[76.2138,10.1935],[76.1873,10.1911],[76.1691,10.1846],[76.1676,10.1819],[76.1675,10.1711],[76.185,10.1233],[76.1932,10.0853],[76.2207,9.9989],[76.2257,9.9904],[76.2312,9.9868],[76.234,9.988],[76.2406,9.9823],[76.241,9.9679],[76.2372,9.9634],[76.2377,9.9568],[76.252,9.917],[76.261,9.8815],[76.2836,9.7514],[76.2794,9.7894],[76.284,9.7916],[76.2824,9.8048],[76.2903,9.8099],[76.2872,9.8184],[76.2822,9.8212],[76.2809,9.829],[76.2859,9.8495],[76.2974,9.8528],[76.2926,9.8907],[76.3015,9.8915],[76.3085,9.8853],[76.3325,9.878],[76.3533,9.8841],[76.3693,9.8603],[76.3697,9.8426],[76.3729,9.8369],[76.3804,9.8431],[76.3884,9.8445],[76.3945,9.8308],[76.4116,9.8281],[76.4142,9.8224],[76.4191,9.825],[76.4213,9.8235],[76.4288,9.8253],[76.446,9.8348],[76.4496,9.841],[76.4539,9.8415],[76.4577,9.8478],[76.4737,9.8418],[76.4803,9.8466],[76.4805,9.8436],[76.4828,9.8429],[76.4856,9.8465],[76.498,9.8515],[76.5081,9.8502],[76.5143,9.8478],[76.5144,9.841],[76.5188,9.835],[76.5203,9.8231],[76.5244,9.826],[76.5391,9.8209],[76.5388,9.8135],[76.5441,9.8127],[76.542,9.8058],[76.5461,9.8033],[76.5458,9.8001],[76.5554,9.801],[76.561,9.8199],[76.5678,9.8233],[76.5751,9.8186],[76.5801,9.8215],[76.58,9.8349],[76.5817,9.8366],[76.5797,9.8427],[76.5869,9.8415],[76.589,9.8438],[76.5915,9.8409],[76.5926,9.8457],[76.6017,9.8449],[76.6057,9.8395],[76.6097,9.8419],[76.6113,9.8381],[76.6166,9.8369],[76.6094,9.8483],[76.611,9.8536],[76.6159,9.8518],[76.6197,9.8565],[76.6322,9.857],[76.6325,9.8622],[76.6347,9.8639],[76.6328,9.8646],[76.6319,9.8721],[76.636,9.8741],[76.6356,9.8841],[76.6313,9.8842],[76.6277,9.9005],[76.6314,9.9046],[76.6287,9.9114],[76.6314,9.9152],[76.6482,9.9205],[76.6542,9.917],[76.657,9.9194],[76.6608,9.9154],[76.6717,9.9181],[76.6808,9.9166],[76.6813,9.9113],[76.6896,9.9069],[76.6931,9.9065],[76.699,9.9104],[76.6983,9.9146],[76.7016,9.9159],[76.6991,9.9186],[76.6954,9.9146],[76.6932,9.9206],[76.6848,9.9234],[76.6906,9.9265],[76.6938,9.9321],[76.6995,9.9283],[76.7048,9.939],[76.7101,9.9418],[76.711,9.9447],[76.7143,9.9425],[76.713,9.9519],[76.7178,9.9531],[76.7194,9.9507],[76.7242,9.9562],[76.7151,9.9652],[76.7161,9.9695],[76.7124,9.973],[76.712,9.9791],[76.7164,9.9851],[76.7229,9.9816],[76.7344,9.9838],[76.7455,9.991],[76.7659,9.9808],[76.7597,9.9911],[76.7648,9.9889],[76.763,9.9903],[76.7645,9.9927],[76.7679,9.9918],[76.7701,9.9939],[76.7658,9.9968],[76.7674,10.004],[76.7642,10.01],[76.7832,10.0354],[76.805,10.0261],[76.8248,10.013],[76.8307,10.0124],[76.8395,10.0244],[76.8317,10.0255],[76.817,10.0349],[76.8093,10.0353],[76.8049,10.0399],[76.7961,10.0418],[76.7856,10.0495],[76.7825,10.0576],[76.7749,10.0595],[76.7693,10.0664],[76.7819,10.0674],[76.7916,10.0638],[76.8048,10.0656],[76.8006,10.0607],[76.8044,10.0577],[76.8111,10.0586],[76.809,10.0628],[76.8224,10.0624],[76.8167,10.0704],[76.8148,10.0818],[76.8182,10.0854],[76.8269,10.0886],[76.8449,10.0787],[76.8646,10.073],[76.8634,10.0883],[76.8665,10.0946],[76.8878,10.1188],[76.9048,10.1427],[76.906,10.1525],[76.914,10.1662],[76.9268,10.1783],[76.9528,10.1699],[76.9631,10.1623],[76.983,10.165],[76.9887,10.1603],[77.001,10.1632],[77.0036,10.1701],[77.0236,10.1794],[77.0306,10.1789],[77.0322,10.174],[77.0489,10.1785],[77.0591,10.1781],[77.0623,10.1765],[77.0637,10.1718],[77.0717,10.176],[77.0823,10.1753],[77.0889,10.1848],[77.081,10.1933],[77.0696,10.1967],[77.0685,10.206],[77.0644,10.2124],[77.0524,10.212],[77.0481,10.2085],[77.0333,10.2085],[77.0196,10.2158],[77.0152,10.2226],[77.0153,10.2255],[77.0203,10.2295],[77.0479,10.2352],[77.0547,10.234],[77.0588,10.2367],[77.0615,10.2485],[77.0505,10.2619],[77.0396,10.2529],[77.0266,10.2506],[77.0125,10.244],[77.0054,10.239],[76.9985,10.2296],[76.9929,10.2296],[76.9904,10.225],[76.982,10.2195],[76.9798,10.2233],[76.9727,10.225],[76.9707,10.229],[76.9586,10.2335],[76.9507,10.2317],[76.9472,10.2362],[76.9396,10.2382],[76.9219,10.2316],[76.9128,10.2338],[76.9077,10.2403],[76.9026,10.2396],[76.9048,10.2472],[76.9033,10.2512],[76.8961,10.2532],[76.8956,10.2578],[76.8891,10.2551],[76.8778,10.2596],[76.8787,10.2687],[76.8711,10.2709],[76.8667,10.2686],[76.8655,10.2723],[76.8596,10.2725],[76.8468,10.2803],[76.8422,10.2796],[76.84,10.2826],[76.8357,10.283],[76.8321,10.2753],[76.8287,10.2746],[76.826,10.2802],[76.8116,10.285],[76.8034,10.2843],[76.7967,10.2766],[76.7927,10.2796],[76.7862,10.2766],[76.7747,10.2758],[76.7741,10.2705],[76.7684,10.2682],[76.7592,10.2687],[76.7525,10.274],[76.7518,10.277],[76.7471,10.2776],[76.7287,10.2701],[76.706,10.2695],[76.7043,10.2668],[76.6954,10.2638],[76.6692,10.2714],[76.6617,10.2768],[76.6617,10.2799],[76.6456,10.2802],[76.6394,10.2739],[76.6211,10.2734],[76.6187,10.2803],[76.6031,10.2802],[76.5903,10.2919],[76.5897,10.2989],[76.5852,10.2981],[76.577,10.3024]]]},"properties":{"dtname":"Ernakulam","stname":"KERALA","stcode11":"32","dtcode11":"595","year_stat":"2011_c","Shape_Length":412906.0293286267,"Shape_Area":3170928905.9360685,"OBJECTID":115,"test":0,"Dist_LGD":555,"State_LGD":32}},{"type":"Feature","id":118,"geometry":{"type":"Polygon","coordinates":[[[76.2975,9.8916],[76.2924,9.8898],[76.2974,9.8528],[76.2859,9.8495],[76.2809,9.829],[76.2822,9.8212],[76.2872,9.8184],[76.2903,9.8099],[76.2824,9.8048],[76.284,9.7916],[76.2794,9.7894],[76.3029,9.5742],[76.3203,9.4827],[76.3483,9.3873],[76.4865,9.0869],[76.4889,9.0903],[76.4768,9.1168],[76.4774,9.1223],[76.4851,9.1257],[76.5061,9.1247],[76.5022,9.1347],[76.5165,9.1372],[76.5292,9.1346],[76.5421,9.1358],[76.5418,9.1301],[76.5469,9.1264],[76.5513,9.1104],[76.5587,9.1096],[76.5682,9.1114],[76.5733,9.1171],[76.5781,9.1151],[76.5793,9.1175],[76.5844,9.1167],[76.5841,9.1207],[76.5889,9.1228],[76.5883,9.129],[76.5921,9.1314],[76.6078,9.129],[76.615,9.1301],[76.6227,9.1375],[76.6333,9.1382],[76.6398,9.1501],[76.6504,9.15],[76.6528,9.1519],[76.662,9.1493],[76.6741,9.1532],[76.6718,9.1624],[76.6743,9.1685],[76.6787,9.1707],[76.6796,9.1739],[76.6874,9.1691],[76.6906,9.1766],[76.6883,9.1799],[76.6793,9.1813],[76.6762,9.1932],[76.6685,9.1989],[76.6615,9.2004],[76.657,9.2041],[76.6534,9.2028],[76.6471,9.2067],[76.6467,9.2196],[76.6397,9.2329],[76.6472,9.2364],[76.6536,9.2362],[76.6586,9.2434],[76.6578,9.2572],[76.6546,9.2599],[76.6561,9.2638],[76.6642,9.2658],[76.6629,9.2691],[76.6771,9.2702],[76.6811,9.2791],[76.6742,9.2865],[76.6746,9.2912],[76.6691,9.2893],[76.6534,9.2917],[76.6503,9.2981],[76.6514,9.3079],[76.6448,9.3094],[76.6412,9.3228],[76.6351,9.3265],[76.6418,9.3327],[76.6401,9.3356],[76.6414,9.3404],[76.6286,9.342],[76.6276,9.3366],[76.613,9.3427],[76.6095,9.3414],[76.6058,9.3446],[76.6029,9.3435],[76.6008,9.3466],[76.5978,9.3457],[76.5947,9.3521],[76.587,9.3513],[76.5813,9.3468],[76.5795,9.3529],[76.5666,9.3555],[76.5589,9.3503],[76.5501,9.3505],[76.5514,9.3465],[76.5595,9.3428],[76.5529,9.3346],[76.5501,9.3238],[76.5358,9.3211],[76.5315,9.3285],[76.5271,9.3248],[76.5184,9.326],[76.4999,9.3222],[76.4875,9.328],[76.4737,9.329],[76.4745,9.3356],[76.483,9.3448],[76.4962,9.3466],[76.5086,9.3544],[76.5165,9.3529],[76.5155,9.3646],[76.5234,9.3653],[76.5234,9.3672],[76.514,9.3692],[76.5141,9.3724],[76.509,9.3766],[76.5141,9.3894],[76.5108,9.3916],[76.5133,9.4003],[76.5058,9.4042],[76.5077,9.4184],[76.5042,9.4293],[76.5112,9.4361],[76.4973,9.4394],[76.4951,9.443],[76.5005,9.4613],[76.5054,9.4669],[76.5057,9.4758],[76.5089,9.4776],[76.5066,9.4887],[76.5091,9.497],[76.5049,9.5025],[76.5002,9.5019],[76.4953,9.5073],[76.4803,9.5075],[76.4793,9.5377],[76.4654,9.5423],[76.4661,9.5618],[76.4264,9.5497],[76.4227,9.556],[76.4152,9.5585],[76.4141,9.5635],[76.4044,9.5596],[76.4046,9.554],[76.3921,9.5478],[76.3996,9.6399],[76.3964,9.654],[76.4026,9.686],[76.3756,9.6975],[76.3802,9.7279],[76.3809,9.7514],[76.3653,9.7931],[76.3673,9.8001],[76.3792,9.814],[76.3814,9.8211],[76.3776,9.8321],[76.3697,9.8426],[76.3693,9.8603],[76.3533,9.8841],[76.3325,9.878],[76.3085,9.8853],[76.3015,9.8915],[76.2975,9.8916]]]},"properties":{"dtname":"Alappuzha","stname":"KERALA","stcode11":"32","dtcode11":"598","year_stat":"2011_c","Shape_Length":299423.6898774114,"Shape_Area":1465198432.146107,"OBJECTID":118,"test":0,"Dist_LGD":554,"State_LGD":32}},{"type":"Feature","id":119,"geometry":{"type":"Polygon","coordinates":[[[76.6254,9.8566],[76.6175,9.8558],[76.6159,9.8518],[76.611,9.8536],[76.6093,9.8508],[76.6166,9.8369],[76.6113,9.8381],[76.6097,9.8419],[76.6057,9.8395],[76.6017,9.8449],[76.5926,9.8457],[76.5915,9.8409],[76.589,9.8438],[76.5869,9.8415],[76.5797,9.8427],[76.5817,9.8366],[76.58,9.8349],[76.5801,9.8215],[76.5751,9.8186],[76.5678,9.8233],[76.561,9.8199],[76.556,9.8015],[76.5469,9.7989],[76.5461,9.8033],[76.542,9.8058],[76.5441,9.8127],[76.5388,9.8135],[76.5391,9.8209],[76.5244,9.826],[76.5203,9.8231],[76.5188,9.835],[76.5144,9.841],[76.5143,9.8478],[76.5055,9.851],[76.4921,9.8496],[76.4828,9.8429],[76.48,9.8465],[76.4737,9.8418],[76.4577,9.8478],[76.4539,9.8415],[76.4496,9.841],[76.446,9.8348],[76.4288,9.8253],[76.4213,9.8235],[76.4191,9.825],[76.4142,9.8224],[76.4116,9.8281],[76.3945,9.8308],[76.3884,9.8445],[76.3804,9.8431],[76.3729,9.8369],[76.3776,9.8321],[76.3815,9.8185],[76.3673,9.8001],[76.3653,9.7931],[76.3809,9.7514],[76.3802,9.7279],[76.3756,9.6975],[76.4026,9.686],[76.3964,9.654],[76.3996,9.6399],[76.3921,9.5478],[76.4046,9.554],[76.4044,9.5596],[76.4141,9.5635],[76.4152,9.5585],[76.4227,9.556],[76.4264,9.5497],[76.4661,9.5618],[76.4654,9.5423],[76.4793,9.5377],[76.4803,9.5075],[76.4953,9.5073],[76.5002,9.5019],[76.5049,9.5025],[76.5091,9.497],[76.5066,9.4887],[76.5089,9.4776],[76.5058,9.476],[76.5054,9.4669],[76.5005,9.4613],[76.4951,9.4439],[76.4973,9.4394],[76.5112,9.4361],[76.5042,9.4293],[76.5077,9.4184],[76.5063,9.4034],[76.5162,9.4],[76.5172,9.4083],[76.5253,9.4082],[76.526,9.412],[76.5305,9.4124],[76.5308,9.4162],[76.5356,9.4166],[76.5373,9.4139],[76.5432,9.4225],[76.5486,9.4215],[76.5532,9.4244],[76.555,9.4127],[76.5592,9.4109],[76.5644,9.4102],[76.5788,9.4217],[76.5905,9.4181],[76.5931,9.4123],[76.5964,9.4208],[76.5919,9.4233],[76.5914,9.4483],[76.5944,9.4465],[76.5974,9.4502],[76.6043,9.45],[76.6027,9.4572],[76.6096,9.4542],[76.609,9.4597],[76.6257,9.4612],[76.6269,9.4712],[76.6311,9.4715],[76.6349,9.462],[76.6407,9.4677],[76.6423,9.4786],[76.648,9.4777],[76.6507,9.4808],[76.6594,9.4821],[76.6722,9.4803],[76.6757,9.4843],[76.6882,9.4767],[76.7001,9.4763],[76.7082,9.4534],[76.7221,9.4635],[76.7315,9.4659],[76.7301,9.4697],[76.7327,9.4739],[76.746,9.4737],[76.7486,9.4623],[76.7504,9.4643],[76.7519,9.4624],[76.7501,9.4608],[76.751,9.4545],[76.7484,9.4548],[76.7485,9.4518],[76.7541,9.4533],[76.765,9.4361],[76.7681,9.4409],[76.7826,9.4481],[76.7924,9.4461],[76.7916,9.4504],[76.7938,9.4533],[76.7989,9.4509],[76.8,9.4582],[76.803,9.4546],[76.8184,9.4547],[76.8231,9.4452],[76.8259,9.446],[76.8287,9.4518],[76.8326,9.4518],[76.835,9.4491],[76.8447,9.4491],[76.8485,9.4449],[76.8525,9.4491],[76.8533,9.4533],[76.8514,9.454],[76.8538,9.4567],[76.8567,9.4531],[76.8821,9.4438],[76.9043,9.431],[76.9108,9.4228],[76.9191,9.4253],[76.9228,9.4235],[76.922,9.4165],[76.9242,9.415],[76.9359,9.4207],[76.9451,9.4184],[76.9704,9.4247],[76.9741,9.4224],[76.984,9.4234],[76.9838,9.4267],[76.9729,9.4281],[76.9727,9.432],[76.9696,9.431],[76.9663,9.4333],[76.9627,9.4324],[76.9645,9.4307],[76.9612,9.4261],[76.9529,9.43],[76.9527,9.4353],[76.9465,9.4347],[76.947,9.4311],[76.9426,9.4295],[76.9415,9.4326],[76.9445,9.4346],[76.9395,9.4436],[76.9515,9.4497],[76.955,9.457],[76.9582,9.4577],[76.9581,9.4608],[76.9628,9.4642],[76.9825,9.4673],[76.9842,9.4755],[76.9813,9.4828],[76.9836,9.4859],[76.9776,9.4974],[76.9739,9.501],[76.9693,9.5005],[76.9656,9.5069],[76.9612,9.5086],[76.957,9.5036],[76.9586,9.5],[76.9544,9.4913],[76.9497,9.4894],[76.9376,9.503],[76.9333,9.5049],[76.9243,9.5039],[76.9186,9.5105],[76.9034,9.5205],[76.9054,9.5233],[76.9042,9.5267],[76.9016,9.5263],[76.9031,9.5313],[76.9005,9.5377],[76.8856,9.5393],[76.8875,9.5462],[76.8836,9.5619],[76.8843,9.5763],[76.8818,9.5801],[76.8949,9.5857],[76.8916,9.5983],[76.893,9.6031],[76.8891,9.6058],[76.8914,9.6095],[76.8873,9.6095],[76.8909,9.6149],[76.8871,9.6194],[76.8931,9.6211],[76.8922,9.63],[76.8948,9.6332],[76.9025,9.6335],[76.9085,9.627],[76.9293,9.6141],[76.9319,9.62],[76.9346,9.6207],[76.9178,9.6434],[76.9193,9.6473],[76.9214,9.6462],[76.922,9.6497],[76.9252,9.65],[76.9267,9.6533],[76.9141,9.664],[76.911,9.6706],[76.902,9.6769],[76.9028,9.6844],[76.8877,9.7168],[76.8678,9.7281],[76.8666,9.7348],[76.8603,9.7292],[76.8468,9.7419],[76.839,9.7555],[76.8274,9.7629],[76.8284,9.7688],[76.8079,9.7886],[76.7788,9.8074],[76.754,9.8167],[76.7493,9.8134],[76.7507,9.8058],[76.7421,9.8036],[76.7298,9.812],[76.7215,9.8119],[76.7166,9.8176],[76.6991,9.825],[76.6957,9.8332],[76.6849,9.8327],[76.6821,9.8391],[76.6787,9.838],[76.6674,9.8439],[76.6634,9.8391],[76.6462,9.8399],[76.6282,9.8492],[76.6288,9.8553],[76.6254,9.8566]]]},"properties":{"dtname":"Kottayam","stname":"KERALA","stcode11":"32","dtcode11":"597","year_stat":"2011_c","Shape_Length":321896.97163130704,"Shape_Area":2282534811.8439593,"OBJECTID":119,"test":0,"Dist_LGD":560,"State_LGD":32}},{"type":"Feature","id":121,"geometry":{"type":"Polygon","coordinates":[[[76.6758,9.4842],[76.6722,9.4803],[76.6594,9.4821],[76.6507,9.4808],[76.648,9.4777],[76.6423,9.4786],[76.6407,9.4677],[76.6349,9.462],[76.6311,9.4715],[76.6269,9.4712],[76.6257,9.4612],[76.609,9.4597],[76.6096,9.4542],[76.6027,9.4572],[76.6043,9.45],[76.5974,9.4502],[76.5944,9.4465],[76.5914,9.4483],[76.5919,9.4233],[76.5964,9.4208],[76.5931,9.4123],[76.5905,9.4181],[76.5788,9.4217],[76.5644,9.4102],[76.5592,9.4109],[76.555,9.4127],[76.5532,9.4244],[76.5486,9.4215],[76.5432,9.4225],[76.5373,9.4139],[76.5356,9.4166],[76.5308,9.4162],[76.5305,9.4124],[76.526,9.412],[76.5253,9.4082],[76.5157,9.4073],[76.5162,9.4],[76.5133,9.4003],[76.5108,9.3919],[76.5141,9.3894],[76.509,9.3768],[76.5141,9.3724],[76.514,9.3692],[76.5235,9.3671],[76.5229,9.3648],[76.5155,9.3646],[76.5165,9.3529],[76.5086,9.3544],[76.4962,9.3466],[76.483,9.3448],[76.4733,9.3318],[76.4747,9.3277],[76.4875,9.328],[76.4999,9.3222],[76.5184,9.326],[76.5271,9.3248],[76.5315,9.3285],[76.5358,9.3211],[76.5501,9.3238],[76.5529,9.3346],[76.5595,9.3428],[76.5514,9.3465],[76.5501,9.3505],[76.5589,9.3503],[76.5666,9.3555],[76.5795,9.3529],[76.5813,9.3468],[76.587,9.3513],[76.5947,9.3521],[76.5978,9.3457],[76.6008,9.3466],[76.6029,9.3435],[76.6058,9.3446],[76.6095,9.3414],[76.613,9.3427],[76.6276,9.3366],[76.6286,9.342],[76.6415,9.3404],[76.6401,9.3356],[76.6418,9.3327],[76.6351,9.3265],[76.6412,9.3228],[76.6448,9.3094],[76.6514,9.3079],[76.6503,9.2981],[76.6534,9.2917],[76.6691,9.2893],[76.6746,9.2912],[76.6742,9.2865],[76.6811,9.2791],[76.6771,9.2702],[76.6629,9.2691],[76.6642,9.2658],[76.6561,9.2638],[76.6546,9.2599],[76.6578,9.2572],[76.6586,9.2434],[76.6536,9.2362],[76.6472,9.2364],[76.6397,9.2329],[76.6467,9.2196],[76.6471,9.2067],[76.6534,9.2028],[76.657,9.2041],[76.6615,9.2004],[76.6685,9.1989],[76.6762,9.1932],[76.6793,9.1813],[76.6883,9.1799],[76.6906,9.1759],[76.6874,9.1691],[76.6796,9.1739],[76.6787,9.1707],[76.6743,9.1685],[76.6718,9.1624],[76.6741,9.1532],[76.6656,9.1497],[76.6528,9.1519],[76.6373,9.1485],[76.6341,9.1412],[76.6362,9.1378],[76.6362,9.128],[76.633,9.1228],[76.6444,9.1225],[76.6468,9.1161],[76.6522,9.1137],[76.6727,9.1183],[76.6762,9.1143],[76.6762,9.1055],[76.6779,9.1052],[76.6767,9.0879],[76.6731,9.0815],[76.671,9.0815],[76.6742,9.0777],[76.6771,9.0824],[76.6825,9.0816],[76.6836,9.0862],[76.691,9.0901],[76.7108,9.0865],[76.7221,9.0805],[76.7284,9.0838],[76.7342,9.081],[76.7369,9.086],[76.7461,9.0798],[76.7541,9.0885],[76.7577,9.086],[76.7585,9.0726],[76.7709,9.0747],[76.7709,9.0822],[76.7655,9.0946],[76.7695,9.1012],[76.7734,9.1013],[76.7766,9.1091],[76.781,9.1097],[76.7833,9.1142],[76.7932,9.1092],[76.7967,9.1106],[76.8092,9.1085],[76.8226,9.0935],[76.8329,9.0944],[76.842,9.0922],[76.8456,9.0949],[76.8462,9.0989],[76.8518,9.0997],[76.8495,9.1025],[76.8519,9.1132],[76.8567,9.1175],[76.8659,9.1163],[76.867,9.1209],[76.8756,9.1313],[76.8849,9.1252],[76.8845,9.1224],[76.8941,9.1247],[76.8978,9.1308],[76.9026,9.1256],[76.9111,9.1261],[76.9238,9.1227],[76.925,9.1188],[76.9482,9.1174],[76.9601,9.1301],[76.9504,9.1309],[76.9395,9.1391],[76.9359,9.1361],[76.9263,9.1393],[76.926,9.1556],[76.9299,9.1743],[76.9595,9.1537],[76.9885,9.1456],[76.9929,9.1405],[77.0003,9.1378],[77.0044,9.1369],[77.0092,9.1398],[77.0167,9.1352],[77.0186,9.1298],[77.026,9.1274],[77.0288,9.1286],[77.045,9.1225],[77.051,9.127],[77.0542,9.1267],[77.0572,9.1167],[77.0646,9.1188],[77.0677,9.1134],[77.0791,9.1125],[77.0806,9.1087],[77.0974,9.1018],[77.1072,9.0941],[77.1206,9.0942],[77.1307,9.0875],[77.1455,9.0829],[77.1544,9.0867],[77.1542,9.0812],[77.1612,9.0819],[77.1633,9.0789],[77.1696,9.0771],[77.1722,9.0788],[77.1797,9.0757],[77.1894,9.0762],[77.2044,9.071],[77.2088,9.0742],[77.2057,9.0845],[77.2121,9.0999],[77.2187,9.1009],[77.2207,9.1053],[77.2261,9.1075],[77.2281,9.1162],[77.2414,9.1243],[77.2469,9.1239],[77.2534,9.1396],[77.2608,9.1446],[77.2621,9.1496],[77.2678,9.1534],[77.2658,9.1649],[77.2682,9.1753],[77.2643,9.1862],[77.2525,9.1895],[77.2563,9.1994],[77.2637,9.1985],[77.2707,9.2009],[77.2707,9.2052],[77.2822,9.2169],[77.2753,9.2348],[77.2793,9.241],[77.2784,9.2499],[77.2825,9.2561],[77.2833,9.2729],[77.273,9.28],[77.2615,9.2824],[77.249,9.2897],[77.2445,9.2901],[77.2429,9.2837],[77.2393,9.2853],[77.2372,9.2826],[77.2358,9.2927],[77.2289,9.2975],[77.2244,9.2961],[77.2259,9.3053],[77.2243,9.3112],[77.2281,9.3185],[77.235,9.3248],[77.2304,9.3311],[77.238,9.3398],[77.2347,9.3501],[77.2412,9.3609],[77.241,9.3681],[77.2436,9.3738],[77.2482,9.3776],[77.2466,9.3847],[77.239,9.399],[77.2315,9.404],[77.2282,9.4108],[77.2289,9.4197],[77.2205,9.4214],[77.224,9.4345],[77.2154,9.4377],[77.2117,9.4438],[77.2078,9.4415],[77.2096,9.4477],[77.2069,9.4504],[77.2001,9.4497],[77.1975,9.4519],[77.1907,9.4495],[77.1878,9.4563],[77.1836,9.4542],[77.1822,9.4568],[77.1843,9.4622],[77.1811,9.4722],[77.1687,9.4617],[77.1692,9.4658],[77.1663,9.4652],[77.1663,9.4698],[77.1545,9.471],[77.1431,9.4607],[77.1352,9.4588],[77.1172,9.464],[77.107,9.4696],[77.1006,9.4685],[77.0985,9.4631],[77.0977,9.4655],[77.0947,9.4648],[77.0819,9.458],[77.0685,9.4548],[77.0585,9.4457],[77.0597,9.432],[77.0579,9.4281],[77.0613,9.427],[77.0659,9.4172],[77.0523,9.418],[77.047,9.4144],[77.0377,9.4134],[77.0349,9.4093],[77.0277,9.4071],[77.0249,9.4092],[77.0204,9.4062],[77.0093,9.4091],[77.0119,9.4187],[77.0084,9.4219],[77.0079,9.4293],[77.0184,9.4314],[77.0171,9.4416],[76.9997,9.4478],[76.9679,9.4643],[76.9586,9.4614],[76.9582,9.4577],[76.9552,9.4572],[76.9515,9.4497],[76.9398,9.4447],[76.9445,9.4346],[76.9415,9.4326],[76.9426,9.4295],[76.947,9.4311],[76.9465,9.4347],[76.9527,9.4353],[76.9529,9.43],[76.9612,9.4261],[76.9645,9.4307],[76.9627,9.4324],[76.9663,9.4333],[76.9696,9.431],[76.9727,9.432],[76.9729,9.4281],[76.9838,9.4267],[76.984,9.4234],[76.9741,9.4224],[76.9704,9.4247],[76.9451,9.4184],[76.9359,9.4207],[76.9248,9.415],[76.922,9.4165],[76.9228,9.4235],[76.9191,9.4253],[76.9108,9.4228],[76.9043,9.431],[76.8821,9.4438],[76.8567,9.4531],[76.8538,9.4567],[76.8514,9.454],[76.8533,9.4533],[76.8525,9.4491],[76.8485,9.4449],[76.8447,9.4491],[76.835,9.4491],[76.8326,9.4518],[76.8287,9.4518],[76.8259,9.446],[76.8231,9.4452],[76.8184,9.4547],[76.803,9.4546],[76.8,9.4582],[76.7989,9.4509],[76.7938,9.4533],[76.7916,9.4504],[76.7924,9.4461],[76.7826,9.4481],[76.7681,9.4409],[76.765,9.4361],[76.7541,9.4533],[76.7485,9.4518],[76.7484,9.4548],[76.751,9.4545],[76.7501,9.4608],[76.7519,9.4624],[76.7504,9.4643],[76.7486,9.4623],[76.746,9.4737],[76.7327,9.4739],[76.7301,9.4697],[76.7315,9.4659],[76.7221,9.4635],[76.7082,9.4534],[76.7001,9.4763],[76.6882,9.4767],[76.6758,9.4842]]]},"properties":{"dtname":"Pathanamthitta","stname":"KERALA","stcode11":"32","dtcode11":"599","year_stat":"2011_c","Shape_Length":406371.58624392224,"Shape_Area":2738525758.796714,"OBJECTID":121,"test":0,"Dist_LGD":564,"State_LGD":32}},{"type":"Feature","id":124,"geometry":{"type":"Polygon","coordinates":[[[76.9303,9.1739],[76.926,9.1556],[76.9263,9.1393],[76.9359,9.1361],[76.9395,9.1391],[76.9504,9.1309],[76.9601,9.1301],[76.9482,9.1174],[76.925,9.1188],[76.9238,9.1227],[76.9111,9.1261],[76.9026,9.1256],[76.8978,9.1308],[76.8941,9.1247],[76.8845,9.1224],[76.8849,9.1252],[76.8756,9.1313],[76.867,9.1209],[76.8659,9.1163],[76.8567,9.1175],[76.8519,9.1132],[76.8495,9.1025],[76.8518,9.0997],[76.8462,9.0989],[76.8456,9.0949],[76.842,9.0922],[76.8329,9.0944],[76.8226,9.0935],[76.8092,9.1085],[76.7967,9.1106],[76.7932,9.1092],[76.7833,9.1142],[76.781,9.1097],[76.7766,9.1091],[76.7734,9.1013],[76.7695,9.1012],[76.7655,9.0946],[76.7704,9.0838],[76.7714,9.0749],[76.7593,9.0722],[76.7577,9.086],[76.7541,9.0885],[76.7461,9.0798],[76.7369,9.086],[76.7342,9.081],[76.7284,9.0838],[76.7221,9.0805],[76.7108,9.0865],[76.691,9.0901],[76.6836,9.0862],[76.6825,9.0816],[76.6771,9.0824],[76.6742,9.0777],[76.671,9.0815],[76.6731,9.0815],[76.6767,9.0879],[76.6762,9.1143],[76.6724,9.1184],[76.6522,9.1137],[76.6468,9.1161],[76.6444,9.1225],[76.6334,9.1219],[76.6362,9.128],[76.6362,9.1378],[76.6341,9.1412],[76.6333,9.1382],[76.6211,9.1368],[76.615,9.1301],[76.6078,9.129],[76.5921,9.1314],[76.5883,9.129],[76.5889,9.1228],[76.5841,9.1207],[76.5844,9.1167],[76.5793,9.1175],[76.5781,9.1151],[76.5733,9.1171],[76.5682,9.1114],[76.5587,9.1096],[76.5513,9.1104],[76.5469,9.1264],[76.5418,9.1301],[76.5421,9.1358],[76.5304,9.1345],[76.5105,9.1367],[76.5022,9.1347],[76.5061,9.1247],[76.4851,9.1257],[76.4781,9.1232],[76.4766,9.1173],[76.4889,9.0903],[76.4865,9.0869],[76.5186,9.0125],[76.5269,8.9705],[76.5373,8.9386],[76.5356,8.9363],[76.5408,8.9393],[76.5405,8.9361],[76.5441,8.9363],[76.5439,8.9336],[76.5355,8.934],[76.5403,8.9323],[76.5424,8.9134],[76.5478,8.9028],[76.5601,8.8897],[76.566,8.88],[76.571,8.8834],[76.5818,8.8804],[76.5937,8.8738],[76.6102,8.8597],[76.6327,8.8354],[76.6735,8.7812],[76.6771,8.7882],[76.6816,8.7755],[76.6846,8.7789],[76.6896,8.7782],[76.6922,8.791],[76.7039,8.7922],[76.709,8.7904],[76.709,8.7947],[76.7138,8.7959],[76.7208,8.803],[76.7421,8.7948],[76.7582,8.7948],[76.7603,8.7908],[76.761,8.7997],[76.7707,8.7994],[76.7681,8.8036],[76.7715,8.8055],[76.7709,8.8106],[76.777,8.8091],[76.7923,8.8131],[76.7896,8.8143],[76.7888,8.8184],[76.7828,8.8189],[76.7871,8.8223],[76.7911,8.8216],[76.7941,8.8277],[76.7811,8.8395],[76.7814,8.8422],[76.7752,8.8433],[76.7817,8.8515],[76.7806,8.8605],[76.7826,8.862],[76.7892,8.853],[76.7941,8.856],[76.8013,8.8482],[76.8065,8.8568],[76.8117,8.8544],[76.8161,8.8592],[76.8241,8.8499],[76.8249,8.8429],[76.839,8.8392],[76.8466,8.8328],[76.8449,8.8256],[76.8494,8.8237],[76.8509,8.8162],[76.8545,8.8135],[76.8572,8.8156],[76.8838,8.8036],[76.889,8.8085],[76.8997,8.8088],[76.9209,8.7844],[76.915,8.7802],[76.9146,8.7749],[76.9344,8.7603],[76.9462,8.7708],[76.9633,8.7706],[76.9725,8.7748],[76.9745,8.7841],[76.981,8.7894],[76.995,8.785],[77.0031,8.7716],[77.0164,8.7721],[77.0246,8.7749],[77.011,8.7964],[77.0107,8.8067],[77.0082,8.8118],[77.0146,8.8171],[77.0205,8.8162],[77.0195,8.8278],[77.0245,8.8333],[77.0283,8.8338],[77.0319,8.8422],[77.0502,8.8461],[77.0679,8.8402],[77.0825,8.8395],[77.0878,8.8339],[77.0997,8.8292],[77.107,8.83],[77.1075,8.8263],[77.1184,8.8217],[77.1271,8.8103],[77.145,8.8036],[77.1543,8.794],[77.156,8.7964],[77.1601,8.7913],[77.1911,8.7724],[77.1995,8.7715],[77.1994,8.7694],[77.2052,8.7684],[77.2085,8.765],[77.2175,8.7677],[77.2183,8.7711],[77.213,8.7786],[77.2197,8.7786],[77.224,8.7832],[77.2292,8.784],[77.232,8.8072],[77.2423,8.8094],[77.2479,8.817],[77.2471,8.8237],[77.2531,8.8278],[77.264,8.8421],[77.2598,8.8514],[77.2625,8.8553],[77.2573,8.8617],[77.26,8.8653],[77.2583,8.875],[77.2553,8.8793],[77.2449,8.8802],[77.2376,8.8858],[77.2402,8.8946],[77.2385,8.8979],[77.2279,8.9037],[77.2211,8.9041],[77.2182,8.9167],[77.2238,8.9243],[77.2213,8.9275],[77.2104,8.932],[77.2063,8.9296],[77.2029,8.9231],[77.1927,8.9263],[77.1971,8.9355],[77.1938,8.9434],[77.1962,8.9547],[77.1914,8.9593],[77.1906,8.9657],[77.1855,8.9703],[77.1781,8.9692],[77.1735,8.9913],[77.1616,8.9952],[77.1561,9.0039],[77.1568,9.0076],[77.1493,9.0097],[77.1506,9.015],[77.147,9.0214],[77.1537,9.0221],[77.1609,9.0292],[77.1605,9.0357],[77.167,9.0449],[77.1828,9.0468],[77.1869,9.0428],[77.1972,9.0466],[77.1952,9.0495],[77.1967,9.0566],[77.2053,9.0658],[77.2072,9.0717],[77.2008,9.0718],[77.1894,9.0762],[77.1785,9.0759],[77.1722,9.0788],[77.1667,9.0776],[77.1612,9.0819],[77.1537,9.0814],[77.1544,9.0867],[77.1455,9.0829],[77.1307,9.0875],[77.1206,9.0942],[77.1072,9.0941],[77.0974,9.1018],[77.0806,9.1087],[77.0791,9.1125],[77.0677,9.1134],[77.0646,9.1188],[77.0572,9.1167],[77.0542,9.1267],[77.051,9.127],[77.045,9.1225],[77.0288,9.1286],[77.026,9.1274],[77.0186,9.1298],[77.0167,9.1352],[77.0092,9.1398],[77.0044,9.1369],[77.0003,9.1378],[76.9929,9.1405],[76.9885,9.1456],[76.9595,9.1537],[76.9303,9.1739]]]},"properties":{"dtname":"Kollam","stname":"KERALA","stcode11":"32","dtcode11":"600","year_stat":"2011_c","Shape_Length":349910.1993755878,"Shape_Area":2564589640.029736,"OBJECTID":124,"test":0,"Dist_LGD":559,"State_LGD":32}},{"type":"Feature","id":125,"geometry":{"type":"Polygon","coordinates":[[[76.7828,8.8619],[76.7806,8.8605],[76.7817,8.8515],[76.7752,8.8433],[76.7814,8.8422],[76.7811,8.8395],[76.7941,8.8277],[76.7911,8.8216],[76.7871,8.8223],[76.7828,8.8189],[76.7888,8.8184],[76.7896,8.8143],[76.7923,8.8131],[76.777,8.8091],[76.7709,8.8106],[76.7715,8.8055],[76.7681,8.8036],[76.7707,8.7994],[76.761,8.7997],[76.7603,8.7908],[76.7582,8.7948],[76.7421,8.7948],[76.7221,8.8032],[76.7138,8.7959],[76.709,8.7947],[76.709,8.7904],[76.7039,8.7922],[76.6922,8.791],[76.6896,8.7782],[76.6841,8.7787],[76.6835,8.7757],[76.6813,8.7759],[76.6764,8.788],[76.6735,8.7812],[76.6993,8.7386],[76.7157,8.7217],[76.8919,8.5018],[76.9597,8.4216],[76.9728,8.3982],[76.9715,8.3919],[76.9756,8.3891],[76.9757,8.386],[76.9795,8.3847],[76.9797,8.3821],[76.9844,8.3802],[76.9865,8.3758],[76.9916,8.3782],[76.9977,8.3749],[77.0037,8.3689],[77.0035,8.3659],[77.01,8.3572],[77.0161,8.3569],[77.026,8.3501],[77.0978,8.2925],[77.103,8.3064],[77.1123,8.304],[77.1162,8.3094],[77.1221,8.3086],[77.1239,8.3119],[77.1195,8.3153],[77.1186,8.3203],[77.1291,8.3215],[77.1287,8.3246],[77.1451,8.3286],[77.1482,8.3317],[77.1533,8.3269],[77.1685,8.3326],[77.1728,8.3188],[77.1797,8.3228],[77.1693,8.3347],[77.1665,8.3425],[77.1751,8.35],[77.1739,8.3585],[77.1676,8.3634],[77.1658,8.3602],[77.1629,8.3616],[77.157,8.3598],[77.1559,8.3565],[77.1524,8.3551],[77.153,8.3609],[77.1566,8.3672],[77.1597,8.368],[77.1608,8.3736],[77.1594,8.3812],[77.1516,8.3811],[77.1507,8.3845],[77.1606,8.3894],[77.1677,8.3837],[77.1817,8.3961],[77.1826,8.4049],[77.1969,8.4196],[77.196,8.4289],[77.2032,8.4351],[77.206,8.444],[77.227,8.4467],[77.2252,8.4596],[77.213,8.4704],[77.2101,8.4789],[77.2125,8.4858],[77.2104,8.4919],[77.2011,8.4977],[77.2013,8.501],[77.2103,8.5062],[77.2135,8.512],[77.2294,8.5082],[77.2387,8.496],[77.2437,8.497],[77.2512,8.5055],[77.2616,8.5063],[77.2746,8.5377],[77.2838,8.5469],[77.2742,8.5598],[77.2749,8.5658],[77.2664,8.5809],[77.2663,8.5853],[77.2635,8.5887],[77.2571,8.5906],[77.2551,8.5975],[77.2464,8.6036],[77.252,8.6084],[77.2514,8.6203],[77.2484,8.6243],[77.244,8.6219],[77.2346,8.627],[77.2293,8.6399],[77.2247,8.6392],[77.2142,8.6493],[77.2123,8.657],[77.2078,8.6609],[77.2083,8.6638],[77.2009,8.669],[77.2079,8.6793],[77.2067,8.6845],[77.1957,8.703],[77.1949,8.7079],[77.1813,8.7172],[77.1772,8.725],[77.1787,8.732],[77.17,8.7419],[77.1725,8.7496],[77.177,8.7438],[77.1832,8.7415],[77.1914,8.742],[77.1981,8.7528],[77.2001,8.7628],[77.1969,8.7683],[77.1995,8.7715],[77.1911,8.7724],[77.1601,8.7913],[77.156,8.7964],[77.1543,8.794],[77.145,8.8036],[77.1271,8.8103],[77.1184,8.8217],[77.1075,8.8263],[77.107,8.83],[77.0997,8.8292],[77.0878,8.8339],[77.0825,8.8395],[77.0679,8.8402],[77.0502,8.8461],[77.0319,8.8422],[77.0283,8.8338],[77.0245,8.8333],[77.0195,8.8278],[77.0205,8.8162],[77.0146,8.8171],[77.0082,8.8118],[77.0107,8.8067],[77.011,8.7964],[77.0246,8.7749],[77.0164,8.7721],[77.0031,8.7716],[76.995,8.785],[76.981,8.7894],[76.9745,8.7841],[76.9725,8.7748],[76.9633,8.7706],[76.9462,8.7708],[76.9344,8.7603],[76.9146,8.7749],[76.915,8.7802],[76.9209,8.7844],[76.8997,8.8088],[76.889,8.8085],[76.8838,8.8036],[76.8572,8.8156],[76.8545,8.8135],[76.8509,8.8162],[76.8494,8.8237],[76.8449,8.8256],[76.8466,8.8328],[76.839,8.8392],[76.8249,8.8429],[76.8241,8.8499],[76.8161,8.8592],[76.8117,8.8544],[76.8065,8.8568],[76.8013,8.8482],[76.7941,8.856],[76.7892,8.853],[76.7828,8.8619]]]},"properties":{"dtname":"Thiruvananthapuram","stname":"KERALA","stcode11":"32","dtcode11":"601","year_stat":"2011_c","Shape_Length":286375.4981068352,"Shape_Area":2247285799.654641,"OBJECTID":125,"test":0,"Dist_LGD":565,"State_LGD":32}},{"type":"Feature","id":184,"geometry":{"type":"Polygon","coordinates":[[[75.3921,12.2902],[75.3917,12.2958],[75.3896,12.2961],[75.3869,12.2932],[75.3879,12.2873],[75.3758,12.2829],[75.3699,12.2852],[75.3658,12.2779],[75.3453,12.267],[75.3398,12.2688],[75.3302,12.266],[75.3271,12.2707],[75.3193,12.2742],[75.3141,12.2711],[75.2987,12.2695],[75.2873,12.2604],[75.2915,12.2426],[75.2891,12.2333],[75.2784,12.2318],[75.2522,12.2185],[75.2504,12.22],[75.2377,12.2176],[75.2326,12.2213],[75.224,12.2143],[75.2161,12.2027],[75.2082,12.1982],[75.203,12.1907],[75.1923,12.1931],[75.1735,12.1896],[75.1878,12.1651],[75.1911,12.1466],[75.1963,12.14],[75.1951,12.1357],[75.191,12.1341],[75.1881,12.129],[75.1939,12.118],[75.191,12.114],[75.1935,12.1026],[75.1896,12.096],[75.1868,12.0952],[75.1827,12.0953],[75.1766,12.1019],[75.1655,12.0895],[75.2021,12.0098],[75.2012,12.0064],[75.2046,12.0058],[75.2097,12.0117],[75.2153,12.0105],[75.2212,12.0126],[75.2231,12.0154],[75.2217,12.0173],[75.2276,12.0235],[75.2329,12.0226],[75.2516,12.0087],[75.2917,11.9544],[75.2983,11.9503],[75.3037,11.9514],[75.3052,11.9475],[75.3028,11.9456],[75.3033,11.9427],[75.3203,11.9162],[75.3194,11.9052],[75.3253,11.905],[75.3461,11.8805],[75.3537,11.8706],[75.3564,11.8603],[75.3604,11.8593],[75.3679,11.8522],[75.3711,11.854],[75.3743,11.8527],[75.3722,11.8563],[75.3746,11.8591],[75.3807,11.8596],[75.3863,11.8564],[75.3971,11.8431],[75.4054,11.8385],[75.4249,11.8132],[75.4379,11.8056],[75.4476,11.7898],[75.4478,11.7828],[75.4616,11.7799],[75.4594,11.7767],[75.4547,11.7762],[75.4539,11.7717],[75.4608,11.7658],[75.4657,11.7674],[75.4684,11.7648],[75.4707,11.7706],[75.4762,11.7669],[75.4729,11.7646],[75.4837,11.7539],[75.4855,11.7484],[75.4982,11.7345],[75.5028,11.7358],[75.5092,11.7314],[75.5172,11.7165],[75.5203,11.7155],[75.5247,11.7082],[75.5306,11.704],[75.5344,11.7093],[75.5384,11.7099],[75.5439,11.705],[75.5534,11.7024],[75.5636,11.6934],[75.5618,11.6804],[75.5667,11.6786],[75.5693,11.6744],[75.5877,11.6867],[75.6005,11.6861],[75.6036,11.6891],[75.6026,11.6938],[75.5933,11.6964],[75.5936,11.7062],[75.5877,11.7118],[75.5947,11.712],[75.5991,11.7183],[75.6026,11.7177],[75.6065,11.7218],[75.6072,11.7178],[75.6111,11.7247],[75.6153,11.7236],[75.6238,11.7308],[75.6226,11.7325],[75.6265,11.737],[75.6356,11.7357],[75.6415,11.7434],[75.6442,11.7424],[75.6462,11.7463],[75.6483,11.7453],[75.6484,11.7493],[75.6513,11.7492],[75.6545,11.7555],[75.6577,11.7548],[75.6612,11.7586],[75.6658,11.758],[75.6687,11.7699],[75.6824,11.7738],[75.6853,11.7782],[75.6877,11.7883],[75.6914,11.7937],[75.6912,11.7987],[75.7164,11.7964],[75.7236,11.7911],[75.729,11.7796],[75.7379,11.7809],[75.7375,11.7865],[75.7457,11.7863],[75.7491,11.7822],[75.7531,11.7835],[75.7576,11.7886],[75.7461,11.7986],[75.7501,11.803],[75.7564,11.8048],[75.7758,11.8029],[75.7815,11.8094],[75.7976,11.8179],[75.7979,11.8271],[75.7896,11.8354],[75.7901,11.841],[75.7933,11.8452],[75.8004,11.8447],[75.8045,11.847],[75.8055,11.8532],[75.8088,11.8559],[75.8168,11.8553],[75.8191,11.8582],[75.8226,11.8528],[75.8283,11.8505],[75.8438,11.8554],[75.8545,11.8472],[75.8612,11.8495],[75.8717,11.8485],[75.8828,11.8445],[75.8877,11.8463],[75.8914,11.8422],[75.9093,11.8432],[75.9116,11.8458],[75.9174,11.8442],[75.9213,11.8468],[75.9258,11.8466],[75.927,11.8424],[75.9253,11.848],[75.929,11.8572],[75.9311,11.8576],[75.9198,11.8703],[75.9111,11.8741],[75.9187,11.8796],[75.9302,11.8817],[75.9362,11.89],[75.9362,11.8998],[75.9391,11.9026],[75.9354,11.9113],[75.9248,11.9194],[75.9249,11.9294],[75.9288,11.9343],[75.9365,11.9343],[75.9394,11.9404],[75.9307,11.9391],[75.9269,11.9428],[75.9135,11.9462],[75.8968,11.9448],[75.8862,11.9511],[75.8798,11.949],[75.8701,11.952],[75.8666,11.9566],[75.8585,11.9589],[75.8542,11.9637],[75.8526,11.9711],[75.8478,11.9742],[75.8495,11.9781],[75.8469,11.9821],[75.837,11.981],[75.8295,11.9846],[75.8256,11.992],[75.8249,12.0028],[75.8204,12.0027],[75.8228,12.0129],[75.8146,12.0213],[75.81,12.0229],[75.8108,12.0288],[75.8011,12.037],[75.7999,12.0473],[75.7941,12.0552],[75.7987,12.0571],[75.7985,12.063],[75.8039,12.0755],[75.8027,12.0795],[75.786,12.0849],[75.7754,12.0834],[75.7536,12.0854],[75.7504,12.0843],[75.7471,12.0783],[75.7436,12.0802],[75.7361,12.079],[75.7277,12.0726],[75.7147,12.0705],[75.7154,12.0817],[75.7177,12.0824],[75.7179,12.0857],[75.7131,12.0906],[75.7021,12.0924],[75.7033,12.1083],[75.6872,12.1103],[75.6768,12.0974],[75.6673,12.0966],[75.6616,12.0985],[75.6526,12.1092],[75.6489,12.1086],[75.6466,12.1144],[75.6475,12.1213],[75.6442,12.1246],[75.6432,12.138],[75.6384,12.1381],[75.6392,12.1425],[75.6359,12.1485],[75.6306,12.1482],[75.6195,12.1557],[75.6106,12.1518],[75.6062,12.1547],[75.5952,12.1534],[75.5925,12.147],[75.5831,12.1583],[75.577,12.1569],[75.5699,12.1718],[75.5608,12.1746],[75.5584,12.1811],[75.555,12.182],[75.5526,12.1918],[75.5483,12.1917],[75.5455,12.1972],[75.5414,12.1964],[75.5399,12.2017],[75.5326,12.2005],[75.5319,12.2058],[75.5371,12.2083],[75.5398,12.2157],[75.5268,12.225],[75.5281,12.2309],[75.5211,12.2353],[75.5196,12.2458],[75.5116,12.2531],[75.5118,12.2596],[75.5058,12.2646],[75.5054,12.2708],[75.4981,12.27],[75.4939,12.2729],[75.4849,12.29],[75.4753,12.2961],[75.4694,12.294],[75.4653,12.2894],[75.4358,12.2946],[75.428,12.2906],[75.4257,12.2868],[75.4154,12.2882],[75.4103,12.2947],[75.397,12.2933],[75.3921,12.2902]],[[75.5379,11.7628],[75.5385,11.7602],[75.5462,11.7563],[75.5433,11.7344],[75.5558,11.7277],[75.5555,11.7217],[75.5479,11.7154],[75.5454,11.7177],[75.5378,11.716],[75.5366,11.7194],[75.5325,11.7158],[75.5375,11.7122],[75.5309,11.7104],[75.5312,11.7084],[75.5287,11.7093],[75.5319,11.7157],[75.5279,11.7162],[75.5266,11.7261],[75.5319,11.7345],[75.5403,11.7347],[75.5416,11.7388],[75.5406,11.7486],[75.5375,11.7487],[75.5313,11.7586],[75.5379,11.7628]]]},"properties":{"dtname":"Kannur","stname":"KERALA","stcode11":"32","dtcode11":"589","year_stat":"2011_c","Shape_Length":346881.95132269326,"Shape_Area":3108325695.5207415,"OBJECTID":184,"test":0,"Dist_LGD":557,"State_LGD":32}}]}