{"type":"FeatureCollection","crs":{"type":"name","properties":{"name":"EPSG:4326"}},"features":[{"type":"Feature","id":599,"geometry":{"type":"Polygon","coordinates":[[[74.7335,37.02],[74.7273,37.0253],[74.721,37.0379],[74.7175,37.0489],[74.7175,37.0621],[74.7136,37.0714],[74.7077,37.077],[74.695,37.0775],[74.6841,37.0742],[74.6583,37.0571],[74.6055,37.0499],[74.5856,37.0447],[74.5809,37.0428],[74.5796,37.0381],[74.5879,37.0315],[74.5885,37.0279],[74.5777,36.9479],[74.5592,36.9499],[74.5535,36.953],[74.5454,36.9656],[74.5421,36.9758],[74.5313,36.9862],[74.4679,36.9918],[74.429,36.9894],[74.4261,36.9817],[74.4152,36.9724],[74.4056,36.9689],[74.3878,36.9673],[74.3674,36.9583],[74.323,36.922],[74.2826,36.9024],[74.2605,36.8859],[74.2432,36.887],[74.2323,36.8936],[74.2169,36.8982],[74.1796,36.9034],[74.1682,36.9019],[74.1617,36.8973],[74.156,36.8881],[74.1469,36.8476],[74.1418,36.8395],[74.1334,36.8342],[74.1201,36.8317],[74.1086,36.8364],[74.0918,36.8379],[74.0549,36.8058],[74.0513,36.8059],[74.039,36.8178],[74.0251,36.8256],[74.0106,36.8269],[73.999,36.8236],[73.9934,36.8259],[73.9705,36.8394],[73.957,36.8562],[73.9369,36.8733],[73.9282,36.8774],[73.9229,36.8773],[73.9175,36.8714],[73.9125,36.8706],[73.9021,36.8754],[73.8923,36.8859],[73.8779,36.8937],[73.8482,36.8993],[73.8413,36.8978],[73.835,36.8862],[73.8172,36.885],[73.8088,36.8958],[73.7925,36.8931],[73.7834,36.8996],[73.7753,36.8999],[73.7668,36.904],[73.7588,36.9034],[73.7445,36.8957],[73.7104,36.9121],[73.7,36.9135],[73.6895,36.9115],[73.6855,36.9051],[73.6806,36.8849],[73.6869,36.8776],[73.702,36.8694],[73.71,36.8606],[73.7182,36.8565],[73.7205,36.8458],[73.7234,36.8428],[73.7231,36.8338],[73.7257,36.832],[73.7433,36.8327],[73.7542,36.8259],[73.7626,36.8244],[73.7774,36.8147],[73.8055,36.8147],[73.8086,36.8121],[73.8142,36.7978],[73.8201,36.7922],[73.8286,36.7887],[73.8628,36.7876],[73.8992,36.7491],[73.9056,36.7308],[73.9044,36.725],[73.8989,36.7217],[73.8963,36.7157],[73.9008,36.7063],[73.8954,36.7015],[73.8832,36.6986],[73.8654,36.6994],[73.8261,36.7133],[73.8082,36.7161],[73.7992,36.7121],[73.79,36.7039],[73.7823,36.7017],[73.7476,36.7093],[73.7242,36.7094],[73.708,36.6882],[73.6998,36.6842],[73.69,36.6849],[73.6765,36.6905],[73.6629,36.6914],[73.6541,36.6955],[73.6459,36.6915],[73.6324,36.6894],[73.6247,36.6933],[73.6122,36.6944],[73.6066,36.6979],[73.6044,36.7036],[73.6055,36.7133],[73.5994,36.7197],[73.5903,36.7193],[73.5783,36.7123],[73.5595,36.7155],[73.5506,36.71],[73.5431,36.7087],[73.5372,36.7113],[73.5291,36.7201],[73.5233,36.72],[73.5107,36.7148],[73.4817,36.7332],[73.4715,36.7303],[73.4626,36.731],[73.4496,36.7361],[73.4408,36.7445],[73.4139,36.7341],[73.3992,36.7311],[73.3713,36.7343],[73.3684,36.732],[73.3644,36.7192],[73.3601,36.7148],[73.3295,36.7148],[73.314,36.7058],[73.2933,36.7082],[73.2525,36.7085],[73.2477,36.7023],[73.2336,36.6989],[73.2142,36.6993],[73.2091,36.7013],[73.206,36.7106],[73.2019,36.715],[73.1886,36.7212],[73.185,36.7144],[73.1804,36.7114],[73.1447,36.6994],[73.1257,36.686],[73.1021,36.687],[73.0847,36.6991],[73.0842,36.6817],[73.0937,36.6665],[73.0901,36.6424],[73.0913,36.6341],[73.0969,36.6239],[73.1083,36.615],[73.1117,36.6094],[73.0922,36.5859],[73.0899,36.5709],[73.0838,36.5652],[73.0732,36.5609],[73.0663,36.5437],[73.0608,36.5371],[73.0442,36.5333],[73.0212,36.5243],[73.0066,36.5154],[72.9953,36.5143],[72.9986,36.5067],[72.9918,36.4962],[72.9896,36.4798],[73.001,36.479],[73.0031,36.4754],[72.9913,36.4575],[72.988,36.4574],[72.9819,36.4631],[72.9686,36.4636],[72.9621,36.4669],[72.9525,36.4642],[72.9428,36.4579],[72.9319,36.4578],[72.9279,36.4618],[72.9215,36.4623],[72.9018,36.4488],[72.8787,36.4427],[72.8767,36.4375],[72.8794,36.4335],[72.8873,36.4292],[72.8895,36.4241],[72.8859,36.4142],[72.8894,36.3972],[72.8826,36.3867],[72.8693,36.3785],[72.8657,36.3728],[72.8502,36.372],[72.829,36.3605],[72.8219,36.3529],[72.815,36.3377],[72.7984,36.3297],[72.7778,36.3092],[72.7498,36.3045],[72.7349,36.2956],[72.7229,36.2834],[72.6917,36.275],[72.6879,36.268],[72.6946,36.2587],[72.6933,36.2495],[72.6845,36.2546],[72.6812,36.2622],[72.6628,36.2635],[72.636,36.2758],[72.6141,36.271],[72.5946,36.2616],[72.5878,36.2506],[72.5848,36.2299],[72.5774,36.2223],[72.5712,36.2179],[72.5629,36.2159],[72.5598,36.2118],[72.5581,36.2047],[72.5596,36.196],[72.5509,36.1805],[72.562,36.1716],[72.5731,36.1503],[72.5654,36.1423],[72.5519,36.1361],[72.5441,36.122],[72.5359,36.1139],[72.5331,36.1027],[72.5347,36.0883],[72.5304,36.074],[72.5343,36.0674],[72.5429,36.0647],[72.5494,36.0561],[72.5674,36.0548],[72.5712,36.0519],[72.5855,36.0498],[72.5926,36.0399],[72.5953,36.0267],[72.5829,36.0191],[72.5815,36.0075],[72.5726,35.9958],[72.566,35.9938],[72.5554,35.9961],[72.5529,35.9895],[72.5539,35.9789],[72.5486,35.9687],[72.5477,35.9619],[72.5379,35.9599],[72.5305,35.9523],[72.5294,35.9259],[72.5331,35.9168],[72.5498,35.9119],[72.553,35.9083],[72.5688,35.9067],[72.5926,35.8768],[72.6009,35.8705],[72.6194,35.8707],[72.6334,35.865],[72.645,35.8657],[72.6597,35.8486],[72.6905,35.8323],[72.7029,35.8375],[72.7227,35.8533],[72.7369,35.8582],[72.7491,35.8558],[72.7661,35.8445],[72.7766,35.8434],[72.783,35.8492],[72.7915,35.851],[72.7974,35.8552],[72.7983,35.8669],[72.8147,35.8695],[72.8246,35.8742],[72.8295,35.8868],[72.845,35.8795],[72.8569,35.8771],[72.8953,35.8821],[72.9009,35.8811],[72.9039,35.853],[72.9093,35.8482],[72.9287,35.8449],[72.9571,35.8471],[72.9872,35.8606],[72.999,35.8629],[73.0039,35.8631],[73.0061,35.8582],[73.0134,35.8547],[73.0374,35.8542],[73.0553,35.8631],[73.0751,35.8847],[73.0884,35.8828],[73.0997,35.8776],[73.1076,35.8681],[73.1269,35.8524],[73.1534,35.8411],[73.1537,35.8371],[73.1474,35.8326],[73.1459,35.8288],[73.1441,35.8103],[73.135,35.7932],[73.1365,35.7672],[73.1321,35.7379],[73.1355,35.7186],[73.1783,35.6932],[73.1871,35.6858],[73.2148,35.6745],[73.272,35.6292],[73.3132,35.615],[73.3667,35.6049],[73.406,35.5634],[73.4212,35.5692],[73.4536,35.5714],[73.481,35.5767],[73.5059,35.5649],[73.5146,35.5655],[73.5235,35.5704],[73.5313,35.5706],[73.5449,35.5652],[73.5571,35.5551],[73.5703,35.5543],[73.6148,35.5626],[73.6239,35.5704],[73.6346,35.5713],[73.6419,35.5685],[73.6555,35.5577],[73.6719,35.5507],[73.697,35.5491],[73.72,35.5529],[73.7269,35.5492],[73.7303,35.5401],[73.7342,35.5361],[73.7628,35.5276],[73.7841,35.5251],[73.7868,35.5151],[73.7862,35.4986],[73.7943,35.4596],[73.7841,35.4527],[73.7539,35.4415],[73.7381,35.4274],[73.7241,35.4036],[73.7108,35.3867],[73.6996,35.3578],[73.6991,35.3227],[73.7263,35.2777],[73.7185,35.2521],[73.7156,35.2255],[73.7309,35.2168],[73.7553,35.2269],[73.7767,35.2433],[73.7956,35.245],[73.8108,35.2419],[73.846,35.2291],[73.8571,35.2151],[73.8644,35.2103],[73.8806,35.2099],[73.8873,35.2127],[73.9164,35.2117],[73.9323,35.2022],[73.9584,35.1739],[73.9641,35.1738],[73.9912,35.1842],[73.9989,35.1839],[74.0023,35.1805],[74.0048,35.17],[74.0082,35.1656],[74.0382,35.147],[74.0442,35.1459],[74.0795,35.1542],[74.0867,35.1518],[74.0949,35.1454],[74.1012,35.1453],[74.1092,35.1517],[74.1133,35.1514],[74.1161,35.1459],[74.1099,35.1358],[74.1098,35.1297],[74.1254,35.1202],[74.1334,35.1121],[74.1335,35.1075],[74.1521,35.0933],[74.1628,35.0862],[74.2223,35.0862],[74.2282,35.0826],[74.2258,35.0743],[74.227,35.0672],[74.2437,35.0731],[74.2496,35.0672],[74.2484,35.0541],[74.2532,35.0374],[74.2687,35.035],[74.2818,35.0374],[74.2972,35.0445],[74.3008,35.0572],[74.3084,35.06],[74.3631,35.0567],[74.3803,35.0576],[74.3917,35.0657],[74.4193,35.1028],[74.4298,35.1128],[74.4398,35.1181],[74.4726,35.1157],[74.4983,35.1067],[74.5154,35.0948],[74.5416,35.0667],[74.5392,35.0591],[74.5335,35.0548],[74.5316,35.041],[74.5354,35.0315],[74.5573,35.0196],[74.583,35.0134],[74.5873,35.0096],[74.5868,34.9896],[74.5716,34.9658],[74.5716,34.9377],[74.5768,34.9106],[74.5744,34.8915],[74.5678,34.873],[74.5563,34.8701],[74.5302,34.8568],[74.5054,34.8635],[74.4888,34.8573],[74.4707,34.8563],[74.4574,34.8525],[74.4402,34.8397],[74.4359,34.8321],[74.4312,34.8135],[74.4202,34.8016],[74.4136,34.7992],[74.4064,34.8049],[74.396,34.804],[74.3831,34.7973],[74.3574,34.7897],[74.3336,34.7854],[74.3194,34.7864],[74.347,34.7802],[74.3774,34.7826],[74.4045,34.7778],[74.415,34.7802],[74.426,34.7792],[74.4364,34.775],[74.4607,34.7807],[74.4821,34.7735],[74.5026,34.7792],[74.524,34.7735],[74.5525,34.7726],[74.5716,34.7678],[74.5935,34.7569],[74.6003,34.7463],[74.6005,34.7386],[74.6063,34.7264],[74.6154,34.7236],[74.6215,34.7169],[74.6515,34.6974],[74.6882,34.6841],[74.7334,34.6712],[74.8333,34.6631],[74.8386,34.665],[74.849,34.6745],[74.8566,34.6717],[74.8642,34.6626],[74.8776,34.6607],[74.9253,34.6635],[74.9423,34.6584],[74.978,34.6384],[74.9856,34.6365],[74.9918,34.6398],[74.9985,34.6308],[75.0042,34.6322],[75.0208,34.626],[75.038,34.6284],[75.0494,34.6246],[75.0613,34.6265],[75.0779,34.6384],[75.0898,34.6384],[75.1008,34.6427],[75.1141,34.6398],[75.1203,34.6441],[75.1317,34.6465],[75.175,34.6455],[75.1864,34.6403],[75.2021,34.6388],[75.2393,34.6279],[75.2454,34.625],[75.2502,34.6117],[75.2559,34.606],[75.2878,34.5979],[75.3011,34.5889],[75.3083,34.577],[75.3301,34.5627],[75.3411,34.5527],[75.3573,34.5299],[75.3601,34.5227],[75.3459,34.508],[75.3363,34.4675],[75.3225,34.4475],[75.3197,34.4347],[75.372,34.4066],[75.3659,34.3925],[75.3778,34.3874],[75.378,34.3799],[75.3743,34.3738],[75.3856,34.3671],[75.3812,34.3617],[75.3847,34.3569],[75.4144,34.3596],[75.4673,34.3834],[75.4828,34.3976],[75.4941,34.4119],[75.5084,34.4565],[75.5292,34.4785],[75.5566,34.494],[75.5994,34.5017],[75.6833,34.5023],[75.7897,34.4994],[75.8106,34.5035],[75.8397,34.5166],[75.8635,34.5327],[75.8938,34.5452],[75.9075,34.5654],[75.9343,34.6237],[75.9611,34.7189],[75.973,34.7343],[75.9979,34.7296],[76.0158,34.7195],[76.0324,34.6951],[76.0437,34.6844],[76.0836,34.6784],[76.1336,34.6629],[76.1913,34.6701],[76.2044,34.6754],[76.2163,34.676],[76.2359,34.66],[76.2787,34.682],[76.3251,34.6927],[76.3763,34.7129],[76.4204,34.7204],[76.4337,34.7055],[76.445,34.6858],[76.4455,34.6755],[76.4498,34.6697],[76.4479,34.6664],[76.4489,34.6585],[76.4567,34.6527],[76.4596,34.6465],[76.4729,34.6337],[76.4638,34.6155],[76.4667,34.6119],[76.4665,34.6021],[76.4537,34.5892],[76.4555,34.5848],[76.4528,34.5804],[76.4626,34.5802],[76.476,34.5756],[76.4972,34.5822],[76.5009,34.5892],[76.521,34.5917],[76.5254,34.5944],[76.529,34.5861],[76.5297,34.5744],[76.5612,34.5705],[76.5584,34.5684],[76.5552,34.5489],[76.5492,34.5434],[76.5534,34.5391],[76.5546,34.5319],[76.5515,34.5209],[76.5583,34.5096],[76.5559,34.5015],[76.5572,34.4878],[76.5631,34.4833],[76.5613,34.4758],[76.5697,34.4691],[76.5742,34.4551],[76.569,34.452],[76.5684,34.447],[76.5649,34.4465],[76.5623,34.4341],[76.5635,34.4251],[76.574,34.4184],[76.5807,34.4189],[76.5899,34.4151],[76.6033,34.4037],[76.6067,34.3977],[76.6191,34.3867],[76.6175,34.3836],[76.6255,34.3772],[76.6438,34.3695],[76.6578,34.367],[76.6634,34.3606],[76.6799,34.3521],[76.6845,34.3456],[76.7232,34.325],[76.7101,34.3158],[76.7028,34.3049],[76.7043,34.2974],[76.7015,34.2926],[76.7038,34.2895],[76.6975,34.2765],[76.701,34.2687],[76.7017,34.2558],[76.6912,34.2398],[76.6757,34.2376],[76.6787,34.2311],[76.6716,34.2204],[76.6728,34.2124],[76.6827,34.1936],[76.6824,34.1782],[76.6695,34.1653],[76.6679,34.1517],[76.6616,34.1455],[76.6694,34.135],[76.6724,34.1266],[76.6743,34.1164],[76.6715,34.1127],[76.6736,34.1024],[76.6817,34.0858],[76.689,34.0828],[76.6881,34.0797],[76.6831,34.0738],[76.6732,34.075],[76.6703,34.0658],[76.6611,34.0614],[76.6554,34.0621],[76.6416,34.0583],[76.6329,34.0616],[76.6254,34.0571],[76.6173,34.0628],[76.6083,34.0639],[76.5907,34.0557],[76.5916,34.0495],[76.5888,34.0471],[76.5801,34.045],[76.586,34.0343],[76.5865,34.0219],[76.5894,34.0181],[76.584,34.0126],[76.5842,34.007],[76.5799,34.0039],[76.5761,34.0054],[76.5721,34.0003],[76.563,34.0048],[76.5545,34.0029],[76.5257,33.9687],[76.5216,33.9535],[76.5152,33.9454],[76.5149,33.9415],[76.5241,33.9392],[76.5294,33.9344],[76.5296,33.9236],[76.5257,33.9189],[76.5172,33.9152],[76.5234,33.9057],[76.5279,33.892],[76.5563,33.8861],[76.5626,33.8815],[76.5664,33.8752],[76.5658,33.8686],[76.5731,33.8643],[76.5833,33.8693],[76.5996,33.8688],[76.6082,33.8854],[76.6219,33.8977],[76.6287,33.9032],[76.6461,33.9067],[76.7052,33.8527],[76.7096,33.8368],[76.7241,33.8224],[76.7388,33.8306],[76.7478,33.8261],[76.7594,33.8053],[76.7666,33.805],[76.7756,33.8082],[76.7787,33.8038],[76.7949,33.7955],[76.8286,33.7939],[76.8596,33.7744],[76.8736,33.7728],[76.8859,33.7773],[76.8895,33.7811],[76.8928,33.776],[76.9012,33.7743],[76.9023,33.7706],[76.9085,33.7689],[76.908,33.7637],[76.9137,33.7589],[76.9094,33.7497],[76.901,33.742],[76.9223,33.7351],[76.9265,33.7271],[76.9362,33.7227],[76.9406,33.7165],[76.9445,33.7179],[76.9512,33.7127],[76.9657,33.7116],[76.9721,33.7181],[76.9854,33.7242],[76.9904,33.7231],[77.0039,33.7114],[77.0207,33.7026],[77.0327,33.7062],[77.0485,33.7045],[77.0546,33.7068],[77.0731,33.6966],[77.0743,33.6901],[77.1013,33.6698],[77.1115,33.674],[77.1213,33.6743],[77.121,33.6782],[77.1301,33.6832],[77.1502,33.6775],[77.1641,33.662],[77.1697,33.6594],[77.1766,33.6607],[77.1845,33.6473],[77.1955,33.6405],[77.2078,33.6374],[77.2111,33.6313],[77.2085,33.6274],[77.209,33.6201],[77.2256,33.6128],[77.2389,33.6],[77.2391,33.5962],[77.234,33.5885],[77.2393,33.5839],[77.2432,33.564],[77.2419,33.5577],[77.2554,33.5398],[77.2567,33.527],[77.2654,33.5191],[77.2734,33.5174],[77.2775,33.5112],[77.2851,33.5069],[77.283,33.4992],[77.2937,33.4952],[77.3004,33.485],[77.3083,33.4832],[77.3165,33.4885],[77.3233,33.4873],[77.3379,33.4909],[77.345,33.4822],[77.3615,33.4746],[77.3952,33.486],[77.3974,33.4911],[77.4317,33.4939],[77.4429,33.4923],[77.4551,33.462],[77.4598,33.4576],[77.4642,33.4451],[77.4675,33.4427],[77.4794,33.42],[77.4891,33.4131],[77.4995,33.4117],[77.4948,33.4049],[77.4918,33.3917],[77.4934,33.3888],[77.4992,33.3861],[77.5069,33.3779],[77.513,33.3794],[77.5199,33.3766],[77.5274,33.3786],[77.5357,33.3742],[77.5365,33.3654],[77.5432,33.3589],[77.5404,33.3532],[77.5177,33.3437],[77.5088,33.3427],[77.4988,33.3294],[77.4995,33.314],[77.4954,33.3114],[77.4954,33.3084],[77.5005,33.2994],[77.4881,33.2888],[77.4767,33.274],[77.4837,33.2665],[77.4873,33.2662],[77.4945,33.2573],[77.4963,33.2511],[77.4931,33.2444],[77.5015,33.2378],[77.5107,33.2231],[77.5214,33.2177],[77.5255,33.1923],[77.5383,33.1787],[77.5363,33.1697],[77.5387,33.156],[77.5263,33.1607],[77.5188,33.171],[77.495,33.1801],[77.4842,33.1916],[77.4756,33.1921],[77.4686,33.1992],[77.4511,33.2045],[77.4345,33.2027],[77.42,33.1968],[77.4138,33.1868],[77.4128,33.1802],[77.4078,33.177],[77.4034,33.1698],[77.411,33.1625],[77.4078,33.1538],[77.4107,33.1477],[77.4101,33.142],[77.4185,33.134],[77.4147,33.1317],[77.4121,33.1252],[77.4152,33.1173],[77.4141,33.1113],[77.4165,33.099],[77.4088,33.0842],[77.3954,33.0797],[77.381,33.0835],[77.3644,33.0781],[77.3399,33.0851],[77.3358,33.0714],[77.3388,33.0664],[77.3372,33.0483],[77.3309,33.0461],[77.3251,33.0402],[77.3165,33.0432],[77.3177,33.0354],[77.3146,33.0325],[77.3061,33.0353],[77.297,33.0327],[77.2924,33.0367],[77.2899,33.0295],[77.2911,33.0248],[77.2852,33.0174],[77.284,33.0066],[77.2764,32.9948],[77.2797,32.9901],[77.2795,32.9829],[77.2871,32.9781],[77.2852,32.9729],[77.287,32.9562],[77.2962,32.9416],[77.3017,32.9382],[77.301,32.9292],[77.3077,32.9228],[77.3106,32.9072],[77.3182,32.8945],[77.3037,32.8829],[77.2958,32.8861],[77.2853,32.8792],[77.278,32.8786],[77.2739,32.8738],[77.2859,32.8647],[77.2901,32.8573],[77.3012,32.8498],[77.32,32.8523],[77.3233,32.8505],[77.3287,32.8429],[77.3253,32.8354],[77.3271,32.8315],[77.336,32.8249],[77.3386,32.8169],[77.3521,32.8157],[77.3731,32.8235],[77.38,32.8451],[77.3761,32.8488],[77.3744,32.8547],[77.3817,32.8621],[77.3879,32.8637],[77.3941,32.8713],[77.396,32.8774],[77.4053,32.8832],[77.4136,32.884],[77.4285,32.8755],[77.4448,32.8797],[77.4521,32.8642],[77.469,32.8584],[77.4753,32.8618],[77.4807,32.8705],[77.4904,32.879],[77.497,32.8802],[77.498,32.8841],[77.5014,32.8856],[77.5127,32.8775],[77.5392,32.8868],[77.5638,32.9124],[77.5763,32.9141],[77.5957,32.9273],[77.6023,32.9428],[77.6429,32.9465],[77.6435,32.9493],[77.6558,32.9589],[77.6643,32.9584],[77.6737,32.9609],[77.674,32.9673],[77.6789,32.9698],[77.6821,32.9755],[77.6807,32.9838],[77.6825,32.9887],[77.6895,32.9879],[77.6977,32.9828],[77.6972,32.9795],[77.7131,32.9826],[77.7141,32.976],[77.7196,32.9687],[77.7254,32.9696],[77.7307,32.9745],[77.7407,32.969],[77.751,32.9546],[77.7635,32.9492],[77.7665,32.9462],[77.766,32.9414],[77.7952,32.9195],[77.8,32.9122],[77.8109,32.9068],[77.8105,32.8997],[77.8064,32.8953],[77.7893,32.8906],[77.7839,32.8828],[77.7809,32.8656],[77.792,32.8558],[77.7972,32.8564],[77.8056,32.8498],[77.816,32.8484],[77.8261,32.8363],[77.8324,32.8363],[77.8348,32.8405],[77.8391,32.8421],[77.8693,32.827],[77.8713,32.8225],[77.8786,32.8191],[77.882,32.8102],[77.8809,32.8043],[77.8879,32.7987],[77.8841,32.7877],[77.9038,32.7718],[77.9158,32.7739],[77.9258,32.772],[77.928,32.7648],[77.9337,32.7607],[77.9343,32.756],[77.9317,32.7504],[77.9328,32.7465],[77.9291,32.7424],[77.9306,32.7369],[77.9263,32.7348],[77.9313,32.732],[77.9343,32.7259],[77.928,32.7221],[77.9246,32.7168],[77.9247,32.7117],[77.9217,32.7084],[77.9224,32.6992],[77.9182,32.6962],[77.9185,32.6907],[77.9344,32.6812],[77.9405,32.6741],[77.9423,32.6661],[77.9462,32.6617],[77.9706,32.6552],[77.9724,32.6528],[77.9701,32.6467],[77.9845,32.6417],[77.9941,32.6281],[78.0029,32.6247],[78.0118,32.625],[78.0158,32.6198],[78.029,32.6234],[78.0254,32.6273],[78.0336,32.6339],[78.0341,32.6369],[78.0431,32.6403],[78.0468,32.645],[78.0611,32.6263],[78.0679,32.6265],[78.0742,32.6308],[78.0872,32.6244],[78.092,32.6286],[78.0989,32.6304],[78.099,32.6371],[78.0926,32.6477],[78.1106,32.6626],[78.1208,32.6605],[78.1275,32.6521],[78.1475,32.6543],[78.1477,32.6716],[78.1427,32.6818],[78.158,32.684],[78.1754,32.681],[78.197,32.6703],[78.2018,32.6702],[78.204,32.6671],[78.2195,32.6647],[78.2324,32.6717],[78.2459,32.6718],[78.253,32.6911],[78.2756,32.6993],[78.2892,32.6993],[78.3122,32.7092],[78.3146,32.7212],[78.3112,32.728],[78.3042,32.7342],[78.3305,32.7454],[78.3332,32.7498],[78.3566,32.7577],[78.3657,32.7535],[78.3877,32.7569],[78.3857,32.7499],[78.3878,32.73],[78.3944,32.7156],[78.3841,32.6958],[78.3801,32.6818],[78.3796,32.6683],[78.3873,32.6344],[78.3923,32.6258],[78.4052,32.6194],[78.3569,32.5893],[78.348,32.5811],[78.3342,32.5764],[78.3128,32.5737],[78.3153,32.5254],[78.3112,32.5186],[78.2946,32.5041],[78.3223,32.4738],[78.3264,32.472],[78.3725,32.5088],[78.3986,32.5257],[78.4041,32.5285],[78.4266,32.5316],[78.4285,32.5334],[78.4292,32.5487],[78.4352,32.5613],[78.4425,32.5697],[78.4584,32.5798],[78.4711,32.5833],[78.4866,32.5804],[78.4981,32.5815],[78.5135,32.5893],[78.5343,32.6084],[78.5534,32.6114],[78.572,32.6174],[78.5867,32.6157],[78.5936,32.6101],[78.6072,32.6059],[78.6146,32.5959],[78.6195,32.5965],[78.6308,32.6023],[78.6376,32.6095],[78.6464,32.6312],[78.6609,32.6538],[78.6713,32.6575],[78.7023,32.6563],[78.7216,32.661],[78.7408,32.6735],[78.7599,32.6971],[78.7661,32.6973],[78.7682,32.69],[78.7612,32.6548],[78.7778,32.6279],[78.7911,32.6182],[78.7945,32.6102],[78.7957,32.5981],[78.7901,32.5855],[78.775,32.5729],[78.7753,32.5581],[78.789,32.533],[78.7963,32.5038],[78.8037,32.4912],[78.8057,32.4815],[78.8189,32.4622],[78.8258,32.4385],[78.833,32.4359],[78.8453,32.4399],[78.8574,32.4404],[78.8738,32.417],[78.902,32.3927],[78.9427,32.3724],[78.9485,32.3671],[78.9603,32.3658],[78.9775,32.339],[78.9805,32.3376],[78.9877,32.3396],[78.9923,32.345],[79.0131,32.3771],[79.0323,32.3857],[79.0695,32.3905],[79.1074,32.3827],[79.1136,32.384],[79.1194,32.3937],[79.1242,32.4134],[79.1372,32.4174],[79.1428,32.4225],[79.1451,32.4427],[79.1399,32.4523],[79.1327,32.4586],[79.1298,32.4659],[79.1305,32.4707],[79.1359,32.4767],[79.1464,32.4809],[79.1936,32.4828],[79.2363,32.5056],[79.2401,32.5097],[79.2494,32.5339],[79.2635,32.5312],[79.2721,32.5322],[79.2936,32.5499],[79.3096,32.5716],[79.3147,32.5862],[79.3192,32.5925],[79.338,32.5918],[79.393,32.5721],[79.3979,32.5369],[79.4053,32.5295],[79.4226,32.527],[79.4466,32.5323],[79.4601,32.5528],[79.4683,32.5761],[79.4924,32.5901],[79.5142,32.6079],[79.5656,32.673],[79.5769,32.6785],[79.5994,32.7075],[79.616,32.724],[79.6257,32.7391],[79.613,32.7641],[79.6017,32.7767],[79.5858,32.7738],[79.5808,32.7809],[79.5717,32.7822],[79.5664,32.7866],[79.5625,32.7937],[79.5512,32.8043],[79.5405,32.822],[79.5145,32.8555],[79.5,32.8717],[79.4873,32.8811],[79.4625,32.9198],[79.4208,32.9613],[79.4077,32.9699],[79.384,32.9677],[79.3819,32.9721],[79.3843,32.982],[79.3825,32.9888],[79.3667,32.9907],[79.3592,32.9951],[79.3537,33.0026],[79.3392,33.0062],[79.3305,33.0118],[79.3395,33.0183],[79.3808,33.0275],[79.3922,33.0359],[79.394,33.0436],[79.392,33.0539],[79.3766,33.0788],[79.3759,33.0845],[79.3919,33.1242],[79.4039,33.1437],[79.4289,33.1765],[79.4451,33.2056],[79.4491,33.2171],[79.4517,33.2422],[79.4546,33.2501],[79.4534,33.2583],[79.4459,33.2645],[79.4048,33.2724],[79.3685,33.2824],[79.3569,33.2813],[79.3315,33.2732],[79.3142,33.2729],[79.2391,33.2975],[79.2071,33.2921],[79.1754,33.2943],[79.1648,33.2899],[79.1487,33.2923],[79.1254,33.2897],[79.1093,33.2917],[79.0958,33.2943],[79.0605,33.3095],[79.0163,33.3352],[78.9949,33.3302],[78.9877,33.3332],[78.9788,33.3556],[78.9711,33.3602],[78.9673,33.3752],[78.9522,33.3808],[78.9486,33.4081],[78.9389,33.412],[78.9319,33.4325],[78.93,33.4736],[78.9404,33.4993],[78.9413,33.509],[78.9391,33.5263],[78.9264,33.5595],[78.9137,33.574],[78.9167,33.5868],[78.9145,33.6022],[78.9156,33.6221],[78.913,33.6276],[78.9152,33.632],[78.9209,33.6329],[78.9483,33.6204],[78.9884,33.6109],[78.9982,33.6119],[79.0186,33.6232],[79.0463,33.6274],[79.0639,33.6265],[79.0727,33.6212],[79.098,33.6134],[79.1051,33.6138],[79.1056,33.6166],[79.0949,33.6375],[79.089,33.6568],[79.0897,33.6867],[79.0848,33.6881],[79.0703,33.6788],[79.0525,33.6778],[79.0366,33.6841],[79.0275,33.6915],[79.019,33.7054],[79.0247,33.7223],[79.0313,33.7309],[79.0417,33.7381],[79.0399,33.7465],[79.0415,33.7494],[79.067,33.7561],[79.0661,33.763],[79.0598,33.7694],[79.0588,33.78],[79.0523,33.7781],[79.0493,33.7673],[79.0458,33.7658],[79.0393,33.7704],[79.0327,33.7834],[79.0231,33.7749],[79.0153,33.7784],[79.011,33.7866],[79.018,33.7958],[79.0177,33.7985],[79.005,33.7973],[78.9993,33.803],[78.9602,33.8707],[78.9521,33.8889],[78.9538,33.8932],[78.9512,33.902],[78.9423,33.9082],[78.9479,33.9163],[78.9468,33.9204],[78.9355,33.9269],[78.9197,33.9569],[78.9052,33.9686],[78.9042,33.9759],[78.922,33.9933],[78.9391,34.0237],[78.9505,34.0285],[78.977,34.0357],[79.0133,34.05],[79.0209,34.0506],[79.0429,34.0354],[79.0605,34.0284],[79.0826,34.0216],[79.1111,34.0194],[79.1343,34.0269],[79.1423,34.0349],[79.1501,34.0678],[79.1634,34.0663],[79.1697,34.0725],[79.1773,34.0717],[79.1965,34.0509],[79.2462,34.051],[79.2621,34.0467],[79.2729,34.0391],[79.3044,34.0427],[79.354,34.0366],[79.3972,34.0268],[79.4128,34.0145],[79.4182,34.014],[79.425,34.0171],[79.4364,34.0282],[79.4348,34.0344],[79.4285,34.0431],[79.4188,34.0477],[79.413,34.0546],[79.4129,34.0629],[79.4188,34.0778],[79.431,34.0923],[79.4597,34.1016],[79.4932,34.1355],[79.4877,34.1485],[79.4882,34.1569],[79.4932,34.1796],[79.5057,34.2055],[79.5095,34.2102],[79.518,34.2125],[79.5267,34.211],[79.5356,34.2055],[79.5429,34.2069],[79.5485,34.2148],[79.5633,34.2175],[79.5708,34.2225],[79.5776,34.2288],[79.5842,34.2441],[79.5903,34.2824],[79.5742,34.3035],[79.5687,34.3167],[79.5613,34.324],[79.558,34.3321],[79.5606,34.3631],[79.5524,34.3876],[79.5592,34.3991],[79.5596,34.4097],[79.5403,34.4097],[79.5266,34.4176],[79.5257,34.4452],[79.5079,34.4676],[79.507,34.4739],[79.5419,34.4786],[79.5693,34.4863],[79.5787,34.4896],[79.5917,34.5005],[79.5957,34.5],[79.6013,34.494],[79.6073,34.4916],[79.6508,34.488],[79.6604,34.4793],[79.6714,34.4832],[79.683,34.4783],[79.7318,34.478],[79.7419,34.481],[79.7659,34.4797],[79.7924,34.4847],[79.8028,34.4956],[79.8108,34.4966],[79.813,34.4997],[79.8113,34.5035],[79.8136,34.5198],[79.8087,34.5309],[79.7809,34.5441],[79.7734,34.5516],[79.7603,34.5516],[79.7569,34.5544],[79.7574,34.5657],[79.7694,34.5817],[79.7914,34.5893],[79.7772,34.6148],[79.771,34.6201],[79.7743,34.6272],[79.8027,34.6426],[79.8149,34.6431],[79.8188,34.6466],[79.8232,34.6608],[79.8483,34.6823],[79.8591,34.6884],[79.8763,34.691],[79.8987,34.6909],[79.9262,34.6868],[79.9315,34.682],[79.943,34.6807],[79.9636,34.6871],[80.0429,34.704],[80.0674,34.7144],[80.0712,34.7457],[80.0654,34.7903],[80.0715,34.8281],[80.0824,34.8484],[80.1052,34.8677],[80.122,34.893],[80.1587,34.9706],[80.1692,34.9885],[80.1731,35.0019],[80.1823,35.0401],[80.1842,35.0628],[80.1762,35.1365],[80.1768,35.1475],[80.1819,35.1663],[80.2243,35.2196],[80.227,35.2277],[80.2282,35.2513],[80.234,35.2762],[80.2693,35.3438],[80.2819,35.3875],[80.2794,35.4404],[80.2959,35.4604],[80.3164,35.4631],[80.3246,35.4664],[80.3263,35.4692],[80.3096,35.5537],[80.3052,35.5621],[80.3043,35.5723],[80.299,35.5877],[80.2898,35.607],[80.2726,35.6224],[80.2357,35.6415],[80.1879,35.6568],[80.1228,35.6737],[80.1065,35.6805],[80.1016,35.6866],[80.0865,35.7247],[80.0566,35.7495],[80.0366,35.7993],[80.016,35.8235],[79.9975,35.8373],[79.9706,35.8402],[79.9542,35.8373],[79.9284,35.827],[79.9086,35.8168],[79.881,35.79],[79.8695,35.7826],[79.7948,35.7968],[79.7359,35.8015],[79.7234,35.8056],[79.7199,35.8103],[79.7169,35.8108],[79.7148,35.8167],[79.7104,35.819],[79.6639,35.8348],[79.5583,35.8613],[79.5168,35.883],[79.4205,35.8961],[79.4113,35.9043],[79.4016,35.9183],[79.391,35.9544],[79.3902,35.9706],[79.3853,35.99],[79.3831,35.9938],[79.3765,35.9948],[79.3607,35.9896],[79.3433,35.9881],[79.2887,35.9892],[79.2403,35.9863],[79.2139,35.9783],[79.1965,35.961],[79.1883,35.9467],[79.1866,35.9269],[79.1963,35.8981],[79.1925,35.8864],[79.1787,35.8698],[79.1555,35.8498],[79.131,35.8357],[79.1162,35.8361],[79.0623,35.846],[79.0201,35.8483],[79.0023,35.8563],[78.974,35.8796],[78.9689,35.8884],[78.959,35.8921],[78.9384,35.8791],[78.9122,35.8751],[78.8618,35.8617],[78.8223,35.8553],[78.803,35.8553],[78.7887,35.8588],[78.7673,35.8692],[78.7496,35.8664],[78.7174,35.8678],[78.7018,35.8591],[78.6899,35.8558],[78.6795,35.8586],[78.6635,35.8569],[78.6567,35.8535],[78.6295,35.8242],[78.6181,35.8167],[78.5791,35.8076],[78.5762,35.7923],[78.5734,35.7892],[78.5682,35.7883],[78.5591,35.792],[78.5512,35.7839],[78.5339,35.7749],[78.5198,35.7633],[78.5076,35.7722],[78.4633,35.7737],[78.4345,35.7839],[78.4218,35.7848],[78.4149,35.7788],[78.4112,35.7654],[78.3984,35.7558],[78.3961,35.7457],[78.3847,35.735],[78.3374,35.7201],[78.3019,35.7208],[78.2879,35.7252],[78.2719,35.7215],[78.2678,35.717],[78.266,35.7105],[78.2696,35.7026],[78.2676,35.6968],[78.27,35.6878],[78.2669,35.6777],[78.2707,35.6684],[78.2676,35.663],[78.2579,35.6579],[78.2537,35.6452],[78.2289,35.6514],[78.2055,35.6664],[78.1983,35.6687],[78.1963,35.6658],[78.1984,35.6531],[78.1971,35.6481],[78.1847,35.6236],[78.1778,35.6218],[78.1669,35.6297],[78.1625,35.6307],[78.1608,35.6289],[78.1651,35.6127],[78.1502,35.5777],[78.1553,35.5516],[78.1459,35.5492],[78.1428,35.542],[78.1359,35.5384],[78.1238,35.5412],[78.1096,35.5514],[78.0997,35.551],[78.0915,35.5558],[78.0868,35.5553],[78.081,35.5489],[78.0763,35.5487],[78.0665,35.5625],[78.0406,35.5869],[78.023,35.5874],[77.9896,35.5814],[77.9839,35.5839],[77.9779,35.592],[77.9638,35.6034],[77.9511,35.6065],[77.9529,35.6008],[77.9646,35.5871],[77.9654,35.5711],[77.9571,35.5552],[77.9363,35.5317],[77.9299,35.5153],[77.9323,35.5119],[77.9587,35.5001],[77.9635,35.4955],[77.9637,35.4787],[77.9829,35.4642],[77.9848,35.4592],[77.9812,35.4554],[77.9705,35.4577],[77.9314,35.489],[77.9207,35.494],[77.9046,35.4688],[77.8999,35.4676],[77.8896,35.4756],[77.8857,35.4845],[77.8786,35.4854],[77.8676,35.4796],[77.8632,35.4807],[77.8533,35.4923],[77.8171,35.5125],[77.807,35.5107],[77.7965,35.5008],[77.7857,35.4948],[77.7715,35.4949],[77.757,35.5018],[77.7361,35.5227],[77.7323,35.5241],[77.7276,35.5234],[77.7231,35.5147],[77.7215,35.4984],[77.7252,35.4844],[77.7241,35.4766],[77.7216,35.4751],[77.6853,35.4772],[77.6788,35.4705],[77.671,35.4701],[77.6645,35.4721],[77.6494,35.4868],[77.6436,35.4886],[77.6266,35.4738],[77.6128,35.4692],[77.5925,35.476],[77.5807,35.4747],[77.5675,35.4846],[77.5593,35.4858],[77.5491,35.4815],[77.5386,35.4809],[77.5112,35.4881],[77.4636,35.4714],[77.4493,35.4624],[77.4383,35.4611],[77.429,35.4636],[77.4125,35.4726],[77.393,35.4736],[77.3779,35.4772],[77.3724,35.4808],[77.365,35.4932],[77.3578,35.495],[77.3532,35.4923],[77.3474,35.4932],[77.3412,35.5117],[77.331,35.5241],[77.3195,35.5321],[77.3209,35.5363],[77.3441,35.5463],[77.3771,35.5499],[77.3906,35.5453],[77.4076,35.5277],[77.4241,35.5235],[77.434,35.5169],[77.4389,35.5176],[77.4453,35.5245],[77.4505,35.5261],[77.4711,35.5206],[77.4824,35.5274],[77.4853,35.5315],[77.4824,35.5359],[77.4593,35.5472],[77.4594,35.5627],[77.4643,35.5728],[77.4632,35.5796],[77.4556,35.5931],[77.4258,35.6101],[77.4355,35.6217],[77.4322,35.6298],[77.4366,35.6406],[77.4297,35.6541],[77.4208,35.6611],[77.4003,35.662],[77.3852,35.6893],[77.3808,35.6931],[77.3695,35.6947],[77.3679,35.7039],[77.3571,35.7172],[77.3263,35.7186],[77.3139,35.6986],[77.2974,35.7076],[77.2842,35.7106],[77.2763,35.7199],[77.2729,35.7173],[77.2709,35.7108],[77.2666,35.7086],[77.2269,35.712],[77.2233,35.7145],[77.2197,35.7277],[77.206,35.726],[77.1925,35.7325],[77.179,35.7305],[77.166,35.7341],[77.1619,35.74],[77.1646,35.7581],[77.163,35.7662],[77.1572,35.7676],[77.1525,35.7658],[77.1423,35.7692],[77.1348,35.7813],[77.1257,35.7822],[77.1213,35.7863],[77.1183,35.7959],[77.1144,35.7973],[77.1045,35.7982],[77.0987,35.7955],[77.0789,35.7971],[77.0574,35.7838],[77.0415,35.7782],[77.0194,35.7741],[77.0032,35.7746],[76.9665,35.7826],[76.934,35.7835],[76.9084,35.7909],[76.8937,35.7992],[76.8567,35.8306],[76.8302,35.8358],[76.8106,35.8443],[76.8026,35.8499],[76.7929,35.8622],[76.7845,35.8894],[76.7778,35.8982],[76.7515,35.9206],[76.7337,35.9424],[76.7216,35.9529],[76.7279,35.9623],[76.7408,35.9704],[76.7531,35.9821],[76.7531,35.9895],[76.7685,36.0089],[76.782,36.0152],[76.8065,36.0181],[76.8074,36.0199],[76.7976,36.0379],[76.8006,36.0473],[76.7843,36.052],[76.7384,36.074],[76.7248,36.0779],[76.7184,36.0827],[76.7075,36.1069],[76.7059,36.122],[76.7025,36.1283],[76.6961,36.1354],[76.6636,36.1575],[76.6469,36.1741],[76.6432,36.1835],[76.6361,36.1844],[76.6,36.165],[76.5618,36.1725],[76.5526,36.1848],[76.5437,36.1922],[76.5179,36.198],[76.5035,36.2067],[76.4805,36.2109],[76.456,36.2399],[76.4321,36.2506],[76.4345,36.2571],[76.4489,36.2688],[76.4354,36.2879],[76.4308,36.3076],[76.4031,36.3189],[76.3749,36.3442],[76.3512,36.3593],[76.3426,36.3622],[76.3271,36.3619],[76.291,36.3485],[76.2536,36.3472],[76.2305,36.3599],[76.1975,36.3869],[76.1794,36.3868],[76.172,36.3897],[76.1534,36.405],[76.124,36.4369],[76.0762,36.4737],[76.0247,36.4855],[76.0009,36.486],[75.9959,36.4837],[75.9637,36.4894],[75.9223,36.5019],[75.8896,36.5174],[75.848,36.5437],[75.8085,36.5524],[75.7683,36.5727],[75.7472,36.5878],[75.7323,36.6065],[75.7186,36.6304],[75.6741,36.6954],[75.651,36.7217],[75.6406,36.7292],[75.6154,36.761],[75.5923,36.7648],[75.5699,36.7754],[75.5129,36.7914],[75.4779,36.8062],[75.4732,36.8101],[75.4589,36.8299],[75.4516,36.8542],[75.4514,36.8659],[75.443,36.8866],[75.4368,36.8908],[75.4293,36.8905],[75.4213,36.886],[75.416,36.8866],[75.4131,36.8913],[75.4141,36.9027],[75.4077,36.9161],[75.4257,36.9384],[75.4272,36.95],[75.422,36.96],[75.4125,36.9669],[75.4002,36.9674],[75.3856,36.9588],[75.3752,36.9598],[75.3509,36.9804],[75.3442,37.0024],[75.3429,37.0319],[75.3449,37.0432],[75.3428,37.0518],[75.3318,37.0546],[75.3145,37.0533],[75.2934,37.0509],[75.2782,37.0463],[75.2639,37.0513],[75.2509,37.0482],[75.2246,37.0368],[75.2149,37.0383],[75.2079,37.0362],[75.2013,37.0205],[75.1799,36.9999],[75.1724,36.9855],[75.1501,36.9665],[75.1348,36.9567],[75.095,36.9422],[75.0843,36.943],[75.0621,36.9592],[75.048,36.9637],[75.0385,36.9701],[75.0177,36.9757],[75.0118,36.9653],[74.9902,36.9622],[74.9761,36.9521],[74.9404,36.9341],[74.9316,36.9248],[74.927,36.9082],[74.9212,36.9054],[74.9139,36.9078],[74.9127,36.9112],[74.9099,36.9118],[74.8869,36.9453],[74.8682,36.9643],[74.861,36.9758],[74.8451,36.9893],[74.8404,36.9989],[74.8411,37.0163],[74.8391,37.0216],[74.8329,37.0242],[74.8045,37.0225],[74.7779,37.0291],[74.7624,37.0245],[74.7587,37.0148],[74.7516,37.0109],[74.7335,37.02]]]},"properties":{"dtname":"Leh","stname":"LADAKH","stcode11":"38","dtcode11":"003","year_stat":"2011_c","Shape_Length":3910258.245545651,"Shape_Area":231679278922.0307,"OBJECTID":599,"test":0,"Dist_LGD":9,"State_LGD":37}},{"type":"Feature","id":600,"geometry":{"type":"Polygon","coordinates":[[[76.4204,34.7204],[76.3763,34.7129],[76.3251,34.6927],[76.2787,34.682],[76.2359,34.66],[76.2163,34.676],[76.2044,34.6754],[76.1913,34.6701],[76.1336,34.6629],[76.0836,34.6784],[76.0437,34.6844],[76.0324,34.6951],[76.0158,34.7195],[75.9979,34.7296],[75.973,34.7343],[75.9611,34.7189],[75.9343,34.6237],[75.9075,34.5654],[75.8938,34.5452],[75.8635,34.5327],[75.8397,34.5166],[75.8106,34.5035],[75.7897,34.4994],[75.6833,34.5023],[75.5994,34.5017],[75.5566,34.494],[75.5292,34.4785],[75.5084,34.4565],[75.4941,34.4119],[75.4828,34.3976],[75.4673,34.3834],[75.4144,34.3596],[75.3847,34.3569],[75.3832,34.3527],[75.3769,34.3485],[75.3826,34.3433],[75.3878,34.3287],[75.3972,34.3206],[75.3891,34.3098],[75.3934,34.2951],[75.4042,34.2853],[75.4134,34.283],[75.4271,34.2841],[75.4446,34.2815],[75.4566,34.2873],[75.4607,34.2828],[75.4744,34.2809],[75.4831,34.2704],[75.4841,34.2594],[75.4888,34.2483],[75.4958,34.2397],[75.4971,34.2334],[75.5047,34.2337],[75.5149,34.2269],[75.523,34.2291],[75.5393,34.2236],[75.5552,34.2117],[75.5722,34.2114],[75.5797,34.2144],[75.595,34.1982],[75.6551,34.2427],[75.6604,34.2347],[75.6753,34.2281],[75.6918,34.2314],[75.6965,34.2252],[75.6989,34.2151],[75.6959,34.183],[75.6895,34.1732],[75.687,34.159],[75.7021,34.1405],[75.7126,34.1149],[75.7218,34.1142],[75.7259,34.1103],[75.7308,34.1099],[75.748,34.0966],[75.7507,34.0877],[75.7664,34.06],[75.7727,34.0556],[75.8002,34.0428],[75.8199,34.0453],[75.8399,34.0242],[75.8619,34.0175],[75.8641,34.0125],[75.8622,33.9987],[75.8519,33.9814],[75.8567,33.9696],[75.8641,33.9788],[75.8767,33.9754],[75.8866,33.9801],[75.9022,33.9804],[75.9105,33.9843],[75.9435,33.9874],[75.954,33.9831],[75.9673,33.9811],[75.9711,33.9777],[75.9806,33.979],[75.9772,33.9906],[75.9793,34.0019],[76.0143,34.0004],[76.0222,33.9975],[76.0328,33.9797],[76.038,33.9622],[76.0338,33.9511],[76.041,33.9426],[76.0477,33.9291],[76.0974,33.8765],[76.1255,33.8558],[76.1395,33.8487],[76.1417,33.8437],[76.1509,33.8361],[76.1537,33.8193],[76.1583,33.8082],[76.1699,33.7952],[76.2008,33.7753],[76.2389,33.7721],[76.2577,33.7578],[76.2601,33.7503],[76.2654,33.7465],[76.2672,33.7405],[76.2657,33.7339],[76.2711,33.7309],[76.2674,33.7248],[76.2671,33.7172],[76.2632,33.7122],[76.2661,33.707],[76.2631,33.704],[76.2657,33.6975],[76.2647,33.6895],[76.2696,33.6852],[76.2662,33.6796],[76.2735,33.6695],[76.2845,33.6613],[76.28,33.6548],[76.2741,33.6524],[76.2704,33.6434],[76.2645,33.6433],[76.2522,33.6379],[76.2489,33.6388],[76.2293,33.6299],[76.2277,33.6257],[76.2372,33.6177],[76.2409,33.6097],[76.2403,33.6049],[76.2386,33.6025],[76.2307,33.6031],[76.2242,33.6004],[76.2241,33.5969],[76.2314,33.587],[76.2252,33.5774],[76.2178,33.5738],[76.2064,33.5734],[76.2054,33.5693],[76.225,33.5477],[76.2319,33.5453],[76.2412,33.5484],[76.2457,33.5456],[76.2596,33.5651],[76.3023,33.5675],[76.3097,33.5716],[76.3101,33.5787],[76.3018,33.5899],[76.2996,33.5983],[76.3076,33.6097],[76.3174,33.6073],[76.3221,33.6024],[76.3295,33.6044],[76.3362,33.6106],[76.3469,33.605],[76.3586,33.6038],[76.36,33.5946],[76.3664,33.5859],[76.3807,33.5771],[76.3747,33.566],[76.3799,33.553],[76.4102,33.5432],[76.4152,33.5392],[76.4264,33.5374],[76.4358,33.5423],[76.4399,33.5475],[76.4433,33.5599],[76.4473,33.5644],[76.4499,33.5631],[76.4624,33.5517],[76.4646,33.5453],[76.4585,33.5386],[76.4591,33.534],[76.4699,33.5278],[76.479,33.5269],[76.4918,33.517],[76.5024,33.5162],[76.507,33.5103],[76.5086,33.4991],[76.5145,33.4951],[76.5226,33.4936],[76.5276,33.4836],[76.5344,33.4824],[76.5391,33.4728],[76.5492,33.4644],[76.5633,33.4628],[76.5693,33.4663],[76.5763,33.4531],[76.5769,33.4434],[76.5798,33.4384],[76.5776,33.4297],[76.5816,33.426],[76.5929,33.4256],[76.6158,33.44],[76.6287,33.4349],[76.6292,33.424],[76.6368,33.4156],[76.6357,33.4115],[76.6318,33.4094],[76.6381,33.4038],[76.6362,33.4017],[76.6402,33.3917],[76.651,33.3838],[76.6514,33.3713],[76.6585,33.3642],[76.6585,33.3575],[76.6723,33.3491],[76.6706,33.342],[76.6963,33.3279],[76.7046,33.3279],[76.7126,33.3311],[76.7177,33.3287],[76.7321,33.299],[76.7296,33.2963],[76.7275,33.2834],[76.7325,33.2817],[76.7323,33.2759],[76.7386,33.2684],[76.7372,33.261],[76.7564,33.2486],[76.7676,33.2484],[76.7755,33.2536],[76.784,33.2537],[76.7925,33.2569],[76.7993,33.2561],[76.8028,33.2538],[76.8071,33.245],[76.8202,33.2361],[76.8227,33.2371],[76.8243,33.2441],[76.8309,33.2493],[76.8432,33.2469],[76.8447,33.2424],[76.8323,33.2296],[76.8256,33.2153],[76.8319,33.2126],[76.8344,33.2049],[76.8175,33.1941],[76.8225,33.1843],[76.8136,33.1773],[76.8131,33.1715],[76.8174,33.1668],[76.817,33.1598],[76.8252,33.1484],[76.8298,33.1466],[76.8307,33.1424],[76.8386,33.1414],[76.8444,33.1376],[76.8429,33.1305],[76.8523,33.1268],[76.8493,33.1202],[76.8553,33.1143],[76.8704,33.1135],[76.8757,33.1184],[76.8852,33.1216],[76.8912,33.1147],[76.8925,33.1058],[76.8977,33.099],[76.9092,33.0941],[76.9101,33.0902],[76.905,33.0836],[76.9056,33.0788],[76.9111,33.076],[76.9141,33.0639],[76.9255,33.0477],[76.9287,33.032],[76.933,33.0285],[76.9416,33.0284],[76.9507,33.0185],[76.9602,33.0154],[76.9609,33.0091],[76.9716,33.0005],[76.9925,33.0018],[76.9963,32.997],[77.0103,32.9891],[77.0252,32.9919],[77.033,32.9904],[77.0401,32.9982],[77.049,32.999],[77.0715,32.9845],[77.0799,32.9834],[77.0821,32.9755],[77.0861,32.9723],[77.0955,32.9711],[77.1109,32.9752],[77.1161,32.9848],[77.1289,32.9806],[77.1424,32.981],[77.1497,32.9781],[77.1491,32.9561],[77.1609,32.953],[77.162,32.9492],[77.1594,32.9386],[77.1639,32.937],[77.1613,32.9316],[77.1642,32.9189],[77.1571,32.9117],[77.1702,32.9108],[77.1751,32.9143],[77.1785,32.9228],[77.1883,32.9288],[77.1988,32.9091],[77.2095,32.9047],[77.2193,32.9039],[77.2339,32.8937],[77.2434,32.8926],[77.237,32.8809],[77.2436,32.8729],[77.2518,32.8706],[77.2552,32.8666],[77.2544,32.8639],[77.2626,32.864],[77.2753,32.8768],[77.2853,32.8792],[77.2958,32.8861],[77.3037,32.8829],[77.3182,32.8945],[77.3106,32.9072],[77.3077,32.9228],[77.301,32.9292],[77.3017,32.9382],[77.2962,32.9416],[77.287,32.9562],[77.2852,32.9729],[77.2871,32.9781],[77.2795,32.9829],[77.2797,32.9901],[77.2764,32.9948],[77.284,33.0066],[77.2852,33.0174],[77.2911,33.0248],[77.2899,33.0295],[77.2924,33.0367],[77.297,33.0327],[77.3061,33.0353],[77.3146,33.0325],[77.3177,33.0354],[77.3165,33.0432],[77.3251,33.0402],[77.3309,33.0461],[77.3372,33.0483],[77.3388,33.0664],[77.3358,33.0714],[77.3399,33.0851],[77.3644,33.0781],[77.381,33.0835],[77.3954,33.0797],[77.4088,33.0842],[77.4165,33.099],[77.4141,33.1113],[77.4152,33.1173],[77.4121,33.1252],[77.4147,33.1317],[77.4185,33.134],[77.4101,33.142],[77.4107,33.1477],[77.4078,33.1538],[77.411,33.1625],[77.4034,33.1698],[77.4078,33.177],[77.4128,33.1802],[77.4138,33.1868],[77.4195,33.1963],[77.4353,33.2028],[77.4546,33.204],[77.4632,33.1993],[77.4694,33.1989],[77.4756,33.1921],[77.4842,33.1916],[77.4913,33.1824],[77.5182,33.1714],[77.5251,33.1614],[77.5387,33.156],[77.5363,33.1697],[77.5383,33.1787],[77.5255,33.1923],[77.5214,33.2177],[77.5107,33.2231],[77.5015,33.2378],[77.4931,33.2444],[77.4963,33.2511],[77.4945,33.2573],[77.4873,33.2662],[77.4837,33.2665],[77.4767,33.274],[77.4881,33.2888],[77.5005,33.2994],[77.4954,33.3084],[77.4954,33.3114],[77.4995,33.314],[77.4988,33.3294],[77.5088,33.3427],[77.5177,33.3437],[77.5404,33.3532],[77.5432,33.3589],[77.5365,33.3654],[77.5357,33.3742],[77.5274,33.3786],[77.5199,33.3766],[77.513,33.3794],[77.5069,33.3779],[77.4992,33.3861],[77.4934,33.3888],[77.4918,33.3917],[77.4948,33.4049],[77.4995,33.4117],[77.4891,33.4131],[77.4794,33.42],[77.4675,33.4427],[77.4642,33.4451],[77.4598,33.4576],[77.4551,33.462],[77.4429,33.4923],[77.4317,33.4939],[77.3974,33.4911],[77.3952,33.486],[77.3615,33.4746],[77.345,33.4822],[77.3379,33.4909],[77.3233,33.4873],[77.3165,33.4885],[77.3083,33.4832],[77.3004,33.485],[77.2937,33.4952],[77.283,33.4992],[77.2851,33.5069],[77.2775,33.5112],[77.2734,33.5174],[77.2654,33.5191],[77.2567,33.527],[77.2554,33.5398],[77.2419,33.5577],[77.2432,33.564],[77.2393,33.5839],[77.234,33.5885],[77.2391,33.5962],[77.2389,33.6],[77.2256,33.6128],[77.209,33.6201],[77.2085,33.6274],[77.2111,33.6313],[77.2078,33.6374],[77.1955,33.6405],[77.1845,33.6473],[77.1766,33.6607],[77.1697,33.6594],[77.1641,33.662],[77.1502,33.6775],[77.1301,33.6832],[77.121,33.6782],[77.1213,33.6743],[77.1115,33.674],[77.1013,33.6698],[77.0743,33.6901],[77.0731,33.6966],[77.0546,33.7068],[77.0485,33.7045],[77.0327,33.7062],[77.0207,33.7026],[77.0039,33.7114],[76.9904,33.7231],[76.9854,33.7242],[76.9721,33.7181],[76.9657,33.7116],[76.9512,33.7127],[76.9445,33.7179],[76.9406,33.7165],[76.9362,33.7227],[76.9265,33.7271],[76.9223,33.7351],[76.901,33.742],[76.9094,33.7497],[76.9137,33.7589],[76.908,33.7637],[76.9085,33.7689],[76.9023,33.7706],[76.9012,33.7743],[76.8928,33.776],[76.8895,33.7811],[76.8859,33.7773],[76.8736,33.7728],[76.8596,33.7744],[76.8286,33.7939],[76.7949,33.7955],[76.7787,33.8038],[76.7756,33.8082],[76.7666,33.805],[76.7594,33.8053],[76.7478,33.8261],[76.7388,33.8306],[76.7241,33.8224],[76.7096,33.8368],[76.7052,33.8527],[76.6461,33.9067],[76.6287,33.9032],[76.6219,33.8977],[76.6082,33.8854],[76.5996,33.8688],[76.5833,33.8693],[76.5731,33.8643],[76.5658,33.8686],[76.5664,33.8752],[76.5626,33.8815],[76.5563,33.8861],[76.5279,33.892],[76.5234,33.9057],[76.5172,33.9152],[76.5257,33.9189],[76.5296,33.9236],[76.5294,33.9344],[76.5241,33.9392],[76.5149,33.9415],[76.5152,33.9454],[76.5216,33.9535],[76.5257,33.9687],[76.5545,34.0029],[76.563,34.0048],[76.5721,34.0003],[76.5761,34.0054],[76.5799,34.0039],[76.5842,34.007],[76.584,34.0126],[76.5894,34.0181],[76.5865,34.0219],[76.586,34.0343],[76.5801,34.045],[76.5888,34.0471],[76.5916,34.0495],[76.5907,34.0557],[76.6083,34.0639],[76.6173,34.0628],[76.6254,34.0571],[76.6329,34.0616],[76.6416,34.0583],[76.6554,34.0621],[76.6611,34.0614],[76.6703,34.0658],[76.6732,34.075],[76.6831,34.0738],[76.6881,34.0797],[76.689,34.0828],[76.6817,34.0858],[76.6736,34.1024],[76.6715,34.1127],[76.6743,34.1164],[76.6724,34.1266],[76.6694,34.135],[76.6616,34.1455],[76.6679,34.1517],[76.6695,34.1653],[76.6824,34.1782],[76.6827,34.1936],[76.6728,34.2124],[76.6716,34.2204],[76.6787,34.2311],[76.6757,34.2376],[76.6912,34.2398],[76.7017,34.2558],[76.701,34.2687],[76.6975,34.2765],[76.7038,34.2895],[76.7015,34.2926],[76.7043,34.2974],[76.7028,34.3049],[76.7101,34.3158],[76.7232,34.325],[76.6845,34.3456],[76.6799,34.3521],[76.6634,34.3606],[76.6578,34.367],[76.6438,34.3695],[76.6255,34.3772],[76.6175,34.3836],[76.6191,34.3867],[76.6067,34.3977],[76.6033,34.4037],[76.5899,34.4151],[76.5807,34.4189],[76.574,34.4184],[76.5635,34.4251],[76.5623,34.4341],[76.5649,34.4465],[76.5684,34.447],[76.569,34.452],[76.5742,34.4551],[76.5697,34.4691],[76.5613,34.4758],[76.5631,34.4833],[76.5572,34.4878],[76.5559,34.5015],[76.5583,34.5096],[76.5515,34.5209],[76.5546,34.5319],[76.5534,34.5391],[76.5492,34.5434],[76.5552,34.5489],[76.5584,34.5684],[76.5612,34.5705],[76.5297,34.5744],[76.529,34.5861],[76.5254,34.5944],[76.521,34.5917],[76.5009,34.5892],[76.4972,34.5822],[76.476,34.5756],[76.4626,34.5802],[76.4528,34.5804],[76.4555,34.5848],[76.4537,34.5892],[76.4665,34.6021],[76.4667,34.6119],[76.4638,34.6155],[76.4729,34.6337],[76.4596,34.6465],[76.4567,34.6527],[76.4489,34.6585],[76.4479,34.6664],[76.4498,34.6697],[76.4455,34.6755],[76.445,34.6858],[76.4337,34.7055],[76.4204,34.7204]]]},"properties":{"dtname":"Kargil","stname":"LADAKH","stcode11":"38","dtcode11":"004","year_stat":"2011_c","Shape_Length":1058773.7430213655,"Shape_Area":20144529937.40829,"OBJECTID":600,"test":0,"Dist_LGD":6,"State_LGD":37}}]}