{"type":"FeatureCollection","crs":{"type":"name","properties":{"name":"EPSG:4326"}},"features":[{"type":"Feature","id":716,"geometry":{"type":"MultiPolygon","coordinates":[[[[73.0105,8.2779],[73.0103,8.2779],[73.0103,8.2779],[73.0103,8.2778],[73.0103,8.2776],[73.0103,8.2773],[73.0104,8.277],[73.0107,8.2766],[73.0111,8.2763],[73.0112,8.2762],[73.0114,8.2762],[73.0116,8.2762],[73.0117,8.2763],[73.0119,8.2764],[73.012,8.2766],[73.0121,8.2768],[73.0121,8.2769],[73.012,8.277],[73.012,8.2771],[73.0119,8.2771],[73.0118,8.2771],[73.0116,8.2771],[73.0115,8.2771],[73.0114,8.2772],[73.0112,8.2774],[73.0111,8.2776],[73.011,8.2777],[73.0109,8.2778],[73.0107,8.2779],[73.0107,8.2779],[73.0105,8.2779]]],[[[73.014,8.302],[73.014,8.3021],[73.014,8.3022],[73.014,8.3023],[73.0139,8.3024],[73.0138,8.3024],[73.0137,8.3024],[73.0136,8.3023],[73.0136,8.3021],[73.0138,8.302],[73.0138,8.302],[73.0139,8.302],[73.014,8.302]]],[[[73.0542,8.2733],[73.066,8.285],[73.0669,8.3028],[73.0784,8.3243],[73.0687,8.3091],[73.0636,8.2939],[73.0558,8.282],[73.0478,8.2755],[73.0282,8.2708],[73.0217,8.2714],[73.0188,8.2746],[73.0222,8.2721],[73.0214,8.2742],[73.0178,8.2754],[73.0215,8.2685],[73.0428,8.264],[73.0475,8.2652],[73.0542,8.2733]]],[[[73.6311,10.068],[73.6312,10.0681],[73.6312,10.0681],[73.6311,10.0682],[73.631,10.0681],[73.6308,10.0681],[73.6308,10.068],[73.6309,10.0679],[73.6311,10.068]]],[[[73.6304,10.0682],[73.6303,10.0682],[73.6303,10.0682],[73.6302,10.0681],[73.6302,10.0679],[73.6304,10.0679],[73.6305,10.068],[73.6305,10.0681],[73.6304,10.0682]]],[[[73.6319,10.0682],[73.632,10.0683],[73.6321,10.0684],[73.6321,10.0685],[73.632,10.0685],[73.6319,10.0685],[73.6317,10.0684],[73.6316,10.0683],[73.6317,10.0682],[73.6318,10.0682],[73.6319,10.0682]]],[[[73.6302,10.0683],[73.6303,10.0685],[73.6302,10.0685],[73.63,10.0685],[73.6299,10.0683],[73.6301,10.0682],[73.6302,10.0683]]],[[[73.6309,10.0682],[73.6314,10.0683],[73.6317,10.0685],[73.6318,10.0687],[73.6316,10.0689],[73.6312,10.0689],[73.6309,10.0688],[73.6307,10.0688],[73.6306,10.0687],[73.6305,10.0686],[73.6305,10.0684],[73.6306,10.0682],[73.6309,10.0682]]],[[[73.6324,10.0687],[73.6324,10.0688],[73.6324,10.0689],[73.6323,10.0689],[73.6322,10.0689],[73.6321,10.0688],[73.6321,10.0687],[73.6322,10.0686],[73.6324,10.0687]]],[[[73.6308,10.0689],[73.6309,10.069],[73.6309,10.0691],[73.6308,10.0691],[73.6307,10.0691],[73.6307,10.0691],[73.6306,10.0691],[73.6305,10.069],[73.6304,10.0689],[73.6306,10.0688],[73.6308,10.0689]]],[[[73.6319,10.0691],[73.6319,10.0691],[73.6318,10.0692],[73.6317,10.0692],[73.6315,10.0692],[73.6315,10.0691],[73.6314,10.069],[73.6315,10.069],[73.6316,10.069],[73.6318,10.069],[73.6319,10.0691]]],[[[73.6333,10.0693],[73.6333,10.0696],[73.6332,10.0699],[73.6331,10.07],[73.6329,10.0699],[73.6329,10.0699],[73.6325,10.0694],[73.6324,10.069],[73.6325,10.0688],[73.633,10.0688],[73.6333,10.0693]]],[[[73.6345,10.0715],[73.6349,10.0718],[73.6348,10.0722],[73.6347,10.0723],[73.6345,10.0724],[73.6343,10.0724],[73.6339,10.0723],[73.6337,10.0722],[73.6337,10.0717],[73.6339,10.0714],[73.6345,10.0715]]],[[[73.6281,10.0737],[73.6281,10.0738],[73.6285,10.074],[73.6286,10.0742],[73.6284,10.0743],[73.6281,10.0743],[73.6278,10.0742],[73.6274,10.0739],[73.6271,10.0736],[73.6265,10.0731],[73.6262,10.0728],[73.6263,10.0725],[73.6267,10.0721],[73.6272,10.0722],[73.628,10.0725],[73.6282,10.0729],[73.6285,10.0732],[73.6288,10.0736],[73.6286,10.0738],[73.6282,10.0736],[73.6281,10.0737]]],[[[73.6303,10.0743],[73.6305,10.0745],[73.6305,10.0746],[73.6306,10.0748],[73.6305,10.075],[73.6304,10.075],[73.6303,10.0749],[73.6302,10.0748],[73.6299,10.0747],[73.6299,10.0745],[73.6299,10.0744],[73.6299,10.0743],[73.6299,10.0742],[73.63,10.0742],[73.6301,10.0741],[73.6303,10.0743]]],[[[73.6478,10.0724],[73.6513,10.102],[73.6442,10.0763],[73.6405,10.0711],[73.6351,10.0713],[73.6412,10.0572],[73.6473,10.0587],[73.6478,10.0724]]],[[[73.6526,10.1086],[73.6527,10.1089],[73.6527,10.1092],[73.6526,10.1093],[73.6524,10.1095],[73.6522,10.1095],[73.652,10.1093],[73.652,10.1091],[73.6521,10.1087],[73.6524,10.1086],[73.6526,10.1086]]],[[[72.2842,10.0412],[72.2887,10.0456],[72.2905,10.0532],[72.2842,10.0412]]],[[[73.6604,10.1542],[73.6578,10.1539],[73.6624,10.1407],[73.6601,10.1292],[73.6643,10.1411],[73.6604,10.1542]]],[[[72.3375,10.1053],[72.3361,10.1075],[72.3343,10.1009],[72.3375,10.1053]]],[[[72.3323,10.1301],[72.3281,10.1387],[72.3274,10.1298],[72.3331,10.128],[72.3323,10.1301]]],[[[72.6442,10.5784],[72.6406,10.5793],[72.6319,10.5608],[72.6237,10.5485],[72.6166,10.5443],[72.6172,10.5422],[72.6363,10.5575],[72.6497,10.5636],[72.6509,10.5721],[72.6471,10.5781],[72.6442,10.5784]]],[[[73.6681,10.8176],[73.6608,10.8164],[73.6599,10.811],[73.6638,10.8057],[73.6718,10.804],[73.6843,10.8062],[73.6999,10.8117],[73.7018,10.8143],[73.6995,10.8164],[73.6681,10.8176]]],[[[72.1687,10.815],[72.1649,10.813],[72.1689,10.8129],[72.1687,10.815]]],[[[72.2043,10.8786],[72.2011,10.8789],[72.1947,10.8714],[72.1882,10.8493],[72.1701,10.8182],[72.1797,10.8289],[72.2028,10.8694],[72.2065,10.8776],[72.2043,10.8786]]],[[[72.2889,10.9466],[72.2847,10.9376],[72.2896,10.9357],[72.2928,10.937],[72.2896,10.9443],[72.2935,10.9461],[72.2889,10.9466]]],[[[72.3255,10.9504],[72.327,10.9516],[72.3171,10.9497],[72.3154,10.9436],[72.3255,10.9504]]],[[[72.3332,10.952],[72.3333,10.952],[72.3334,10.9523],[72.3336,10.9526],[72.3336,10.9527],[72.3335,10.9528],[72.3331,10.9529],[72.3328,10.9528],[72.3323,10.9524],[72.3319,10.9521],[72.3316,10.9519],[72.3314,10.9518],[72.3312,10.9518],[72.331,10.9517],[72.3305,10.9517],[72.3304,10.9517],[72.3304,10.9515],[72.3305,10.9512],[72.3307,10.9509],[72.331,10.9507],[72.3312,10.9506],[72.3315,10.9506],[72.3317,10.9507],[72.3319,10.9509],[72.3321,10.9512],[72.3325,10.9515],[72.3328,10.9518],[72.3332,10.952]]],[[[72.3349,10.9552],[72.333,10.955],[72.3339,10.9531],[72.3349,10.9552]]],[[[72.3353,10.9564],[72.3355,10.9566],[72.3355,10.957],[72.3355,10.9575],[72.3354,10.9579],[72.3352,10.9584],[72.3349,10.9587],[72.3346,10.959],[72.3345,10.9592],[72.3343,10.9593],[72.3342,10.9593],[72.3341,10.9591],[72.3341,10.9588],[72.3342,10.9586],[72.3343,10.9584],[72.3344,10.9581],[72.3344,10.9577],[72.3343,10.9572],[72.3343,10.9568],[72.3344,10.9564],[72.3346,10.9562],[72.335,10.9562],[72.3353,10.9564]]],[[[72.7203,11.114],[72.7313,11.1257],[72.7337,11.1364],[72.7293,11.1363],[72.7186,11.1273],[72.7167,11.1195],[72.7203,11.114]]],[[[72.7621,11.1829],[72.7697,11.2057],[72.7771,11.2174],[72.7903,11.2605],[72.7859,11.257],[72.7795,11.2426],[72.7647,11.1971],[72.7621,11.1829]]],[[[73.0083,11.4697],[73.0118,11.4731],[73.0099,11.4875],[73.0047,11.4964],[72.9995,11.4983],[72.9981,11.4971],[73.0025,11.4929],[73.0083,11.4697]]],[[[72.1904,11.5991],[72.1853,11.6017],[72.1867,11.5987],[72.1904,11.5991]]],[[[72.7122,11.6867],[72.7174,11.6947],[72.7166,11.7039],[72.7057,11.6825],[72.709,11.6825],[72.7122,11.6867]]]]},"properties":{"dtname":"Lakshadweep","stname":"LAKSHADWEEP","stcode11":"31","dtcode11":"587","year_stat":"2011_c","Shape_Length":147600.40107656425,"Shape_Area":31123937.104577523,"OBJECTID":716,"test":0,"Dist_LGD":553,"State_LGD":31}}]}