{"type":"FeatureCollection","crs":{"type":"name","properties":{"name":"EPSG:4326"}},"features":[{"type":"Feature","id":324,"geometry":{"type":"Polygon","coordinates":[[[94.7367,25.1132],[94.654,25.1157],[94.6112,25.1023],[94.5703,25.0719],[94.5465,25.0433],[94.5303,25.0339],[94.4539,25.0174],[94.4375,25.0025],[94.3953,24.986],[94.3325,24.986],[94.284,24.9611],[94.222,24.9418],[94.1923,24.943],[94.1669,24.9269],[94.17,24.9208],[94.166,24.9193],[94.1646,24.9143],[94.1588,24.9157],[94.1597,24.909],[94.1555,24.9056],[94.1577,24.9039],[94.1558,24.899],[94.1585,24.8978],[94.1545,24.8897],[94.1561,24.8838],[94.1474,24.8833],[94.1457,24.8723],[94.1412,24.8737],[94.1394,24.8702],[94.1428,24.8711],[94.1428,24.8592],[94.1374,24.8597],[94.1361,24.8572],[94.141,24.8521],[94.1421,24.8489],[94.14,24.8471],[94.1467,24.8407],[94.143,24.838],[94.1461,24.8319],[94.1436,24.8307],[94.1466,24.8294],[94.1392,24.8273],[94.1406,24.8162],[94.1361,24.8115],[94.1331,24.8026],[94.1439,24.7973],[94.1521,24.7986],[94.1606,24.7949],[94.1659,24.7787],[94.1724,24.7764],[94.179,24.7676],[94.1784,24.7597],[94.1753,24.7549],[94.1792,24.7485],[94.172,24.7339],[94.1876,24.7158],[94.1876,24.6847],[94.1823,24.6715],[94.1888,24.6616],[94.1971,24.655],[94.2003,24.6255],[94.2049,24.6197],[94.2119,24.6159],[94.2231,24.6191],[94.2356,24.6146],[94.248,24.6175],[94.2526,24.6142],[94.2579,24.6017],[94.2645,24.5958],[94.2677,24.5976],[94.2712,24.5957],[94.2819,24.6006],[94.2927,24.5844],[94.3014,24.5818],[94.3043,24.5852],[94.3108,24.5708],[94.318,24.5682],[94.3246,24.5702],[94.3276,24.5679],[94.3265,24.565],[94.3308,24.5644],[94.3303,24.5667],[94.3334,24.5651],[94.3305,24.5602],[94.3323,24.5567],[94.3276,24.5529],[94.331,24.5489],[94.3483,24.5528],[94.3546,24.5461],[94.3591,24.5508],[94.3633,24.5475],[94.3729,24.5478],[94.3685,24.5421],[94.3704,24.5386],[94.3673,24.5359],[94.3695,24.5344],[94.3636,24.5297],[94.3644,24.5239],[94.3614,24.5189],[94.3689,24.5168],[94.3657,24.5119],[94.3766,24.5127],[94.3751,24.508],[94.3705,24.5086],[94.3758,24.5047],[94.3748,24.5017],[94.3791,24.5018],[94.3744,24.4941],[94.3806,24.496],[94.3859,24.4909],[94.3848,24.4883],[94.3918,24.484],[94.3953,24.4883],[94.3961,24.4835],[94.3993,24.4876],[94.4021,24.483],[94.4054,24.4842],[94.4057,24.4821],[94.426,24.4817],[94.4545,24.566],[94.4676,24.5723],[94.473,24.5714],[94.4788,24.5786],[94.4966,24.5904],[94.515,24.6107],[94.5348,24.6429],[94.5449,24.6688],[94.5472,24.6867],[94.5408,24.7014],[94.5452,24.7105],[94.5509,24.7131],[94.5567,24.7122],[94.5648,24.7054],[94.5708,24.7059],[94.5676,24.7159],[94.5718,24.724],[94.5759,24.7252],[94.58,24.7239],[94.5787,24.7087],[94.5852,24.7047],[94.5935,24.7091],[94.605,24.7159],[94.6066,24.7273],[94.6119,24.7378],[94.6285,24.756],[94.6278,24.7637],[94.6179,24.7806],[94.6182,24.7855],[94.6296,24.8054],[94.629,24.8178],[94.6323,24.8242],[94.6332,24.8362],[94.6316,24.839],[94.6499,24.8552],[94.6483,24.8608],[94.6569,24.8713],[94.6629,24.8711],[94.6655,24.8744],[94.6732,24.8754],[94.6809,24.8864],[94.6876,24.8893],[94.6866,24.8929],[94.6901,24.9043],[94.6925,24.9062],[94.6952,24.9168],[94.7014,24.9231],[94.7018,24.9296],[94.7102,24.929],[94.7136,24.935],[94.7074,24.9429],[94.7058,24.9507],[94.6966,24.9602],[94.6963,24.9683],[94.7071,24.9871],[94.727,25.0],[94.7275,25.01],[94.7388,25.0236],[94.7375,25.0267],[94.7441,25.037],[94.7421,25.0394],[94.7445,25.0474],[94.7421,25.0534],[94.7446,25.0601],[94.7377,25.0656],[94.7447,25.0801],[94.74,25.0922],[94.7411,25.1036],[94.7365,25.1095],[94.7367,25.1132]]]},"properties":{"dtname":"Kamjong","stname":"MANIPUR","stcode11":"14","dtcode11":"770","year_stat":"2016_c","Shape_Length":281272.26078773057,"Shape_Area":2821856147.3617587,"OBJECTID":324,"test":0,"Dist_LGD":717,"State_LGD":14}},{"type":"Feature","id":329,"geometry":{"type":"Polygon","coordinates":[[[94.48,25.6151],[94.4684,25.6139],[94.4588,25.6042],[94.4452,25.5968],[94.4447,25.5913],[94.438,25.5925],[94.425,25.5865],[94.4212,25.5767],[94.4224,25.5738],[94.4191,25.5699],[94.4218,25.569],[94.4225,25.5533],[94.4166,25.5366],[94.4107,25.5384],[94.3999,25.5341],[94.3853,25.5325],[94.3779,25.5281],[94.3736,25.5222],[94.3551,25.5122],[94.348,25.5122],[94.3216,25.5029],[94.3097,25.5037],[94.299,25.5074],[94.2862,25.5057],[94.2846,25.5079],[94.274,25.4995],[94.2613,25.498],[94.2552,25.5006],[94.2498,25.4943],[94.24,25.4959],[94.2186,25.4916],[94.2142,25.4956],[94.2084,25.496],[94.2086,25.5038],[94.2005,25.5151],[94.1951,25.5209],[94.1866,25.524],[94.1877,25.5292],[94.1859,25.5316],[94.1912,25.5397],[94.192,25.5487],[94.1836,25.5483],[94.1781,25.5506],[94.1768,25.5466],[94.1649,25.5413],[94.1612,25.5478],[94.1562,25.5511],[94.1499,25.5432],[94.1435,25.5293],[94.1438,25.5226],[94.1404,25.5194],[94.1329,25.5187],[94.1226,25.5229],[94.1081,25.5219],[94.1035,25.5263],[94.0846,25.5304],[94.0908,25.5324],[94.0942,25.5373],[94.0922,25.5443],[94.0848,25.5547],[94.0757,25.5583],[94.0747,25.5557],[94.0711,25.556],[94.0673,25.5523],[94.0656,25.557],[94.061,25.5583],[94.0598,25.5641],[94.0539,25.5677],[94.0481,25.5756],[94.043,25.5767],[94.0382,25.5701],[94.0368,25.579],[94.0298,25.5773],[94.0307,25.5804],[94.0267,25.5792],[94.0266,25.5856],[94.022,25.5849],[94.0217,25.5902],[94.0128,25.5926],[94.0023,25.5864],[94.0107,25.5736],[94.0073,25.5672],[94.0047,25.5654],[93.9937,25.5692],[93.9831,25.5683],[93.9748,25.5646],[93.972,25.5573],[93.9604,25.5507],[93.955,25.5502],[93.9457,25.5568],[93.9395,25.5583],[93.9183,25.5595],[93.9078,25.5645],[93.9038,25.5622],[93.8887,25.5651],[93.8711,25.5551],[93.8614,25.5532],[93.8478,25.5567],[93.8414,25.5561],[93.8344,25.5606],[93.8298,25.5583],[93.8306,25.5557],[93.8276,25.5527],[93.821,25.5532],[93.8192,25.55],[93.8203,25.5449],[93.817,25.5443],[93.8165,25.5403],[93.8048,25.5415],[93.7941,25.5374],[93.7859,25.5374],[93.7799,25.5337],[93.7703,25.5337],[93.7651,25.5385],[93.7673,25.5336],[93.7636,25.523],[93.7664,25.5182],[93.7615,25.5169],[93.7626,25.5138],[93.7592,25.5125],[93.7582,25.5042],[93.7613,25.4958],[93.7663,25.4935],[93.7869,25.5032],[93.8008,25.4963],[93.8047,25.4876],[93.81,25.4838],[93.805,25.4634],[93.8103,25.4594],[93.8205,25.4605],[93.8221,25.4497],[93.831,25.4383],[93.8333,25.4274],[93.8566,25.4272],[93.8762,25.4223],[93.8925,25.4228],[93.8946,25.4188],[93.9011,25.4178],[93.9035,25.4117],[93.9172,25.4027],[93.9213,25.3953],[93.9606,25.3916],[93.9808,25.3823],[93.9879,25.3744],[93.9917,25.3471],[93.9746,25.3076],[93.9708,25.2923],[93.9794,25.279],[94.006,25.2686],[94.0174,25.2533],[94.0165,25.2381],[93.9975,25.1921],[94.0598,25.1773],[94.0727,25.1702],[94.1262,25.1731],[94.1931,25.1867],[94.2054,25.1764],[94.2139,25.1752],[94.2126,25.1785],[94.2186,25.1798],[94.2214,25.183],[94.2192,25.1837],[94.2212,25.194],[94.2328,25.1971],[94.2376,25.2024],[94.2459,25.2037],[94.2499,25.2124],[94.2527,25.2289],[94.2581,25.2289],[94.2638,25.2347],[94.2691,25.234],[94.2892,25.2419],[94.2893,25.2457],[94.2977,25.2501],[94.3195,25.2764],[94.325,25.2797],[94.3274,25.2919],[94.3333,25.3],[94.3356,25.3102],[94.3427,25.3103],[94.3472,25.3151],[94.3596,25.3369],[94.3607,25.3454],[94.3711,25.3546],[94.3775,25.3572],[94.3747,25.3616],[94.3805,25.3642],[94.3757,25.3687],[94.3769,25.3926],[94.3848,25.4018],[94.3826,25.4066],[94.3794,25.4078],[94.3896,25.42],[94.3837,25.4208],[94.3832,25.4231],[94.3864,25.4251],[94.3936,25.4235],[94.393,25.4267],[94.3975,25.4313],[94.3992,25.4386],[94.4034,25.4401],[94.402,25.447],[94.4083,25.4523],[94.411,25.4628],[94.4214,25.4661],[94.4174,25.4685],[94.4137,25.4757],[94.4199,25.4766],[94.4196,25.4799],[94.4238,25.4821],[94.4265,25.4903],[94.4242,25.4976],[94.4268,25.5004],[94.432,25.501],[94.4297,25.505],[94.4304,25.5113],[94.4336,25.5152],[94.4382,25.5146],[94.4403,25.529],[94.4471,25.5354],[94.4471,25.54],[94.4514,25.5417],[94.4567,25.5493],[94.4605,25.5496],[94.4636,25.5588],[94.461,25.5621],[94.4647,25.5658],[94.464,25.5721],[94.4668,25.5734],[94.4674,25.582],[94.4912,25.6016],[94.4917,25.6087],[94.4875,25.6141],[94.4836,25.613],[94.48,25.6151]]]},"properties":{"dtname":"Senapati","stname":"MANIPUR","stcode11":"14","dtcode11":"272","year_stat":"2011_c","Shape_Length":301994.57658770395,"Shape_Area":2157994870.7909017,"OBJECTID":329,"test":0,"Dist_LGD":257,"State_LGD":14}},{"type":"Feature","id":339,"geometry":{"type":"Polygon","coordinates":[[[93.8054,25.463],[93.7865,25.4461],[93.7824,25.4397],[93.7833,25.4331],[93.7727,25.4262],[93.7751,25.4221],[93.7741,25.4197],[93.768,25.42],[93.7654,25.4154],[93.7605,25.4148],[93.752,25.4079],[93.7422,25.404],[93.7347,25.3943],[93.7359,25.3852],[93.7313,25.38],[93.7158,25.3718],[93.7093,25.3572],[93.702,25.3581],[93.6968,25.3561],[93.6866,25.3601],[93.6876,25.3554],[93.6851,25.3511],[93.6872,25.3456],[93.6829,25.3412],[93.6816,25.3289],[93.6778,25.3267],[93.6734,25.3277],[93.6699,25.3248],[93.6647,25.3257],[93.6677,25.3185],[93.6676,25.3108],[93.6582,25.304],[93.6605,25.2988],[93.6449,25.276],[93.6438,25.2716],[93.646,25.2664],[93.6372,25.2637],[93.6349,25.2554],[93.6289,25.2482],[93.6278,25.2419],[93.6221,25.2356],[93.6227,25.2314],[93.6149,25.2183],[93.6089,25.2131],[93.6109,25.2049],[93.6053,25.1991],[93.5984,25.2018],[93.5954,25.1986],[93.5933,25.2035],[93.5879,25.2011],[93.5914,25.2081],[93.5895,25.2134],[93.586,25.2142],[93.5868,25.2176],[93.5841,25.2218],[93.5691,25.2263],[93.5685,25.2298],[93.5645,25.2311],[93.5628,25.241],[93.556,25.246],[93.5438,25.2479],[93.5351,25.2436],[93.5331,25.2459],[93.5267,25.2447],[93.521,25.2474],[93.5124,25.2428],[93.5085,25.2447],[93.5013,25.2424],[93.5011,25.256],[93.5062,25.2693],[93.4898,25.2748],[93.4812,25.2699],[93.472,25.2713],[93.4701,25.2826],[93.4737,25.2937],[93.472,25.3035],[93.4669,25.3117],[93.4534,25.3216],[93.4539,25.3249],[93.4533,25.3216],[93.4665,25.3119],[93.4698,25.3042],[93.4631,25.3016],[93.4528,25.2924],[93.4452,25.2914],[93.436,25.2879],[93.4307,25.283],[93.4274,25.2833],[93.4266,25.2797],[93.4204,25.2776],[93.4158,25.2644],[93.4011,25.2607],[93.3936,25.2548],[93.3925,25.2501],[93.3865,25.2429],[93.381,25.2397],[93.3815,25.2344],[93.3845,25.2315],[93.3812,25.2275],[93.3817,25.223],[93.3755,25.2202],[93.3766,25.218],[93.3733,25.2149],[93.3737,25.2119],[93.3688,25.2111],[93.3706,25.208],[93.366,25.2062],[93.3655,25.1982],[93.3593,25.1954],[93.3599,25.192],[93.3566,25.192],[93.3573,25.1877],[93.354,25.1878],[93.3458,25.1699],[93.3439,25.1592],[93.3465,25.1572],[93.3451,25.1508],[93.3474,25.1389],[93.3423,25.1376],[93.3452,25.1304],[93.3416,25.1268],[93.3452,25.1236],[93.3411,25.1232],[93.3421,25.12],[93.3392,25.1156],[93.3413,25.1139],[93.3366,25.1117],[93.338,25.11],[93.3324,25.1008],[93.3323,25.0936],[93.3218,25.0909],[93.3148,25.0847],[93.3027,25.0645],[93.3055,25.0575],[93.3007,25.056],[93.2999,25.0461],[93.2974,25.0467],[93.2987,25.052],[93.2947,25.0512],[93.2936,25.0464],[93.2913,25.0487],[93.2889,25.0458],[93.2871,25.0471],[93.2834,25.0451],[93.2826,25.0491],[93.2796,25.0473],[93.28,25.0511],[93.2744,25.051],[93.272,25.0485],[93.2704,25.0509],[93.2641,25.0495],[93.2622,25.046],[93.266,25.0439],[93.2595,25.0413],[93.2598,25.0351],[93.2537,25.0273],[93.2513,25.0272],[93.2539,25.0256],[93.2538,25.0207],[93.2438,25.0184],[93.2436,25.0162],[93.2476,25.015],[93.2417,25.004],[93.2441,25.0034],[93.2443,24.9982],[93.2488,24.999],[93.2504,25.0044],[93.2522,25.001],[93.2569,25.0048],[93.2597,25.0017],[93.2585,24.9996],[93.2527,24.999],[93.2569,24.9962],[93.2513,24.9861],[93.2533,24.9822],[93.2491,24.9776],[93.2519,24.9772],[93.2495,24.9732],[93.2571,24.9737],[93.2608,24.9716],[93.2629,24.9614],[93.2453,24.9509],[93.249,24.9483],[93.2472,24.9452],[93.2509,24.9435],[93.2512,24.9407],[93.2448,24.9413],[93.2367,24.9373],[93.237,24.9326],[93.2425,24.9362],[93.245,24.9355],[93.2384,24.9258],[93.2459,24.9253],[93.2487,24.9149],[93.244,24.9107],[93.2351,24.9115],[93.2407,24.9035],[93.2384,24.8988],[93.2295,24.8979],[93.232,24.892],[93.2259,24.892],[93.2327,24.8848],[93.2276,24.8851],[93.2248,24.8803],[93.2214,24.8816],[93.2219,24.8778],[93.2263,24.8729],[93.2203,24.8736],[93.2214,24.8696],[93.2146,24.8654],[93.2135,24.8607],[93.204,24.8512],[93.1995,24.8552],[93.1947,24.854],[93.2012,24.8486],[93.2014,24.8422],[93.1953,24.8444],[93.1922,24.8429],[93.1917,24.8401],[93.196,24.8368],[93.1996,24.8396],[93.2005,24.8381],[93.1977,24.8343],[93.1915,24.8345],[93.1958,24.831],[93.19,24.8187],[93.1969,24.8115],[93.191,24.8041],[93.1798,24.8032],[93.1789,24.7966],[93.1755,24.7938],[93.1811,24.7857],[93.1832,24.7879],[93.1901,24.7847],[93.1895,24.7791],[93.1963,24.779],[93.1998,24.7718],[93.2038,24.7731],[93.2053,24.7679],[93.2117,24.7612],[93.2253,24.7642],[93.2251,24.7596],[93.2323,24.7527],[93.2224,24.732],[93.2222,24.722],[93.2179,24.7241],[93.2157,24.7173],[93.205,24.7139],[93.2014,24.7103],[93.2003,24.7042],[93.2062,24.6994],[93.2161,24.6996],[93.2285,24.6862],[93.239,24.6698],[93.2526,24.6588],[93.2791,24.6588],[93.2987,24.6745],[93.3034,24.6902],[93.3158,24.6917],[93.3391,24.7126],[93.3406,24.7216],[93.3301,24.7264],[93.3401,24.7507],[93.3525,24.7526],[93.3629,24.7583],[93.3663,24.7954],[93.3718,24.8092],[93.3989,24.8064],[93.4075,24.8135],[93.4075,24.8249],[93.4974,24.8235],[93.5431,24.8092],[93.5607,24.8111],[93.5707,24.8206],[93.5764,24.8354],[93.6131,24.8068],[93.6345,24.8016],[93.6807,24.7935],[93.7573,24.7921],[93.7497,24.796],[93.751,24.8057],[93.7435,24.8078],[93.7496,24.8141],[93.7498,24.8259],[93.7613,24.83],[93.762,24.8437],[93.7648,24.843],[93.7721,24.8496],[93.7682,24.8635],[93.7693,24.8689],[93.7614,24.8824],[93.7668,24.8957],[93.7595,24.903],[93.7586,24.9075],[93.7684,24.914],[93.7772,24.9245],[93.7816,24.9457],[93.7882,24.9501],[93.7923,24.9501],[93.7929,24.9535],[93.7979,24.9538],[93.7997,24.9574],[93.7976,24.9658],[93.8007,24.9684],[93.7989,24.9792],[93.7888,24.9908],[93.7934,24.995],[93.7875,25.0068],[93.7906,25.0165],[93.8016,25.0207],[93.8123,25.018],[93.8166,25.0203],[93.8171,25.0231],[93.8158,25.0314],[93.8084,25.0429],[93.8098,25.0464],[93.8081,25.0504],[93.8006,25.0561],[93.7961,25.0643],[93.7944,25.07],[93.7962,25.0803],[93.7932,25.0845],[93.7944,25.0981],[93.7969,25.1011],[93.7914,25.1146],[93.7832,25.1262],[93.7799,25.1262],[93.7784,25.1364],[93.7722,25.1497],[93.7728,25.1541],[93.7775,25.153],[93.7776,25.1585],[93.7821,25.1608],[93.7839,25.1669],[93.7924,25.1674],[93.7909,25.1736],[93.797,25.1759],[93.797,25.1835],[93.8019,25.1845],[93.8021,25.1884],[93.8121,25.2017],[93.8111,25.2062],[93.817,25.2073],[93.8214,25.219],[93.8259,25.2224],[93.8379,25.2218],[93.8452,25.2273],[93.8536,25.2287],[93.8561,25.2357],[93.8681,25.2488],[93.883,25.2562],[93.8881,25.2628],[93.9027,25.2722],[93.9078,25.2737],[93.9166,25.2683],[93.9262,25.2707],[93.9524,25.2811],[93.9555,25.2864],[93.9552,25.2902],[93.9434,25.2952],[93.9367,25.3057],[93.9369,25.3103],[93.9192,25.3278],[93.8876,25.3351],[93.8895,25.3441],[93.8873,25.3489],[93.8994,25.3567],[93.8992,25.3643],[93.9082,25.3819],[93.9134,25.3851],[93.9202,25.3854],[93.9227,25.3891],[93.9175,25.4024],[93.9035,25.4117],[93.9011,25.4178],[93.8946,25.4188],[93.8925,25.4228],[93.8762,25.4223],[93.8566,25.4272],[93.8333,25.4274],[93.831,25.4383],[93.8221,25.4497],[93.8205,25.4605],[93.8103,25.4594],[93.8054,25.463]]]},"properties":{"dtname":"Tamenglong","stname":"MANIPUR","stcode11":"14","dtcode11":"273","year_stat":"2011_c","Shape_Length":440243.6941414185,"Shape_Area":3855693904.043201,"OBJECTID":339,"test":0,"Dist_LGD":258,"State_LGD":14}},{"type":"Feature","id":360,"geometry":{"type":"Polygon","coordinates":[[[93.8789,24.9883],[93.873,24.9861],[93.873,24.98],[93.8687,24.976],[93.8636,24.9604],[93.8474,24.9544],[93.8476,24.9481],[93.8441,24.9445],[93.8432,24.9382],[93.8459,24.9295],[93.8368,24.9248],[93.8341,24.9209],[93.8306,24.9139],[93.8315,24.9082],[93.8276,24.9016],[93.8273,24.8945],[93.8206,24.887],[93.8179,24.874],[93.8106,24.8721],[93.8068,24.8652],[93.8107,24.8581],[93.8086,24.8358],[93.7987,24.8304],[93.7902,24.8222],[93.7855,24.8143],[93.7858,24.8074],[93.7816,24.8045],[93.7866,24.7919],[93.7867,24.785],[93.7918,24.779],[93.7889,24.7709],[93.7912,24.7705],[93.7925,24.7654],[93.7888,24.768],[93.7886,24.7644],[93.7843,24.7631],[93.7819,24.7543],[93.7792,24.7535],[93.777,24.7408],[93.7723,24.7401],[93.7699,24.7351],[93.7725,24.7336],[93.7786,24.7385],[93.7847,24.7374],[93.7982,24.7402],[93.8101,24.7337],[93.8129,24.7349],[93.8263,24.7307],[93.829,24.7284],[93.8284,24.7237],[93.8341,24.7216],[93.8382,24.727],[93.8492,24.7304],[93.8633,24.739],[93.8688,24.7389],[93.8705,24.7152],[93.8788,24.713],[93.8784,24.7061],[93.8753,24.7023],[93.8865,24.7011],[93.8874,24.6982],[93.8837,24.6949],[93.8837,24.6778],[93.8787,24.6734],[93.8755,24.6657],[93.8647,24.6592],[93.8394,24.6676],[93.8315,24.6856],[93.827,24.6778],[93.8206,24.6821],[93.8039,24.6762],[93.7992,24.6607],[93.8043,24.6493],[93.8142,24.6421],[93.8116,24.6335],[93.8048,24.6262],[93.8061,24.6179],[93.8121,24.6129],[93.8172,24.6156],[93.8292,24.6139],[93.8349,24.6103],[93.8356,24.6073],[93.8291,24.5945],[93.8314,24.5913],[93.8502,24.584],[93.8521,24.5798],[93.8511,24.5733],[93.8554,24.5741],[93.8623,24.5812],[93.8606,24.5851],[93.8633,24.5956],[93.8674,24.5987],[93.8716,24.598],[93.8602,24.5663],[93.8666,24.5655],[93.8805,24.5585],[93.8708,24.5581],[93.8624,24.5539],[93.8619,24.5513],[93.8565,24.5517],[93.8561,24.5494],[93.8597,24.5491],[93.8625,24.5451],[93.859,24.5423],[93.8558,24.5453],[93.8564,24.5385],[93.8612,24.5362],[93.8574,24.5366],[93.859,24.535],[93.8561,24.5333],[93.8595,24.5318],[93.8578,24.5295],[93.8688,24.5262],[93.8722,24.5509],[93.8766,24.5539],[93.8849,24.5529],[93.8984,24.5567],[93.9056,24.5622],[93.9117,24.5735],[93.9113,24.5825],[93.9048,24.5914],[93.9111,24.5929],[93.9116,24.612],[93.9064,24.6143],[93.8988,24.6078],[93.8941,24.6096],[93.8887,24.616],[93.8998,24.6193],[93.9004,24.6309],[93.9195,24.6402],[93.9261,24.6531],[93.9348,24.6487],[93.9328,24.6648],[93.9283,24.6632],[93.9159,24.6644],[93.9143,24.6664],[93.9173,24.6721],[93.9046,24.6752],[93.9049,24.6785],[93.9094,24.6819],[93.9048,24.685],[93.9073,24.6929],[93.904,24.6994],[93.9125,24.6999],[93.9167,24.7056],[93.9239,24.704],[93.9283,24.7131],[93.9373,24.7157],[93.9411,24.7202],[93.9333,24.7512],[93.9433,24.7908],[93.9411,24.7949],[93.9444,24.8],[93.9406,24.8019],[93.9355,24.7994],[93.9328,24.8068],[93.9381,24.8145],[93.9405,24.8255],[93.9448,24.8253],[93.946,24.831],[93.9387,24.8373],[93.9373,24.8442],[93.9319,24.8442],[93.9285,24.8487],[93.919,24.8514],[93.9183,24.8538],[93.9231,24.8587],[93.9038,24.854],[93.8992,24.8588],[93.9077,24.869],[93.9163,24.8749],[93.9165,24.8793],[93.9189,24.8802],[93.9173,24.8842],[93.9113,24.8868],[93.9058,24.8816],[93.9027,24.8866],[93.9052,24.8918],[93.8997,24.8973],[93.897,24.9077],[93.9176,24.9105],[93.9171,24.9137],[93.9206,24.9147],[93.921,24.9206],[93.9254,24.9256],[93.9224,24.9272],[93.9211,24.9417],[93.9269,24.96],[93.9318,24.9676],[93.9266,24.9643],[93.9244,24.9685],[93.9198,24.9627],[93.9177,24.9558],[93.9096,24.9453],[93.9071,24.9323],[93.9084,24.9291],[93.9052,24.93],[93.9037,24.9337],[93.8958,24.9318],[93.8965,24.9389],[93.8926,24.9371],[93.8866,24.9392],[93.8907,24.9455],[93.8904,24.9537],[93.8955,24.9576],[93.9013,24.9578],[93.9049,24.9646],[93.9092,24.9659],[93.9068,24.9692],[93.9137,24.9703],[93.9143,24.9723],[93.9068,24.9732],[93.9068,24.9761],[93.9018,24.977],[93.8992,24.9822],[93.8789,24.9883]]]},"properties":{"dtname":"Imphal West","stname":"MANIPUR","stcode11":"14","dtcode11":"277","year_stat":"2011_c","Shape_Length":233290.0362111581,"Shape_Area":540647028.7475559,"OBJECTID":360,"test":0,"Dist_LGD":256,"State_LGD":14}},{"type":"Feature","id":369,"geometry":{"type":"Polygon","coordinates":[[[93.9545,24.578],[93.9215,24.5769],[93.9167,24.5674],[93.9105,24.5622],[93.9125,24.555],[93.901,24.5543],[93.899,24.557],[93.8849,24.5529],[93.8766,24.5539],[93.8722,24.5509],[93.8683,24.5243],[93.8715,24.52],[93.8765,24.5194],[93.8759,24.5112],[93.8834,24.5087],[93.8736,24.4986],[93.8813,24.4921],[93.8813,24.4889],[93.8713,24.478],[93.8705,24.4695],[93.8611,24.4657],[93.8603,24.4624],[93.8532,24.4571],[93.8593,24.4553],[93.8536,24.45],[93.8549,24.4436],[93.8487,24.4343],[93.8438,24.4348],[93.8379,24.4267],[93.8475,24.4153],[93.8388,24.4099],[93.8406,24.4025],[93.8463,24.3984],[93.8459,24.3853],[93.8515,24.3792],[93.8459,24.3753],[93.848,24.3665],[93.8535,24.3606],[93.8491,24.3543],[93.8525,24.3517],[93.8571,24.3554],[93.863,24.3541],[93.8512,24.3433],[93.8638,24.3339],[93.8587,24.3249],[93.8532,24.3283],[93.8567,24.316],[93.8532,24.3135],[93.8546,24.3117],[93.8645,24.3131],[93.8709,24.2967],[93.8664,24.2906],[93.8786,24.2819],[93.8773,24.279],[93.8732,24.2783],[93.8716,24.2726],[93.8639,24.266],[93.8615,24.2592],[93.8641,24.2521],[93.8613,24.2474],[93.8666,24.2434],[93.8583,24.2341],[93.8607,24.2316],[93.8788,24.2282],[93.8776,24.222],[93.867,24.2189],[93.8679,24.2137],[93.863,24.2082],[93.8693,24.2086],[93.8758,24.1991],[93.8881,24.2038],[93.8965,24.1993],[93.8998,24.2045],[93.8894,24.2114],[93.894,24.2187],[93.892,24.2269],[93.8955,24.2282],[93.8986,24.2371],[93.9028,24.2374],[93.8967,24.2503],[93.9019,24.2541],[93.8972,24.2532],[93.8934,24.2582],[93.8901,24.2579],[93.8891,24.2614],[93.8916,24.2638],[93.8873,24.2651],[93.8908,24.2678],[93.8847,24.2686],[93.8834,24.271],[93.893,24.2746],[93.8895,24.2744],[93.8907,24.2783],[93.8846,24.2761],[93.8843,24.2881],[93.8799,24.2941],[93.8829,24.2969],[93.886,24.2947],[93.9006,24.2945],[93.8966,24.3026],[93.8977,24.3058],[93.8952,24.3069],[93.898,24.3117],[93.8951,24.3097],[93.8896,24.3127],[93.8898,24.3181],[93.8961,24.3215],[93.8958,24.3251],[93.8985,24.3255],[93.8974,24.3298],[93.9004,24.3307],[93.8931,24.3388],[93.8924,24.3512],[93.8949,24.3551],[93.8985,24.3554],[93.8988,24.3581],[93.9026,24.3572],[93.8988,24.3592],[93.896,24.3646],[93.9025,24.3669],[93.899,24.3693],[93.9029,24.3708],[93.902,24.3793],[93.9069,24.3798],[93.9107,24.3746],[93.9104,24.3793],[93.906,24.3852],[93.9094,24.3843],[93.9153,24.3761],[93.9123,24.3872],[93.9135,24.3901],[93.9094,24.3933],[93.9117,24.397],[93.9097,24.4018],[93.9137,24.4047],[93.9077,24.4056],[93.9119,24.4111],[93.9154,24.4074],[93.9164,24.4101],[93.9191,24.4085],[93.9216,24.411],[93.9186,24.4155],[93.9202,24.4218],[93.9245,24.4212],[93.9228,24.4195],[93.9261,24.4153],[93.9244,24.414],[93.9258,24.4065],[93.9313,24.4152],[93.9315,24.4195],[93.937,24.4175],[93.9412,24.4229],[93.9492,24.4237],[93.9375,24.4246],[93.9328,24.4324],[93.9394,24.4317],[93.9408,24.4337],[93.9476,24.4305],[93.948,24.4334],[93.9438,24.435],[93.9517,24.4351],[93.9556,24.4382],[93.9513,24.4423],[93.9447,24.4421],[93.9437,24.4442],[93.9407,24.4412],[93.9384,24.4425],[93.9445,24.4486],[93.9537,24.446],[93.957,24.4498],[93.9617,24.4508],[93.9588,24.4561],[93.9614,24.4595],[93.9602,24.4668],[93.9652,24.4708],[93.9594,24.4745],[93.9549,24.4722],[93.9583,24.4771],[93.9626,24.4776],[93.9634,24.4806],[93.9615,24.488],[93.9628,24.4913],[93.9595,24.4988],[93.9638,24.5031],[93.9695,24.502],[93.97,24.4991],[93.9669,24.4983],[93.9645,24.4933],[93.9669,24.4879],[93.9706,24.4847],[93.981,24.4883],[93.983,24.4852],[93.9823,24.483],[93.9758,24.4828],[93.9788,24.4768],[93.9768,24.4743],[93.9776,24.4634],[93.9828,24.4601],[93.9863,24.4662],[93.9938,24.4675],[93.9953,24.4652],[93.9937,24.4635],[94.0043,24.459],[94.0028,24.4545],[94.0002,24.4549],[94.001,24.4516],[94.0031,24.4472],[94.0085,24.4457],[94.0032,24.4451],[93.9991,24.448],[93.9977,24.4465],[93.9926,24.4498],[93.9933,24.4472],[93.9897,24.4468],[93.9993,24.4471],[94.0037,24.4432],[94.0118,24.4447],[94.0098,24.44],[94.0143,24.4349],[94.0188,24.4364],[94.0204,24.4436],[94.0237,24.4467],[94.0279,24.4464],[94.0297,24.4437],[94.0301,24.4469],[94.0368,24.4478],[94.0403,24.4548],[94.0422,24.4542],[94.0526,24.4625],[94.0514,24.4668],[94.0459,24.4656],[94.0398,24.4629],[94.0415,24.4613],[94.0388,24.459],[94.0279,24.4602],[94.0239,24.4549],[94.0206,24.4553],[94.0169,24.4689],[94.0172,24.4767],[94.0143,24.4801],[94.0196,24.4841],[94.0202,24.4956],[94.0118,24.4967],[94.0154,24.503],[94.0133,24.5085],[94.0218,24.5055],[94.0256,24.5121],[94.0207,24.5184],[94.0242,24.521],[94.0207,24.5234],[94.022,24.5286],[94.0177,24.5329],[94.0166,24.5412],[94.006,24.5475],[93.9953,24.5496],[93.9905,24.5472],[93.98,24.556],[93.9647,24.5577],[93.9606,24.5553],[93.9618,24.5587],[93.9557,24.5643],[93.9577,24.5694],[93.9545,24.578]]]},"properties":{"dtname":"Kakching","stname":"MANIPUR","stcode11":"14","dtcode11":"768","year_stat":"2016_c","Shape_Length":231294.49601864937,"Shape_Area":368430360.23586565,"OBJECTID":369,"test":0,"Dist_LGD":711,"State_LGD":14}},{"type":"Feature","id":372,"geometry":{"type":"Polygon","coordinates":[[[93.8684,24.7394],[93.8633,24.739],[93.8492,24.7304],[93.8382,24.727],[93.8341,24.7216],[93.8284,24.7237],[93.829,24.7284],[93.8263,24.7307],[93.8129,24.7349],[93.8101,24.7337],[93.7982,24.7402],[93.7847,24.7374],[93.7786,24.7385],[93.7717,24.7336],[93.7744,24.7293],[93.7693,24.7154],[93.7712,24.7074],[93.7689,24.6994],[93.7662,24.6982],[93.7682,24.693],[93.7631,24.6848],[93.7549,24.6869],[93.7495,24.6818],[93.7484,24.6689],[93.7512,24.6624],[93.7499,24.6438],[93.7453,24.6382],[93.7415,24.6253],[93.7343,24.6213],[93.7341,24.6137],[93.7386,24.6076],[93.7341,24.6045],[93.7366,24.5951],[93.7347,24.5801],[93.7311,24.5804],[93.7291,24.5783],[93.7298,24.5735],[93.7275,24.5734],[93.729,24.5714],[93.7251,24.5712],[93.7293,24.57],[93.7303,24.5672],[93.7282,24.567],[93.7326,24.5622],[93.7305,24.5618],[93.7314,24.5571],[93.7279,24.5562],[93.7302,24.5548],[93.7296,24.5508],[93.7327,24.5455],[93.7295,24.5241],[93.732,24.5211],[93.7282,24.5195],[93.731,24.518],[93.7317,24.5122],[93.7248,24.504],[93.7279,24.5013],[93.7252,24.4963],[93.7275,24.4955],[93.7293,24.4885],[93.727,24.4876],[93.73,24.485],[93.7258,24.4848],[93.7267,24.4823],[93.7221,24.4732],[93.7174,24.4727],[93.7227,24.4708],[93.7187,24.4669],[93.7233,24.4638],[93.7207,24.4624],[93.7231,24.4615],[93.7117,24.449],[93.709,24.4339],[93.7035,24.4329],[93.7067,24.4288],[93.7018,24.4279],[93.7042,24.4267],[93.7014,24.4245],[93.6979,24.4246],[93.7025,24.4224],[93.7046,24.4128],[93.7015,24.4085],[93.6963,24.4086],[93.7015,24.407],[93.6984,24.4],[93.7029,24.4027],[93.7064,24.4008],[93.7121,24.4037],[93.7162,24.403],[93.7155,24.4079],[93.7202,24.4162],[93.7249,24.4187],[93.7268,24.4238],[93.735,24.4256],[93.7348,24.4213],[93.7307,24.4209],[93.7321,24.4164],[93.7247,24.4162],[93.7318,24.4128],[93.7307,24.4064],[93.7371,24.3973],[93.7398,24.4026],[93.7409,24.4003],[93.7439,24.4028],[93.7436,24.4073],[93.7467,24.4087],[93.7576,24.4024],[93.7579,24.4066],[93.7624,24.4055],[93.7648,24.4022],[93.773,24.4018],[93.7762,24.4103],[93.7729,24.4164],[93.7789,24.416],[93.7803,24.4124],[93.7874,24.4176],[93.7857,24.419],[93.7876,24.4221],[93.7823,24.425],[93.7818,24.4293],[93.792,24.4288],[93.8006,24.4317],[93.7973,24.426],[93.7998,24.4234],[93.7929,24.4244],[93.7922,24.4204],[93.7956,24.4154],[93.7896,24.4158],[93.788,24.4117],[93.7908,24.4091],[93.7863,24.4077],[93.7832,24.4027],[93.7841,24.4004],[93.7944,24.4012],[93.7956,24.3987],[93.7923,24.3979],[93.7925,24.3954],[93.7972,24.3954],[93.7981,24.3931],[93.8041,24.3948],[93.806,24.3984],[93.8124,24.392],[93.8123,24.3897],[93.8064,24.3887],[93.8044,24.3787],[93.8059,24.3766],[93.8033,24.3742],[93.799,24.3763],[93.7961,24.3733],[93.7947,24.3764],[93.7861,24.377],[93.7816,24.3862],[93.7812,24.3809],[93.7836,24.378],[93.7793,24.3787],[93.7748,24.3822],[93.7722,24.3901],[93.77,24.3868],[93.774,24.38],[93.7677,24.379],[93.7695,24.3765],[93.7733,24.3769],[93.7716,24.3727],[93.7794,24.3752],[93.7887,24.3734],[93.7899,24.3676],[93.7812,24.3674],[93.7825,24.3643],[93.7755,24.3645],[93.7815,24.362],[93.7792,24.359],[93.7873,24.3601],[93.796,24.3669],[93.799,24.3665],[93.7988,24.3636],[93.7936,24.3557],[93.7982,24.362],[93.7996,24.3602],[93.8028,24.3623],[93.8013,24.3588],[93.8076,24.3624],[93.8041,24.3513],[93.8092,24.3428],[93.8147,24.3436],[93.8095,24.3534],[93.813,24.3589],[93.8156,24.3578],[93.8171,24.3509],[93.8204,24.3491],[93.8209,24.3602],[93.8252,24.3627],[93.8311,24.3604],[93.8379,24.3626],[93.8367,24.3559],[93.8381,24.3539],[93.8416,24.3552],[93.8427,24.3524],[93.8385,24.3486],[93.844,24.3466],[93.8429,24.3433],[93.8386,24.3425],[93.8475,24.3391],[93.8352,24.3353],[93.8406,24.3339],[93.8459,24.3261],[93.8362,24.3254],[93.8408,24.3206],[93.837,24.3138],[93.8385,24.312],[93.8502,24.3142],[93.8511,24.3114],[93.8448,24.3036],[93.8562,24.3093],[93.8552,24.3065],[93.8588,24.3038],[93.8571,24.3026],[93.8615,24.3012],[93.8572,24.2974],[93.8626,24.2968],[93.8606,24.2941],[93.8661,24.2905],[93.8632,24.2894],[93.8724,24.2809],[93.8675,24.2777],[93.8702,24.2736],[93.8638,24.2656],[93.8716,24.2726],[93.8732,24.2783],[93.8773,24.279],[93.8786,24.2819],[93.8664,24.2906],[93.8709,24.2967],[93.8645,24.3131],[93.8546,24.3117],[93.8532,24.3135],[93.8567,24.316],[93.8532,24.3283],[93.8587,24.3249],[93.8638,24.3339],[93.8512,24.3433],[93.863,24.3541],[93.8571,24.3554],[93.8525,24.3517],[93.8491,24.3543],[93.8535,24.3606],[93.848,24.3665],[93.8459,24.3753],[93.8515,24.3792],[93.8459,24.3853],[93.8463,24.3984],[93.8406,24.4025],[93.8388,24.4099],[93.8475,24.4153],[93.8379,24.4265],[93.8438,24.4348],[93.8487,24.4343],[93.8549,24.4436],[93.8536,24.45],[93.8593,24.4553],[93.8532,24.4571],[93.8603,24.4624],[93.8611,24.4657],[93.8705,24.4695],[93.8713,24.478],[93.8813,24.4889],[93.8813,24.4921],[93.8736,24.4986],[93.8834,24.5087],[93.8759,24.5112],[93.8769,24.5186],[93.8708,24.5205],[93.8688,24.5262],[93.8578,24.5295],[93.8595,24.5318],[93.8561,24.5333],[93.859,24.535],[93.8574,24.5366],[93.8612,24.5362],[93.8564,24.5385],[93.8558,24.5453],[93.859,24.5423],[93.8625,24.5451],[93.8597,24.5491],[93.8561,24.5494],[93.8565,24.5517],[93.8619,24.5513],[93.8624,24.5539],[93.8708,24.5581],[93.8805,24.5585],[93.8666,24.5655],[93.8602,24.5663],[93.8716,24.598],[93.8674,24.5987],[93.8633,24.5956],[93.8606,24.5851],[93.8623,24.5812],[93.8522,24.5727],[93.8503,24.5745],[93.8521,24.5798],[93.8502,24.584],[93.8314,24.5913],[93.8291,24.5945],[93.8356,24.6073],[93.8349,24.6103],[93.8292,24.6139],[93.8172,24.6156],[93.8121,24.6129],[93.8061,24.6179],[93.8048,24.6262],[93.8116,24.6335],[93.8142,24.6421],[93.8043,24.6493],[93.7992,24.6607],[93.8039,24.6762],[93.8206,24.6821],[93.827,24.6778],[93.8315,24.6856],[93.8394,24.6676],[93.8647,24.6592],[93.8755,24.6657],[93.8787,24.6734],[93.8837,24.6778],[93.8837,24.6949],[93.8874,24.6982],[93.8865,24.7011],[93.8753,24.7023],[93.8784,24.7061],[93.8788,24.713],[93.8705,24.7152],[93.8713,24.7257],[93.8684,24.7394]]]},"properties":{"dtname":"Bishnupur","stname":"MANIPUR","stcode11":"14","dtcode11":"275","year_stat":"2011_c","Shape_Length":297610.0342058288,"Shape_Area":569974926.8668275,"OBJECTID":372,"test":0,"Dist_LGD":252,"State_LGD":14}},{"type":"Feature","id":378,"geometry":{"type":"Polygon","coordinates":[[[93.967,24.5024],[93.9618,24.5021],[93.9593,24.4985],[93.9628,24.4913],[93.9615,24.488],[93.9634,24.4806],[93.9626,24.4776],[93.9583,24.4771],[93.9549,24.4722],[93.9594,24.4745],[93.9652,24.4708],[93.9602,24.4668],[93.9614,24.4595],[93.9588,24.4561],[93.9617,24.4508],[93.957,24.4498],[93.9537,24.446],[93.9445,24.4486],[93.9384,24.4425],[93.9407,24.4412],[93.9437,24.4442],[93.9447,24.4421],[93.9513,24.4423],[93.9557,24.4378],[93.9517,24.4351],[93.9438,24.435],[93.948,24.4334],[93.947,24.4304],[93.9408,24.4337],[93.9394,24.4317],[93.9328,24.4324],[93.9375,24.4246],[93.9492,24.4237],[93.9412,24.4229],[93.937,24.4175],[93.9315,24.4195],[93.9313,24.4152],[93.9258,24.4065],[93.9237,24.4216],[93.9198,24.4212],[93.9186,24.4155],[93.9216,24.4114],[93.9191,24.4085],[93.917,24.4103],[93.9154,24.4074],[93.9115,24.4108],[93.9077,24.4056],[93.9137,24.4047],[93.9097,24.4018],[93.9117,24.397],[93.9094,24.3933],[93.9135,24.3901],[93.9123,24.3872],[93.9154,24.3765],[93.9094,24.3843],[93.906,24.3852],[93.9104,24.3793],[93.9107,24.3746],[93.9069,24.3798],[93.9018,24.379],[93.9029,24.3708],[93.899,24.3693],[93.9025,24.3669],[93.8972,24.3666],[93.8959,24.3643],[93.9026,24.3569],[93.8988,24.3581],[93.8985,24.3554],[93.8949,24.3551],[93.8924,24.3512],[93.8931,24.3388],[93.9004,24.3307],[93.8974,24.3298],[93.8985,24.3255],[93.8958,24.3251],[93.8961,24.3215],[93.8898,24.3181],[93.8897,24.3119],[93.8951,24.3097],[93.898,24.3117],[93.8952,24.3069],[93.8977,24.3058],[93.8966,24.3026],[93.9006,24.2945],[93.886,24.2947],[93.8829,24.2969],[93.8799,24.2941],[93.8843,24.2881],[93.8846,24.2761],[93.8907,24.2783],[93.8895,24.2744],[93.893,24.2746],[93.8834,24.271],[93.8847,24.2686],[93.8908,24.2678],[93.8873,24.2651],[93.8916,24.2638],[93.8891,24.2614],[93.8901,24.2579],[93.8934,24.2582],[93.8972,24.2532],[93.9019,24.2541],[93.8967,24.2503],[93.9028,24.2374],[93.8986,24.2371],[93.8955,24.2282],[93.892,24.2269],[93.894,24.2187],[93.8894,24.2114],[93.8986,24.2064],[93.8994,24.2033],[93.8965,24.1993],[93.8881,24.2038],[93.8758,24.1991],[93.8693,24.2086],[93.8604,24.2067],[93.8512,24.2139],[93.8443,24.1979],[93.8378,24.1941],[93.8364,24.186],[93.8318,24.1849],[93.8255,24.1777],[93.8109,24.1679],[93.8087,24.1584],[93.8012,24.1495],[93.7812,24.1412],[93.7715,24.1193],[93.7758,24.1051],[93.7744,24.0956],[93.7695,24.0907],[93.7701,24.0838],[93.7668,24.08],[93.7661,24.0722],[93.7615,24.0677],[93.7546,24.0425],[93.751,24.0399],[93.7448,24.0282],[93.7399,24.0152],[93.7401,24.0063],[93.7441,24.0026],[93.7541,24.0056],[93.7591,24.0038],[93.7636,23.9948],[93.7623,23.9913],[93.7648,23.99],[93.7648,23.9864],[93.7738,23.9709],[93.772,23.969],[93.7816,23.9613],[93.7853,23.9615],[93.7979,23.9473],[93.8006,23.9381],[93.7995,23.9327],[93.8078,23.9268],[93.8196,23.9236],[93.8246,23.9264],[93.8315,23.9264],[93.835,23.9308],[93.8399,23.9323],[93.8591,23.9321],[93.8719,23.9413],[93.8828,23.9417],[93.8937,23.953],[93.9021,23.9499],[93.9191,23.9515],[93.9441,23.9463],[93.9584,23.9295],[93.9643,23.9295],[93.9752,23.9247],[93.9803,23.9289],[93.9846,23.9272],[93.9887,23.9286],[93.9982,23.9218],[94.0165,23.927],[94.0252,23.9156],[94.0405,23.9107],[94.0409,23.9037],[94.043,23.9032],[94.0412,23.9007],[94.0459,23.8967],[94.0448,23.8941],[94.0492,23.8922],[94.049,23.8872],[94.0539,23.8887],[94.0574,23.8868],[94.0619,23.8906],[94.0681,23.89],[94.0745,23.8835],[94.0817,23.8821],[94.086,23.8874],[94.0961,23.8892],[94.0982,23.8831],[94.1025,23.8833],[94.0993,23.8806],[94.1049,23.8754],[94.1031,23.8701],[94.1092,23.8673],[94.1084,23.8639],[94.1131,23.863],[94.1125,23.8562],[94.1094,23.8548],[94.116,23.8526],[94.1106,23.8492],[94.1139,23.846],[94.1135,23.8433],[94.1173,23.8435],[94.1167,23.8385],[94.1251,23.8367],[94.1263,23.8334],[94.1336,23.833],[94.1439,23.8358],[94.1418,23.8425],[94.1448,23.8498],[94.1566,23.8482],[94.1676,23.9022],[94.1697,23.9284],[94.1725,23.9258],[94.1769,23.9259],[94.1898,23.9336],[94.1907,23.9387],[94.1875,23.9459],[94.1884,23.9597],[94.2042,23.987],[94.2373,24.0354],[94.2278,24.0569],[94.2296,24.0597],[94.2332,24.0577],[94.235,24.0529],[94.2393,24.0529],[94.2545,24.0825],[94.2523,24.1144],[94.2331,24.116],[94.1966,24.134],[94.1979,24.1893],[94.2022,24.215],[94.2114,24.2448],[94.2028,24.2667],[94.179,24.281],[94.1533,24.301],[94.1505,24.3676],[94.1476,24.3828],[94.1295,24.3924],[94.1114,24.3971],[94.1095,24.4114],[94.0991,24.42],[94.0593,24.4247],[94.038,24.4488],[94.0301,24.4469],[94.0297,24.4437],[94.0279,24.4464],[94.0237,24.4467],[94.0204,24.4436],[94.0202,24.4384],[94.0157,24.4348],[94.0107,24.4371],[94.0118,24.4447],[94.0037,24.4432],[93.9993,24.4471],[93.9901,24.4465],[93.9933,24.4472],[93.9926,24.4498],[93.9977,24.4465],[93.9991,24.448],[94.0032,24.4451],[94.0085,24.4457],[94.0031,24.4472],[94.001,24.4516],[94.0002,24.4549],[94.0028,24.4545],[94.0043,24.459],[93.9937,24.4635],[93.9953,24.4652],[93.9938,24.4675],[93.9863,24.4662],[93.9828,24.4601],[93.9776,24.4634],[93.9768,24.4743],[93.9788,24.4768],[93.9758,24.4828],[93.9823,24.483],[93.983,24.4852],[93.981,24.4883],[93.9706,24.4847],[93.9669,24.4879],[93.9645,24.4933],[93.9701,24.4998],[93.967,24.5024]]]},"properties":{"dtname":"Chandel","stname":"MANIPUR","stcode11":"14","dtcode11":"280","year_stat":"2011_c","Shape_Length":327159.3764267885,"Shape_Area":2556367533.3941035,"OBJECTID":378,"test":1,"Dist_LGD":253,"State_LGD":14}},{"type":"Feature","id":380,"geometry":{"type":"Polygon","coordinates":[[[93.7227,24.621],[93.7228,24.6137],[93.7149,24.6057],[93.7032,24.6085],[93.6977,24.6132],[93.6776,24.6068],[93.662,24.6082],[93.6525,24.6022],[93.6489,24.5926],[93.6367,24.5987],[93.631,24.606],[93.628,24.6066],[93.6209,24.6008],[93.6124,24.5783],[93.605,24.5707],[93.5955,24.5698],[93.5957,24.5662],[93.5876,24.5696],[93.5855,24.5758],[93.5798,24.5775],[93.5803,24.5809],[93.5681,24.5927],[93.5584,24.5863],[93.5575,24.5825],[93.5492,24.5826],[93.5465,24.5791],[93.5393,24.5765],[93.5386,24.572],[93.5353,24.5695],[93.5356,24.5582],[93.5315,24.5567],[93.5118,24.5659],[93.5021,24.5576],[93.494,24.5543],[93.4897,24.555],[93.4895,24.5578],[93.4848,24.5611],[93.4832,24.5681],[93.4775,24.5732],[93.4708,24.5741],[93.4629,24.5705],[93.4551,24.5538],[93.4542,24.5452],[93.4489,24.5409],[93.4323,24.5523],[93.4338,24.5546],[93.4315,24.5566],[93.4061,24.5632],[93.3983,24.5748],[93.3912,24.5767],[93.3881,24.5683],[93.3919,24.5612],[93.3845,24.5282],[93.4026,24.5187],[93.4083,24.5111],[93.4016,24.5035],[93.3921,24.4978],[93.3921,24.4854],[93.3864,24.4806],[93.3845,24.4654],[93.3617,24.4473],[93.3598,24.4292],[93.3531,24.415],[93.3502,24.4007],[93.3655,24.3836],[93.4102,24.375],[93.4759,24.3731],[93.4911,24.3655],[93.4921,24.315],[93.4783,24.2495],[93.395,24.1853],[93.3962,24.1698],[93.3855,24.146],[93.3759,24.1079],[93.3774,24.0885],[93.3901,24.0828],[93.3988,24.0853],[93.4067,24.0797],[93.4065,24.0767],[93.4095,24.0771],[93.4102,24.0733],[93.4139,24.0742],[93.4166,24.0719],[93.4162,24.0689],[93.4216,24.064],[93.4258,24.0514],[93.425,24.0454],[93.43,24.0366],[93.429,24.0332],[93.4334,24.0275],[93.4331,24.0243],[93.4397,24.0154],[93.4525,24.0141],[93.4541,24.0106],[93.4527,23.9996],[93.4609,23.9987],[93.4634,23.994],[93.4628,23.9838],[93.4605,23.981],[93.4617,23.9761],[93.4664,23.9732],[93.4746,23.9619],[93.4868,23.9569],[93.4915,23.9506],[93.4959,23.9532],[93.499,23.946],[93.5051,23.9425],[93.515,23.9428],[93.525,23.9561],[93.5302,23.9543],[93.5398,23.961],[93.5452,23.9585],[93.5503,23.9595],[93.5555,23.9703],[93.5551,23.9768],[93.5595,23.982],[93.5709,23.9776],[93.5706,23.9705],[93.5737,23.9693],[93.5736,23.967],[93.5853,23.9602],[93.5919,23.9607],[93.5992,23.9726],[93.6085,23.9719],[93.608,23.9806],[93.6138,23.9925],[93.612,23.9972],[93.6167,24.0071],[93.6238,24.0114],[93.6277,24.0095],[93.6524,24.0097],[93.6564,24.002],[93.6708,24.0026],[93.6758,24.0064],[93.6904,24.0091],[93.7233,23.9975],[93.7401,24.0026],[93.7416,23.9973],[93.7441,24.0026],[93.7401,24.0063],[93.7399,24.0152],[93.7472,24.0335],[93.7546,24.0425],[93.7615,24.0677],[93.7661,24.0722],[93.7668,24.08],[93.7701,24.0838],[93.7695,24.0907],[93.7756,24.0997],[93.7754,24.1072],[93.7712,24.1166],[93.7764,24.1334],[93.7816,24.1415],[93.8012,24.1495],[93.8087,24.1584],[93.8109,24.1679],[93.8255,24.1777],[93.8318,24.1849],[93.8364,24.186],[93.8378,24.1941],[93.8443,24.1979],[93.8512,24.2139],[93.8615,24.2069],[93.8677,24.2133],[93.867,24.2189],[93.8757,24.2208],[93.8791,24.2248],[93.8777,24.2292],[93.8607,24.2316],[93.8583,24.2341],[93.8665,24.243],[93.8613,24.247],[93.8642,24.253],[93.8616,24.2598],[93.864,24.2672],[93.8702,24.2736],[93.8675,24.2777],[93.8724,24.2809],[93.8632,24.2894],[93.8661,24.2905],[93.8606,24.2941],[93.8626,24.2968],[93.8572,24.2974],[93.8616,24.301],[93.8571,24.3026],[93.8588,24.3038],[93.8552,24.3065],[93.8565,24.3092],[93.8448,24.3036],[93.8511,24.3134],[93.8406,24.3139],[93.8385,24.312],[93.837,24.3138],[93.8408,24.3206],[93.8362,24.3254],[93.8459,24.3261],[93.8406,24.3339],[93.8352,24.3353],[93.8475,24.3391],[93.8386,24.3425],[93.8429,24.3433],[93.844,24.3466],[93.8385,24.3486],[93.8427,24.3524],[93.8416,24.3552],[93.8381,24.3539],[93.8367,24.3559],[93.8379,24.3626],[93.8311,24.3604],[93.8252,24.3627],[93.8209,24.3602],[93.8204,24.3491],[93.8171,24.3509],[93.8156,24.3578],[93.813,24.3589],[93.8095,24.3534],[93.8147,24.3436],[93.8092,24.3428],[93.8041,24.3513],[93.8076,24.3624],[93.8013,24.3588],[93.8028,24.3623],[93.7996,24.3602],[93.7982,24.362],[93.7936,24.3557],[93.7988,24.3636],[93.799,24.3665],[93.796,24.3669],[93.7873,24.3601],[93.7792,24.359],[93.7815,24.362],[93.7755,24.3645],[93.7825,24.3643],[93.7812,24.3674],[93.7899,24.3676],[93.7887,24.3734],[93.7794,24.3752],[93.7716,24.3727],[93.7733,24.3769],[93.7695,24.3765],[93.7677,24.379],[93.774,24.38],[93.77,24.3868],[93.7722,24.3901],[93.7748,24.3822],[93.7793,24.3787],[93.7836,24.378],[93.7812,24.3809],[93.7816,24.3862],[93.7861,24.377],[93.7947,24.3764],[93.7961,24.3733],[93.799,24.3763],[93.8033,24.3742],[93.8059,24.3766],[93.8044,24.3787],[93.8064,24.3887],[93.8123,24.3897],[93.8124,24.392],[93.806,24.3984],[93.8041,24.3948],[93.7981,24.3931],[93.7972,24.3954],[93.7925,24.3954],[93.7923,24.3979],[93.7956,24.3987],[93.7944,24.4012],[93.7841,24.4004],[93.7832,24.4027],[93.7863,24.4077],[93.7908,24.4091],[93.788,24.4117],[93.7896,24.4158],[93.7956,24.4154],[93.7922,24.4204],[93.7929,24.4244],[93.7998,24.4234],[93.7973,24.426],[93.8006,24.4317],[93.792,24.4288],[93.7818,24.4293],[93.7823,24.425],[93.7876,24.4221],[93.7857,24.419],[93.7874,24.4176],[93.7803,24.4124],[93.7789,24.416],[93.7729,24.4164],[93.7762,24.4103],[93.773,24.4018],[93.7648,24.4022],[93.7624,24.4055],[93.7579,24.4066],[93.7576,24.4024],[93.7467,24.4087],[93.7436,24.4073],[93.7439,24.4028],[93.7409,24.4003],[93.7398,24.4026],[93.7371,24.3973],[93.7307,24.4064],[93.7318,24.4128],[93.7247,24.4162],[93.7321,24.4164],[93.7307,24.4209],[93.7348,24.4213],[93.735,24.4256],[93.7268,24.4238],[93.7249,24.4187],[93.7202,24.4162],[93.7155,24.4079],[93.7162,24.403],[93.7121,24.4037],[93.7064,24.4008],[93.7029,24.4027],[93.6984,24.4],[93.7015,24.407],[93.6963,24.4086],[93.7015,24.4085],[93.7046,24.4128],[93.7025,24.4224],[93.6979,24.4246],[93.7028,24.4251],[93.7042,24.427],[93.7018,24.4279],[93.7068,24.429],[93.7035,24.4329],[93.709,24.4339],[93.7117,24.449],[93.7231,24.4617],[93.7207,24.4624],[93.7233,24.4638],[93.7187,24.4669],[93.7227,24.4708],[93.7174,24.4727],[93.7221,24.4732],[93.7267,24.4823],[93.7258,24.4848],[93.73,24.485],[93.727,24.4876],[93.7293,24.4885],[93.7275,24.4955],[93.7252,24.4963],[93.7279,24.5013],[93.7248,24.504],[93.7317,24.5122],[93.731,24.518],[93.7282,24.5195],[93.732,24.5211],[93.7295,24.5241],[93.7327,24.5455],[93.7296,24.5508],[93.7302,24.5548],[93.7279,24.5562],[93.7314,24.5571],[93.7305,24.5618],[93.7326,24.5622],[93.7282,24.567],[93.7303,24.5672],[93.7293,24.57],[93.7251,24.5712],[93.729,24.5714],[93.7275,24.5734],[93.7298,24.5735],[93.7291,24.5783],[93.7311,24.5804],[93.7347,24.5801],[93.7366,24.5951],[93.7341,24.6045],[93.7386,24.6089],[93.7342,24.6134],[93.7343,24.6175],[93.7227,24.621]]]},"properties":{"dtname":"Churachandpur","stname":"MANIPUR","stcode11":"14","dtcode11":"274","year_stat":"2011_c","Shape_Length":411993.1714637592,"Shape_Area":2969694317.234106,"OBJECTID":380,"test":0,"Dist_LGD":254,"State_LGD":14}},{"type":"Feature","id":562,"geometry":{"type":"Polygon","coordinates":[[[94.028,25.0546],[94.0255,25.0577],[94.0207,25.0465],[94.0162,25.0447],[94.0172,25.0367],[94.0147,25.0302],[94.0222,25.0168],[94.0195,25.0044],[94.0082,25.0016],[94.004,25.0039],[93.9976,24.9942],[93.9978,24.9913],[94.0081,24.9979],[94.0206,24.9987],[94.0153,24.962],[94.0122,24.9541],[94.0066,24.9503],[94.0012,24.9506],[94.0034,24.9531],[94.0018,24.9561],[94.0033,24.9599],[93.9952,24.9683],[93.9819,24.9694],[93.9929,24.9613],[93.9943,24.9567],[93.9916,24.9538],[93.9829,24.9571],[93.973,24.9555],[93.9728,24.963],[93.9697,24.9648],[93.9666,24.9644],[93.9641,24.9598],[93.9534,24.9651],[93.9594,24.9581],[93.9519,24.9529],[93.9537,24.9514],[93.9643,24.9534],[93.9649,24.9485],[93.9815,24.9474],[93.9784,24.9428],[93.984,24.9422],[93.981,24.9385],[93.9843,24.9356],[93.9816,24.9295],[93.9821,24.9262],[93.9853,24.9248],[93.982,24.922],[93.9846,24.92],[93.9804,24.9192],[93.9772,24.9149],[93.9774,24.9182],[93.974,24.9214],[93.9746,24.9306],[93.9688,24.9326],[93.9691,24.9374],[93.9664,24.9392],[93.962,24.9358],[93.9525,24.9387],[93.9488,24.9324],[93.9611,24.9297],[93.9631,24.9264],[93.9623,24.9228],[93.955,24.9225],[93.9471,24.9189],[93.9476,24.913],[93.9573,24.9163],[93.9609,24.9146],[93.9549,24.9077],[93.9464,24.9043],[93.9526,24.9018],[93.95,24.8979],[93.9406,24.8968],[93.935,24.893],[93.9338,24.8959],[93.9292,24.8973],[93.9326,24.9049],[93.9119,24.9],[93.9186,24.9113],[93.897,24.9077],[93.8997,24.8973],[93.9052,24.8918],[93.9027,24.8866],[93.9058,24.8816],[93.9113,24.8868],[93.9173,24.8842],[93.9189,24.8802],[93.9165,24.8793],[93.9163,24.8749],[93.9077,24.869],[93.8992,24.8588],[93.9038,24.854],[93.9231,24.8587],[93.9183,24.8538],[93.919,24.8514],[93.9285,24.8487],[93.9319,24.8442],[93.9373,24.8442],[93.9387,24.8373],[93.946,24.831],[93.9448,24.8253],[93.9405,24.8255],[93.9381,24.8145],[93.9331,24.8088],[93.9355,24.7994],[93.9406,24.8019],[93.9444,24.8],[93.9411,24.7949],[93.9433,24.7908],[93.9398,24.7832],[93.9333,24.7507],[93.9455,24.7098],[93.9479,24.7076],[93.9558,24.7083],[93.9538,24.701],[93.9596,24.699],[93.9625,24.6931],[93.9591,24.6831],[93.953,24.6845],[93.958,24.6772],[93.958,24.6705],[93.9737,24.6662],[93.9753,24.6706],[93.9789,24.6688],[93.9939,24.6854],[94.0018,24.6867],[94.0067,24.6721],[94.0022,24.6654],[94.0108,24.6512],[94.0119,24.6565],[94.02,24.6581],[94.0187,24.669],[94.0205,24.6707],[94.0241,24.6669],[94.0264,24.6723],[94.0251,24.675],[94.0285,24.6744],[94.0326,24.6687],[94.0322,24.6732],[94.0346,24.6754],[94.0366,24.6734],[94.0341,24.6729],[94.0356,24.67],[94.0409,24.6741],[94.0392,24.6777],[94.0451,24.6781],[94.0492,24.6817],[94.0514,24.6789],[94.0528,24.6829],[94.0589,24.6824],[94.064,24.6858],[94.0694,24.6835],[94.0705,24.6879],[94.073,24.6849],[94.0762,24.6897],[94.0782,24.6865],[94.0807,24.6901],[94.0772,24.6933],[94.0722,24.6937],[94.0712,24.7043],[94.0655,24.7061],[94.0602,24.7034],[94.0582,24.6989],[94.0599,24.6973],[94.0566,24.6953],[94.0583,24.6934],[94.0529,24.6936],[94.0545,24.6983],[94.0528,24.7001],[94.0552,24.7013],[94.0521,24.7037],[94.0582,24.7045],[94.0588,24.7074],[94.0541,24.7092],[94.0587,24.7105],[94.0555,24.7121],[94.0586,24.7137],[94.0534,24.7153],[94.0607,24.7195],[94.0529,24.7181],[94.0499,24.7213],[94.0518,24.7229],[94.0505,24.7245],[94.0524,24.7278],[94.0597,24.7283],[94.0531,24.7309],[94.0539,24.7334],[94.0596,24.7351],[94.0545,24.7369],[94.0548,24.7404],[94.0612,24.7391],[94.0605,24.7423],[94.0645,24.7411],[94.0654,24.7454],[94.068,24.745],[94.0651,24.7499],[94.0698,24.7499],[94.0679,24.7537],[94.072,24.7763],[94.0858,24.8195],[94.0992,24.8232],[94.0896,24.8316],[94.0857,24.8489],[94.0884,24.8511],[94.1009,24.8524],[94.1065,24.8783],[94.1143,24.8836],[94.1239,24.9062],[94.1343,24.9149],[94.1352,24.9185],[94.1312,24.9234],[94.1312,24.9323],[94.1256,24.9361],[94.1212,24.9357],[94.1199,24.92],[94.1149,24.916],[94.1073,24.9142],[94.1051,24.9069],[94.0966,24.9007],[94.0894,24.9014],[94.09,24.8957],[94.0848,24.8867],[94.0755,24.8839],[94.0624,24.8758],[94.0561,24.8807],[94.0526,24.8912],[94.0591,24.9368],[94.0536,24.936],[94.0496,24.9414],[94.0449,24.9432],[94.0559,24.9502],[94.04,24.9525],[94.0429,24.9641],[94.0418,24.9696],[94.0281,24.9637],[94.0303,24.9758],[94.0366,24.9803],[94.0398,24.9776],[94.0449,24.9778],[94.047,24.9816],[94.0374,24.9862],[94.0308,24.9859],[94.0331,24.9929],[94.0467,24.9932],[94.0497,24.9952],[94.0495,24.9973],[94.043,24.9966],[94.0456,25.0013],[94.0411,25.0016],[94.0407,25.0048],[94.0326,24.9988],[94.0292,24.9994],[94.0306,25.0062],[94.0281,25.0082],[94.0301,25.0115],[94.033,25.0127],[94.0366,25.01],[94.0398,25.0156],[94.0434,25.0123],[94.0478,25.0136],[94.043,25.0199],[94.0347,25.0164],[94.0309,25.0183],[94.033,25.0214],[94.0281,25.0232],[94.0313,25.0273],[94.0245,25.0334],[94.026,25.0409],[94.0323,25.0516],[94.028,25.0546]]]},"properties":{"dtname":"Imphal East","stname":"MANIPUR","stcode11":"14","dtcode11":"278","year_stat":"2011_c","Shape_Length":262137.69384280732,"Shape_Area":543995350.6699904,"OBJECTID":562,"test":0,"Dist_LGD":255,"State_LGD":14}},{"type":"Feature","id":563,"geometry":{"type":"Polygon","coordinates":[[[93.1215,24.8193],[93.1093,24.8116],[93.1112,24.8002],[93.1083,24.7919],[93.1047,24.7914],[93.1051,24.7812],[93.1004,24.7795],[93.1002,24.7737],[93.1035,24.7673],[93.1023,24.7593],[93.0981,24.7545],[93.101,24.7497],[93.0982,24.7466],[93.101,24.7427],[93.1029,24.7469],[93.1075,24.7411],[93.097,24.7321],[93.0958,24.7243],[93.0906,24.7252],[93.0903,24.7215],[93.0931,24.719],[93.0907,24.7183],[93.0865,24.7096],[93.0824,24.7089],[93.0773,24.7131],[93.0734,24.7079],[93.0817,24.7023],[93.0912,24.6881],[93.09,24.6773],[93.1018,24.6808],[93.1042,24.6755],[93.0964,24.6644],[93.0953,24.6529],[93.0861,24.6528],[93.0831,24.6499],[93.0875,24.6371],[93.0872,24.6298],[93.0786,24.629],[93.0756,24.6246],[93.077,24.6202],[93.0841,24.6137],[93.0738,24.6057],[93.0711,24.6],[93.0802,24.5902],[93.0917,24.5923],[93.1039,24.5852],[93.1029,24.5811],[93.0928,24.5814],[93.0878,24.5724],[93.0938,24.5664],[93.0933,24.5635],[93.0961,24.5627],[93.0994,24.5652],[93.1089,24.5634],[93.1263,24.5538],[93.1338,24.5534],[93.136,24.5454],[93.148,24.5443],[93.1479,24.5412],[93.1523,24.5384],[93.1512,24.5419],[93.1571,24.5399],[93.1596,24.5365],[93.165,24.5382],[93.1771,24.5361],[93.1803,24.5462],[93.1886,24.5511],[93.1909,24.5576],[93.1968,24.5637],[93.1958,24.5669],[93.1898,24.5675],[93.1905,24.5707],[93.1974,24.5724],[93.2031,24.5683],[93.2055,24.5691],[93.2039,24.574],[93.2058,24.5783],[93.2015,24.5805],[93.2025,24.5862],[93.2052,24.589],[93.2095,24.5857],[93.2169,24.5936],[93.2166,24.6011],[93.213,24.608],[93.2143,24.6177],[93.2096,24.6272],[93.22,24.6288],[93.2219,24.639],[93.2138,24.6496],[93.2125,24.6563],[93.2079,24.6625],[93.212,24.6674],[93.2171,24.6651],[93.219,24.6715],[93.2162,24.6739],[93.2069,24.6708],[93.2041,24.6747],[93.2086,24.6878],[93.2162,24.6994],[93.2062,24.6994],[93.2014,24.7015],[93.2003,24.7046],[93.2014,24.7103],[93.205,24.7139],[93.2157,24.7173],[93.2179,24.7241],[93.2222,24.722],[93.2224,24.732],[93.2323,24.7527],[93.2251,24.7596],[93.2251,24.7643],[93.2117,24.7612],[93.2053,24.7679],[93.2038,24.7731],[93.1998,24.7718],[93.1963,24.779],[93.1893,24.7793],[93.1901,24.7847],[93.1832,24.7879],[93.1811,24.7857],[93.1783,24.7921],[93.1743,24.7942],[93.1731,24.8017],[93.1618,24.797],[93.1541,24.7888],[93.1486,24.7877],[93.1511,24.7948],[93.1416,24.7974],[93.141,24.8014],[93.1346,24.8082],[93.1385,24.8101],[93.1347,24.8107],[93.1312,24.8053],[93.1269,24.8089],[93.1182,24.8081],[93.1215,24.8193]]]},"properties":{"dtname":"Jiribam","stname":"MANIPUR","stcode11":"14","dtcode11":"766","year_stat":"2016_c","Shape_Length":130651.06351051651,"Shape_Area":400972993.9260242,"OBJECTID":563,"test":0,"Dist_LGD":713,"State_LGD":14}},{"type":"Feature","id":564,"geometry":{"type":"Polygon","coordinates":[[[93.9606,25.3916],[93.9213,25.3953],[93.9229,25.3898],[93.9208,25.3859],[93.9085,25.3822],[93.8992,25.3643],[93.8994,25.3567],[93.8873,25.3487],[93.8895,25.3441],[93.8876,25.335],[93.9192,25.3278],[93.9369,25.3103],[93.9367,25.3057],[93.9434,25.2952],[93.9552,25.2902],[93.9526,25.2812],[93.9168,25.2683],[93.9078,25.2737],[93.9027,25.2722],[93.8881,25.2628],[93.883,25.2562],[93.8681,25.2488],[93.8561,25.2357],[93.8536,25.2287],[93.8452,25.2273],[93.8379,25.2218],[93.8259,25.2224],[93.8214,25.219],[93.817,25.2073],[93.8111,25.2062],[93.8121,25.2017],[93.8021,25.1884],[93.8019,25.1845],[93.797,25.1835],[93.797,25.1759],[93.7909,25.1736],[93.7924,25.1674],[93.7839,25.1669],[93.7821,25.1608],[93.7776,25.1585],[93.7775,25.153],[93.7728,25.1541],[93.7722,25.1497],[93.7784,25.1364],[93.7799,25.1262],[93.7832,25.1262],[93.7914,25.1146],[93.7969,25.1011],[93.7944,25.0981],[93.7934,25.0866],[93.7962,25.08],[93.7944,25.0696],[93.7984,25.0589],[93.8081,25.0504],[93.8098,25.0464],[93.8084,25.0429],[93.8161,25.0304],[93.8169,25.0207],[93.8117,25.0179],[93.8007,25.0206],[93.7906,25.0165],[93.7875,25.0068],[93.7934,24.995],[93.7888,24.9908],[93.7989,24.9792],[93.8007,24.9684],[93.7976,24.9658],[93.7997,24.9574],[93.7979,24.9538],[93.7929,24.9535],[93.7923,24.9501],[93.7882,24.9501],[93.7816,24.9457],[93.7772,24.9245],[93.7684,24.914],[93.7586,24.9075],[93.7595,24.903],[93.7668,24.8957],[93.7614,24.8824],[93.7693,24.8689],[93.7682,24.8635],[93.7721,24.8493],[93.7648,24.843],[93.762,24.8437],[93.7613,24.83],[93.7498,24.8259],[93.7496,24.8141],[93.7435,24.8073],[93.751,24.8057],[93.7497,24.796],[93.7579,24.7918],[93.7563,24.7882],[93.749,24.7913],[93.7477,24.7879],[93.7513,24.7856],[93.7414,24.7683],[93.7437,24.7646],[93.7401,24.7621],[93.7351,24.7481],[93.7267,24.747],[93.7306,24.7274],[93.7294,24.7199],[93.733,24.7146],[93.7327,24.7112],[93.7389,24.7046],[93.7284,24.6921],[93.7238,24.6919],[93.7328,24.6638],[93.7258,24.659],[93.7194,24.6587],[93.708,24.6448],[93.7183,24.6388],[93.721,24.6311],[93.7225,24.6324],[93.7236,24.629],[93.7293,24.6274],[93.7293,24.6242],[93.7338,24.6281],[93.7378,24.6268],[93.7347,24.6214],[93.7415,24.6253],[93.7453,24.6382],[93.75,24.6442],[93.7495,24.6818],[93.7549,24.6869],[93.7631,24.6848],[93.7682,24.693],[93.7662,24.6982],[93.7689,24.6994],[93.7712,24.7074],[93.7693,24.7154],[93.7744,24.7293],[93.7699,24.7351],[93.7723,24.7401],[93.777,24.7408],[93.7792,24.7535],[93.7819,24.7543],[93.7843,24.7631],[93.7886,24.7644],[93.7888,24.768],[93.7925,24.7654],[93.7912,24.7705],[93.7889,24.7709],[93.7918,24.779],[93.7867,24.785],[93.7866,24.7919],[93.7816,24.8045],[93.7858,24.8074],[93.7855,24.8143],[93.7902,24.8222],[93.7987,24.8304],[93.8086,24.8358],[93.8107,24.8581],[93.8067,24.8647],[93.8106,24.8721],[93.8179,24.874],[93.8206,24.887],[93.8273,24.8945],[93.8276,24.9016],[93.8315,24.9082],[93.8306,24.9139],[93.8341,24.9209],[93.8368,24.9248],[93.8459,24.9295],[93.8432,24.9382],[93.8441,24.9445],[93.8476,24.9481],[93.8478,24.955],[93.8636,24.9604],[93.8744,24.9876],[93.8789,24.9883],[93.8992,24.9822],[93.9018,24.977],[93.9068,24.9761],[93.9068,24.9732],[93.914,24.9728],[93.9142,24.9707],[93.9068,24.9692],[93.9092,24.9659],[93.9049,24.9646],[93.9013,24.9578],[93.8917,24.9553],[93.8906,24.9451],[93.8865,24.9397],[93.8926,24.9371],[93.8961,24.9391],[93.8958,24.9318],[93.9037,24.9337],[93.9082,24.929],[93.9096,24.9453],[93.9177,24.9558],[93.9198,24.9627],[93.9244,24.9685],[93.9266,24.9643],[93.9318,24.9676],[93.9269,24.96],[93.9211,24.9417],[93.9224,24.9272],[93.9254,24.9255],[93.921,24.9206],[93.9206,24.9147],[93.9171,24.9137],[93.9185,24.9107],[93.9119,24.9],[93.9326,24.9049],[93.9292,24.8973],[93.9338,24.8959],[93.935,24.893],[93.9406,24.8968],[93.95,24.8979],[93.9526,24.9018],[93.9464,24.9043],[93.9549,24.9077],[93.9609,24.9146],[93.9573,24.9163],[93.9476,24.913],[93.9471,24.9189],[93.955,24.9225],[93.9623,24.9228],[93.9631,24.9264],[93.9611,24.9297],[93.9488,24.9324],[93.9519,24.9351],[93.9515,24.938],[93.9629,24.9358],[93.9661,24.9392],[93.9681,24.9383],[93.9688,24.9326],[93.9746,24.9306],[93.974,24.9214],[93.9774,24.9182],[93.9772,24.9149],[93.9804,24.9192],[93.9847,24.9202],[93.982,24.922],[93.9853,24.9247],[93.9817,24.9279],[93.9843,24.9356],[93.981,24.9385],[93.9839,24.9427],[93.9785,24.9422],[93.9815,24.9474],[93.9649,24.9485],[93.9643,24.9534],[93.9537,24.9514],[93.9519,24.9529],[93.9594,24.9581],[93.9534,24.9651],[93.9641,24.9598],[93.9666,24.9644],[93.9697,24.9648],[93.9728,24.963],[93.973,24.9555],[93.9829,24.9571],[93.9916,24.9538],[93.9943,24.9567],[93.9929,24.9613],[93.9819,24.9694],[93.9952,24.9683],[94.0033,24.9599],[94.0018,24.9561],[94.0034,24.9531],[94.0012,24.9506],[94.0075,24.9507],[94.0136,24.9564],[94.0206,24.9987],[94.0081,24.9979],[93.9978,24.9913],[93.9976,24.9942],[94.004,25.0039],[94.0082,25.0016],[94.0195,25.0044],[94.0222,25.0168],[94.0147,25.0302],[94.0172,25.0367],[94.0162,25.0447],[94.0207,25.0465],[94.0265,25.0577],[94.0323,25.0516],[94.026,25.0409],[94.0245,25.0334],[94.0313,25.0273],[94.0281,25.0232],[94.033,25.0214],[94.0309,25.0183],[94.0347,25.0164],[94.043,25.0199],[94.0478,25.0136],[94.0434,25.0123],[94.0398,25.0156],[94.0366,25.01],[94.033,25.0127],[94.0301,25.0115],[94.0281,25.0082],[94.0306,25.0062],[94.0292,24.9994],[94.0326,24.9988],[94.0407,25.0048],[94.0411,25.0016],[94.0456,25.0013],[94.043,24.9966],[94.0495,24.9973],[94.0497,24.9952],[94.0467,24.9932],[94.0331,24.9929],[94.0308,24.9859],[94.0374,24.9862],[94.047,24.9816],[94.0449,24.9778],[94.0398,24.9776],[94.0366,24.9803],[94.0303,24.9758],[94.0281,24.9637],[94.0418,24.9696],[94.0429,24.9641],[94.04,24.9525],[94.0559,24.9502],[94.0449,24.9432],[94.0496,24.9414],[94.0536,24.936],[94.0591,24.9368],[94.0526,24.8912],[94.0561,24.8807],[94.0624,24.8758],[94.0755,24.8839],[94.0848,24.8867],[94.09,24.8957],[94.0894,24.9014],[94.0966,24.9007],[94.1051,24.9069],[94.1073,24.9142],[94.1149,24.916],[94.1199,24.92],[94.1212,24.9357],[94.1256,24.9361],[94.1312,24.9323],[94.1312,24.9234],[94.1352,24.9199],[94.1343,24.9149],[94.1249,24.9074],[94.1206,24.9005],[94.1143,24.8836],[94.1065,24.8783],[94.1014,24.8532],[94.0857,24.8489],[94.0896,24.8316],[94.0992,24.8232],[94.0858,24.8195],[94.072,24.7763],[94.0679,24.7537],[94.0698,24.7499],[94.0651,24.7499],[94.068,24.745],[94.0654,24.7454],[94.0645,24.7411],[94.0605,24.7423],[94.0612,24.7391],[94.0548,24.7404],[94.0545,24.7369],[94.0596,24.7351],[94.0539,24.7334],[94.0531,24.7309],[94.0597,24.7283],[94.0524,24.7278],[94.0499,24.7213],[94.0535,24.7178],[94.0607,24.7195],[94.0534,24.7153],[94.0586,24.7137],[94.0555,24.7121],[94.0587,24.7105],[94.0541,24.7092],[94.0588,24.7074],[94.0582,24.7045],[94.0521,24.7037],[94.0552,24.7013],[94.0528,24.7001],[94.0545,24.6983],[94.0523,24.6965],[94.0545,24.695],[94.0528,24.6938],[94.0583,24.6934],[94.0566,24.6953],[94.0599,24.6973],[94.0582,24.6989],[94.0602,24.7034],[94.0655,24.7061],[94.0712,24.7043],[94.0722,24.6937],[94.0806,24.6914],[94.0801,24.6892],[94.0857,24.6941],[94.0904,24.6919],[94.0947,24.6964],[94.0968,24.7036],[94.1016,24.7077],[94.1005,24.7097],[94.1039,24.7098],[94.0977,24.7152],[94.101,24.7165],[94.1046,24.7114],[94.1107,24.7134],[94.1095,24.7157],[94.1031,24.717],[94.1063,24.7178],[94.1115,24.7154],[94.1137,24.7092],[94.1164,24.7097],[94.1155,24.7157],[94.1184,24.7185],[94.1158,24.722],[94.1209,24.7257],[94.1211,24.7297],[94.1276,24.7301],[94.1189,24.7144],[94.12,24.7099],[94.1179,24.7064],[94.1209,24.7044],[94.1172,24.7028],[94.1171,24.6997],[94.1281,24.6927],[94.1334,24.692],[94.1392,24.6961],[94.1432,24.6957],[94.139,24.6926],[94.1428,24.6895],[94.1359,24.6909],[94.1341,24.6883],[94.1178,24.6889],[94.1193,24.6822],[94.113,24.6796],[94.115,24.6771],[94.1057,24.679],[94.1049,24.6751],[94.1016,24.6754],[94.0948,24.6688],[94.097,24.6616],[94.1071,24.655],[94.106,24.651],[94.1103,24.6442],[94.105,24.6494],[94.1097,24.6327],[94.1236,24.6221],[94.1229,24.6176],[94.135,24.6158],[94.1477,24.6166],[94.1562,24.6225],[94.1619,24.6225],[94.1633,24.6283],[94.168,24.633],[94.2003,24.6255],[94.1971,24.655],[94.1888,24.6616],[94.1823,24.6715],[94.1876,24.6847],[94.1876,24.7158],[94.172,24.7339],[94.1792,24.7485],[94.1753,24.7549],[94.1784,24.7597],[94.179,24.7676],[94.1724,24.7764],[94.1659,24.7787],[94.1606,24.7949],[94.1521,24.7986],[94.1439,24.7973],[94.1331,24.8026],[94.1361,24.8115],[94.1406,24.8162],[94.1392,24.8273],[94.1466,24.8294],[94.1436,24.8307],[94.1461,24.8319],[94.143,24.838],[94.1467,24.8407],[94.14,24.8471],[94.1421,24.8489],[94.141,24.8521],[94.1361,24.8572],[94.1374,24.8597],[94.1428,24.8592],[94.1428,24.8711],[94.1394,24.8702],[94.1412,24.8737],[94.1457,24.8723],[94.1474,24.8833],[94.1561,24.8838],[94.1545,24.8897],[94.1585,24.8978],[94.1558,24.899],[94.1577,24.9039],[94.1555,24.9056],[94.1597,24.909],[94.1588,24.9157],[94.1646,24.9143],[94.166,24.9193],[94.17,24.9208],[94.1666,24.9275],[94.1681,24.9342],[94.1659,24.9361],[94.1719,24.9371],[94.1702,24.9413],[94.1633,24.9468],[94.1591,24.9588],[94.1536,24.9646],[94.154,24.9742],[94.1452,24.9987],[94.1503,25.0208],[94.1472,25.0274],[94.1486,25.0352],[94.1427,25.0408],[94.141,25.0501],[94.1244,25.0533],[94.1258,25.0571],[94.1225,25.0583],[94.1233,25.0651],[94.1188,25.0655],[94.1174,25.0701],[94.1192,25.0744],[94.1174,25.0769],[94.1205,25.0795],[94.1219,25.0781],[94.1234,25.0827],[94.1183,25.0906],[94.1295,25.1013],[94.1295,25.1121],[94.135,25.1129],[94.1322,25.1188],[94.1378,25.1185],[94.1417,25.1213],[94.1468,25.1268],[94.1447,25.1288],[94.1491,25.1344],[94.1532,25.1305],[94.1522,25.1336],[94.1572,25.1377],[94.1572,25.1329],[94.1648,25.1334],[94.1607,25.1426],[94.166,25.1417],[94.1679,25.1511],[94.1727,25.1505],[94.1756,25.1566],[94.1729,25.1606],[94.1811,25.1592],[94.1809,25.1618],[94.1765,25.1643],[94.1796,25.1678],[94.1891,25.1696],[94.1924,25.1739],[94.1918,25.1765],[94.1986,25.1782],[94.2054,25.1764],[94.1931,25.1867],[94.1262,25.1731],[94.0727,25.1702],[94.0598,25.1773],[93.9975,25.1921],[94.0165,25.2381],[94.0174,25.2533],[94.006,25.2686],[93.9794,25.279],[93.9708,25.2923],[93.9746,25.3076],[93.9917,25.3471],[93.9879,25.3744],[93.9808,25.3823],[93.9606,25.3916]]]},"properties":{"dtname":"Kangpokpi","stname":"MANIPUR","stcode11":"14","dtcode11":"767","year_stat":"2016_c","Shape_Length":638249.5123132772,"Shape_Area":1963737140.6156166,"OBJECTID":564,"test":0,"Dist_LGD":712,"State_LGD":14}},{"type":"Feature","id":565,"geometry":{"type":"Polygon","coordinates":[[[94.1276,24.7301],[94.1211,24.7297],[94.1209,24.7257],[94.1158,24.722],[94.1184,24.7185],[94.1155,24.7157],[94.1164,24.7097],[94.1137,24.7092],[94.1115,24.7154],[94.1063,24.7178],[94.1031,24.717],[94.1095,24.7157],[94.1107,24.7134],[94.1046,24.7114],[94.101,24.7165],[94.0977,24.7152],[94.1039,24.7098],[94.1005,24.7097],[94.1016,24.7077],[94.0968,24.7036],[94.0947,24.6964],[94.0905,24.6919],[94.0857,24.6941],[94.0785,24.6865],[94.0762,24.6897],[94.0733,24.685],[94.0702,24.6877],[94.0694,24.6835],[94.064,24.6858],[94.0589,24.6824],[94.0528,24.6829],[94.0514,24.6789],[94.0492,24.6817],[94.0451,24.6781],[94.0392,24.6777],[94.0409,24.6741],[94.0356,24.67],[94.0341,24.6729],[94.0366,24.6734],[94.0346,24.6754],[94.0322,24.6732],[94.0326,24.6687],[94.0285,24.6744],[94.0251,24.675],[94.0264,24.6723],[94.0241,24.6669],[94.0205,24.6707],[94.0187,24.669],[94.02,24.6581],[94.0119,24.6565],[94.0108,24.6512],[94.0022,24.6654],[94.0067,24.6721],[94.0018,24.6867],[93.9939,24.6854],[93.9789,24.6688],[93.9753,24.6706],[93.9737,24.6662],[93.958,24.6705],[93.958,24.6772],[93.953,24.6845],[93.9591,24.6831],[93.9625,24.6931],[93.9596,24.699],[93.9538,24.701],[93.9558,24.7083],[93.9469,24.708],[93.942,24.7203],[93.9373,24.7157],[93.9283,24.7131],[93.9239,24.704],[93.9167,24.7056],[93.9125,24.6999],[93.9045,24.7],[93.9073,24.6929],[93.9048,24.685],[93.9094,24.6819],[93.9049,24.6785],[93.9046,24.6752],[93.9173,24.6721],[93.9143,24.6664],[93.9159,24.6644],[93.9283,24.6632],[93.9328,24.6648],[93.9349,24.6491],[93.9261,24.6531],[93.9195,24.6402],[93.9004,24.6309],[93.8998,24.6193],[93.8887,24.616],[93.8941,24.6096],[93.8988,24.6078],[93.9067,24.6144],[93.912,24.6109],[93.9111,24.5927],[93.9048,24.5914],[93.9113,24.5825],[93.9117,24.5735],[93.9056,24.5622],[93.899,24.557],[93.9006,24.5543],[93.9125,24.555],[93.9105,24.5622],[93.9167,24.5674],[93.9215,24.5769],[93.9548,24.5779],[93.9577,24.5694],[93.9557,24.5643],[93.9618,24.5587],[93.9606,24.5553],[93.9647,24.5577],[93.98,24.556],[93.9907,24.5471],[93.9958,24.5496],[94.0093,24.5465],[94.0166,24.5412],[94.0177,24.5329],[94.022,24.5286],[94.0207,24.5234],[94.0238,24.5202],[94.0348,24.522],[94.0349,24.5263],[94.0312,24.5282],[94.0344,24.5351],[94.0285,24.5378],[94.0318,24.5394],[94.0332,24.5511],[94.0353,24.5525],[94.0379,24.5447],[94.0354,24.5405],[94.0427,24.5375],[94.0419,24.5335],[94.0455,24.5296],[94.0447,24.5277],[94.0508,24.5291],[94.0524,24.5363],[94.056,24.539],[94.0581,24.5373],[94.0576,24.5327],[94.0608,24.5327],[94.0641,24.5286],[94.0573,24.5239],[94.0669,24.526],[94.0663,24.5224],[94.0732,24.5184],[94.0723,24.5152],[94.0767,24.5148],[94.0874,24.5201],[94.076,24.5225],[94.0744,24.5265],[94.0765,24.5321],[94.0726,24.5326],[94.0678,24.5402],[94.0698,24.5422],[94.069,24.5477],[94.0655,24.5501],[94.0684,24.5553],[94.0663,24.5576],[94.0676,24.5645],[94.0764,24.5571],[94.0779,24.5433],[94.084,24.5548],[94.0833,24.5596],[94.0784,24.5623],[94.0792,24.567],[94.0828,24.5664],[94.0869,24.5698],[94.107,24.5565],[94.1078,24.5519],[94.1181,24.5438],[94.1192,24.5397],[94.125,24.54],[94.1273,24.5423],[94.123,24.5416],[94.1156,24.5485],[94.1048,24.5641],[94.114,24.5646],[94.1063,24.5675],[94.1116,24.5744],[94.0991,24.5679],[94.1032,24.5778],[94.0975,24.5747],[94.0946,24.5784],[94.0962,24.5833],[94.0922,24.5835],[94.0944,24.5885],[94.0886,24.5952],[94.0935,24.5962],[94.0973,24.5924],[94.0994,24.6001],[94.0964,24.6018],[94.088,24.6001],[94.0951,24.6107],[94.1124,24.6115],[94.1242,24.6191],[94.1214,24.6244],[94.1114,24.6304],[94.1075,24.6361],[94.1074,24.6453],[94.105,24.6494],[94.1103,24.6442],[94.106,24.651],[94.1071,24.655],[94.097,24.6616],[94.0946,24.6681],[94.0999,24.6743],[94.1049,24.6751],[94.1057,24.679],[94.115,24.6771],[94.113,24.6796],[94.1193,24.6822],[94.1178,24.6889],[94.1341,24.6883],[94.1359,24.6909],[94.1427,24.6893],[94.139,24.6926],[94.1432,24.6957],[94.1392,24.6961],[94.1334,24.692],[94.1281,24.6927],[94.1171,24.6997],[94.1172,24.7028],[94.1209,24.7044],[94.1179,24.7064],[94.12,24.7099],[94.1189,24.7144],[94.1276,24.7301]]]},"properties":{"dtname":"Thoubal","stname":"MANIPUR","stcode11":"14","dtcode11":"276","year_stat":"2011_c","Shape_Length":211022.65101192615,"Shape_Area":362765744.49836576,"OBJECTID":565,"test":0,"Dist_LGD":259,"State_LGD":14}},{"type":"Feature","id":566,"geometry":{"type":"Polygon","coordinates":[[[94.1708,24.6327],[94.168,24.633],[94.1633,24.6283],[94.1619,24.6225],[94.1562,24.6225],[94.1477,24.6166],[94.135,24.6158],[94.1245,24.6181],[94.1124,24.6115],[94.0958,24.611],[94.088,24.6001],[94.0964,24.6018],[94.0994,24.6001],[94.0973,24.5924],[94.0935,24.5962],[94.0886,24.5952],[94.0944,24.5885],[94.0922,24.5835],[94.0962,24.5833],[94.0946,24.5784],[94.0975,24.5747],[94.1032,24.5778],[94.0991,24.5679],[94.1116,24.5744],[94.1063,24.5675],[94.114,24.5646],[94.1048,24.5641],[94.1156,24.5485],[94.123,24.5416],[94.1273,24.5423],[94.125,24.54],[94.1192,24.5397],[94.1181,24.5438],[94.1078,24.5519],[94.107,24.5565],[94.0869,24.5698],[94.0828,24.5664],[94.0792,24.567],[94.0784,24.5623],[94.0833,24.5596],[94.084,24.5548],[94.0779,24.5433],[94.0764,24.5571],[94.0676,24.5645],[94.0663,24.5576],[94.0684,24.5553],[94.0655,24.5501],[94.069,24.5477],[94.0698,24.5422],[94.0678,24.5402],[94.0726,24.5326],[94.0765,24.5321],[94.0744,24.5265],[94.076,24.5225],[94.0874,24.5201],[94.0787,24.5147],[94.0723,24.5152],[94.0732,24.5184],[94.0663,24.5224],[94.0669,24.526],[94.0573,24.5239],[94.0641,24.5286],[94.0608,24.5327],[94.0576,24.5327],[94.0581,24.5373],[94.056,24.539],[94.0524,24.5363],[94.0508,24.5291],[94.0447,24.5277],[94.0455,24.5296],[94.0419,24.5335],[94.0427,24.5375],[94.0355,24.5401],[94.0379,24.5447],[94.0361,24.5518],[94.0335,24.552],[94.0318,24.5394],[94.0285,24.5378],[94.0344,24.5351],[94.0312,24.5282],[94.0349,24.5263],[94.0352,24.5231],[94.0328,24.5208],[94.0268,24.5214],[94.0207,24.5189],[94.0256,24.5121],[94.0218,24.5055],[94.0133,24.5085],[94.0154,24.503],[94.012,24.4964],[94.02,24.4959],[94.0211,24.4896],[94.0188,24.483],[94.0143,24.4801],[94.0172,24.4767],[94.0169,24.4689],[94.0214,24.4549],[94.0239,24.4549],[94.0271,24.4601],[94.0331,24.4608],[94.0359,24.4581],[94.0415,24.4612],[94.04,24.4631],[94.0517,24.4665],[94.0526,24.4625],[94.0422,24.4542],[94.0403,24.4548],[94.038,24.4488],[94.0593,24.4247],[94.0991,24.42],[94.1095,24.4114],[94.1114,24.3971],[94.1295,24.3924],[94.1476,24.3828],[94.1505,24.3676],[94.1533,24.301],[94.179,24.281],[94.2028,24.2667],[94.2114,24.2448],[94.2022,24.215],[94.1979,24.1893],[94.1966,24.134],[94.2331,24.116],[94.2523,24.1144],[94.2516,24.1264],[94.2597,24.1653],[94.2764,24.1734],[94.2915,24.233],[94.2979,24.2372],[94.3016,24.2367],[94.3066,24.2414],[94.3216,24.2763],[94.3217,24.3289],[94.3505,24.3351],[94.3785,24.3797],[94.361,24.3945],[94.3948,24.4095],[94.4072,24.437],[94.4083,24.4399],[94.3968,24.4546],[94.3999,24.4619],[94.3983,24.4823],[94.406,24.4835],[94.4021,24.483],[94.3993,24.4876],[94.3958,24.4836],[94.3953,24.4883],[94.3914,24.4841],[94.3848,24.4883],[94.3859,24.4909],[94.3806,24.496],[94.3747,24.4939],[94.3791,24.5018],[94.3748,24.5017],[94.3758,24.5047],[94.3705,24.5086],[94.3751,24.508],[94.3766,24.5127],[94.3657,24.5119],[94.3689,24.5168],[94.3615,24.5186],[94.3644,24.5239],[94.3636,24.5297],[94.3695,24.5344],[94.3673,24.5359],[94.3704,24.5386],[94.3685,24.5421],[94.3729,24.5478],[94.3633,24.5475],[94.3591,24.5508],[94.3546,24.5461],[94.3483,24.5528],[94.331,24.5489],[94.3276,24.5529],[94.3323,24.5567],[94.3305,24.5602],[94.3334,24.5651],[94.3303,24.5667],[94.3308,24.5644],[94.3265,24.565],[94.3276,24.5679],[94.3246,24.5702],[94.318,24.5682],[94.3108,24.5708],[94.3043,24.5852],[94.3014,24.5818],[94.2927,24.5844],[94.2819,24.6006],[94.2712,24.5957],[94.2677,24.5976],[94.2665,24.5955],[94.2637,24.596],[94.2579,24.6017],[94.2526,24.6142],[94.248,24.6175],[94.2356,24.6146],[94.2227,24.6191],[94.2119,24.6159],[94.2049,24.6197],[94.2008,24.6257],[94.1892,24.6287],[94.1863,24.6275],[94.1708,24.6327]]]},"properties":{"dtname":"Tengnoupal","stname":"MANIPUR","stcode11":"14","dtcode11":"769","year_stat":"2016_c","Shape_Length":261891.9910370201,"Shape_Area":1384202346.2854362,"OBJECTID":566,"test":0,"Dist_LGD":716,"State_LGD":14}},{"type":"Feature","id":567,"geometry":{"type":"Polygon","coordinates":[[[94.5732,25.6916],[94.5637,25.6873],[94.5605,25.6831],[94.5633,25.6747],[94.5563,25.6723],[94.5512,25.6628],[94.5483,25.6614],[94.55,25.6577],[94.5437,25.6546],[94.5455,25.6526],[94.5435,25.65],[94.5393,25.6506],[94.534,25.6419],[94.5293,25.6425],[94.5293,25.6373],[94.5207,25.6388],[94.5182,25.6297],[94.5139,25.6283],[94.5129,25.625],[94.5069,25.6239],[94.5052,25.6136],[94.4949,25.6128],[94.4941,25.609],[94.491,25.6079],[94.4912,25.6016],[94.4674,25.582],[94.4668,25.5734],[94.464,25.5721],[94.4647,25.5658],[94.461,25.5621],[94.4636,25.5588],[94.4605,25.5496],[94.4567,25.5493],[94.4514,25.5417],[94.4465,25.5392],[94.4471,25.5354],[94.4403,25.529],[94.4382,25.5146],[94.4336,25.5152],[94.4301,25.5105],[94.4318,25.5006],[94.4268,25.5004],[94.4241,25.4973],[94.4265,25.4903],[94.4238,25.4821],[94.4196,25.4799],[94.4199,25.4766],[94.4137,25.4757],[94.4174,25.4685],[94.4214,25.4661],[94.411,25.4628],[94.4083,25.4523],[94.402,25.447],[94.4034,25.4401],[94.3992,25.4386],[94.3975,25.4313],[94.393,25.4267],[94.3936,25.4235],[94.3864,25.4251],[94.3832,25.4231],[94.3837,25.4208],[94.3896,25.42],[94.3794,25.4078],[94.3826,25.4066],[94.3848,25.4018],[94.3769,25.3926],[94.3757,25.3687],[94.3805,25.3642],[94.3747,25.3616],[94.3775,25.3572],[94.3711,25.3546],[94.3607,25.3454],[94.3596,25.3369],[94.3472,25.3151],[94.3427,25.3103],[94.3356,25.3102],[94.3333,25.3],[94.3274,25.2919],[94.326,25.2808],[94.3195,25.2764],[94.2977,25.2501],[94.2893,25.2457],[94.2892,25.2419],[94.2691,25.234],[94.2638,25.2347],[94.2581,25.2289],[94.2527,25.2289],[94.2499,25.2124],[94.2459,25.2037],[94.2376,25.2024],[94.2328,25.1971],[94.2212,25.194],[94.2192,25.1837],[94.2214,25.183],[94.2186,25.1798],[94.2126,25.1785],[94.214,25.1752],[94.1983,25.1781],[94.1917,25.1764],[94.1924,25.1739],[94.1887,25.1695],[94.1796,25.1678],[94.1765,25.1643],[94.1809,25.1618],[94.1811,25.1592],[94.1729,25.1606],[94.1756,25.1566],[94.1727,25.1505],[94.1679,25.1511],[94.166,25.1417],[94.1607,25.1426],[94.1648,25.1334],[94.1572,25.1329],[94.1572,25.1377],[94.1522,25.1336],[94.1532,25.1305],[94.1491,25.1344],[94.1447,25.1288],[94.1468,25.1268],[94.1417,25.1213],[94.1387,25.1187],[94.132,25.1184],[94.135,25.1129],[94.1295,25.1121],[94.1295,25.1013],[94.1183,25.0906],[94.1234,25.0827],[94.1219,25.0781],[94.1205,25.0795],[94.1174,25.0769],[94.1192,25.0744],[94.1174,25.0698],[94.1188,25.0655],[94.1233,25.0651],[94.1225,25.0583],[94.1258,25.0571],[94.1244,25.0533],[94.141,25.0501],[94.1427,25.0408],[94.1486,25.0352],[94.1472,25.0274],[94.1503,25.0208],[94.1452,24.9988],[94.154,24.9742],[94.1536,24.9646],[94.1591,24.9588],[94.1633,24.9468],[94.1718,24.9374],[94.1659,24.9361],[94.1681,24.9342],[94.1669,24.9269],[94.1923,24.943],[94.222,24.9418],[94.284,24.9611],[94.3325,24.986],[94.3953,24.986],[94.4375,25.0025],[94.4539,25.0174],[94.5303,25.0339],[94.5465,25.0433],[94.5703,25.0719],[94.6112,25.1023],[94.654,25.1157],[94.7368,25.1133],[94.7394,25.1165],[94.7409,25.1266],[94.7379,25.1287],[94.7365,25.1351],[94.7297,25.1344],[94.7181,25.1389],[94.7146,25.1381],[94.7024,25.1455],[94.6975,25.1549],[94.6901,25.1576],[94.6801,25.1489],[94.6774,25.1544],[94.6696,25.1569],[94.6642,25.1628],[94.6483,25.1683],[94.6401,25.1661],[94.62,25.1868],[94.606,25.1814],[94.6033,25.1868],[94.5921,25.1923],[94.5889,25.2032],[94.5814,25.2114],[94.5756,25.2139],[94.5791,25.2162],[94.5829,25.2273],[94.5858,25.2291],[94.5854,25.2387],[94.5878,25.2453],[94.5862,25.2484],[94.5895,25.2554],[94.5851,25.2668],[94.6037,25.3055],[94.6062,25.3065],[94.6044,25.3092],[94.6074,25.3161],[94.6187,25.3298],[94.6238,25.3433],[94.6224,25.3458],[94.6295,25.3489],[94.6344,25.3557],[94.632,25.3809],[94.6347,25.3952],[94.6491,25.4058],[94.6603,25.4057],[94.6731,25.4244],[94.6712,25.4423],[94.6755,25.4456],[94.6557,25.4497],[94.6459,25.4569],[94.6373,25.4558],[94.616,25.4625],[94.6017,25.4766],[94.5953,25.4783],[94.5927,25.484],[94.5815,25.4885],[94.5768,25.4957],[94.5679,25.5009],[94.5539,25.5026],[94.5532,25.5103],[94.5559,25.5108],[94.5569,25.5191],[94.5601,25.5214],[94.5559,25.5235],[94.5545,25.5285],[94.5619,25.5337],[94.5577,25.5367],[94.5578,25.5393],[94.5666,25.548],[94.5651,25.551],[94.5559,25.5547],[94.5643,25.5634],[94.5584,25.5658],[94.561,25.5731],[94.5509,25.5795],[94.5583,25.5831],[94.5599,25.5878],[94.5565,25.5907],[94.5607,25.5943],[94.5596,25.5978],[94.5662,25.5972],[94.5652,25.6032],[94.5719,25.6053],[94.5725,25.6109],[94.5767,25.6164],[94.5758,25.6234],[94.5841,25.6305],[94.5836,25.6342],[94.5859,25.6354],[94.5865,25.6329],[94.5899,25.6366],[94.5918,25.6343],[94.5934,25.6356],[94.588,25.6404],[94.5725,25.6378],[94.5723,25.6418],[94.576,25.6442],[94.5734,25.6478],[94.5801,25.6505],[94.576,25.6553],[94.5836,25.6563],[94.5784,25.6617],[94.5864,25.6638],[94.5842,25.6663],[94.5806,25.6658],[94.5804,25.6688],[94.5851,25.6703],[94.5897,25.6815],[94.5964,25.6823],[94.5895,25.687],[94.5839,25.6849],[94.5787,25.69],[94.5732,25.6916]]]},"properties":{"dtname":"Ukhrul","stname":"MANIPUR","stcode11":"14","dtcode11":"279","year_stat":"2011_c","Shape_Length":346182.0589503633,"Shape_Area":2636689841.317107,"OBJECTID":567,"test":0,"Dist_LGD":260,"State_LGD":14}},{"type":"Feature","id":568,"geometry":{"type":"Polygon","coordinates":[[[93.5959,24.8197],[93.5764,24.8354],[93.5707,24.8206],[93.5607,24.8111],[93.5431,24.8092],[93.4974,24.8235],[93.4075,24.8249],[93.4075,24.8135],[93.3989,24.8064],[93.3718,24.8092],[93.3663,24.7954],[93.3629,24.7583],[93.3525,24.7526],[93.3401,24.7507],[93.3301,24.7264],[93.3406,24.7216],[93.3391,24.7126],[93.3158,24.6917],[93.3034,24.6902],[93.2987,24.6745],[93.2915,24.6674],[93.2791,24.6588],[93.2526,24.6588],[93.239,24.6698],[93.2285,24.6862],[93.2159,24.6981],[93.2091,24.6887],[93.2041,24.6745],[93.2069,24.6708],[93.2159,24.6739],[93.2188,24.6721],[93.2171,24.6651],[93.2116,24.6673],[93.208,24.6621],[93.2219,24.639],[93.22,24.6288],[93.2096,24.6272],[93.2143,24.6177],[93.213,24.608],[93.2166,24.6011],[93.2169,24.5936],[93.2095,24.5857],[93.2052,24.589],[93.2025,24.5862],[93.2015,24.5805],[93.2058,24.5783],[93.2039,24.574],[93.2055,24.5691],[93.2031,24.5683],[93.1974,24.5724],[93.1903,24.5703],[93.1898,24.5675],[93.1958,24.5669],[93.1968,24.5637],[93.1909,24.5576],[93.1886,24.5511],[93.1829,24.5492],[93.1784,24.5431],[93.1772,24.5323],[93.1721,24.5303],[93.1715,24.5194],[93.1765,24.5193],[93.1812,24.5146],[93.1831,24.5248],[93.1912,24.5244],[93.1947,24.5166],[93.202,24.5159],[93.2067,24.5128],[93.2111,24.5028],[93.2181,24.5002],[93.2201,24.4951],[93.2353,24.5151],[93.2442,24.5174],[93.2524,24.5114],[93.2642,24.5117],[93.2636,24.5168],[93.2665,24.5231],[93.2593,24.5265],[93.2678,24.5398],[93.273,24.5429],[93.2735,24.5446],[93.2694,24.5447],[93.2687,24.5471],[93.2727,24.5476],[93.2836,24.5626],[93.2798,24.5659],[93.2822,24.5684],[93.2878,24.5694],[93.3067,24.5654],[93.3306,24.5703],[93.3336,24.5686],[93.3385,24.5758],[93.3441,24.5785],[93.3573,24.5772],[93.3877,24.5678],[93.3912,24.5767],[93.3983,24.5748],[93.4061,24.5632],[93.4315,24.5566],[93.4338,24.5546],[93.4323,24.5523],[93.4489,24.5409],[93.4542,24.5452],[93.4551,24.5538],[93.4629,24.5705],[93.4708,24.5741],[93.4775,24.5732],[93.4832,24.5681],[93.4848,24.5611],[93.4895,24.5578],[93.4897,24.555],[93.494,24.5543],[93.5021,24.5576],[93.5118,24.5659],[93.5315,24.5567],[93.5356,24.5582],[93.5353,24.5695],[93.5386,24.572],[93.5393,24.5765],[93.5465,24.5791],[93.5492,24.5826],[93.5575,24.5825],[93.5584,24.5863],[93.5681,24.5927],[93.5803,24.5809],[93.5798,24.5775],[93.5855,24.5758],[93.5876,24.5696],[93.5957,24.5662],[93.5955,24.5698],[93.605,24.5707],[93.6124,24.5783],[93.6209,24.6008],[93.628,24.6066],[93.631,24.606],[93.6367,24.5987],[93.6489,24.5926],[93.6525,24.6022],[93.662,24.6082],[93.6776,24.6068],[93.6977,24.6132],[93.7032,24.6085],[93.7149,24.6057],[93.7228,24.6137],[93.7242,24.618],[93.7224,24.6209],[93.7343,24.6175],[93.7376,24.6272],[93.7336,24.6281],[93.7293,24.6242],[93.7293,24.6274],[93.7236,24.629],[93.7225,24.6324],[93.721,24.6311],[93.7183,24.6388],[93.708,24.6449],[93.7194,24.6587],[93.7258,24.659],[93.7328,24.6638],[93.7238,24.6919],[93.7284,24.6921],[93.7389,24.7046],[93.7327,24.7112],[93.733,24.7146],[93.7294,24.7199],[93.7306,24.7274],[93.7267,24.747],[93.7351,24.7481],[93.7401,24.7621],[93.7437,24.7646],[93.7414,24.7683],[93.7513,24.7856],[93.7477,24.7879],[93.749,24.7913],[93.7563,24.7882],[93.7579,24.792],[93.6807,24.7935],[93.6611,24.7959],[93.6131,24.8068],[93.5959,24.8197]]]},"properties":{"dtname":"Noney","stname":"MANIPUR","stcode11":"14","dtcode11":"771","year_stat":"2016_c","Shape_Length":247272.20548375932,"Shape_Area":1480257309.1744962,"OBJECTID":568,"test":0,"Dist_LGD":714,"State_LGD":14}},{"type":"Feature","id":569,"geometry":{"type":"Polygon","coordinates":[[[93.3446,24.5785],[93.3385,24.5758],[93.3336,24.5686],[93.3306,24.5703],[93.3067,24.5654],[93.2878,24.5694],[93.281,24.5678],[93.2799,24.5657],[93.2838,24.563],[93.2727,24.5476],[93.269,24.5476],[93.269,24.5449],[93.2734,24.5437],[93.2678,24.5398],[93.2593,24.5265],[93.2665,24.5231],[93.2636,24.5168],[93.2642,24.5117],[93.2524,24.5114],[93.2442,24.5174],[93.2353,24.5151],[93.2201,24.4951],[93.2181,24.5002],[93.2111,24.5028],[93.2067,24.5128],[93.202,24.5159],[93.1947,24.5166],[93.1912,24.5244],[93.1831,24.5248],[93.1812,24.5146],[93.1765,24.5193],[93.1716,24.5193],[93.1721,24.5303],[93.1769,24.5318],[93.1771,24.5361],[93.165,24.5382],[93.1596,24.5365],[93.1513,24.5419],[93.1531,24.539],[93.1516,24.5386],[93.1479,24.5412],[93.148,24.5443],[93.136,24.5454],[93.1338,24.5534],[93.1263,24.5538],[93.1089,24.5634],[93.0994,24.5652],[93.0935,24.5634],[93.0938,24.5664],[93.0878,24.5724],[93.0823,24.5712],[93.0761,24.5751],[93.0621,24.5763],[93.0584,24.5746],[93.0707,24.5582],[93.0645,24.5469],[93.0616,24.5474],[93.0604,24.5537],[93.0569,24.5545],[93.0499,24.5443],[93.0471,24.5287],[93.0504,24.5233],[93.05,24.5195],[93.0386,24.513],[93.0371,24.5095],[93.0427,24.5049],[93.0325,24.4954],[93.0401,24.4864],[93.0463,24.4737],[93.0455,24.4634],[93.0356,24.4599],[93.0363,24.4423],[93.0328,24.4289],[93.0425,24.4207],[93.043,24.4166],[93.0398,24.4119],[93.0245,24.4069],[93.0161,24.4088],[93.0139,24.4171],[93.0088,24.4125],[93.0091,24.4066],[93.0249,24.3914],[93.0229,24.3865],[93.0184,24.3835],[93.0215,24.3733],[93.0177,24.3644],[93.0177,24.3499],[93.0291,24.3446],[93.0349,24.3459],[93.0404,24.3421],[93.0342,24.3224],[93.0231,24.3022],[93.0081,24.2872],[93.0068,24.2826],[93.0077,24.2766],[93.0122,24.271],[93.0048,24.2622],[93.0042,24.2576],[93.0093,24.2434],[93.0165,24.2359],[93.0239,24.234],[93.0159,24.2246],[93.0219,24.2179],[93.0142,24.1993],[92.9994,24.197],[92.9994,24.1936],[93.0077,24.1821],[93.0031,24.1738],[93.006,24.1618],[93.0033,24.1579],[92.9883,24.1494],[92.9906,24.1371],[92.9835,24.1255],[92.9749,24.1255],[92.971,24.1211],[92.9728,24.1126],[92.991,24.1156],[93.0096,24.1068],[93.0128,24.1014],[93.0269,24.1008],[93.0344,24.097],[93.0381,24.092],[93.0417,24.0929],[93.0467,24.09],[93.0606,24.0919],[93.0697,24.0993],[93.0784,24.1018],[93.0877,24.0814],[93.092,24.0803],[93.0976,24.0731],[93.0995,24.0632],[93.0971,24.0564],[93.1009,24.0528],[93.0973,24.0498],[93.0969,24.0441],[93.0994,24.0432],[93.1038,24.0497],[93.1065,24.0485],[93.1141,24.0557],[93.1179,24.0558],[93.1182,24.0591],[93.1211,24.0587],[93.1197,24.0605],[93.126,24.0622],[93.1334,24.0786],[93.1405,24.0879],[93.151,24.084],[93.1612,24.0733],[93.1659,24.0737],[93.1628,24.0599],[93.1635,24.055],[93.1675,24.0514],[93.1874,24.0538],[93.2097,24.0482],[93.2127,24.0493],[93.2204,24.0613],[93.2226,24.0709],[93.219,24.078],[93.2203,24.0834],[93.2247,24.0846],[93.2498,24.0804],[93.261,24.0702],[93.2631,24.0583],[93.2572,24.0514],[93.2508,24.033],[93.2552,24.028],[93.2533,24.0212],[93.2713,24.0339],[93.2738,24.0394],[93.2822,24.043],[93.2865,24.0477],[93.2864,24.0526],[93.2938,24.0489],[93.3029,24.0528],[93.3177,24.0532],[93.3242,24.0483],[93.3262,24.0485],[93.3272,24.0531],[93.3323,24.0536],[93.3384,24.0621],[93.3361,24.0636],[93.337,24.0677],[93.3333,24.07],[93.3343,24.0745],[93.3307,24.0732],[93.3284,24.0773],[93.3309,24.0855],[93.3364,24.0906],[93.3451,24.0915],[93.3474,24.0876],[93.3541,24.0909],[93.3493,24.0954],[93.3464,24.0946],[93.3428,24.0974],[93.3425,24.1029],[93.3488,24.1049],[93.3486,24.1014],[93.3507,24.1002],[93.3484,24.0991],[93.3544,24.099],[93.3545,24.096],[93.3592,24.0939],[93.3584,24.0911],[93.3638,24.0921],[93.3774,24.0885],[93.3759,24.1079],[93.3855,24.146],[93.3962,24.1698],[93.395,24.1853],[93.4783,24.2495],[93.4921,24.315],[93.4911,24.3655],[93.4759,24.3731],[93.4102,24.375],[93.3655,24.3836],[93.3502,24.4007],[93.3531,24.415],[93.3598,24.4292],[93.3617,24.4473],[93.3845,24.4654],[93.3864,24.4806],[93.3921,24.4854],[93.3921,24.4978],[93.4016,24.5035],[93.4083,24.5111],[93.4026,24.5187],[93.3845,24.5282],[93.3919,24.5612],[93.3881,24.5683],[93.3655,24.5732],[93.3573,24.5772],[93.3446,24.5785]]]},"properties":{"dtname":"Pherzawl","stname":"MANIPUR","stcode11":"14","dtcode11":"772","year_stat":"2016_c","Shape_Length":312733.317529673,"Shape_Area":2565761797.5454307,"OBJECTID":569,"test":0,"Dist_LGD":715,"State_LGD":14}}]}