{"type":"FeatureCollection","crs":{"type":"name","properties":{"name":"EPSG:4326"}},"features":[{"type":"Feature","id":315,"geometry":{"type":"Polygon","coordinates":[[[91.8253,26.1195],[91.8202,26.1165],[91.8202,26.1126],[91.8101,26.1034],[91.809,26.0979],[91.8055,26.0992],[91.8029,26.0954],[91.8003,26.1001],[91.7913,26.0853],[91.7858,26.0841],[91.7832,26.0882],[91.7772,26.0894],[91.7627,26.0724],[91.731,26.059],[91.7368,26.0563],[91.7336,26.0493],[91.7253,26.0463],[91.723,26.0352],[91.725,26.0203],[91.7215,26.0123],[91.7195,25.993],[91.7215,25.9884],[91.7197,25.9659],[91.7224,25.9658],[91.72,25.9537],[91.7134,25.9441],[91.7023,25.9414],[91.7011,25.9357],[91.6894,25.9247],[91.688,25.9203],[91.6788,25.9163],[91.6705,25.9042],[91.6633,25.9079],[91.6514,25.9064],[91.6364,25.9214],[91.6321,25.9219],[91.6305,25.9249],[91.6252,25.9262],[91.6213,25.9323],[91.6094,25.9375],[91.6118,25.9451],[91.6297,25.9433],[91.6343,25.9606],[91.6406,25.9639],[91.6282,25.9762],[91.6285,25.9825],[91.626,25.9868],[91.6262,25.989],[91.6302,25.9902],[91.6281,26.0008],[91.6348,26.0122],[91.6315,26.0148],[91.631,26.0221],[91.6195,26.0261],[91.6002,26.0217],[91.5975,26.0182],[91.5938,26.0199],[91.5886,26.0297],[91.58,26.0334],[91.5707,26.0258],[91.5691,26.0185],[91.5721,26.0155],[91.5636,26.0076],[91.565,26.0021],[91.5605,26.001],[91.5516,25.9851],[91.5512,25.9767],[91.5446,25.976],[91.5383,25.9715],[91.5355,25.9624],[91.5303,25.9632],[91.5286,25.9607],[91.518,25.9598],[91.5165,25.9558],[91.5197,25.94],[91.5151,25.9413],[91.5137,25.933],[91.5079,25.9324],[91.5067,25.9285],[91.5028,25.9266],[91.5012,25.919],[91.5044,25.9168],[91.5032,25.9138],[91.5046,25.9115],[91.5095,25.9173],[91.5175,25.9195],[91.5227,25.9254],[91.5325,25.93],[91.5365,25.9359],[91.5369,25.9313],[91.5205,25.9169],[91.5048,25.9079],[91.5041,25.903],[91.4987,25.8961],[91.5038,25.8913],[91.4994,25.8913],[91.4918,25.8959],[91.4839,25.8931],[91.4783,25.8876],[91.4747,25.8741],[91.4749,25.8703],[91.4816,25.8679],[91.5005,25.865],[91.5131,25.8658],[91.5212,25.8752],[91.5212,25.8836],[91.5265,25.8912],[91.5329,25.8882],[91.5351,25.884],[91.5304,25.8817],[91.5304,25.8713],[91.5223,25.8729],[91.5136,25.8641],[91.5033,25.8643],[91.4973,25.8612],[91.4957,25.8639],[91.4836,25.8643],[91.4778,25.8574],[91.4694,25.8593],[91.463,25.8571],[91.4451,25.8398],[91.4358,25.8437],[91.4281,25.8527],[91.4224,25.8546],[91.3811,25.8457],[91.3728,25.8468],[91.371,25.8427],[91.3658,25.8401],[91.3577,25.8416],[91.3541,25.839],[91.3466,25.8401],[91.3423,25.8376],[91.3418,25.8247],[91.3595,25.8066],[91.364,25.8067],[91.3715,25.8026],[91.3802,25.801],[91.3948,25.8052],[91.4181,25.8032],[91.4226,25.7932],[91.4377,25.7925],[91.4416,25.7953],[91.4457,25.7925],[91.4574,25.7951],[91.4584,25.7885],[91.4747,25.7917],[91.4799,25.7967],[91.5313,25.8017],[91.5373,25.7989],[91.5569,25.8083],[91.5869,25.812],[91.5966,25.8054],[91.5999,25.8099],[91.6219,25.8105],[91.6316,25.81],[91.6446,25.8042],[91.6593,25.8145],[91.6868,25.8092],[91.6979,25.8048],[91.7073,25.82],[91.7238,25.827],[91.7379,25.829],[91.7495,25.8272],[91.7702,25.8088],[91.7791,25.7948],[91.7878,25.7908],[91.7883,25.7823],[91.7791,25.7634],[91.7653,25.7498],[91.7682,25.7434],[91.7723,25.7445],[91.7735,25.7399],[91.784,25.739],[91.783,25.7337],[91.7974,25.7315],[91.8082,25.7334],[91.8113,25.7294],[91.8151,25.7209],[91.8132,25.7055],[91.8199,25.7025],[91.828,25.6888],[91.8262,25.6777],[91.8341,25.6441],[91.9738,25.6469],[92.0832,25.6406],[92.1326,25.6412],[92.1319,25.6449],[92.1374,25.641],[92.1486,25.646],[92.1494,25.6535],[92.1541,25.6452],[92.156,25.6493],[92.155,25.6567],[92.1495,25.667],[92.1527,25.6723],[92.1561,25.6724],[92.1592,25.6757],[92.1605,25.6842],[92.1559,25.6918],[92.1547,25.7063],[92.1476,25.7096],[92.1442,25.7173],[92.1481,25.7254],[92.1547,25.7256],[92.1618,25.7367],[92.1627,25.744],[92.1555,25.7512],[92.1554,25.7575],[92.1502,25.7637],[92.1477,25.773],[92.1526,25.7781],[92.1463,25.7842],[92.1499,25.795],[92.1486,25.806],[92.1525,25.8119],[92.151,25.8167],[92.1569,25.8217],[92.1612,25.8207],[92.1607,25.8307],[92.1641,25.8331],[92.1619,25.8356],[92.1661,25.8354],[92.1697,25.839],[92.1725,25.85],[92.1774,25.8516],[92.1775,25.8582],[92.18,25.8583],[92.1761,25.8683],[92.1772,25.8728],[92.1875,25.8773],[92.1989,25.8891],[92.2149,25.8954],[92.2156,25.9],[92.2208,25.9004],[92.2255,25.9093],[92.2172,25.9116],[92.2043,25.9092],[92.2022,25.9064],[92.194,25.9118],[92.1963,25.9158],[92.1944,25.9186],[92.1894,25.9147],[92.186,25.9167],[92.1817,25.9114],[92.1765,25.9105],[92.1755,25.9075],[92.1547,25.9111],[92.1608,25.9282],[92.1601,25.9354],[92.1524,25.9397],[92.1524,25.9444],[92.157,25.9493],[92.1572,25.9527],[92.164,25.9579],[92.1614,25.9603],[92.1641,25.9704],[92.1786,25.9775],[92.1808,25.9851],[92.1884,25.9846],[92.1985,25.9883],[92.1962,25.9909],[92.1975,25.9947],[92.2009,25.9953],[92.2038,26.0013],[92.2091,25.998],[92.2118,26.0046],[92.219,26.004],[92.2277,26.0087],[92.2338,26.0092],[92.235,26.0123],[92.2444,26.0183],[92.2437,26.0216],[92.2485,26.0235],[92.2532,26.0291],[92.2567,26.0288],[92.2634,26.0332],[92.265,26.0362],[92.261,26.0417],[92.2689,26.0429],[92.27,26.0476],[92.2635,26.0544],[92.2639,26.0575],[92.2748,26.0657],[92.2716,26.0653],[92.2688,26.0683],[92.2582,26.0636],[92.2504,26.0646],[92.2415,26.0619],[92.2294,26.0647],[92.2205,26.0704],[92.2154,26.0685],[92.2081,26.0706],[92.2064,26.0682],[92.1909,26.0689],[92.1871,26.0667],[92.1873,26.0694],[92.1817,26.0692],[92.1802,26.0713],[92.178,26.0687],[92.176,26.0703],[92.1787,26.0783],[92.1693,26.0777],[92.1522,26.0669],[92.1433,26.0561],[92.1341,26.0525],[92.1325,26.0443],[92.1281,26.0458],[92.1213,26.044],[92.1087,26.0508],[92.0972,26.0493],[92.0778,26.0424],[92.0667,26.0352],[92.0514,26.0329],[92.0305,26.0397],[92.0104,26.0367],[92.0061,26.0387],[92.004,26.0357],[91.989,26.0386],[91.9835,26.0259],[91.9789,26.0276],[91.9731,26.0222],[91.9619,26.0204],[91.9513,26.0148],[91.9477,26.0154],[91.9471,26.0133],[91.9339,26.0104],[91.9311,26.0125],[91.9282,26.0025],[91.9189,25.9979],[91.9143,25.9989],[91.9122,26.005],[91.9141,26.0073],[91.9097,26.0089],[91.9132,26.0095],[91.9097,26.0128],[91.9147,26.0141],[91.9129,26.0148],[91.9146,26.0206],[91.9084,26.0211],[91.9051,26.024],[91.8978,26.0235],[91.8887,26.028],[91.883,26.0262],[91.8789,26.0312],[91.8791,26.0345],[91.8751,26.0352],[91.8761,26.0365],[91.873,26.0389],[91.8747,26.0431],[91.8719,26.0447],[91.8672,26.0421],[91.8718,26.0511],[91.8702,26.0546],[91.8765,26.0768],[91.8784,26.0899],[91.8768,26.0917],[91.8791,26.0981],[91.8736,26.1007],[91.8657,26.1005],[91.8253,26.1195]]]},"properties":{"dtname":"Ribhoi","stname":"MEGHALAYA","stcode11":"17","dtcode11":"297","year_stat":"2011_c","Shape_Length":448584.29799198813,"Shape_Area":2973016617.661991,"OBJECTID":315,"test":1,"Dist_LGD":276,"State_LGD":17}},{"type":"Feature","id":327,"geometry":{"type":"Polygon","coordinates":[[[91.7495,25.8272],[91.7379,25.829],[91.7238,25.827],[91.7073,25.82],[91.6979,25.8048],[91.6868,25.8092],[91.6593,25.8145],[91.6446,25.8042],[91.6316,25.81],[91.6219,25.8105],[91.5999,25.8099],[91.5966,25.8054],[91.5869,25.812],[91.5569,25.8083],[91.5373,25.7989],[91.5313,25.8017],[91.4799,25.7967],[91.4747,25.7917],[91.4584,25.7885],[91.4574,25.7951],[91.4457,25.7925],[91.4416,25.7953],[91.4377,25.7925],[91.4226,25.7932],[91.4181,25.8032],[91.3948,25.8052],[91.3802,25.801],[91.3595,25.8066],[91.3418,25.8247],[91.3423,25.8376],[91.3356,25.8408],[91.3332,25.8368],[91.3342,25.8332],[91.3222,25.8216],[91.3207,25.8158],[91.3147,25.8097],[91.3018,25.7866],[91.29,25.7727],[91.2886,25.7656],[91.2745,25.7505],[91.2224,25.7227],[91.21,25.7256],[91.1904,25.7479],[91.1892,25.764],[91.1841,25.7665],[91.1851,25.7721],[91.1782,25.7774],[91.182,25.7837],[91.1841,25.799],[91.1904,25.8115],[91.1862,25.8185],[91.1944,25.8274],[91.1946,25.835],[91.2036,25.8433],[91.1975,25.8496],[91.1958,25.8615],[91.1891,25.8518],[91.1839,25.8505],[91.1802,25.8441],[91.1598,25.85],[91.1475,25.8506],[91.136,25.8427],[91.1294,25.8427],[91.1203,25.833],[91.0771,25.829],[91.0669,25.8258],[91.0621,25.8209],[91.0488,25.8294],[91.0577,25.8319],[91.0593,25.8368],[91.0718,25.8389],[91.0729,25.846],[91.0784,25.8528],[91.0671,25.8467],[91.0476,25.8492],[91.0392,25.837],[91.0324,25.8351],[91.0224,25.8239],[91.0059,25.8205],[91.0014,25.825],[90.9979,25.8177],[90.9847,25.8065],[90.9813,25.7979],[90.9774,25.7974],[90.9634,25.7796],[90.9537,25.7762],[90.9525,25.7736],[90.9488,25.7746],[90.9447,25.7722],[90.9385,25.7599],[90.9416,25.7545],[90.9461,25.7534],[90.9535,25.7579],[90.959,25.7495],[90.9753,25.7506],[90.9819,25.7474],[90.9835,25.7428],[90.9734,25.735],[90.9699,25.7267],[90.9639,25.7245],[90.9606,25.7149],[90.9564,25.7137],[90.9533,25.7034],[90.9482,25.697],[90.9474,25.689],[90.9358,25.6842],[90.9304,25.672],[90.9252,25.6685],[90.9248,25.6637],[90.9094,25.6528],[90.9102,25.6472],[90.9065,25.6384],[90.9026,25.636],[90.8947,25.6367],[90.8858,25.6234],[90.8789,25.6184],[90.8769,25.6085],[90.8729,25.6101],[90.8704,25.6033],[90.8606,25.6036],[90.8566,25.599],[90.8507,25.5976],[90.8494,25.5942],[90.8437,25.5944],[90.8334,25.5875],[90.8297,25.5915],[90.8241,25.59],[90.8184,25.5866],[90.8198,25.5822],[90.8133,25.5759],[90.8101,25.5771],[90.8059,25.5856],[90.8006,25.5885],[90.801,25.5831],[90.7969,25.5789],[90.7923,25.5802],[90.793,25.5728],[90.7875,25.569],[90.7819,25.5839],[90.7718,25.5776],[90.7681,25.5692],[90.7695,25.567],[90.7652,25.5621],[90.7704,25.5575],[90.7654,25.556],[90.7613,25.5505],[90.7666,25.548],[90.766,25.5441],[90.7693,25.5404],[90.7781,25.5353],[90.7785,25.5232],[90.7852,25.517],[90.7804,25.5144],[90.7902,25.5067],[90.7843,25.494],[90.7892,25.4912],[90.7897,25.4858],[90.7839,25.4815],[90.7834,25.4776],[90.7746,25.4767],[90.7735,25.4689],[90.7746,25.4673],[90.783,25.4695],[90.7898,25.4675],[90.7869,25.4625],[90.7728,25.4563],[90.7735,25.4515],[90.7661,25.4534],[90.76,25.4585],[90.7515,25.4511],[90.7522,25.4489],[90.7594,25.4477],[90.7616,25.4449],[90.7605,25.4382],[90.7554,25.43],[90.7597,25.4261],[90.7605,25.4183],[90.7638,25.4169],[90.7604,25.4066],[90.7628,25.4036],[90.7623,25.3975],[90.7557,25.3957],[90.7525,25.391],[90.747,25.3892],[90.7478,25.3794],[90.757,25.3788],[90.7644,25.3731],[90.7637,25.3675],[90.7749,25.3673],[90.7763,25.3636],[90.7905,25.3681],[90.8078,25.3684],[90.8146,25.3659],[90.8161,25.3585],[90.8201,25.3596],[90.8262,25.3542],[90.83,25.3569],[90.8324,25.3546],[90.8383,25.3552],[90.841,25.3488],[90.8451,25.3461],[90.8411,25.3458],[90.8377,25.3365],[90.8406,25.3354],[90.8399,25.3241],[90.8373,25.3228],[90.8404,25.3135],[90.8381,25.3121],[90.8387,25.3073],[90.852,25.3118],[90.8668,25.3301],[90.8738,25.3337],[90.8918,25.3293],[90.8963,25.3337],[90.8986,25.3404],[90.9145,25.3439],[90.9235,25.3514],[90.9334,25.3427],[90.9431,25.3468],[90.9625,25.3396],[90.9752,25.3396],[90.9753,25.3486],[90.971,25.3581],[90.986,25.3651],[90.9878,25.3717],[90.9848,25.3746],[90.989,25.3793],[91.0001,25.3754],[91.0068,25.363],[91.0076,25.3569],[91.0248,25.3386],[91.0409,25.3386],[91.0502,25.3424],[91.0649,25.3367],[91.0731,25.3265],[91.0854,25.32],[91.0956,25.3238],[91.0984,25.3305],[91.0883,25.3448],[91.0937,25.3543],[91.0895,25.3582],[91.1056,25.3738],[91.1323,25.3913],[91.1379,25.3994],[91.1274,25.4078],[91.1153,25.4135],[91.1062,25.4282],[91.1063,25.4363],[91.169,25.4661],[91.175,25.4644],[91.174,25.4557],[91.1802,25.4482],[91.1832,25.4541],[91.1914,25.4612],[91.2008,25.4597],[91.2092,25.4612],[91.2114,25.4526],[91.2225,25.4485],[91.2228,25.4604],[91.2306,25.4621],[91.2681,25.4095],[91.2843,25.4121],[91.2857,25.4205],[91.2953,25.432],[91.3055,25.4331],[91.3085,25.4375],[91.3089,25.4444],[91.3219,25.4453],[91.3702,25.4589],[91.409,25.4579],[91.4223,25.464],[91.4383,25.4622],[91.4422,25.4569],[91.4633,25.453],[91.4939,25.4525],[91.5173,25.4557],[91.5259,25.4687],[91.529,25.4794],[91.5435,25.4829],[91.5493,25.482],[91.5491,25.4892],[91.5411,25.4986],[91.5435,25.503],[91.5416,25.5112],[91.5472,25.5106],[91.5487,25.5146],[91.5816,25.5207],[91.6149,25.5417],[91.6227,25.5382],[91.6291,25.5414],[91.6338,25.549],[91.6537,25.552],[91.6575,25.5411],[91.6585,25.5281],[91.6701,25.5221],[91.689,25.526],[91.7001,25.5335],[91.696,25.5428],[91.6986,25.5462],[91.7131,25.5533],[91.7148,25.5589],[91.7205,25.5607],[91.7233,25.5643],[91.7294,25.5634],[91.7322,25.5667],[91.7331,25.5752],[91.7395,25.5738],[91.771,25.5855],[91.7739,25.5888],[91.7809,25.5897],[91.7998,25.6096],[91.7977,25.619],[91.7989,25.6278],[91.8073,25.6354],[91.8112,25.6533],[91.8082,25.6588],[91.8134,25.6648],[91.8271,25.6693],[91.8285,25.6739],[91.8262,25.6777],[91.828,25.6888],[91.8199,25.7025],[91.8132,25.7055],[91.8151,25.7209],[91.8082,25.7334],[91.7974,25.7315],[91.783,25.7337],[91.784,25.739],[91.7735,25.7399],[91.7723,25.7445],[91.7682,25.7434],[91.7653,25.7498],[91.7791,25.7634],[91.7883,25.7823],[91.7878,25.7908],[91.7791,25.7948],[91.7702,25.8088],[91.7495,25.8272]]]},"properties":{"dtname":"West Khasi Hills","stname":"MEGHALAYA","stcode11":"17","dtcode11":"296","year_stat":"2011_c","Shape_Length":464130.6622080716,"Shape_Area":4684606586.69117,"OBJECTID":327,"test":0,"Dist_LGD":279,"State_LGD":17}},{"type":"Feature","id":330,"geometry":{"type":"Polygon","coordinates":[[[92.5821,25.4718],[92.5744,25.4664],[92.5657,25.464],[92.5668,25.4562],[92.562,25.4554],[92.5484,25.4599],[92.5455,25.4582],[92.5352,25.4347],[92.527,25.4339],[92.5201,25.4411],[92.5143,25.4389],[92.505,25.4429],[92.4923,25.4416],[92.4853,25.4394],[92.4808,25.4339],[92.4761,25.4335],[92.4666,25.427],[92.4554,25.4263],[92.4502,25.4217],[92.4426,25.4233],[92.4404,25.4206],[92.4153,25.4171],[92.3735,25.4058],[92.3672,25.4057],[92.3631,25.4089],[92.3599,25.4058],[92.331,25.4008],[92.3238,25.3973],[92.2686,25.396],[92.2467,25.3881],[92.2441,25.3805],[92.2343,25.3791],[92.2288,25.3727],[92.224,25.3738],[92.2036,25.3652],[92.1903,25.363],[92.1871,25.3587],[92.174,25.3539],[92.1715,25.3362],[92.1779,25.3324],[92.1765,25.3267],[92.1862,25.3136],[92.187,25.309],[92.1928,25.3058],[92.1894,25.3005],[92.1995,25.2918],[92.1986,25.2871],[92.2014,25.2835],[92.1975,25.2742],[92.2051,25.2272],[92.2193,25.225],[92.2265,25.2174],[92.2347,25.1999],[92.2339,25.1839],[92.225,25.1635],[92.2083,25.1472],[92.2103,25.1437],[92.1998,25.1254],[92.2192,25.1217],[92.2247,25.1185],[92.2226,25.1151],[92.215,25.1151],[92.2092,25.1117],[92.2293,25.0972],[92.2972,25.0721],[92.3084,25.0719],[92.3236,25.081],[92.3334,25.0825],[92.3409,25.0781],[92.3438,25.0665],[92.3424,25.0557],[92.3448,25.0506],[92.3491,25.0484],[92.3648,25.0495],[92.3696,25.0452],[92.3892,25.042],[92.4016,25.0336],[92.4152,25.0345],[92.4222,25.0301],[92.4289,25.0292],[92.4321,25.0352],[92.4381,25.0347],[92.4382,25.044],[92.4424,25.0453],[92.449,25.0407],[92.4642,25.0375],[92.4623,25.0482],[92.457,25.0468],[92.4569,25.0542],[92.4601,25.0574],[92.4636,25.055],[92.4683,25.066],[92.4719,25.0674],[92.4705,25.0765],[92.4753,25.0779],[92.474,25.0821],[92.4775,25.0827],[92.4793,25.0867],[92.4773,25.1003],[92.4809,25.1087],[92.4969,25.1096],[92.5088,25.1043],[92.5199,25.106],[92.5277,25.1041],[92.5339,25.0991],[92.5393,25.0992],[92.523,25.1261],[92.5215,25.1391],[92.5248,25.1353],[92.5383,25.1336],[92.5553,25.1271],[92.5605,25.1304],[92.5681,25.1283],[92.5765,25.1311],[92.5831,25.1282],[92.588,25.1289],[92.5949,25.1223],[92.6088,25.1227],[92.6162,25.1159],[92.6213,25.1151],[92.6288,25.1263],[92.6282,25.1382],[92.6386,25.1478],[92.6557,25.1551],[92.6579,25.1589],[92.6583,25.172],[92.6634,25.1768],[92.6679,25.1742],[92.6771,25.1826],[92.6833,25.1796],[92.6938,25.1793],[92.7025,25.1885],[92.7091,25.1902],[92.716,25.1959],[92.7371,25.2006],[92.7428,25.2068],[92.7548,25.2019],[92.7674,25.2036],[92.7761,25.1997],[92.786,25.2094],[92.7949,25.2099],[92.802,25.2152],[92.8014,25.2203],[92.789,25.2248],[92.7819,25.2303],[92.7716,25.2301],[92.7701,25.2374],[92.7618,25.2466],[92.7664,25.2522],[92.7749,25.2521],[92.7777,25.2583],[92.7685,25.2682],[92.7766,25.2701],[92.7797,25.2736],[92.7874,25.2742],[92.7924,25.2827],[92.7813,25.3046],[92.7868,25.3145],[92.7817,25.3333],[92.7698,25.3383],[92.761,25.3336],[92.7545,25.3425],[92.7498,25.3442],[92.7463,25.3584],[92.7395,25.3614],[92.7387,25.3671],[92.7323,25.369],[92.7379,25.3794],[92.7237,25.3789],[92.7179,25.3727],[92.7098,25.3846],[92.6982,25.3864],[92.6927,25.3978],[92.6777,25.4071],[92.6734,25.4141],[92.6674,25.4149],[92.6616,25.4065],[92.6518,25.4193],[92.6535,25.4336],[92.6395,25.4177],[92.6358,25.4274],[92.6256,25.435],[92.6275,25.4221],[92.6185,25.4231],[92.6065,25.4133],[92.6044,25.421],[92.6069,25.4277],[92.603,25.4352],[92.6045,25.4477],[92.5975,25.4508],[92.6001,25.4657],[92.597,25.4698],[92.5918,25.4705],[92.584,25.4657],[92.5821,25.4718]]]},"properties":{"dtname":"East Jaintia Hills","stname":"MEGHALAYA","stcode11":"17","dtcode11":"714","year_stat":"update2014","Shape_Length":267107.46847228584,"Shape_Area":2354657669.4753494,"OBJECTID":330,"test":0,"Dist_LGD":657,"State_LGD":17}},{"type":"Feature","id":334,"geometry":{"type":"Polygon","coordinates":[[[91.8341,25.6441],[91.8285,25.6739],[91.8271,25.6693],[91.8134,25.6648],[91.8082,25.6588],[91.8112,25.6533],[91.8073,25.6354],[91.7989,25.6278],[91.7977,25.619],[91.7998,25.6096],[91.7809,25.5897],[91.7739,25.5888],[91.771,25.5855],[91.7395,25.5738],[91.7331,25.5752],[91.7322,25.5667],[91.7294,25.5634],[91.7233,25.5643],[91.7205,25.5607],[91.7148,25.5589],[91.7131,25.5533],[91.6986,25.5462],[91.696,25.5428],[91.7001,25.5335],[91.689,25.526],[91.6701,25.5221],[91.6585,25.5281],[91.6575,25.5411],[91.6537,25.552],[91.6338,25.549],[91.6291,25.5414],[91.6227,25.5382],[91.6149,25.5417],[91.5816,25.5207],[91.5487,25.5146],[91.5472,25.5106],[91.5416,25.5112],[91.5435,25.503],[91.5411,25.4986],[91.5491,25.4892],[91.5494,25.4772],[91.5561,25.4529],[91.5566,25.4451],[91.5541,25.4387],[91.5564,25.4353],[91.5559,25.4289],[91.5464,25.4194],[91.5466,25.4133],[91.5407,25.401],[91.5407,25.3893],[91.5375,25.3793],[91.5391,25.3739],[91.5296,25.3564],[91.5251,25.354],[91.5243,25.349],[91.525,25.3444],[91.5497,25.3303],[91.5483,25.3264],[91.5523,25.3205],[91.549,25.3123],[91.5524,25.3047],[91.5478,25.287],[91.5436,25.2795],[91.5325,25.2765],[91.5275,25.2802],[91.5222,25.2787],[91.4958,25.2834],[91.4889,25.279],[91.4844,25.265],[91.4788,25.2635],[91.4674,25.2713],[91.4621,25.2686],[91.4382,25.273],[91.4227,25.262],[91.4121,25.265],[91.4026,25.2637],[91.3945,25.2514],[91.3873,25.2459],[91.3854,25.2396],[91.3754,25.2438],[91.371,25.2428],[91.365,25.2347],[91.3543,25.2342],[91.3537,25.2292],[91.363,25.2053],[91.3797,25.1768],[91.3881,25.1703],[91.4039,25.1661],[91.409,25.1675],[91.4139,25.1725],[91.4318,25.1557],[91.4393,25.1522],[91.446,25.1498],[91.4633,25.1512],[91.4668,25.1495],[91.4709,25.1361],[91.4931,25.1347],[91.5003,25.1372],[91.5037,25.1399],[91.5042,25.1436],[91.5078,25.1451],[91.528,25.1448],[91.5475,25.149],[91.5538,25.1514],[91.5611,25.158],[91.5744,25.1635],[91.5796,25.1702],[91.6029,25.1737],[91.6082,25.1723],[91.6015,25.1666],[91.6038,25.1529],[91.6009,25.147],[91.605,25.1431],[91.6186,25.1466],[91.624,25.1436],[91.6281,25.1308],[91.6347,25.126],[91.642,25.1243],[91.6506,25.1309],[91.6608,25.1294],[91.6718,25.1372],[91.6889,25.1381],[91.6941,25.1404],[91.7026,25.1502],[91.7048,25.1568],[91.7161,25.1574],[91.744,25.1486],[91.7476,25.1539],[91.7438,25.1671],[91.7466,25.1717],[91.7719,25.1671],[91.8064,25.1694],[91.8218,25.1742],[91.8301,25.1739],[91.8411,25.1787],[91.8517,25.1755],[91.8716,25.1751],[91.9133,25.1828],[91.9471,25.1833],[91.9593,25.1812],[91.9746,25.1725],[91.9832,25.1716],[91.9956,25.1846],[92.0108,25.1891],[92.0161,25.1877],[92.0197,25.1908],[92.0211,25.202],[92.0074,25.2086],[91.9849,25.2457],[91.9851,25.2521],[91.9811,25.2601],[91.983,25.2719],[91.9882,25.2809],[92.0008,25.2914],[92.0039,25.2994],[92.0133,25.3018],[92.0187,25.3096],[92.045,25.3209],[92.0518,25.3212],[92.0545,25.3138],[92.0672,25.3187],[92.0723,25.3142],[92.0815,25.3141],[92.0851,25.3106],[92.0943,25.3159],[92.0931,25.3107],[92.1009,25.3056],[92.1111,25.306],[92.115,25.3162],[92.1143,25.3229],[92.1194,25.3313],[92.1136,25.3326],[92.1108,25.3365],[92.1134,25.3447],[92.1067,25.3548],[92.1109,25.3638],[92.1116,25.3797],[92.1015,25.3988],[92.1083,25.4032],[92.1132,25.4105],[92.1098,25.4192],[92.1099,25.4257],[92.1028,25.433],[92.1029,25.4443],[92.0945,25.451],[92.109,25.471],[92.107,25.4812],[92.0968,25.4865],[92.0948,25.4943],[92.1007,25.5053],[92.1006,25.5103],[92.0974,25.5146],[92.1064,25.5222],[92.108,25.5374],[92.1139,25.5448],[92.1062,25.5529],[92.1053,25.5624],[92.1103,25.5685],[92.1117,25.5756],[92.1159,25.5773],[92.118,25.5826],[92.1229,25.5844],[92.1204,25.592],[92.1248,25.5969],[92.1214,25.6004],[92.1212,25.6066],[92.1302,25.6131],[92.1305,25.6168],[92.1381,25.6252],[92.1344,25.6314],[92.1339,25.6391],[92.1326,25.6412],[92.0832,25.6406],[91.9738,25.6469],[91.8341,25.6441]]]},"properties":{"dtname":"East Khasi Hills","stname":"MEGHALAYA","stcode11":"17","dtcode11":"298","year_stat":"2011_c","Shape_Length":325184.0990674855,"Shape_Area":3452097538.146695,"OBJECTID":334,"test":0,"Dist_LGD":274,"State_LGD":17}},{"type":"Feature","id":342,"geometry":{"type":"Polygon","coordinates":[[[90.7631,25.5532],[90.75,25.5479],[90.7303,25.5333],[90.7018,25.5073],[90.6791,25.4817],[90.6589,25.4524],[90.6555,25.4382],[90.6445,25.4161],[90.6396,25.4155],[90.605,25.425],[90.5799,25.4215],[90.5713,25.4278],[90.5518,25.4337],[90.5189,25.4334],[90.5019,25.4388],[90.4969,25.4443],[90.442,25.4607],[90.4172,25.4596],[90.4099,25.4546],[90.4041,25.4605],[90.3872,25.4561],[90.3805,25.4592],[90.3603,25.4572],[90.3493,25.461],[90.3447,25.4574],[90.3324,25.4569],[90.3194,25.4644],[90.3074,25.4352],[90.3036,25.4185],[90.3136,25.3844],[90.3086,25.3653],[90.2614,25.3212],[90.2558,25.3082],[90.2557,25.2774],[90.2476,25.2535],[90.2292,25.2352],[90.2279,25.2183],[90.2336,25.2038],[90.2548,25.1962],[90.2754,25.198],[90.2914,25.1894],[90.3049,25.187],[90.3317,25.1917],[90.3521,25.1742],[90.3774,25.1618],[90.4094,25.1561],[90.4251,25.1476],[90.4446,25.1438],[90.4528,25.1507],[90.4725,25.1542],[90.5104,25.1685],[90.5966,25.1737],[90.6363,25.1732],[90.6369,25.1783],[90.6498,25.1815],[90.652,25.1903],[90.6551,25.1932],[90.665,25.1846],[90.6685,25.1724],[90.6749,25.1675],[90.6799,25.17],[90.6889,25.1611],[90.6935,25.1598],[90.7207,25.1648],[90.7321,25.1547],[90.7373,25.1537],[90.7402,25.1574],[90.7414,25.1652],[90.7605,25.1652],[90.7668,25.1702],[90.7751,25.1823],[90.7801,25.1838],[90.7901,25.1824],[90.8088,25.1674],[90.8195,25.1635],[90.8548,25.1597],[90.8694,25.1597],[90.8868,25.1665],[90.9085,25.1621],[90.9696,25.1726],[90.9714,25.1916],[90.9685,25.2012],[90.9592,25.2039],[90.9555,25.2121],[90.9497,25.2148],[90.9497,25.2185],[90.9533,25.2224],[90.9528,25.2282],[90.9594,25.2347],[90.9587,25.2466],[90.9528,25.2563],[90.9415,25.2622],[90.9315,25.2779],[90.9293,25.2796],[90.9158,25.2771],[90.9144,25.2858],[90.9067,25.2903],[90.9018,25.2973],[90.8864,25.2966],[90.8704,25.2902],[90.8653,25.2938],[90.8551,25.2941],[90.8469,25.3028],[90.8466,25.3062],[90.8402,25.3055],[90.8385,25.3082],[90.8381,25.3121],[90.8404,25.3135],[90.8373,25.3228],[90.8399,25.3241],[90.8406,25.3354],[90.8377,25.3365],[90.8411,25.3458],[90.8451,25.3461],[90.841,25.3488],[90.8383,25.3552],[90.8324,25.3546],[90.83,25.3569],[90.8262,25.3542],[90.8201,25.3596],[90.8161,25.3585],[90.8146,25.3659],[90.8078,25.3684],[90.7905,25.3681],[90.7763,25.3636],[90.7749,25.3673],[90.7637,25.3675],[90.7644,25.3731],[90.757,25.3788],[90.7478,25.3794],[90.747,25.3892],[90.7525,25.391],[90.7557,25.3957],[90.7623,25.3975],[90.7628,25.4036],[90.7604,25.4066],[90.7638,25.4169],[90.7605,25.4183],[90.7597,25.4261],[90.7554,25.43],[90.7605,25.4382],[90.7616,25.4449],[90.7594,25.4477],[90.7522,25.4489],[90.7515,25.4511],[90.76,25.4585],[90.7661,25.4534],[90.7735,25.4515],[90.7728,25.4563],[90.7869,25.4625],[90.7898,25.4675],[90.783,25.4695],[90.7746,25.4673],[90.7735,25.4689],[90.7746,25.4767],[90.7834,25.4776],[90.7839,25.4815],[90.7897,25.4858],[90.7892,25.4912],[90.7843,25.494],[90.7902,25.5067],[90.7805,25.514],[90.7852,25.517],[90.7785,25.5232],[90.7794,25.5331],[90.7662,25.5438],[90.7666,25.548],[90.7613,25.5505],[90.7631,25.5532]]]},"properties":{"dtname":"South Garo Hills","stname":"MEGHALAYA","stcode11":"17","dtcode11":"295","year_stat":"2011_c","Shape_Length":276938.71446660557,"Shape_Area":2362719042.459067,"OBJECTID":342,"test":0,"Dist_LGD":277,"State_LGD":17}},{"type":"Feature","id":498,"geometry":{"type":"Polygon","coordinates":[[[90.4053,26.0091],[90.3997,26.0126],[90.3622,26.0089],[90.3497,26.0042],[90.3466,25.9979],[90.343,25.9964],[90.3403,25.9884],[90.3315,25.9877],[90.3279,25.9751],[90.3247,25.9735],[90.2705,25.9604],[90.2114,25.9527],[90.2099,25.9598],[90.2028,25.961],[90.1998,25.957],[90.1924,25.9553],[90.1908,25.9513],[90.1873,25.95],[90.1887,25.9459],[90.1868,25.9442],[90.1807,25.9499],[90.1769,25.959],[90.1657,25.9559],[90.1584,25.9572],[90.1514,25.9668],[90.1438,25.9602],[90.1393,25.9597],[90.1405,25.9574],[90.1317,25.9588],[90.1197,25.9542],[90.1205,25.9579],[90.1168,25.9573],[90.1075,25.9492],[90.1048,25.9446],[90.1066,25.9424],[90.101,25.9433],[90.1013,25.9403],[90.0979,25.9375],[90.0921,25.9382],[90.094,25.9279],[90.0854,25.9256],[90.0862,25.9196],[90.0758,25.915],[90.0705,25.9185],[90.067,25.9131],[90.0605,25.9136],[90.0624,25.9103],[90.0555,25.9058],[90.0554,25.9007],[90.0476,25.8999],[90.0464,25.896],[90.0413,25.8942],[90.0434,25.8922],[90.0424,25.8878],[90.0341,25.8918],[90.0338,25.8945],[90.0252,25.8958],[90.008,25.8817],[90.0056,25.8786],[90.0142,25.872],[90.0194,25.8732],[90.0238,25.8673],[90.0223,25.8602],[90.017,25.8563],[90.0157,25.8508],[90.0078,25.8453],[90.0006,25.8463],[89.9989,25.8429],[90.0039,25.8414],[90.0035,25.8393],[89.9912,25.8351],[89.9814,25.8356],[89.9779,25.8323],[89.9777,25.828],[89.971,25.8265],[89.9639,25.8331],[89.9636,25.8283],[89.9676,25.8226],[89.9619,25.8203],[89.9541,25.8214],[89.954,25.8251],[89.9586,25.826],[89.9576,25.8292],[89.9482,25.8256],[89.951,25.8212],[89.9485,25.8152],[89.9558,25.8113],[89.9545,25.804],[89.9584,25.8014],[89.9552,25.7966],[89.9543,25.7881],[89.9593,25.78],[89.9553,25.7779],[89.9576,25.7755],[89.9547,25.7673],[89.942,25.7559],[89.9352,25.7546],[89.9372,25.7452],[89.9242,25.7384],[89.9,25.7472],[89.8947,25.7451],[89.8943,25.735],[89.8991,25.7265],[89.9025,25.7253],[89.9134,25.7087],[89.9186,25.7052],[89.9235,25.6946],[89.9362,25.6898],[89.9444,25.6793],[89.9428,25.6725],[89.9474,25.6711],[89.9454,25.668],[89.9492,25.6573],[89.9791,25.6389],[89.9831,25.6269],[89.9988,25.6225],[90.0041,25.6268],[90.0069,25.6234],[90.0041,25.6203],[90.0092,25.6193],[90.0098,25.6156],[90.0163,25.6099],[90.0185,25.6114],[90.0175,25.608],[90.036,25.6076],[90.0659,25.6001],[90.0905,25.5882],[90.0966,25.5835],[90.1034,25.5713],[90.1111,25.5655],[90.1134,25.5609],[90.1212,25.5608],[90.1256,25.5645],[90.1301,25.5625],[90.1324,25.5571],[90.1276,25.5496],[90.1264,25.5423],[90.1265,25.5391],[90.1298,25.5376],[90.1358,25.5398],[90.1395,25.5378],[90.137,25.545],[90.1415,25.5539],[90.1476,25.5483],[90.1482,25.5449],[90.1529,25.5461],[90.1562,25.5501],[90.1629,25.5494],[90.1709,25.5447],[90.1657,25.5001],[90.1596,25.4843],[90.165,25.4791],[90.1658,25.4634],[90.156,25.443],[90.1558,25.4379],[90.1591,25.4332],[90.1566,25.425],[90.1581,25.4129],[90.1528,25.3989],[90.1624,25.3884],[90.1516,25.375],[90.0353,25.3443],[90.0312,25.334],[89.9939,25.3204],[89.9925,25.3084],[89.9748,25.2994],[89.9809,25.2853],[90.0096,25.2719],[90.0599,25.256],[90.0779,25.2403],[90.0941,25.238],[90.1124,25.2242],[90.1597,25.2235],[90.1878,25.2163],[90.2145,25.2032],[90.2336,25.2038],[90.2279,25.2183],[90.2292,25.2352],[90.2476,25.2535],[90.2557,25.2774],[90.2558,25.3082],[90.2614,25.3212],[90.3086,25.3653],[90.3136,25.3844],[90.3036,25.4185],[90.3074,25.4352],[90.3194,25.4644],[90.316,25.4708],[90.3252,25.4853],[90.3354,25.4943],[90.3373,25.5011],[90.3458,25.5121],[90.3563,25.521],[90.3587,25.5211],[90.3609,25.5175],[90.3689,25.5202],[90.3703,25.5232],[90.3756,25.5236],[90.3743,25.5307],[90.3796,25.5354],[90.3873,25.5376],[90.3898,25.5462],[90.3876,25.5524],[90.3911,25.5572],[90.3837,25.5651],[90.3863,25.5795],[90.3819,25.5868],[90.391,25.6143],[90.3878,25.6215],[90.398,25.6307],[90.392,25.6423],[90.404,25.654],[90.4121,25.6541],[90.4133,25.6576],[90.4118,25.6665],[90.4075,25.6738],[90.4136,25.6958],[90.4057,25.7085],[90.4065,25.7225],[90.4052,25.7264],[90.399,25.7306],[90.3996,25.7366],[90.3963,25.7413],[90.3871,25.7433],[90.3879,25.7505],[90.3965,25.7563],[90.3969,25.7607],[90.4025,25.761],[90.3918,25.799],[90.3754,25.8031],[90.3408,25.8026],[90.339,25.8049],[90.3425,25.8284],[90.3495,25.8322],[90.3679,25.8313],[90.38,25.8346],[90.384,25.8411],[90.3825,25.8679],[90.4146,25.9227],[90.4255,25.9619],[90.434,25.9815],[90.4342,25.9916],[90.4251,25.9889],[90.4168,25.9916],[90.4161,25.9981],[90.4111,26.0005],[90.4053,26.0091]]]},"properties":{"dtname":"West Garo Hills","stname":"MEGHALAYA","stcode11":"17","dtcode11":"293","year_stat":"2011_c","Shape_Length":366942.18612096104,"Shape_Area":3153745792.0867867,"OBJECTID":498,"test":0,"Dist_LGD":278,"State_LGD":17}},{"type":"Feature","id":500,"geometry":{"type":"Polygon","coordinates":[[[90.8322,25.8195],[90.8262,25.8206],[90.7793,25.8148],[90.7652,25.8094],[90.7357,25.7929],[90.7204,25.7879],[90.6926,25.7884],[90.6793,25.7833],[90.648,25.7561],[90.6327,25.7391],[90.624,25.7362],[90.6043,25.7384],[90.5934,25.7434],[90.5693,25.7766],[90.5543,25.7814],[90.5426,25.7817],[90.5304,25.774],[90.5277,25.7584],[90.5053,25.7186],[90.4959,25.7118],[90.4768,25.7162],[90.4494,25.7404],[90.4335,25.7449],[90.4234,25.753],[90.4021,25.7619],[90.3969,25.7607],[90.3965,25.7563],[90.3879,25.7505],[90.3871,25.7433],[90.3963,25.7413],[90.3996,25.7366],[90.399,25.7306],[90.4052,25.7264],[90.4065,25.7225],[90.4057,25.7085],[90.4136,25.6958],[90.4075,25.6738],[90.4118,25.6665],[90.4133,25.6576],[90.4121,25.6541],[90.404,25.654],[90.392,25.6423],[90.398,25.6307],[90.3878,25.6215],[90.391,25.6143],[90.3819,25.5868],[90.3863,25.5795],[90.3837,25.5651],[90.3911,25.5569],[90.3876,25.5524],[90.3901,25.5493],[90.3878,25.5383],[90.3796,25.5354],[90.3743,25.5307],[90.3756,25.5236],[90.3703,25.5232],[90.3689,25.5202],[90.3609,25.5175],[90.3587,25.5211],[90.3563,25.521],[90.3434,25.5095],[90.3354,25.4943],[90.3262,25.4864],[90.318,25.475],[90.316,25.4703],[90.3205,25.4624],[90.3324,25.4569],[90.3447,25.4574],[90.3493,25.461],[90.3603,25.4572],[90.3805,25.4592],[90.3872,25.4561],[90.4041,25.4605],[90.4099,25.4546],[90.4172,25.4596],[90.442,25.4607],[90.4969,25.4443],[90.5019,25.4388],[90.5189,25.4334],[90.5518,25.4337],[90.5713,25.4278],[90.5799,25.4215],[90.605,25.425],[90.6396,25.4155],[90.6445,25.4161],[90.6555,25.4382],[90.6589,25.4524],[90.6791,25.4817],[90.7018,25.5073],[90.7303,25.5333],[90.75,25.5479],[90.7699,25.557],[90.7652,25.5621],[90.7695,25.567],[90.7681,25.5692],[90.7718,25.5776],[90.7819,25.5839],[90.7868,25.5687],[90.793,25.5728],[90.7923,25.5802],[90.7969,25.5789],[90.801,25.5831],[90.8002,25.5885],[90.8059,25.5856],[90.8101,25.5771],[90.8133,25.5759],[90.8198,25.5822],[90.8184,25.5866],[90.8241,25.59],[90.8297,25.5915],[90.8334,25.5875],[90.8437,25.5944],[90.8494,25.5942],[90.8507,25.5976],[90.8566,25.599],[90.8606,25.6036],[90.8679,25.6023],[90.8717,25.6041],[90.8729,25.6101],[90.8769,25.6085],[90.8789,25.6184],[90.8858,25.6234],[90.8949,25.6369],[90.9026,25.636],[90.9065,25.6384],[90.9102,25.6472],[90.9094,25.6528],[90.9248,25.6637],[90.9252,25.6685],[90.9304,25.672],[90.9358,25.6842],[90.9474,25.689],[90.9482,25.697],[90.9533,25.7034],[90.9564,25.7137],[90.9606,25.7149],[90.9639,25.7245],[90.9699,25.7267],[90.9734,25.735],[90.9835,25.7428],[90.9819,25.7474],[90.9753,25.7506],[90.959,25.7495],[90.9528,25.758],[90.9461,25.7534],[90.9402,25.7558],[90.9308,25.751],[90.9108,25.7528],[90.8906,25.7588],[90.8623,25.782],[90.8322,25.8195]]]},"properties":{"dtname":"East Garo Hills","stname":"MEGHALAYA","stcode11":"17","dtcode11":"294","year_stat":"2011_c","Shape_Length":244511.39344525285,"Shape_Area":2027785040.6019104,"OBJECTID":500,"test":0,"Dist_LGD":273,"State_LGD":17}},{"type":"Feature","id":539,"geometry":{"type":"Polygon","coordinates":[[[92.3842,25.7546],[92.3786,25.7485],[92.3737,25.7505],[92.3689,25.7474],[92.3642,25.7375],[92.3532,25.7399],[92.3457,25.7293],[92.3334,25.7242],[92.3241,25.7248],[92.3169,25.7225],[92.3113,25.728],[92.2929,25.7166],[92.2771,25.7156],[92.2643,25.7092],[92.2473,25.7132],[92.2344,25.7077],[92.2316,25.716],[92.2244,25.716],[92.208,25.6957],[92.2007,25.6924],[92.1965,25.6865],[92.1877,25.6842],[92.1774,25.6744],[92.1733,25.6742],[92.1701,25.6672],[92.1638,25.6671],[92.1551,25.6731],[92.1519,25.6716],[92.1495,25.6664],[92.155,25.6567],[92.156,25.6493],[92.1541,25.6452],[92.1494,25.6535],[92.1488,25.6463],[92.1457,25.6441],[92.1371,25.641],[92.1311,25.6445],[92.1381,25.6252],[92.1305,25.6168],[92.1302,25.6131],[92.1212,25.6066],[92.1214,25.6004],[92.1248,25.5969],[92.1204,25.592],[92.1229,25.5844],[92.118,25.5826],[92.1159,25.5773],[92.1117,25.5756],[92.1103,25.5685],[92.1053,25.5624],[92.1062,25.5529],[92.1139,25.5448],[92.108,25.5374],[92.1064,25.5222],[92.0974,25.5146],[92.1006,25.5103],[92.1007,25.5053],[92.0948,25.4943],[92.0968,25.4865],[92.107,25.4812],[92.109,25.471],[92.0945,25.451],[92.1029,25.4443],[92.1028,25.433],[92.1099,25.4257],[92.1098,25.4192],[92.1132,25.4105],[92.1083,25.4032],[92.1015,25.3988],[92.1116,25.3797],[92.1109,25.3638],[92.1067,25.3548],[92.1134,25.3447],[92.1108,25.3365],[92.1136,25.3326],[92.1194,25.3313],[92.1143,25.3229],[92.115,25.3162],[92.1111,25.306],[92.1009,25.3056],[92.0931,25.3107],[92.0943,25.3159],[92.0851,25.3106],[92.0815,25.3141],[92.0723,25.3142],[92.0672,25.3187],[92.0545,25.3138],[92.0518,25.3212],[92.045,25.3209],[92.0187,25.3096],[92.0133,25.3018],[92.0039,25.2994],[92.0008,25.2914],[91.9882,25.2809],[91.983,25.2719],[91.9811,25.2601],[91.9851,25.2521],[91.9849,25.2457],[92.0074,25.2086],[92.0211,25.202],[92.0197,25.1908],[92.0161,25.1877],[92.0301,25.1832],[92.0353,25.1852],[92.0465,25.1823],[92.0621,25.1879],[92.0814,25.1839],[92.1224,25.1659],[92.1345,25.1568],[92.1355,25.1433],[92.1759,25.1233],[92.1897,25.1223],[92.1842,25.1332],[92.1876,25.136],[92.1918,25.1347],[92.1998,25.1254],[92.2103,25.1437],[92.2083,25.1472],[92.225,25.1635],[92.2339,25.1839],[92.2347,25.1999],[92.2265,25.2174],[92.2193,25.225],[92.2051,25.2272],[92.1975,25.2742],[92.2014,25.2835],[92.1986,25.2871],[92.1995,25.2918],[92.1894,25.3005],[92.1928,25.3058],[92.187,25.309],[92.1862,25.3136],[92.1765,25.3267],[92.1779,25.3324],[92.1715,25.3362],[92.174,25.3539],[92.1871,25.3587],[92.1903,25.363],[92.2036,25.3652],[92.224,25.3738],[92.2288,25.3727],[92.2343,25.3791],[92.2441,25.3805],[92.2467,25.3881],[92.2686,25.396],[92.3238,25.3973],[92.331,25.4008],[92.3599,25.4058],[92.3631,25.4089],[92.3672,25.4057],[92.3735,25.4058],[92.4153,25.4171],[92.4404,25.4206],[92.4426,25.4233],[92.4502,25.4217],[92.4554,25.4263],[92.4666,25.427],[92.4761,25.4335],[92.4808,25.4339],[92.4853,25.4394],[92.4923,25.4416],[92.505,25.4429],[92.5143,25.4389],[92.5201,25.4411],[92.527,25.4339],[92.5352,25.4347],[92.5477,25.4596],[92.562,25.4554],[92.5676,25.4566],[92.5643,25.4737],[92.5736,25.4906],[92.591,25.5012],[92.5972,25.5026],[92.609,25.5119],[92.6201,25.5162],[92.6318,25.5278],[92.6428,25.5349],[92.642,25.5417],[92.6453,25.5558],[92.6567,25.5609],[92.6574,25.5699],[92.6614,25.5723],[92.6582,25.5742],[92.6533,25.5907],[92.6494,25.5923],[92.6416,25.5886],[92.6342,25.5814],[92.6301,25.5718],[92.6227,25.5658],[92.6024,25.5623],[92.5999,25.5551],[92.5947,25.5517],[92.5899,25.5527],[92.584,25.5506],[92.5823,25.5577],[92.5724,25.5574],[92.5566,25.5711],[92.5561,25.5768],[92.5587,25.5802],[92.5542,25.5884],[92.5546,25.5954],[92.5565,25.5966],[92.5532,25.5975],[92.5543,25.5997],[92.5521,25.6026],[92.5554,25.6019],[92.5566,25.6115],[92.5541,25.6149],[92.5391,25.6117],[92.5388,25.6137],[92.5333,25.615],[92.5163,25.6152],[92.515,25.6184],[92.5094,25.6157],[92.5055,25.6164],[92.506,25.6215],[92.4971,25.6245],[92.4702,25.6752],[92.4632,25.6811],[92.4502,25.6854],[92.4406,25.6917],[92.4378,25.7059],[92.4403,25.7083],[92.4476,25.7091],[92.4442,25.7198],[92.4329,25.7271],[92.4311,25.7323],[92.4116,25.7301],[92.409,25.7339],[92.4142,25.7416],[92.4071,25.742],[92.4065,25.7447],[92.3976,25.7406],[92.3878,25.7442],[92.3817,25.7421],[92.3854,25.7506],[92.3842,25.7546]]]},"properties":{"dtname":"West Jaintia Hills","stname":"MEGHALAYA","stcode11":"17","dtcode11":"299","year_stat":"2011_c","Shape_Length":321080.7516623859,"Shape_Area":2332323417.9835625,"OBJECTID":539,"test":0,"Dist_LGD":275,"State_LGD":17}},{"type":"Feature","id":540,"geometry":{"type":"Polygon","coordinates":[[[91.5493,25.482],[91.5435,25.4829],[91.529,25.4794],[91.5259,25.4687],[91.5173,25.4557],[91.4939,25.4525],[91.4633,25.453],[91.4422,25.4569],[91.4383,25.4622],[91.4223,25.464],[91.409,25.4579],[91.3702,25.4589],[91.3219,25.4453],[91.3089,25.4444],[91.3085,25.4375],[91.3055,25.4331],[91.2953,25.432],[91.2857,25.4205],[91.2843,25.4121],[91.2681,25.4095],[91.2306,25.4621],[91.2228,25.4604],[91.2225,25.4485],[91.2114,25.4526],[91.2092,25.4612],[91.2008,25.4597],[91.1914,25.4612],[91.1832,25.4541],[91.1802,25.4482],[91.174,25.4557],[91.175,25.4644],[91.169,25.4661],[91.1063,25.4363],[91.1062,25.4282],[91.1153,25.4135],[91.1274,25.4078],[91.1379,25.3994],[91.1323,25.3913],[91.1056,25.3738],[91.0895,25.3582],[91.0937,25.3543],[91.0883,25.3448],[91.0984,25.3305],[91.0956,25.3238],[91.0854,25.32],[91.0731,25.3265],[91.0649,25.3367],[91.0502,25.3424],[91.0409,25.3386],[91.0248,25.3386],[91.0076,25.3569],[91.0068,25.363],[91.0001,25.3754],[90.989,25.3793],[90.9848,25.3746],[90.9878,25.3717],[90.986,25.3651],[90.971,25.3581],[90.9753,25.3486],[90.9752,25.3396],[90.9625,25.3396],[90.9431,25.3468],[90.9334,25.3427],[90.9235,25.3514],[90.9145,25.3439],[90.8986,25.3404],[90.8963,25.3337],[90.8918,25.3293],[90.8738,25.3337],[90.8668,25.3301],[90.852,25.3118],[90.8387,25.3073],[90.8404,25.3055],[90.8466,25.3062],[90.8469,25.3028],[90.8551,25.2941],[90.8653,25.2938],[90.8699,25.2902],[90.8864,25.2966],[90.9018,25.2973],[90.9067,25.2903],[90.9144,25.2858],[90.9158,25.2771],[90.9296,25.2796],[90.9415,25.2622],[90.9536,25.2556],[90.9587,25.2466],[90.9594,25.2347],[90.9528,25.2282],[90.9533,25.2224],[90.9497,25.2185],[90.9497,25.2148],[90.9555,25.2121],[90.9592,25.2039],[90.9685,25.2012],[90.9714,25.1916],[90.9696,25.1726],[91.0356,25.1886],[91.0638,25.1922],[91.0815,25.2019],[91.1151,25.1944],[91.1347,25.193],[91.1588,25.1972],[91.1739,25.1949],[91.1932,25.1998],[91.2521,25.1975],[91.2646,25.2068],[91.2743,25.2046],[91.2857,25.1973],[91.2905,25.1936],[91.2915,25.1869],[91.2955,25.1853],[91.3209,25.185],[91.3267,25.1828],[91.3277,25.1774],[91.3335,25.175],[91.3453,25.1725],[91.3565,25.1773],[91.3683,25.1732],[91.3763,25.1672],[91.3831,25.1678],[91.3881,25.1703],[91.3797,25.1768],[91.363,25.2053],[91.3537,25.2292],[91.3543,25.2342],[91.365,25.2347],[91.371,25.2428],[91.3754,25.2438],[91.3854,25.2396],[91.3873,25.2459],[91.3945,25.2514],[91.4026,25.2637],[91.4121,25.265],[91.4227,25.262],[91.4382,25.273],[91.4621,25.2686],[91.4674,25.2713],[91.4788,25.2635],[91.4844,25.265],[91.4889,25.279],[91.4958,25.2834],[91.5222,25.2787],[91.5275,25.2802],[91.5325,25.2765],[91.5436,25.2795],[91.5478,25.287],[91.5524,25.3047],[91.549,25.3123],[91.5523,25.3205],[91.5483,25.3264],[91.5497,25.3303],[91.525,25.3444],[91.5243,25.349],[91.5251,25.354],[91.5296,25.3564],[91.5391,25.3739],[91.5375,25.3793],[91.5407,25.3893],[91.5407,25.401],[91.5466,25.4133],[91.5464,25.4194],[91.5559,25.4289],[91.5564,25.4353],[91.5541,25.4387],[91.5566,25.4451],[91.5561,25.4529],[91.5493,25.482]]]},"properties":{"dtname":"South West Khasi Hills","stname":"MEGHALAYA","stcode11":"17","dtcode11":"713","year_stat":"update2014","Shape_Length":268090.9542331777,"Shape_Area":1765348777.4587586,"OBJECTID":540,"test":0,"Dist_LGD":658,"State_LGD":17}},{"type":"Feature","id":541,"geometry":{"type":"Polygon","coordinates":[[[90.4886,26.0035],[90.4761,26.0097],[90.4342,25.9916],[90.434,25.9815],[90.4255,25.9619],[90.4146,25.9227],[90.3825,25.8679],[90.384,25.8411],[90.38,25.8346],[90.3679,25.8313],[90.3495,25.8322],[90.3425,25.8284],[90.339,25.8049],[90.3408,25.8026],[90.3754,25.8031],[90.3918,25.799],[90.4021,25.7619],[90.4234,25.753],[90.4335,25.7449],[90.4494,25.7404],[90.4768,25.7162],[90.4959,25.7118],[90.5053,25.7186],[90.5277,25.7584],[90.5304,25.774],[90.5426,25.7817],[90.5543,25.7814],[90.5693,25.7766],[90.5934,25.7434],[90.6043,25.7384],[90.624,25.7362],[90.6327,25.7391],[90.648,25.7561],[90.6793,25.7833],[90.6926,25.7884],[90.7204,25.7879],[90.7357,25.7929],[90.7652,25.8094],[90.7793,25.8148],[90.8262,25.8206],[90.8322,25.8195],[90.8623,25.782],[90.8906,25.7588],[90.9108,25.7528],[90.9308,25.751],[90.9402,25.7558],[90.9385,25.7599],[90.9447,25.7722],[90.9488,25.7746],[90.9525,25.7736],[90.9537,25.7762],[90.9634,25.7796],[90.9774,25.7974],[90.9813,25.7979],[90.9847,25.8065],[90.9979,25.8177],[91.0079,25.8381],[91.0102,25.8374],[91.0114,25.846],[91.0152,25.8485],[91.014,25.857],[91.028,25.87],[91.0305,25.8859],[91.0252,25.8889],[91.0178,25.8847],[91.0105,25.8843],[91.001,25.8859],[91.0006,25.888],[90.976,25.8898],[90.9688,25.8853],[90.9659,25.8885],[90.9689,25.9038],[90.9666,25.9142],[90.957,25.9351],[90.9461,25.9411],[90.9474,25.9482],[90.9399,25.9474],[90.9338,25.9399],[90.9239,25.943],[90.9219,25.9414],[90.9173,25.9445],[90.9142,25.9258],[90.9194,25.9153],[90.9168,25.9142],[90.9061,25.9251],[90.9052,25.929],[90.8944,25.9313],[90.8974,25.9376],[90.89,25.9382],[90.8896,25.9433],[90.8857,25.945],[90.8845,25.9504],[90.8804,25.9506],[90.881,25.9429],[90.8766,25.9495],[90.8716,25.9477],[90.8748,25.9426],[90.8443,25.9461],[90.8354,25.9367],[90.8361,25.9485],[90.8328,25.946],[90.8258,25.9488],[90.8243,25.9455],[90.8192,25.9504],[90.8161,25.949],[90.809,25.9525],[90.8091,25.9475],[90.7963,25.9406],[90.7844,25.9252],[90.7811,25.9114],[90.778,25.9113],[90.778,25.9087],[90.7663,25.9077],[90.7566,25.9111],[90.7606,25.9158],[90.7605,25.922],[90.751,25.9184],[90.7452,25.9119],[90.7389,25.9163],[90.7477,25.919],[90.7469,25.9249],[90.7541,25.9295],[90.7546,25.9335],[90.7527,25.9344],[90.7466,25.9282],[90.7403,25.9395],[90.7477,25.9484],[90.7456,25.952],[90.748,25.9568],[90.7444,25.9552],[90.7428,25.9581],[90.7377,25.9558],[90.7383,25.9528],[90.7324,25.9522],[90.7244,25.9469],[90.7199,25.9489],[90.7175,25.955],[90.7138,25.9518],[90.6883,25.949],[90.6726,25.9347],[90.6316,25.9199],[90.6261,25.9134],[90.6261,25.9098],[90.6306,25.9096],[90.6307,25.9064],[90.6249,25.8984],[90.6218,25.8979],[90.6135,25.8994],[90.6062,25.9167],[90.6122,25.9258],[90.6231,25.9352],[90.6241,25.9393],[90.6048,25.9472],[90.5996,25.9552],[90.5878,25.9582],[90.5797,25.9514],[90.5767,25.9368],[90.5524,25.9228],[90.5488,25.9215],[90.5437,25.9237],[90.5444,25.9206],[90.55,25.9169],[90.5491,25.9155],[90.5381,25.9138],[90.5213,25.8986],[90.5136,25.8964],[90.5085,25.9016],[90.5179,25.9158],[90.5206,25.9261],[90.5341,25.9391],[90.5349,25.9497],[90.5025,25.9916],[90.4886,26.0035]]]},"properties":{"dtname":"North Garo Hills","stname":"MEGHALAYA","stcode11":"17","dtcode11":"712","year_stat":"update2014","Shape_Length":277239.95067236444,"Shape_Area":1465099638.6900017,"OBJECTID":541,"test":0,"Dist_LGD":656,"State_LGD":17}},{"type":"Feature","id":542,"geometry":{"type":"Polygon","coordinates":[[[90.0386,25.6066],[90.0202,25.6076],[90.0168,25.602],[90.0109,25.6016],[90.0111,25.5968],[90.0029,25.5855],[89.9955,25.5863],[89.9876,25.5916],[89.9827,25.591],[89.9785,25.5871],[89.9754,25.5762],[89.9721,25.5736],[89.9604,25.5745],[89.941,25.5684],[89.9368,25.5645],[89.9122,25.5633],[89.9095,25.5605],[89.9015,25.559],[89.8986,25.5606],[89.8771,25.5491],[89.8749,25.5438],[89.8788,25.5378],[89.868,25.53],[89.8679,25.5243],[89.8688,25.5216],[89.8714,25.522],[89.8717,25.5186],[89.8734,25.5195],[89.8733,25.517],[89.8773,25.5197],[89.8834,25.5192],[89.8806,25.5168],[89.884,25.5143],[89.8859,25.508],[89.8728,25.5075],[89.8768,25.5009],[89.8766,25.4956],[89.8722,25.486],[89.8716,25.4774],[89.8654,25.4718],[89.8544,25.4674],[89.8421,25.4498],[89.8323,25.4298],[89.8261,25.4038],[89.8194,25.3968],[89.8158,25.3886],[89.814,25.3699],[89.8203,25.3475],[89.8266,25.3337],[89.8386,25.3226],[89.8401,25.3185],[89.8349,25.296],[89.8746,25.2873],[89.8907,25.2953],[89.8998,25.3052],[89.9081,25.3078],[89.9293,25.2996],[89.9722,25.301],[89.9748,25.2994],[89.9925,25.3084],[89.9939,25.3204],[90.0312,25.334],[90.0353,25.3443],[90.1516,25.375],[90.1624,25.3884],[90.1528,25.3989],[90.1581,25.4129],[90.1566,25.425],[90.1591,25.4332],[90.1558,25.4379],[90.156,25.443],[90.1658,25.4634],[90.165,25.4791],[90.1596,25.4843],[90.1657,25.5001],[90.1709,25.5447],[90.1629,25.5494],[90.1562,25.5501],[90.1529,25.5461],[90.1482,25.5449],[90.1476,25.5483],[90.1415,25.5539],[90.137,25.545],[90.139,25.5373],[90.1358,25.5398],[90.1307,25.5375],[90.1265,25.5391],[90.1276,25.5496],[90.1324,25.5571],[90.129,25.5638],[90.1134,25.5609],[90.1111,25.5655],[90.1034,25.5713],[90.0966,25.5835],[90.0905,25.5882],[90.0709,25.5983],[90.0386,25.6066]]]},"properties":{"dtname":"South West Garo Hills","stname":"MEGHALAYA","stcode11":"17","dtcode11":"711","year_stat":"update2014","Shape_Length":150121.36325374228,"Shape_Area":1076058351.2549055,"OBJECTID":542,"test":0,"Dist_LGD":663,"State_LGD":17}}]}