{"type":"FeatureCollection","crs":{"type":"name","properties":{"name":"EPSG:4326"}},"features":[{"type":"Feature","id":253,"geometry":{"type":"Polygon","coordinates":[[[95.1935,27.0358],[95.1501,26.9993],[95.1119,26.9808],[95.1078,26.976],[95.106,26.9656],[95.1017,26.9619],[95.0849,26.9517],[95.0678,26.9484],[95.0496,26.9389],[95.034,26.9357],[95.0167,26.9212],[94.9912,26.9209],[94.9899,26.9143],[94.9825,26.9131],[94.9764,26.9214],[94.9671,26.9236],[94.9611,26.9372],[94.9554,26.9402],[94.9402,26.9337],[94.9308,26.9327],[94.9308,26.937],[94.9255,26.9409],[94.9239,26.9466],[94.9143,26.9369],[94.9024,26.9348],[94.8893,26.929],[94.8737,26.9178],[94.8659,26.9088],[94.8577,26.8886],[94.851,26.8812],[94.85,26.8747],[94.8431,26.8686],[94.8364,26.8689],[94.8345,26.8604],[94.8175,26.8478],[94.821,26.8412],[94.8131,26.8337],[94.8144,26.8196],[94.8064,26.8185],[94.8037,26.8138],[94.795,26.8141],[94.7957,26.8102],[94.8031,26.8063],[94.8026,26.8014],[94.7911,26.7998],[94.7887,26.7974],[94.7913,26.795],[94.8035,26.796],[94.8133,26.7922],[94.8089,26.7851],[94.8154,26.7839],[94.8146,26.7744],[94.8068,26.7744],[94.7936,26.7683],[94.7984,26.765],[94.8013,26.7686],[94.805,26.7677],[94.8046,26.764],[94.7981,26.7608],[94.8044,26.749],[94.8084,26.7443],[94.8158,26.7434],[94.8257,26.7311],[94.8263,26.7242],[94.8342,26.7186],[94.8257,26.7119],[94.8149,26.6957],[94.8055,26.6974],[94.8052,26.6892],[94.7925,26.6944],[94.7882,26.6985],[94.78,26.6983],[94.7804,26.6946],[94.7901,26.6883],[94.7875,26.6779],[94.7811,26.673],[94.7862,26.6677],[94.7795,26.6586],[94.7875,26.6549],[94.7867,26.6337],[94.793,26.6307],[94.8037,26.6303],[94.8068,26.6257],[94.8148,26.6222],[94.8192,26.6244],[94.8222,26.6222],[94.8307,26.6223],[94.8408,26.6146],[94.8477,26.6125],[94.8526,26.6139],[94.8553,26.6101],[94.8604,26.6139],[94.868,26.6115],[94.8703,26.6135],[94.8717,26.6096],[94.8744,26.6089],[94.8834,26.6157],[94.8861,26.6104],[94.8846,26.6064],[94.8946,26.6046],[94.894,26.6027],[94.8897,26.6036],[94.8939,26.6009],[94.8923,26.5977],[94.8838,26.5947],[94.8851,26.5892],[94.89,26.5921],[94.8933,26.5894],[94.8879,26.5886],[94.8855,26.5843],[94.8806,26.5834],[94.8795,26.5771],[94.8872,26.566],[94.8826,26.5638],[94.8867,26.5626],[94.8881,26.5594],[94.8939,26.5601],[94.8896,26.5511],[94.8871,26.5518],[94.8855,26.5563],[94.8824,26.5537],[94.8912,26.5445],[94.8903,26.5376],[94.8912,26.5334],[94.894,26.5325],[94.8941,26.5265],[94.8917,26.5217],[94.8913,26.5092],[94.8976,26.5053],[94.8944,26.4991],[94.8925,26.5036],[94.8905,26.5018],[94.8904,26.4976],[94.893,26.4952],[94.8916,26.4924],[94.8937,26.4908],[94.8913,26.4862],[94.8959,26.486],[94.8965,26.482],[94.8892,26.4757],[94.8937,26.476],[94.8938,26.4735],[94.8971,26.4725],[94.897,26.4685],[94.9025,26.4645],[94.9022,26.4608],[94.9059,26.4545],[94.9024,26.4541],[94.9021,26.4491],[94.8988,26.446],[94.9027,26.4436],[94.898,26.439],[94.9026,26.4349],[94.9022,26.4202],[94.9123,26.4145],[94.9156,26.4031],[94.9171,26.3917],[94.9123,26.38],[94.9099,26.3563],[94.9248,26.3535],[94.9522,26.3528],[94.9544,26.331],[94.9421,26.3064],[94.958,26.3051],[94.9669,26.2972],[95.0003,26.2936],[95.0234,26.3109],[95.0374,26.3265],[95.0688,26.3375],[95.107,26.3383],[95.1149,26.3456],[95.1221,26.3479],[95.1223,26.3573],[95.1289,26.366],[95.1322,26.3774],[95.1292,26.3849],[95.1253,26.388],[95.1202,26.3866],[95.1169,26.3909],[95.1074,26.3956],[95.0998,26.394],[95.0965,26.4007],[95.103,26.4125],[95.104,26.4206],[95.0949,26.4312],[95.0943,26.4348],[95.0856,26.4425],[95.0844,26.4473],[95.077,26.446],[95.0726,26.4477],[95.0661,26.4416],[95.0617,26.4499],[95.0681,26.4622],[95.0715,26.4639],[95.0729,26.4725],[95.0829,26.4796],[95.0819,26.4819],[95.0863,26.488],[95.0965,26.4934],[95.1,26.5059],[95.107,26.51],[95.1141,26.5184],[95.1156,26.5239],[95.113,26.5354],[95.1072,26.5415],[95.1228,26.5517],[95.1253,26.5577],[95.1393,26.5561],[95.141,26.5667],[95.1476,26.5783],[95.1543,26.5828],[95.1467,26.5932],[95.1491,26.616],[95.1635,26.6215],[95.1679,26.6285],[95.1666,26.6341],[95.181,26.643],[95.1928,26.6412],[95.2085,26.6478],[95.2339,26.6825],[95.2302,26.694],[95.2328,26.7058],[95.2303,26.7096],[95.2258,26.7103],[95.227,26.7161],[95.2221,26.7224],[95.2099,26.729],[95.2194,26.7458],[95.2149,26.7482],[95.2165,26.7556],[95.2208,26.7561],[95.2244,26.7617],[95.2311,26.7651],[95.2325,26.7682],[95.2278,26.7712],[95.2288,26.7753],[95.2321,26.7777],[95.2351,26.7767],[95.2354,26.779],[95.2425,26.7825],[95.2378,26.7827],[95.2383,26.7858],[95.2287,26.7855],[95.2148,26.7901],[95.2083,26.7951],[95.2075,26.7979],[95.212,26.7995],[95.2047,26.8047],[95.1973,26.8226],[95.1993,26.8279],[95.1967,26.8305],[95.197,26.8361],[95.2035,26.8438],[95.2029,26.8464],[95.2,26.8445],[95.1934,26.8482],[95.1936,26.8452],[95.187,26.8478],[95.1851,26.8544],[95.1809,26.856],[95.1815,26.8613],[95.186,26.8657],[95.1995,26.871],[95.2081,26.879],[95.2087,26.8823],[95.2149,26.8836],[95.221,26.8806],[95.2281,26.8808],[95.2303,26.8837],[95.2296,26.8911],[95.2267,26.8948],[95.2322,26.9028],[95.2288,26.9083],[95.2302,26.9117],[95.2286,26.9129],[95.2324,26.916],[95.23,26.9226],[95.2217,26.9285],[95.2122,26.9301],[95.2067,26.942],[95.2076,26.9475],[95.2096,26.9481],[95.2069,26.9514],[95.209,26.9525],[95.202,26.9581],[95.2079,26.9611],[95.2113,26.9663],[95.2016,26.9739],[95.2013,26.9771],[95.2047,26.9791],[95.2024,26.982],[95.1999,26.9806],[95.1915,26.9849],[95.193,26.9865],[95.1912,26.9867],[95.1905,26.9929],[95.1967,26.9964],[95.1972,27.0008],[95.1935,27.0358]]]},"properties":{"dtname":"Mon","stname":"NAGALAND","stcode11":"13","dtcode11":"261","year_stat":"2011_c","Shape_Length":344579.91249011055,"Shape_Area":2691191894.3720546,"OBJECTID":253,"test":0,"Dist_LGD":247,"State_LGD":13}},{"type":"Feature","id":266,"geometry":{"type":"Polygon","coordinates":[[[94.8024,26.7961],[94.789,26.7959],[94.7701,26.7891],[94.7673,26.7854],[94.7667,26.7777],[94.7605,26.7755],[94.7582,26.7661],[94.7517,26.7663],[94.7483,26.7728],[94.7401,26.7761],[94.7406,26.7719],[94.7359,26.7596],[94.7363,26.7496],[94.7389,26.7457],[94.7488,26.7412],[94.7567,26.7295],[94.7521,26.7282],[94.7478,26.7318],[94.7436,26.7315],[94.7499,26.7114],[94.7477,26.7041],[94.7491,26.6984],[94.724,26.698],[94.7283,26.6951],[94.7193,26.6859],[94.7196,26.6807],[94.7077,26.6748],[94.7026,26.6678],[94.6917,26.6605],[94.6862,26.6617],[94.6766,26.6536],[94.6718,26.6534],[94.6678,26.6487],[94.6785,26.6479],[94.6867,26.6396],[94.7068,26.6384],[94.7218,26.6217],[94.7182,26.6155],[94.7201,26.6101],[94.7292,26.6073],[94.7301,26.6019],[94.7332,26.6006],[94.7312,26.5957],[94.7335,26.5904],[94.7277,26.5849],[94.7291,26.5825],[94.7248,26.5826],[94.725,26.5757],[94.7271,26.5735],[94.7259,26.5655],[94.7136,26.5562],[94.7138,26.5525],[94.703,26.538],[94.6967,26.5367],[94.6944,26.5304],[94.6863,26.5244],[94.6849,26.5161],[94.6897,26.5115],[94.6943,26.4972],[94.6938,26.4866],[94.6883,26.4793],[94.6905,26.4738],[94.6992,26.4672],[94.7016,26.4593],[94.7059,26.4577],[94.7081,26.4526],[94.7039,26.4518],[94.7037,26.4499],[94.7049,26.4473],[94.7094,26.446],[94.7438,26.462],[94.7659,26.4602],[94.7832,26.438],[94.8179,26.4119],[94.8213,26.402],[94.8343,26.3986],[94.8469,26.3823],[94.9123,26.38],[94.9171,26.3917],[94.9156,26.4031],[94.9123,26.4145],[94.9022,26.4202],[94.9026,26.4349],[94.898,26.439],[94.9027,26.4436],[94.8988,26.446],[94.9021,26.4491],[94.9024,26.4541],[94.9059,26.4545],[94.9022,26.4608],[94.9025,26.4645],[94.8966,26.4691],[94.8971,26.4725],[94.8938,26.4735],[94.8931,26.4764],[94.8892,26.4757],[94.8965,26.482],[94.8959,26.486],[94.8913,26.4862],[94.8937,26.4908],[94.8916,26.4924],[94.893,26.4952],[94.8904,26.4976],[94.8905,26.5018],[94.8925,26.5036],[94.8944,26.4991],[94.8976,26.5053],[94.8913,26.5092],[94.8917,26.5217],[94.8941,26.5265],[94.894,26.5325],[94.8912,26.5334],[94.8903,26.5376],[94.8912,26.5445],[94.8824,26.5537],[94.8855,26.5563],[94.8871,26.5518],[94.8896,26.5511],[94.8939,26.5601],[94.8881,26.5594],[94.8867,26.5626],[94.8826,26.5638],[94.8872,26.566],[94.8795,26.5771],[94.8806,26.5834],[94.8855,26.5843],[94.8879,26.5886],[94.8933,26.5894],[94.89,26.5921],[94.8851,26.5892],[94.8838,26.5947],[94.8923,26.5977],[94.8939,26.6009],[94.8897,26.6036],[94.894,26.6027],[94.8946,26.6046],[94.8846,26.6064],[94.8861,26.6104],[94.8834,26.6157],[94.8744,26.6089],[94.8717,26.6096],[94.8703,26.6135],[94.868,26.6115],[94.8604,26.6139],[94.8553,26.6101],[94.8526,26.6139],[94.8477,26.6125],[94.8408,26.6146],[94.8307,26.6223],[94.8222,26.6222],[94.8192,26.6244],[94.8148,26.6222],[94.8068,26.6257],[94.8037,26.6303],[94.7874,26.6329],[94.7875,26.6549],[94.7795,26.6582],[94.7862,26.6677],[94.7811,26.673],[94.7875,26.6779],[94.7901,26.6883],[94.7804,26.6946],[94.78,26.6983],[94.7882,26.6985],[94.7925,26.6944],[94.8052,26.6892],[94.8055,26.6974],[94.8149,26.6957],[94.8257,26.7119],[94.8342,26.7182],[94.8263,26.7242],[94.8257,26.7311],[94.8158,26.7434],[94.8084,26.7443],[94.8044,26.749],[94.7981,26.7608],[94.8046,26.764],[94.805,26.7677],[94.8013,26.7686],[94.7984,26.765],[94.7938,26.7679],[94.7952,26.7705],[94.8068,26.7744],[94.8134,26.7737],[94.816,26.7775],[94.8151,26.7842],[94.8089,26.7848],[94.8133,26.7922],[94.8024,26.7961]]]},"properties":{"dtname":"Longleng","stname":"NAGALAND","stcode11":"13","dtcode11":"268","year_stat":"2011_c","Shape_Length":201886.9251833911,"Shape_Area":695054389.8823836,"OBJECTID":266,"test":0,"Dist_LGD":615,"State_LGD":13}},{"type":"Feature","id":269,"geometry":{"type":"Polygon","coordinates":[[[94.737,26.7625],[94.7386,26.7685],[94.7368,26.7638],[94.7071,26.7464],[94.6923,26.732],[94.6529,26.7189],[94.6416,26.7205],[94.6357,26.7172],[94.6242,26.7154],[94.6202,26.7122],[94.6206,26.7232],[94.608,26.7289],[94.6095,26.737],[94.606,26.734],[94.597,26.7347],[94.5935,26.7316],[94.5955,26.7264],[94.5921,26.725],[94.591,26.7207],[94.6014,26.7192],[94.601,26.7146],[94.6032,26.7124],[94.5972,26.7169],[94.5933,26.7151],[94.5924,26.7051],[94.5943,26.7024],[94.5914,26.7003],[94.5938,26.6973],[94.5824,26.6975],[94.5772,26.7008],[94.5678,26.693],[94.5674,26.6876],[94.5715,26.6867],[94.567,26.6836],[94.5593,26.6865],[94.5623,26.6956],[94.5623,26.7052],[94.5549,26.7052],[94.5502,26.7018],[94.5478,26.7064],[94.5392,26.7063],[94.5241,26.6959],[94.5206,26.6993],[94.5175,26.682],[94.5132,26.6802],[94.5082,26.6854],[94.509,26.6803],[94.4926,26.666],[94.485,26.668],[94.4602,26.6617],[94.4584,26.6536],[94.4531,26.6526],[94.459,26.6447],[94.4597,26.6369],[94.4654,26.6332],[94.4535,26.632],[94.4551,26.6356],[94.4526,26.6342],[94.4512,26.6364],[94.4355,26.6221],[94.4028,26.6107],[94.4055,26.6057],[94.4025,26.6032],[94.4018,26.5937],[94.4076,26.5917],[94.4074,26.588],[94.4121,26.5831],[94.4133,26.5773],[94.4098,26.5766],[94.4112,26.5722],[94.4058,26.568],[94.4061,26.5628],[94.404,26.5615],[94.4072,26.5604],[94.4033,26.5584],[94.4064,26.5559],[94.4019,26.5548],[94.4049,26.5543],[94.4062,26.5493],[94.4011,26.5484],[94.4061,26.5441],[94.403,26.5454],[94.3965,26.5428],[94.4026,26.5414],[94.4026,26.5396],[94.3977,26.5387],[94.4008,26.5343],[94.3952,26.5337],[94.3975,26.53],[94.3957,26.5274],[94.3913,26.5305],[94.3899,26.527],[94.3854,26.5306],[94.3851,26.5259],[94.3809,26.5259],[94.3781,26.5213],[94.376,26.5219],[94.3733,26.5172],[94.3762,26.5139],[94.3712,26.5145],[94.3746,26.5085],[94.3721,26.5061],[94.3655,26.5036],[94.3626,26.5058],[94.3541,26.5032],[94.3477,26.5046],[94.3529,26.4994],[94.3466,26.4922],[94.3528,26.4903],[94.3492,26.4912],[94.3468,26.4861],[94.3446,26.4889],[94.3438,26.4848],[94.3407,26.4856],[94.3396,26.4808],[94.3362,26.4821],[94.3338,26.4794],[94.3303,26.4796],[94.3254,26.482],[94.3264,26.4755],[94.3195,26.4743],[94.3225,26.4725],[94.3212,26.4711],[94.3238,26.4656],[94.3184,26.4654],[94.317,26.4589],[94.3056,26.4398],[94.2988,26.4376],[94.2988,26.4303],[94.2932,26.4195],[94.2902,26.4179],[94.291,26.4066],[94.2973,26.4058],[94.304,26.3942],[94.3002,26.3851],[94.3013,26.3772],[94.3092,26.3838],[94.3111,26.3915],[94.3173,26.3949],[94.3237,26.4028],[94.3272,26.3994],[94.3295,26.3899],[94.3375,26.3852],[94.3414,26.3785],[94.345,26.3783],[94.3506,26.3722],[94.3585,26.3569],[94.3523,26.3486],[94.3528,26.3432],[94.3505,26.3398],[94.3473,26.3365],[94.3428,26.3363],[94.3435,26.3314],[94.3478,26.3329],[94.3487,26.3356],[94.3518,26.332],[94.355,26.3327],[94.3557,26.3356],[94.366,26.3366],[94.3563,26.3246],[94.3533,26.3169],[94.355,26.3132],[94.3519,26.3099],[94.3572,26.303],[94.3549,26.2932],[94.3593,26.2686],[94.3559,26.2652],[94.3547,26.2581],[94.3433,26.2442],[94.335,26.2405],[94.3414,26.2386],[94.3468,26.2426],[94.356,26.2419],[94.3582,26.2382],[94.364,26.2373],[94.3698,26.2315],[94.3776,26.2282],[94.3837,26.2287],[94.3848,26.2234],[94.38,26.207],[94.3712,26.1929],[94.3772,26.1963],[94.385,26.1967],[94.3914,26.2023],[94.3957,26.2019],[94.4055,26.2116],[94.4093,26.2102],[94.4187,26.2124],[94.4311,26.2061],[94.4457,26.2061],[94.4441,26.2181],[94.4488,26.2254],[94.4521,26.2263],[94.4542,26.2331],[94.4591,26.236],[94.4546,26.2446],[94.4588,26.2486],[94.4673,26.2738],[94.475,26.2808],[94.4789,26.2934],[94.4833,26.2927],[94.4862,26.2797],[94.4912,26.2749],[94.4959,26.2742],[94.4964,26.2698],[94.4991,26.2681],[94.4984,26.2548],[94.506,26.2525],[94.5059,26.2447],[94.5109,26.2401],[94.514,26.2414],[94.516,26.2393],[94.5122,26.239],[94.5135,26.2358],[94.5087,26.2325],[94.5086,26.2349],[94.5059,26.2348],[94.5055,26.2318],[94.5022,26.2323],[94.4978,26.2291],[94.5016,26.2274],[94.4974,26.2245],[94.4983,26.2191],[94.4962,26.2191],[94.4991,26.2142],[94.5255,26.212],[94.5311,26.2169],[94.5375,26.2074],[94.5535,26.2018],[94.572,26.207],[94.5857,26.2215],[94.587,26.227],[94.5831,26.2384],[94.5729,26.2422],[94.5661,26.2546],[94.5598,26.2558],[94.5654,26.2681],[94.5611,26.271],[94.5637,26.2724],[94.5594,26.2825],[94.5727,26.2921],[94.5756,26.2873],[94.5815,26.2895],[94.5821,26.2922],[94.5792,26.2948],[94.5833,26.2957],[94.5828,26.3008],[94.5878,26.3011],[94.5928,26.2957],[94.5908,26.3018],[94.5944,26.3024],[94.5963,26.2998],[94.5981,26.3047],[94.5955,26.3061],[94.5994,26.3099],[94.5965,26.3123],[94.6107,26.3232],[94.6138,26.322],[94.6145,26.3263],[94.6231,26.3259],[94.6288,26.3341],[94.6336,26.3338],[94.6376,26.3297],[94.6386,26.3366],[94.6506,26.3385],[94.653,26.3417],[94.6507,26.3428],[94.6525,26.3459],[94.6508,26.3476],[94.6575,26.3474],[94.6513,26.3515],[94.6553,26.3576],[94.6532,26.3615],[94.6571,26.3625],[94.6593,26.3664],[94.6622,26.3657],[94.6637,26.3714],[94.6631,26.3729],[94.6593,26.3716],[94.6575,26.3758],[94.6626,26.3807],[94.6701,26.3767],[94.6683,26.3795],[94.6709,26.3823],[94.6781,26.3813],[94.6794,26.3894],[94.6889,26.3962],[94.6858,26.3983],[94.6861,26.4027],[94.69,26.4034],[94.6869,26.4066],[94.6933,26.4128],[94.7025,26.4084],[94.6996,26.4183],[94.7032,26.4207],[94.7046,26.4255],[94.7032,26.4305],[94.7008,26.431],[94.7074,26.4378],[94.7117,26.4374],[94.7082,26.442],[94.7106,26.4455],[94.7049,26.4473],[94.7037,26.4499],[94.7039,26.4518],[94.7081,26.4526],[94.7059,26.4577],[94.7016,26.4593],[94.6992,26.4672],[94.6905,26.4738],[94.6883,26.4793],[94.6938,26.4866],[94.6943,26.4972],[94.6897,26.5115],[94.6849,26.5163],[94.6865,26.5249],[94.6944,26.5304],[94.6967,26.5367],[94.703,26.538],[94.7138,26.5525],[94.7136,26.5562],[94.7259,26.5655],[94.7271,26.5735],[94.725,26.5757],[94.7248,26.5826],[94.7291,26.5825],[94.7277,26.5849],[94.7335,26.5904],[94.7312,26.5957],[94.7331,26.6008],[94.7301,26.6019],[94.7292,26.6073],[94.7201,26.6101],[94.7182,26.6155],[94.7218,26.6217],[94.7068,26.6384],[94.6867,26.6396],[94.6785,26.6479],[94.6676,26.6477],[94.6718,26.6534],[94.6766,26.6536],[94.6862,26.6617],[94.6917,26.6605],[94.7026,26.6678],[94.7077,26.6748],[94.7196,26.6807],[94.7193,26.6859],[94.7283,26.6951],[94.724,26.698],[94.7491,26.6984],[94.7477,26.7041],[94.7499,26.7114],[94.7436,26.7315],[94.7478,26.7318],[94.7521,26.7282],[94.7567,26.7295],[94.7488,26.7412],[94.7389,26.7457],[94.7363,26.7496],[94.737,26.7625]]]},"properties":{"dtname":"Mokokchung","stname":"NAGALAND","stcode11":"13","dtcode11":"262","year_stat":"2011_c","Shape_Length":350894.28123030305,"Shape_Area":2012601152.8284547,"OBJECTID":269,"test":0,"Dist_LGD":246,"State_LGD":13}},{"type":"Feature","id":287,"geometry":{"type":"Polygon","coordinates":[[[94.7659,26.4602],[94.7438,26.462],[94.7094,26.446],[94.7082,26.4417],[94.7116,26.4372],[94.7074,26.4378],[94.7008,26.431],[94.7032,26.4305],[94.7046,26.4255],[94.7032,26.4207],[94.6996,26.4183],[94.7025,26.4084],[94.6933,26.4128],[94.6869,26.4066],[94.69,26.4034],[94.6861,26.4027],[94.6858,26.3983],[94.6889,26.3962],[94.6794,26.3894],[94.6781,26.3813],[94.6709,26.3823],[94.6683,26.3795],[94.6701,26.3767],[94.6626,26.3807],[94.6575,26.3758],[94.6593,26.3716],[94.6631,26.3729],[94.6637,26.3714],[94.6622,26.3657],[94.6593,26.3664],[94.6571,26.3625],[94.6532,26.3615],[94.6553,26.3576],[94.6513,26.3515],[94.6575,26.3474],[94.6508,26.3476],[94.6525,26.3459],[94.6507,26.3428],[94.653,26.342],[94.6508,26.3386],[94.6386,26.3366],[94.6376,26.3297],[94.6336,26.3338],[94.6288,26.3341],[94.6231,26.3259],[94.6145,26.3263],[94.6138,26.322],[94.6107,26.3232],[94.5965,26.3123],[94.5994,26.3099],[94.5955,26.3061],[94.5981,26.3047],[94.5963,26.2998],[94.5944,26.3024],[94.5908,26.3018],[94.5928,26.2957],[94.5878,26.3011],[94.5828,26.3008],[94.5833,26.2957],[94.5792,26.2948],[94.5821,26.2922],[94.5815,26.2895],[94.5756,26.2873],[94.573,26.2922],[94.5644,26.2877],[94.5635,26.2844],[94.5592,26.2822],[94.5637,26.2724],[94.5611,26.271],[94.5654,26.2681],[94.5598,26.2558],[94.5661,26.2546],[94.5729,26.2422],[94.5831,26.2384],[94.587,26.227],[94.5834,26.2189],[94.5997,26.1974],[94.6124,26.1935],[94.6176,26.1984],[94.6238,26.1998],[94.6254,26.2047],[94.6315,26.2078],[94.6382,26.2172],[94.6464,26.2086],[94.6564,26.2032],[94.6599,26.2078],[94.6623,26.2064],[94.6623,26.209],[94.6648,26.2088],[94.6666,26.2125],[94.6723,26.2105],[94.6729,26.2069],[94.6758,26.2063],[94.6809,26.1985],[94.6842,26.199],[94.6872,26.1962],[94.6894,26.1981],[94.6967,26.1785],[94.6966,26.1714],[94.7034,26.1736],[94.7057,26.1719],[94.7031,26.1696],[94.6944,26.1418],[94.6883,26.1375],[94.6874,26.1153],[94.6914,26.109],[94.6883,26.104],[94.6889,26.0929],[94.6937,26.0853],[94.6917,26.0752],[94.7006,26.0652],[94.7046,26.0488],[94.6978,26.0472],[94.6799,26.0336],[94.678,26.0288],[94.6691,26.0201],[94.689,26.0099],[94.7009,26.0135],[94.7184,26.0231],[94.7271,26.0237],[94.736,26.0191],[94.7515,26.0236],[94.7666,26.0231],[94.7868,26.0091],[94.7918,26.0164],[94.8098,26.0169],[94.8143,26.0256],[94.8361,26.0349],[94.8454,26.0413],[94.8549,26.0359],[94.8644,26.0163],[94.8805,26.0182],[94.8881,26.0085],[94.8777,25.9977],[94.8667,25.9745],[94.8578,25.972],[94.8531,25.9542],[94.8417,25.9408],[94.8424,25.9336],[94.8514,25.9374],[94.864,25.9481],[94.8769,25.9477],[94.8893,25.9421],[94.8943,25.9423],[94.8989,25.9452],[94.9148,25.9458],[94.9205,25.9525],[94.9273,25.9487],[94.9357,25.9395],[94.9368,25.9355],[94.9311,25.9289],[94.9373,25.9128],[94.9494,25.904],[94.9678,25.9018],[94.973,25.8818],[94.9843,25.8802],[95.0134,25.8908],[95.0147,25.8935],[95.0116,25.898],[95.0284,25.914],[95.0304,25.9184],[95.0325,25.9262],[95.031,25.9313],[95.0355,25.927],[95.0438,25.9269],[95.0477,25.9345],[95.0582,25.9406],[95.0623,25.9404],[95.0636,25.9426],[95.0731,25.9418],[95.0834,25.9504],[95.0892,25.9506],[95.0968,25.9573],[95.1031,25.9687],[95.1132,25.9741],[95.1167,25.985],[95.1258,25.9862],[95.139,26.0066],[95.1449,26.011],[95.1452,26.0146],[95.1589,26.0248],[95.164,26.0488],[95.1766,26.0643],[95.1831,26.068],[95.1857,26.0733],[95.1647,26.0925],[95.1496,26.0868],[95.142,26.0946],[95.1303,26.0948],[95.1223,26.0975],[95.1181,26.1006],[95.116,26.1076],[95.1156,26.1129],[95.1214,26.1185],[95.1221,26.1242],[95.1264,26.1292],[95.1189,26.1408],[95.1236,26.1453],[95.1189,26.1483],[95.1171,26.1587],[95.1178,26.1642],[95.1266,26.1781],[95.123,26.1805],[95.1219,26.1849],[95.1323,26.2013],[95.1425,26.2116],[95.1331,26.2154],[95.1267,26.2223],[95.1222,26.2236],[95.1145,26.2327],[95.1254,26.2468],[95.1245,26.2504],[95.1272,26.2537],[95.1238,26.2548],[95.1194,26.2649],[95.1207,26.2713],[95.1249,26.2765],[95.1242,26.2852],[95.1282,26.2932],[95.1281,26.3017],[95.1223,26.3072],[95.1259,26.3234],[95.1228,26.3247],[95.1228,26.3307],[95.128,26.3362],[95.1282,26.3396],[95.1221,26.3479],[95.1149,26.3456],[95.107,26.3383],[95.0688,26.3375],[95.0374,26.3265],[95.0234,26.3109],[95.0003,26.2936],[94.9669,26.2972],[94.958,26.3051],[94.9421,26.3064],[94.9544,26.331],[94.9522,26.3528],[94.9248,26.3535],[94.9099,26.3563],[94.9132,26.3801],[94.8469,26.3823],[94.8343,26.3986],[94.8213,26.402],[94.8179,26.4119],[94.7832,26.438],[94.7659,26.4602]]]},"properties":{"dtname":"Tuensang","stname":"NAGALAND","stcode11":"13","dtcode11":"267","year_stat":"2011_c","Shape_Length":322045.0509314953,"Shape_Area":2694881513.6894703,"OBJECTID":287,"test":0,"Dist_LGD":249,"State_LGD":13}},{"type":"Feature","id":312,"geometry":{"type":"Polygon","coordinates":[[[94.8549,26.0359],[94.8454,26.0413],[94.8361,26.0349],[94.8143,26.0256],[94.8098,26.0169],[94.7918,26.0164],[94.7868,26.0091],[94.7666,26.0231],[94.7515,26.0236],[94.736,26.0191],[94.7271,26.0237],[94.7184,26.0231],[94.7009,26.0135],[94.689,26.0099],[94.6691,26.0201],[94.6639,26.008],[94.6559,26.0034],[94.657,26.0013],[94.6513,25.9922],[94.6434,25.9865],[94.6149,25.9413],[94.6097,25.9381],[94.6109,25.9359],[94.6085,25.9326],[94.6036,25.9313],[94.5959,25.921],[94.5937,25.914],[94.5877,25.9108],[94.5864,25.9058],[94.5743,25.8943],[94.572,25.8944],[94.5698,25.8895],[94.5762,25.8834],[94.592,25.8789],[94.5959,25.8753],[94.6102,25.844],[94.6107,25.8341],[94.6028,25.8261],[94.6102,25.8178],[94.6154,25.8156],[94.6232,25.8178],[94.6282,25.8154],[94.641,25.8173],[94.6541,25.8147],[94.6625,25.8089],[94.6849,25.8003],[94.6953,25.7926],[94.7161,25.7555],[94.7137,25.7411],[94.7191,25.725],[94.7163,25.722],[94.7269,25.7249],[94.7232,25.7264],[94.7271,25.7307],[94.7213,25.7334],[94.7232,25.737],[94.7204,25.7397],[94.7266,25.7436],[94.7246,25.7469],[94.7306,25.7506],[94.7287,25.7532],[94.7335,25.7552],[94.733,25.7599],[94.7418,25.7654],[94.7401,25.77],[94.7466,25.7715],[94.7458,25.7768],[94.7486,25.7758],[94.7552,25.7822],[94.7602,25.7784],[94.7902,25.7773],[94.8101,25.7647],[94.82,25.763],[94.8356,25.7431],[94.8407,25.7406],[94.8468,25.729],[94.8545,25.7242],[94.8566,25.7173],[94.8551,25.709],[94.8586,25.7027],[94.8579,25.6964],[94.8483,25.6652],[94.846,25.65],[94.8508,25.6332],[94.8491,25.6248],[94.8538,25.6182],[94.8513,25.6106],[94.8536,25.6085],[94.8662,25.6086],[94.8814,25.585],[94.8819,25.5908],[94.8842,25.5928],[94.8929,25.5976],[94.9001,25.5969],[94.9148,25.6075],[94.9226,25.6454],[94.9323,25.6567],[94.9365,25.668],[94.9503,25.6732],[94.9523,25.6783],[94.9702,25.6886],[94.975,25.6959],[94.9889,25.707],[94.9921,25.7199],[95.0034,25.7286],[95.0118,25.7319],[95.0228,25.7315],[95.0283,25.7381],[95.0405,25.7417],[95.0487,25.7598],[95.044,25.7737],[95.0496,25.7927],[95.0498,25.8009],[95.0329,25.8143],[95.0293,25.8403],[95.0227,25.8452],[95.018,25.8601],[95.0089,25.8669],[95.0101,25.8752],[95.019,25.881],[95.0149,25.8915],[94.9843,25.8802],[94.973,25.8818],[94.9678,25.9018],[94.9494,25.904],[94.9373,25.9128],[94.9311,25.9289],[94.9368,25.9355],[94.9357,25.9395],[94.9273,25.9487],[94.9205,25.9525],[94.9148,25.9458],[94.8989,25.9452],[94.8893,25.9421],[94.8769,25.9477],[94.864,25.9481],[94.8514,25.9374],[94.8424,25.9336],[94.8417,25.9408],[94.8531,25.9542],[94.8578,25.972],[94.8667,25.9745],[94.8777,25.9977],[94.8881,26.0085],[94.8805,26.0182],[94.8644,26.0163],[94.8549,26.0359]]]},"properties":{"dtname":"Kiphire","stname":"NAGALAND","stcode11":"13","dtcode11":"269","year_stat":"2011_c","Shape_Length":223032.36187300668,"Shape_Area":1444111010.6234171,"OBJECTID":312,"test":1,"Dist_LGD":614,"State_LGD":13}},{"type":"Feature","id":328,"geometry":{"type":"Polygon","coordinates":[[[93.9292,25.6584],[93.9285,25.6708],[93.9097,25.6636],[93.8833,25.6585],[93.8422,25.6655],[93.7948,25.6693],[93.7345,25.6634],[93.6595,25.6496],[93.6138,25.6514],[93.5518,25.669],[93.5127,25.675],[93.511,25.6722],[93.5073,25.6726],[93.5097,25.6686],[93.5065,25.668],[93.5064,25.6643],[93.4999,25.6608],[93.4965,25.6546],[93.4879,25.6544],[93.4851,25.6484],[93.4813,25.6513],[93.4825,25.645],[93.4767,25.6479],[93.4737,25.6441],[93.4687,25.6444],[93.4719,25.6425],[93.4641,25.6447],[93.4604,25.6407],[93.4572,25.6412],[93.4556,25.6388],[93.4605,25.6369],[93.461,25.6325],[93.455,25.634],[93.4495,25.6396],[93.4494,25.6357],[93.4466,25.6347],[93.4443,25.6397],[93.4415,25.6348],[93.4373,25.6349],[93.4372,25.6318],[93.4336,25.6295],[93.4264,25.632],[93.4245,25.6256],[93.4199,25.6248],[93.4215,25.6183],[93.4183,25.6177],[93.4136,25.6211],[93.4143,25.6182],[93.4104,25.6166],[93.4109,25.6137],[93.4077,25.6145],[93.4062,25.6115],[93.4014,25.6112],[93.4028,25.6023],[93.3987,25.5961],[93.3923,25.596],[93.3892,25.5912],[93.3855,25.5929],[93.3857,25.5872],[93.3833,25.588],[93.382,25.5841],[93.3783,25.5827],[93.3815,25.5821],[93.3797,25.5767],[93.3742,25.5772],[93.3753,25.5732],[93.3694,25.5705],[93.3654,25.5653],[93.3624,25.5661],[93.364,25.5613],[93.3584,25.5574],[93.3586,25.5547],[93.3545,25.5556],[93.3521,25.5601],[93.3432,25.5601],[93.3379,25.557],[93.3325,25.5485],[93.3291,25.5489],[93.3266,25.5454],[93.3363,25.5388],[93.3352,25.5343],[93.345,25.5343],[93.3482,25.53],[93.35,25.5323],[93.3499,25.5288],[93.355,25.5249],[93.3568,25.5138],[93.3615,25.5124],[93.3642,25.5039],[93.3691,25.5036],[93.3672,25.4996],[93.3766,25.4976],[93.3773,25.4931],[93.3854,25.4905],[93.3838,25.488],[93.3865,25.4874],[93.3845,25.4852],[93.3913,25.4823],[93.3865,25.4779],[93.3891,25.4765],[93.3889,25.4726],[93.3844,25.4693],[93.3903,25.4645],[93.3882,25.4636],[93.3902,25.4605],[93.3916,25.4619],[93.3939,25.4585],[93.3972,25.4604],[93.4024,25.4509],[93.4086,25.4484],[93.4103,25.45],[93.4155,25.4451],[93.4255,25.4484],[93.4363,25.4483],[93.4394,25.4411],[93.4432,25.4412],[93.4581,25.4311],[93.4622,25.418],[93.4596,25.4033],[93.4631,25.3957],[93.4729,25.3861],[93.4735,25.3794],[93.4649,25.3608],[93.4587,25.3608],[93.4515,25.3541],[93.4519,25.3471],[93.4483,25.3407],[93.452,25.3361],[93.4564,25.3355],[93.4534,25.3216],[93.4669,25.3117],[93.472,25.3035],[93.4737,25.2937],[93.4701,25.2826],[93.4716,25.2718],[93.4804,25.2698],[93.4898,25.2748],[93.5062,25.2693],[93.5004,25.2519],[93.5018,25.242],[93.5085,25.2447],[93.5124,25.2428],[93.521,25.2474],[93.5267,25.2447],[93.5331,25.2459],[93.5351,25.2436],[93.5438,25.2479],[93.5561,25.2459],[93.5628,25.241],[93.5645,25.2311],[93.5685,25.2298],[93.5691,25.2263],[93.5841,25.2218],[93.5868,25.2176],[93.586,25.2142],[93.5895,25.2134],[93.5914,25.2081],[93.5879,25.2011],[93.5933,25.2035],[93.5954,25.1986],[93.5984,25.2018],[93.6052,25.199],[93.6109,25.2049],[93.6089,25.2131],[93.6149,25.2183],[93.6227,25.2314],[93.6221,25.2356],[93.6278,25.2419],[93.6289,25.2482],[93.6349,25.2554],[93.6372,25.2637],[93.646,25.2664],[93.6438,25.2716],[93.6449,25.276],[93.6605,25.2988],[93.6582,25.304],[93.6676,25.3108],[93.6677,25.3185],[93.6647,25.3257],[93.6699,25.3248],[93.6734,25.3277],[93.6778,25.3267],[93.6816,25.3289],[93.6829,25.3412],[93.6872,25.3456],[93.6851,25.3511],[93.6876,25.3554],[93.6866,25.3601],[93.6968,25.3561],[93.702,25.3581],[93.7093,25.3572],[93.7158,25.3718],[93.7313,25.38],[93.7359,25.3852],[93.7347,25.3943],[93.7422,25.404],[93.752,25.4079],[93.7605,25.4148],[93.7654,25.4154],[93.768,25.42],[93.7741,25.4197],[93.7751,25.4221],[93.7727,25.4262],[93.7833,25.4331],[93.7824,25.4397],[93.7865,25.4461],[93.805,25.4633],[93.81,25.4838],[93.8047,25.4876],[93.8002,25.4968],[93.7875,25.5032],[93.7665,25.4935],[93.7613,25.4958],[93.758,25.5077],[93.7592,25.5125],[93.7626,25.5138],[93.7615,25.5169],[93.7664,25.5182],[93.7636,25.5221],[93.7673,25.5336],[93.7648,25.5384],[93.7703,25.5337],[93.7799,25.5337],[93.7859,25.5374],[93.7941,25.5374],[93.8048,25.5415],[93.8165,25.5403],[93.817,25.5443],[93.8203,25.5449],[93.8192,25.55],[93.821,25.5532],[93.8276,25.5527],[93.8306,25.5557],[93.8298,25.5583],[93.8344,25.5606],[93.8414,25.5561],[93.8478,25.5567],[93.861,25.5532],[93.8711,25.5551],[93.8887,25.5651],[93.9038,25.5622],[93.9078,25.5645],[93.9183,25.5595],[93.9358,25.5587],[93.94,25.5726],[93.9399,25.586],[93.9347,25.5944],[93.9232,25.602],[93.9173,25.6031],[93.9142,25.6131],[93.9143,25.6222],[93.9294,25.6247],[93.9309,25.6332],[93.9292,25.6584]]]},"properties":{"dtname":"Peren","stname":"NAGALAND","stcode11":"13","dtcode11":"271","year_stat":"2011_c","Shape_Length":279704.72301438823,"Shape_Area":2045198173.228585,"OBJECTID":328,"test":0,"Dist_LGD":613,"State_LGD":13}},{"type":"Feature","id":495,"geometry":{"type":"Polygon","coordinates":[[[94.2842,26.5614],[94.2706,26.5494],[94.2562,26.5413],[94.2532,26.5329],[94.2477,26.5283],[94.2486,26.5251],[94.2365,26.5062],[94.2212,26.4982],[94.2074,26.4866],[94.2026,26.4692],[94.194,26.4613],[94.1858,26.4591],[94.1832,26.4554],[94.1716,26.4299],[94.1756,26.4245],[94.1718,26.4159],[94.1775,26.3821],[94.1721,26.3738],[94.174,26.3708],[94.171,26.3629],[94.1601,26.3544],[94.1619,26.3473],[94.167,26.3481],[94.1686,26.351],[94.1775,26.3465],[94.1745,26.3406],[94.1715,26.3381],[94.1671,26.3394],[94.1628,26.3356],[94.1475,26.3336],[94.145,26.3307],[94.1409,26.3315],[94.1409,26.3354],[94.1386,26.3364],[94.1283,26.3305],[94.1158,26.3298],[94.1149,26.3241],[94.1216,26.3179],[94.105,26.32],[94.0996,26.314],[94.1007,26.3087],[94.0977,26.3021],[94.0842,26.2891],[94.084,26.2834],[94.0746,26.2837],[94.0722,26.2762],[94.0746,26.2731],[94.0745,26.2645],[94.0678,26.2571],[94.056,26.2551],[94.0476,26.2495],[94.0423,26.2346],[94.0364,26.2262],[94.0319,26.1976],[94.0217,26.1939],[94.0153,26.1841],[94.0077,26.1826],[94.001,26.1724],[94.0036,26.1602],[94.001,26.1553],[93.9965,26.1536],[93.9944,26.1484],[94.0035,26.1443],[94.0021,26.1345],[93.9982,26.1313],[93.9889,26.1334],[93.987,26.1302],[93.9899,26.1281],[93.9977,26.1289],[93.9934,26.124],[93.9938,26.1188],[93.9867,26.114],[93.9886,26.1109],[93.9957,26.1123],[93.9978,26.1097],[93.9894,26.0976],[93.9886,26.0864],[93.9814,26.0813],[93.9873,26.0669],[93.9707,26.0465],[93.9703,26.0404],[93.9624,26.0366],[93.9604,26.0155],[93.9529,26.0031],[93.9591,25.9944],[93.9567,25.9825],[93.9726,25.9924],[94.0021,25.9904],[94.0212,25.9933],[94.0956,25.9968],[94.1001,25.9853],[94.1012,25.9885],[94.1113,25.9874],[94.1395,25.9922],[94.1409,25.9867],[94.1607,25.9728],[94.1688,25.9763],[94.1764,25.9863],[94.1861,25.9904],[94.1927,25.9894],[94.1995,25.9972],[94.2008,26.002],[94.211,26.0085],[94.2103,26.0169],[94.2146,26.0216],[94.2225,26.0187],[94.2359,26.003],[94.2445,26.0017],[94.2492,26.005],[94.2665,26.0061],[94.2749,26.0096],[94.2997,26.0064],[94.317,26.0184],[94.3233,26.0167],[94.3217,26.0151],[94.3247,26.0133],[94.323,26.0118],[94.3255,26.0103],[94.3276,25.9995],[94.3327,25.9981],[94.3355,25.9997],[94.3381,25.998],[94.3455,26.0044],[94.3628,26.0085],[94.3561,26.0097],[94.3594,26.0165],[94.3578,26.0215],[94.3624,26.026],[94.3602,26.0279],[94.3636,26.0309],[94.3703,26.0468],[94.3703,26.0528],[94.3746,26.0558],[94.3822,26.0726],[94.3875,26.0749],[94.3868,26.0784],[94.3906,26.0839],[94.3833,26.087],[94.3853,26.0896],[94.3844,26.0954],[94.3809,26.0941],[94.3799,26.1004],[94.3829,26.1033],[94.3825,26.1081],[94.3866,26.1097],[94.3869,26.1158],[94.3849,26.1255],[94.3634,26.1349],[94.3601,26.1428],[94.3607,26.1471],[94.3507,26.1555],[94.3475,26.1554],[94.3473,26.171],[94.3457,26.1727],[94.3351,26.172],[94.3352,26.1783],[94.3403,26.177],[94.3571,26.1901],[94.3599,26.188],[94.3654,26.1927],[94.3712,26.1929],[94.38,26.207],[94.3847,26.2239],[94.3834,26.229],[94.3776,26.2282],[94.3698,26.2315],[94.364,26.2373],[94.3582,26.2382],[94.356,26.2419],[94.3468,26.2426],[94.3414,26.2386],[94.3351,26.2402],[94.3433,26.2442],[94.3547,26.2581],[94.3559,26.2652],[94.3593,26.2686],[94.3549,26.2932],[94.3572,26.303],[94.3519,26.3099],[94.355,26.3132],[94.3533,26.3169],[94.3563,26.3246],[94.366,26.3366],[94.3557,26.3356],[94.355,26.3327],[94.3518,26.332],[94.3487,26.3356],[94.3478,26.3329],[94.3435,26.3314],[94.3428,26.3363],[94.3473,26.3365],[94.3505,26.3398],[94.3528,26.3432],[94.3523,26.3486],[94.3585,26.3569],[94.3506,26.3722],[94.345,26.3783],[94.3414,26.3785],[94.3375,26.3852],[94.3295,26.3899],[94.3251,26.4022],[94.3119,26.3924],[94.3092,26.3838],[94.3013,26.3772],[94.3002,26.3851],[94.304,26.3942],[94.2973,26.4058],[94.291,26.4066],[94.2902,26.4179],[94.2932,26.4195],[94.2988,26.4303],[94.2988,26.4376],[94.3052,26.4392],[94.3157,26.4582],[94.3079,26.4626],[94.3066,26.4609],[94.3034,26.4643],[94.2998,26.4637],[94.2897,26.4798],[94.29,26.4889],[94.2831,26.5051],[94.2833,26.5108],[94.2865,26.5153],[94.2817,26.5246],[94.2828,26.5295],[94.2809,26.5352],[94.2819,26.5407],[94.2861,26.5426],[94.2812,26.5487],[94.2842,26.5614]]]},"properties":{"dtname":"Wokha","stname":"NAGALAND","stcode11":"13","dtcode11":"264","year_stat":"2011_c","Shape_Length":278020.88817202987,"Shape_Area":1937269016.8675659,"OBJECTID":495,"test":0,"Dist_LGD":250,"State_LGD":13}},{"type":"Feature","id":496,"geometry":{"type":"Polygon","coordinates":[[[94.4823,26.2929],[94.4789,26.2934],[94.4745,26.2798],[94.4673,26.2738],[94.4638,26.2665],[94.4588,26.2486],[94.4546,26.2442],[94.4591,26.236],[94.4542,26.2331],[94.4521,26.2263],[94.4488,26.2254],[94.4441,26.2181],[94.4457,26.2061],[94.4311,26.2061],[94.4187,26.2124],[94.4093,26.2102],[94.4055,26.2116],[94.3957,26.2019],[94.3914,26.2023],[94.385,26.1967],[94.3654,26.1927],[94.3599,26.188],[94.3571,26.1901],[94.3409,26.1773],[94.3352,26.1783],[94.3351,26.172],[94.3457,26.1727],[94.3473,26.171],[94.3475,26.1554],[94.3507,26.1555],[94.3607,26.1471],[94.3601,26.1428],[94.3634,26.1349],[94.3849,26.1255],[94.3869,26.1158],[94.3866,26.1097],[94.3825,26.1081],[94.3829,26.1033],[94.3799,26.1004],[94.3809,26.0941],[94.3844,26.0954],[94.3853,26.0896],[94.3833,26.087],[94.3906,26.0839],[94.3868,26.0784],[94.3875,26.0749],[94.3822,26.0726],[94.3746,26.0558],[94.3703,26.0528],[94.3703,26.0468],[94.3636,26.0309],[94.3602,26.0279],[94.3624,26.026],[94.3578,26.0215],[94.3594,26.0165],[94.3561,26.0097],[94.3628,26.0085],[94.3455,26.0044],[94.3379,25.998],[94.3277,25.9994],[94.3255,26.0103],[94.323,26.0118],[94.3247,26.0133],[94.3217,26.0151],[94.3234,26.0164],[94.3172,26.0184],[94.2997,26.0064],[94.2743,26.0095],[94.2758,25.9844],[94.2837,25.9395],[94.2708,25.9273],[94.2437,25.9223],[94.2273,25.9016],[94.2144,25.8759],[94.2166,25.8716],[94.2287,25.8638],[94.2558,25.8302],[94.268,25.8095],[94.2963,25.8097],[94.289,25.8041],[94.2806,25.8035],[94.2763,25.8],[94.2771,25.7965],[94.2732,25.7949],[94.2858,25.7882],[94.3254,25.8071],[94.353,25.817],[94.3801,25.8318],[94.4201,25.8461],[94.4566,25.854],[94.463,25.8462],[94.4621,25.8419],[94.4655,25.8303],[94.4813,25.833],[94.4943,25.8316],[94.5111,25.8166],[94.5177,25.8153],[94.5144,25.819],[94.518,25.8249],[94.5294,25.8223],[94.5416,25.8121],[94.5416,25.8002],[94.5354,25.7842],[94.5404,25.7812],[94.549,25.7817],[94.5534,25.7796],[94.5521,25.7406],[94.5595,25.732],[94.5841,25.75],[94.5856,25.755],[94.5959,25.7633],[94.6068,25.7784],[94.6125,25.7773],[94.622,25.7706],[94.6366,25.7692],[94.6428,25.7711],[94.647,25.7764],[94.6585,25.7776],[94.678,25.7702],[94.6958,25.7573],[94.7129,25.7593],[94.6985,25.7885],[94.6849,25.8003],[94.6513,25.8155],[94.6405,25.8173],[94.6282,25.8154],[94.6232,25.8178],[94.6154,25.8156],[94.6102,25.8178],[94.6028,25.8261],[94.6107,25.8341],[94.6102,25.844],[94.5959,25.8753],[94.592,25.8789],[94.5762,25.8834],[94.5698,25.8895],[94.572,25.8944],[94.5743,25.8943],[94.5864,25.9058],[94.5877,25.9108],[94.5937,25.914],[94.5959,25.921],[94.6036,25.9313],[94.6085,25.9326],[94.6109,25.9359],[94.6097,25.9381],[94.6149,25.9413],[94.6434,25.9865],[94.6513,25.9922],[94.657,26.0013],[94.6559,26.0034],[94.6639,26.008],[94.6734,26.0263],[94.6978,26.0472],[94.7046,26.0488],[94.7006,26.0652],[94.6917,26.0752],[94.6937,26.0853],[94.6889,26.0929],[94.6883,26.104],[94.6914,26.109],[94.6874,26.1153],[94.6883,26.1375],[94.6944,26.1418],[94.7031,26.1696],[94.7057,26.1719],[94.7034,26.1736],[94.6966,26.1714],[94.6967,26.1785],[94.6894,26.1981],[94.6872,26.1962],[94.6842,26.199],[94.6809,26.1985],[94.6758,26.2063],[94.6729,26.2069],[94.6723,26.2105],[94.6666,26.2125],[94.6648,26.2088],[94.6623,26.209],[94.6623,26.2064],[94.6599,26.2078],[94.6564,26.2032],[94.6464,26.2086],[94.6382,26.2172],[94.6315,26.2078],[94.6254,26.2047],[94.6238,26.1998],[94.6176,26.1984],[94.6124,26.1935],[94.5997,26.1974],[94.5834,26.2189],[94.572,26.207],[94.5535,26.2018],[94.5375,26.2074],[94.5311,26.2169],[94.5261,26.2121],[94.4996,26.2139],[94.4962,26.2191],[94.4983,26.2191],[94.4974,26.2245],[94.5016,26.2274],[94.4978,26.2291],[94.5022,26.2323],[94.5055,26.2318],[94.5059,26.2348],[94.5086,26.2349],[94.5087,26.2325],[94.5135,26.2358],[94.5122,26.239],[94.516,26.2393],[94.514,26.2414],[94.5109,26.2401],[94.5059,26.2447],[94.506,26.2525],[94.4984,26.2548],[94.4991,26.2681],[94.4964,26.2698],[94.4959,26.2742],[94.4912,26.2749],[94.4862,26.2797],[94.4823,26.2929]]]},"properties":{"dtname":"Zunheboto","stname":"NAGALAND","stcode11":"13","dtcode11":"263","year_stat":"2011_c","Shape_Length":308619.7270732332,"Shape_Area":1948937305.840889,"OBJECTID":496,"test":0,"Dist_LGD":251,"State_LGD":13}},{"type":"Feature","id":497,"geometry":{"type":"Polygon","coordinates":[[[94.457,25.8535],[94.4201,25.8461],[94.3801,25.8318],[94.353,25.817],[94.3254,25.8071],[94.2858,25.7882],[94.2729,25.7947],[94.2762,25.7931],[94.2755,25.7898],[94.2711,25.7871],[94.2671,25.778],[94.2649,25.7774],[94.2662,25.7748],[94.2632,25.7725],[94.2589,25.759],[94.2461,25.7452],[94.2434,25.7327],[94.2299,25.7138],[94.2333,25.7045],[94.2287,25.7023],[94.2317,25.6983],[94.231,25.6946],[94.2189,25.6831],[94.2174,25.6766],[94.213,25.6718],[94.2144,25.6681],[94.2193,25.6659],[94.2179,25.6588],[94.2201,25.6568],[94.214,25.6311],[94.2081,25.6284],[94.2103,25.6248],[94.2082,25.6185],[94.2096,25.6133],[94.2144,25.6099],[94.2072,25.5919],[94.1967,25.5818],[94.1973,25.5742],[94.1938,25.5693],[94.1938,25.5621],[94.1965,25.5571],[94.1922,25.5491],[94.1912,25.5397],[94.1859,25.5316],[94.1877,25.5292],[94.1866,25.524],[94.1953,25.5207],[94.2086,25.5038],[94.2084,25.496],[94.2142,25.4956],[94.2216,25.4908],[94.2279,25.4945],[94.2319,25.4931],[94.24,25.4959],[94.2498,25.4943],[94.2552,25.5006],[94.2613,25.498],[94.2748,25.4998],[94.2846,25.5079],[94.2862,25.5057],[94.299,25.5074],[94.3097,25.5037],[94.3216,25.5029],[94.348,25.5122],[94.3551,25.5122],[94.3736,25.5222],[94.3779,25.5281],[94.3853,25.5325],[94.3999,25.5341],[94.4107,25.5384],[94.4166,25.5366],[94.4225,25.5533],[94.4218,25.569],[94.4191,25.5699],[94.4224,25.5738],[94.4212,25.5767],[94.425,25.5865],[94.438,25.5925],[94.4452,25.5916],[94.4452,25.5968],[94.4588,25.6042],[94.4688,25.6141],[94.4871,25.6142],[94.4925,25.6085],[94.4954,25.6131],[94.5052,25.6136],[94.5069,25.6239],[94.5129,25.625],[94.5139,25.6283],[94.5182,25.6297],[94.5207,25.6388],[94.5293,25.6373],[94.5293,25.6425],[94.534,25.6419],[94.5393,25.6506],[94.5435,25.65],[94.5455,25.6526],[94.5437,25.6546],[94.55,25.6577],[94.5483,25.6614],[94.5512,25.6628],[94.5563,25.6723],[94.5633,25.6747],[94.5605,25.6831],[94.5718,25.6918],[94.5787,25.69],[94.5839,25.6849],[94.5895,25.687],[94.5964,25.683],[94.5897,25.6815],[94.5851,25.6703],[94.5804,25.6688],[94.5806,25.6658],[94.5842,25.6663],[94.5864,25.6638],[94.5784,25.6617],[94.5836,25.6563],[94.576,25.6553],[94.5801,25.6505],[94.5734,25.6478],[94.5759,25.6437],[94.5721,25.6412],[94.5734,25.6375],[94.5891,25.6403],[94.5934,25.6356],[94.5918,25.6343],[94.5899,25.6366],[94.5865,25.6329],[94.5859,25.6354],[94.5836,25.6342],[94.5841,25.6305],[94.5758,25.6234],[94.5767,25.6164],[94.5725,25.6109],[94.5719,25.6053],[94.5652,25.6032],[94.5662,25.5972],[94.5596,25.5978],[94.5607,25.5943],[94.5565,25.5907],[94.5599,25.5878],[94.5583,25.5831],[94.5509,25.5795],[94.561,25.5731],[94.5584,25.5658],[94.5643,25.5634],[94.5559,25.5547],[94.5651,25.551],[94.5666,25.548],[94.5578,25.5393],[94.5577,25.5367],[94.5619,25.5337],[94.5545,25.5285],[94.5559,25.5235],[94.5601,25.5214],[94.5569,25.5191],[94.5559,25.5108],[94.5532,25.5103],[94.5534,25.5041],[94.5591,25.5007],[94.5679,25.5009],[94.5768,25.4957],[94.5815,25.4885],[94.5927,25.484],[94.5953,25.4783],[94.6017,25.4766],[94.6165,25.4623],[94.6373,25.4558],[94.6459,25.4569],[94.6557,25.4497],[94.6755,25.4456],[94.6811,25.4551],[94.6797,25.4581],[94.6834,25.4662],[94.6923,25.4654],[94.7102,25.4714],[94.7181,25.4692],[94.7275,25.476],[94.7442,25.4812],[94.7517,25.4938],[94.7573,25.4915],[94.762,25.4821],[94.7838,25.4806],[94.789,25.4895],[94.8055,25.4918],[94.8079,25.4939],[94.812,25.5115],[94.8248,25.5238],[94.8231,25.5337],[94.8253,25.5424],[94.83,25.544],[94.8347,25.553],[94.8436,25.5574],[94.8456,25.5613],[94.8536,25.5644],[94.8796,25.5627],[94.8895,25.5667],[94.8982,25.5656],[94.8972,25.5707],[94.891,25.5783],[94.878,25.5883],[94.8662,25.6086],[94.8515,25.6101],[94.8538,25.6182],[94.8491,25.6248],[94.8508,25.6332],[94.846,25.65],[94.8483,25.6652],[94.8579,25.6964],[94.8586,25.7027],[94.8551,25.709],[94.8566,25.7173],[94.8545,25.7242],[94.8468,25.729],[94.8407,25.7406],[94.8356,25.7431],[94.819,25.7637],[94.8101,25.7647],[94.7902,25.7773],[94.7602,25.7784],[94.7552,25.7822],[94.7486,25.7758],[94.7458,25.7768],[94.7466,25.7715],[94.7401,25.77],[94.7418,25.7654],[94.7331,25.7601],[94.7335,25.7552],[94.7287,25.7532],[94.7306,25.7506],[94.7253,25.7483],[94.7245,25.7451],[94.7271,25.7451],[94.7266,25.7436],[94.7203,25.7393],[94.7232,25.737],[94.7213,25.7334],[94.7271,25.7307],[94.7232,25.7264],[94.727,25.7252],[94.7173,25.7217],[94.7188,25.7274],[94.7137,25.7411],[94.7162,25.7553],[94.7129,25.7593],[94.6958,25.7573],[94.678,25.7702],[94.6585,25.7776],[94.647,25.7764],[94.6428,25.7711],[94.6366,25.7692],[94.622,25.7706],[94.6125,25.7773],[94.6068,25.7784],[94.5959,25.7633],[94.5856,25.755],[94.5841,25.75],[94.5595,25.732],[94.5521,25.7406],[94.5534,25.7796],[94.549,25.7817],[94.5404,25.7812],[94.5354,25.7842],[94.5416,25.8002],[94.5416,25.8121],[94.5294,25.8223],[94.518,25.8249],[94.5144,25.819],[94.5177,25.8153],[94.5111,25.8166],[94.4943,25.8316],[94.4813,25.833],[94.4655,25.8303],[94.4621,25.8419],[94.463,25.8462],[94.457,25.8535]]]},"properties":{"dtname":"Phek","stname":"NAGALAND","stcode11":"13","dtcode11":"266","year_stat":"2011_c","Shape_Length":335398.45749637816,"Shape_Area":2333304804.169057,"OBJECTID":497,"test":0,"Dist_LGD":248,"State_LGD":13}},{"type":"Feature","id":502,"geometry":{"type":"Polygon","coordinates":[[[94.2198,26.0195],[94.2147,26.0216],[94.2118,26.0196],[94.211,26.0085],[94.2008,26.002],[94.1995,25.9972],[94.1927,25.9894],[94.1861,25.9904],[94.1764,25.9863],[94.1688,25.9763],[94.1607,25.9728],[94.1409,25.9867],[94.1395,25.9922],[94.1113,25.9874],[94.1012,25.9885],[94.1001,25.9853],[94.0956,25.9968],[94.0212,25.9933],[94.0021,25.9904],[94.0135,25.9505],[94.0065,25.9337],[94.0026,25.9303],[93.999,25.9315],[93.9943,25.9115],[93.9782,25.8949],[93.9773,25.8826],[94.0173,25.8459],[94.0115,25.8067],[93.994,25.7504],[93.9644,25.6933],[93.9366,25.674],[93.9285,25.6708],[93.9309,25.6332],[93.9294,25.6247],[93.9143,25.6222],[93.9142,25.6131],[93.9173,25.6031],[93.9232,25.602],[93.9347,25.5944],[93.9399,25.586],[93.94,25.5726],[93.9358,25.5587],[93.9457,25.5568],[93.9554,25.5502],[93.9634,25.5515],[93.9656,25.5552],[93.9704,25.5558],[93.9748,25.5646],[93.9831,25.5683],[93.9937,25.5692],[94.0047,25.5654],[94.0107,25.5736],[94.0023,25.5864],[94.0128,25.5926],[94.0217,25.5902],[94.022,25.5849],[94.0266,25.5856],[94.0267,25.5792],[94.0307,25.5804],[94.0298,25.5773],[94.0368,25.579],[94.0382,25.5701],[94.043,25.5767],[94.0481,25.5756],[94.0539,25.5677],[94.0598,25.5641],[94.061,25.5583],[94.0656,25.557],[94.0673,25.5523],[94.0711,25.556],[94.0747,25.5557],[94.0757,25.5583],[94.0848,25.5547],[94.0922,25.5443],[94.0942,25.5373],[94.0908,25.5324],[94.0846,25.5304],[94.1035,25.5263],[94.1081,25.5219],[94.1226,25.5229],[94.1329,25.5187],[94.1404,25.5194],[94.1438,25.5226],[94.1435,25.5293],[94.1499,25.5432],[94.1562,25.5511],[94.1612,25.5478],[94.1649,25.5413],[94.1768,25.5466],[94.1781,25.5506],[94.1836,25.5483],[94.1921,25.5486],[94.1967,25.5581],[94.1938,25.5621],[94.1938,25.5693],[94.1973,25.5742],[94.1967,25.5818],[94.2072,25.5919],[94.2144,25.6099],[94.2096,25.6133],[94.2082,25.6185],[94.2103,25.6248],[94.2081,25.6284],[94.214,25.6311],[94.2201,25.6568],[94.2179,25.6588],[94.2193,25.6659],[94.2144,25.6681],[94.213,25.6718],[94.2174,25.6766],[94.2189,25.6831],[94.231,25.6946],[94.2317,25.6983],[94.2287,25.7023],[94.2333,25.7045],[94.2299,25.7138],[94.2434,25.7327],[94.2461,25.7452],[94.2589,25.759],[94.2632,25.7725],[94.2662,25.7748],[94.2649,25.7774],[94.2671,25.778],[94.2711,25.7871],[94.2755,25.7898],[94.2762,25.7931],[94.2729,25.7947],[94.2771,25.7965],[94.2763,25.8],[94.2806,25.8035],[94.289,25.8041],[94.2963,25.8097],[94.268,25.8095],[94.2558,25.8302],[94.2287,25.8638],[94.2166,25.8716],[94.2144,25.8759],[94.2273,25.9016],[94.2437,25.9223],[94.2708,25.9273],[94.2837,25.9395],[94.2758,25.9844],[94.2743,26.0095],[94.2665,26.0061],[94.2492,26.005],[94.2451,26.0017],[94.236,26.003],[94.2198,26.0195]]]},"properties":{"dtname":"Kohima","stname":"NAGALAND","stcode11":"13","dtcode11":"270","year_stat":"2011_c","Shape_Length":228744.82885167192,"Shape_Area":1594148720.8194714,"OBJECTID":502,"test":0,"Dist_LGD":245,"State_LGD":13}},{"type":"Feature","id":503,"geometry":{"type":"Polygon","coordinates":[[[94.0028,25.9313],[94.0065,25.9337],[94.0135,25.9505],[94.0021,25.9904],[93.9726,25.9924],[93.9567,25.9825],[93.9541,25.9694],[93.9686,25.9574],[93.9699,25.9369],[93.9779,25.9282],[93.9786,25.9168],[93.9711,25.9129],[93.961,25.9013],[93.9449,25.8977],[93.9442,25.8956],[93.9379,25.8964],[93.9353,25.8945],[93.9339,25.8853],[93.9159,25.8838],[93.9074,25.8726],[93.9019,25.8709],[93.8959,25.858],[93.8899,25.8587],[93.8864,25.8484],[93.8817,25.8434],[93.876,25.8426],[93.8691,25.851],[93.8585,25.8538],[93.8522,25.8583],[93.8396,25.8567],[93.8211,25.8388],[93.8163,25.8227],[93.8062,25.817],[93.8037,25.8115],[93.7954,25.809],[93.79,25.8113],[93.7874,25.8159],[93.7847,25.8291],[93.7802,25.8355],[93.7814,25.8396],[93.7781,25.8402],[93.7777,25.8425],[93.781,25.8447],[93.7774,25.8499],[93.781,25.8541],[93.7784,25.857],[93.7843,25.8585],[93.7849,25.8644],[93.7897,25.8679],[93.7889,25.8702],[93.7851,25.8701],[93.7873,25.877],[93.7841,25.8844],[93.7953,25.8925],[93.7934,25.8957],[93.7956,25.9066],[93.7919,25.9067],[93.7942,25.9077],[93.7942,25.9128],[93.7886,25.917],[93.7909,25.9263],[93.7864,25.9322],[93.7898,25.934],[93.7866,25.9383],[93.7872,25.944],[93.7845,25.944],[93.7872,25.9467],[93.7768,25.9582],[93.7785,25.9604],[93.775,25.9615],[93.7744,25.9656],[93.7771,25.9683],[93.7735,25.9706],[93.7713,25.9681],[93.7654,25.9699],[93.7699,25.9614],[93.7694,25.9589],[93.7635,25.9595],[93.7679,25.9511],[93.7641,25.9509],[93.7641,25.9545],[93.7617,25.9512],[93.7586,25.9527],[93.7584,25.9456],[93.7528,25.9468],[93.7503,25.941],[93.745,25.9424],[93.7461,25.9388],[93.7519,25.9361],[93.7512,25.9329],[93.7475,25.935],[93.7394,25.9319],[93.7361,25.9229],[93.7339,25.924],[93.7135,25.9169],[93.7065,25.9189],[93.7008,25.9108],[93.6939,25.9118],[93.6847,25.9038],[93.6814,25.9045],[93.702,25.8516],[93.7142,25.8446],[93.7077,25.8479],[93.7008,25.8434],[93.701,25.8497],[93.6991,25.8467],[93.6946,25.8481],[93.6913,25.8439],[93.6882,25.846],[93.6856,25.8438],[93.6901,25.8408],[93.6805,25.8384],[93.6785,25.8285],[93.6725,25.8277],[93.6711,25.8241],[93.6675,25.8261],[93.6682,25.8219],[93.6547,25.8237],[93.6515,25.82],[93.646,25.8225],[93.6434,25.8159],[93.6381,25.8157],[93.6385,25.8099],[93.633,25.8115],[93.6349,25.8094],[93.6316,25.8067],[93.6328,25.8029],[93.6246,25.8027],[93.6277,25.799],[93.6233,25.7974],[93.6267,25.7897],[93.6184,25.7838],[93.62,25.7803],[93.6173,25.7761],[93.6126,25.7767],[93.6102,25.7738],[93.6049,25.775],[93.6026,25.7652],[93.5984,25.7689],[93.5916,25.7626],[93.5894,25.7662],[93.5858,25.7662],[93.5822,25.7606],[93.5854,25.7581],[93.5777,25.7546],[93.5767,25.757],[93.5678,25.7585],[93.5731,25.7542],[93.5702,25.7529],[93.5662,25.7549],[93.5669,25.7474],[93.5634,25.7448],[93.5614,25.7379],[93.5542,25.7379],[93.5552,25.7337],[93.5495,25.7328],[93.5493,25.7294],[93.5424,25.731],[93.543,25.726],[93.5395,25.7227],[93.543,25.7211],[93.5431,25.7147],[93.5479,25.7118],[93.5418,25.7047],[93.5411,25.6989],[93.5362,25.7019],[93.5311,25.6927],[93.5274,25.6913],[93.5235,25.6927],[93.5224,25.6977],[93.5204,25.6917],[93.5126,25.6847],[93.5174,25.6824],[93.5183,25.6795],[93.5127,25.675],[93.5518,25.669],[93.6138,25.6514],[93.6595,25.6496],[93.7345,25.6634],[93.7948,25.6693],[93.8422,25.6655],[93.8833,25.6585],[93.9097,25.6636],[93.9366,25.674],[93.9644,25.6933],[93.994,25.7504],[94.0115,25.8067],[94.0173,25.8459],[93.9773,25.8826],[93.9782,25.8949],[93.9943,25.9115],[93.999,25.9315],[94.0028,25.9313]]]},"properties":{"dtname":"Dimapur","stname":"NAGALAND","stcode11":"13","dtcode11":"265","year_stat":"2011_c","Shape_Length":254951.1708832194,"Shape_Area":1230356329.2208383,"OBJECTID":503,"test":0,"Dist_LGD":244,"State_LGD":13}}]}