{"type":"FeatureCollection","crs":{"type":"name","properties":{"name":"EPSG:4326"}},"features":[{"type":"Feature","id":185,"geometry":{"type":"MultiPolygon","coordinates":[[[[79.6793,11.8146],[79.6759,11.8143],[79.6746,11.8036],[79.6813,11.7963],[79.6839,11.8022],[79.6896,11.8021],[79.6905,11.8085],[79.6881,11.8122],[79.6793,11.8146]]],[[[79.7003,11.8217],[79.6926,11.8225],[79.692,11.8142],[79.7026,11.8135],[79.7003,11.8217]]],[[[79.7377,11.843],[79.7367,11.8443],[79.7381,11.837],[79.7294,11.837],[79.7323,11.8334],[79.7316,11.8244],[79.7357,11.8094],[79.7245,11.8105],[79.7252,11.8032],[79.7231,11.8029],[79.7228,11.7965],[79.7138,11.7963],[79.7129,11.7909],[79.7261,11.7826],[79.7402,11.7809],[79.755,11.7753],[79.7619,11.7908],[79.7658,11.7919],[79.7706,11.7896],[79.7719,11.7822],[79.7804,11.7812],[79.7844,11.7874],[79.7958,11.7855],[79.807,11.8336],[79.8022,11.8339],[79.7982,11.8387],[79.7981,11.8347],[79.7936,11.8324],[79.7986,11.8333],[79.8006,11.8307],[79.7975,11.8246],[79.795,11.8257],[79.7957,11.8285],[79.7923,11.8276],[79.7802,11.8319],[79.7746,11.8287],[79.773,11.8227],[79.7678,11.8227],[79.7649,11.8242],[79.7644,11.8338],[79.7377,11.843]]],[[[79.6537,11.8428],[79.6473,11.8442],[79.6459,11.8423],[79.6458,11.835],[79.6409,11.8229],[79.647,11.8197],[79.648,11.8154],[79.6596,11.8128],[79.6712,11.8149],[79.6713,11.8236],[79.6636,11.8251],[79.6594,11.8295],[79.6617,11.8393],[79.6537,11.8428]]],[[[79.6998,11.8738],[79.6971,11.874],[79.696,11.8604],[79.6991,11.8613],[79.6998,11.8738]]],[[[79.6307,11.8812],[79.6297,11.8886],[79.6249,11.8908],[79.6212,11.8906],[79.6166,11.883],[79.6082,11.8769],[79.6048,11.8812],[79.5993,11.8829],[79.6029,11.8701],[79.602,11.8578],[79.6122,11.8626],[79.6194,11.8627],[79.6191,11.8701],[79.6285,11.8698],[79.6269,11.8543],[79.6471,11.8502],[79.6578,11.8527],[79.6634,11.8613],[79.6627,11.8673],[79.6577,11.8701],[79.6485,11.8705],[79.6484,11.8803],[79.6405,11.8806],[79.6411,11.8866],[79.6348,11.8888],[79.6345,11.881],[79.6307,11.8812]]],[[[79.6865,11.9732],[79.6803,11.9728],[79.6767,11.9681],[79.6622,11.9691],[79.66,11.9584],[79.6538,11.9606],[79.6545,11.9537],[79.6588,11.95],[79.6638,11.9509],[79.6733,11.9479],[79.6846,11.9534],[79.6838,11.9604],[79.6878,11.9696],[79.6865,11.9732]]],[[[79.7554,12.0044],[79.7464,12.0077],[79.7437,12.0037],[79.7415,12.004],[79.7413,12.0013],[79.7376,12.001],[79.7334,11.9933],[79.7205,11.9928],[79.7158,11.9849],[79.7124,11.9866],[79.7092,11.9759],[79.716,11.9711],[79.715,11.9677],[79.7102,11.9658],[79.7025,11.9671],[79.7036,11.9655],[79.6979,11.9605],[79.6956,11.964],[79.6916,11.9514],[79.6957,11.9477],[79.6972,11.9418],[79.7042,11.9402],[79.7066,11.9352],[79.7112,11.9331],[79.7079,11.942],[79.7096,11.95],[79.7208,11.9449],[79.7175,11.929],[79.7255,11.9232],[79.7406,11.9055],[79.7312,11.9033],[79.7288,11.8902],[79.7189,11.8904],[79.7168,11.8928],[79.7111,11.8908],[79.7052,11.894],[79.7089,11.9043],[79.7066,11.9052],[79.7065,11.9137],[79.7179,11.9134],[79.7186,11.9191],[79.6961,11.9192],[79.6955,11.9079],[79.6977,11.9076],[79.6978,11.9048],[79.6957,11.9025],[79.6953,11.8948],[79.6871,11.8946],[79.6868,11.8889],[79.6826,11.8888],[79.6828,11.892],[79.6738,11.8917],[79.6739,11.8807],[79.685,11.881],[79.6846,11.8859],[79.6865,11.8865],[79.7098,11.8893],[79.7082,11.8691],[79.7126,11.8667],[79.7134,11.8607],[79.7177,11.8542],[79.7197,11.8532],[79.7211,11.8625],[79.7325,11.8626],[79.7326,11.8657],[79.7396,11.8647],[79.7435,11.8586],[79.743,11.8484],[79.7503,11.848],[79.754,11.851],[79.7537,11.8662],[79.7586,11.8685],[79.7574,11.8761],[79.7685,11.876],[79.7708,11.8614],[79.7621,11.8484],[79.7661,11.8406],[79.7724,11.8367],[79.7758,11.8385],[79.7817,11.8558],[79.8006,11.8553],[79.8077,11.8468],[79.8061,11.8405],[79.8078,11.8366],[79.8226,11.8765],[79.8406,11.9558],[79.8288,11.9584],[79.8223,11.9658],[79.8184,11.9779],[79.8125,11.9779],[79.8064,11.9681],[79.805,11.9533],[79.7917,11.9594],[79.7847,11.9599],[79.7834,11.9563],[79.7767,11.9537],[79.7715,11.9439],[79.7599,11.9436],[79.7621,11.9286],[79.755,11.9261],[79.7562,11.9204],[79.7502,11.9199],[79.7445,11.965],[79.7245,11.9713],[79.7234,11.9771],[79.7264,11.9858],[79.7303,11.986],[79.7319,11.9815],[79.7419,11.9777],[79.7481,11.9848],[79.7519,11.9843],[79.7555,11.9883],[79.7604,11.9892],[79.7623,12.0027],[79.7554,12.0044]],[[79.7753,11.905],[79.7799,11.9042],[79.7876,11.8969],[79.7964,11.8999],[79.7923,11.8769],[79.7895,11.8772],[79.7872,11.8735],[79.7851,11.863],[79.7784,11.8632],[79.7796,11.878],[79.7761,11.8783],[79.7728,11.8753],[79.7735,11.8833],[79.771,11.8835],[79.7705,11.8909],[79.7728,11.9005],[79.7692,11.9018],[79.7751,11.9019],[79.7753,11.905]]],[[[79.7943,12.0258],[79.7893,12.0277],[79.7883,12.0192],[79.8009,12.017],[79.8055,12.0222],[79.8032,12.0258],[79.7943,12.0258]]],[[[79.6279,12.0318],[79.6253,12.0304],[79.6292,12.0187],[79.6251,12.0147],[79.621,12.0143],[79.6188,12.0019],[79.6262,12.0004],[79.6244,11.9918],[79.6236,11.9893],[79.6171,11.9896],[79.618,11.9849],[79.6244,11.9818],[79.6245,11.976],[79.6185,11.9699],[79.6275,11.9681],[79.6285,11.9452],[79.6189,11.9432],[79.6184,11.9261],[79.6283,11.9196],[79.6253,11.903],[79.6369,11.9014],[79.6406,11.9022],[79.6411,11.9077],[79.6559,11.9079],[79.656,11.9129],[79.6626,11.9131],[79.661,11.9163],[79.6689,11.9184],[79.6707,11.9316],[79.6693,11.9375],[79.6607,11.9371],[79.6574,11.9481],[79.6529,11.9482],[79.652,11.9436],[79.6471,11.9445],[79.6427,11.9421],[79.6422,11.9539],[79.6473,11.9534],[79.6483,11.9673],[79.6413,11.9704],[79.6403,11.9762],[79.6364,11.9778],[79.64,11.9927],[79.636,11.996],[79.6364,11.998],[79.6423,11.9993],[79.646,12.0057],[79.6485,12.0195],[79.6514,12.0223],[79.644,12.0276],[79.6375,12.0267],[79.6352,12.0297],[79.6279,12.0318]]],[[[79.695,12.0356],[79.6928,12.0353],[79.6912,12.0286],[79.6866,12.0268],[79.6842,12.0217],[79.6765,12.0216],[79.6722,12.0097],[79.6614,12.0123],[79.6569,11.9916],[79.6625,11.9895],[79.6738,11.9951],[79.6808,11.9833],[79.6854,11.9916],[79.6935,11.9899],[79.7056,11.9946],[79.7158,11.9905],[79.7196,11.9922],[79.7175,11.9977],[79.7028,12.0111],[79.7048,12.032],[79.695,12.0356]]],[[[79.8571,12.0068],[79.8738,12.0426],[79.8498,12.0518],[79.8434,12.0345],[79.8405,12.0133],[79.8571,12.0068]]]]},"properties":{"dtname":"Puducherry","stname":"PUDUCHERRY","stcode11":"34","dtcode11":"635","year_stat":"2011_c","Shape_Length":358922.17571918765,"Shape_Area":313881167.4873629,"OBJECTID":185,"test":0,"Dist_LGD":600,"State_LGD":34}},{"type":"Feature","id":711,"geometry":{"type":"MultiPolygon","coordinates":[[[[79.8095,10.8781],[79.8097,10.8805],[79.806,10.8797],[79.8095,10.8781]]],[[[79.7397,10.9202],[79.7397,10.9207],[79.7395,10.921],[79.7394,10.9214],[79.7391,10.9213],[79.7393,10.9207],[79.7388,10.9205],[79.7388,10.9201],[79.7397,10.9202]]],[[[79.7223,10.9374],[79.7202,10.9361],[79.722,10.9351],[79.7223,10.9374]]],[[[79.757,11.0028],[79.7467,11.0026],[79.7485,10.998],[79.7473,10.9884],[79.7525,10.9881],[79.7528,10.9829],[79.7585,10.9835],[79.7584,10.9799],[79.7528,10.9769],[79.7547,10.9719],[79.7594,10.9722],[79.7639,10.9598],[79.7588,10.9606],[79.7463,10.9563],[79.7446,10.9662],[79.7391,10.9646],[79.7384,10.9674],[79.7309,10.9705],[79.7192,10.9685],[79.7206,10.9644],[79.7187,10.956],[79.7212,10.9556],[79.7198,10.9522],[79.7324,10.9512],[79.7345,10.9575],[79.7365,10.9572],[79.7373,10.9525],[79.7369,10.949],[79.724,10.9419],[79.7271,10.9378],[79.723,10.935],[79.7291,10.9364],[79.7292,10.934],[79.7255,10.9341],[79.7248,10.929],[79.7355,10.9275],[79.7352,10.9247],[79.7391,10.9263],[79.7384,10.9233],[79.7426,10.9246],[79.7434,10.9191],[79.7417,10.918],[79.7453,10.9193],[79.743,10.9147],[79.7537,10.9141],[79.7543,10.9163],[79.7589,10.9167],[79.7623,10.9144],[79.7575,10.9079],[79.7594,10.9019],[79.7569,10.8965],[79.7602,10.9005],[79.7617,10.8993],[79.7613,10.9018],[79.7635,10.8999],[79.7558,10.8947],[79.7562,10.8918],[79.7679,10.8925],[79.7651,10.8963],[79.7769,10.8966],[79.7766,10.9055],[79.7792,10.9053],[79.7773,10.909],[79.782,10.9063],[79.7892,10.9085],[79.7953,10.9028],[79.7913,10.9049],[79.7938,10.8988],[79.7912,10.896],[79.7825,10.8954],[79.7836,10.8885],[79.7899,10.8904],[79.7903,10.8949],[79.7952,10.8909],[79.7946,10.8876],[79.7997,10.8874],[79.8043,10.8911],[79.807,10.8876],[79.8113,10.8885],[79.8285,10.8838],[79.8246,10.8805],[79.8112,10.8804],[79.811,10.8756],[79.8223,10.8743],[79.8248,10.8649],[79.8116,10.8597],[79.8096,10.8657],[79.8074,10.8655],[79.8079,10.8557],[79.8137,10.85],[79.8194,10.8492],[79.821,10.8456],[79.828,10.8497],[79.831,10.8274],[79.8507,10.8279],[79.8528,10.8361],[79.8529,10.8457],[79.8508,10.847],[79.8532,10.8497],[79.8531,10.8852],[79.8509,10.8856],[79.8543,10.9642],[79.8544,10.9833],[79.8506,10.9874],[79.8515,10.994],[79.8394,10.9959],[79.8402,11.0021],[79.8319,11.0029],[79.8289,11.0018],[79.8279,10.9982],[79.8229,11.0008],[79.8206,10.9982],[79.8152,11.0038],[79.8131,10.9992],[79.8081,10.9999],[79.8042,10.9977],[79.8032,10.9953],[79.8062,10.993],[79.8038,10.9922],[79.804,10.9871],[79.8018,10.9881],[79.7977,10.9826],[79.7938,10.9831],[79.7863,10.9897],[79.789,10.992],[79.7865,10.9973],[79.7835,10.9948],[79.7789,10.9969],[79.7798,10.9987],[79.7666,10.9974],[79.7621,11.0014],[79.76,10.9991],[79.757,11.0028]]]]},"properties":{"dtname":"Karaikal","stname":"PUDUCHERRY","stcode11":"34","dtcode11":"637","year_stat":"2011_c","Shape_Length":124456.96623324332,"Shape_Area":168516447.12455013,"OBJECTID":711,"test":0,"Dist_LGD":598,"State_LGD":34}},{"type":"Feature","id":712,"geometry":{"type":"MultiPolygon","coordinates":[[[[75.542,11.6987],[75.5444,11.7048],[75.5384,11.7099],[75.5344,11.7093],[75.5301,11.702],[75.5366,11.6939],[75.5418,11.6963],[75.542,11.6987]]],[[[75.5382,11.7627],[75.5313,11.7586],[75.5375,11.7487],[75.5406,11.7486],[75.5416,11.7388],[75.5403,11.7347],[75.5319,11.7345],[75.5266,11.7261],[75.5279,11.7162],[75.5319,11.7157],[75.5287,11.7093],[75.5312,11.7084],[75.5309,11.7104],[75.5375,11.7122],[75.5325,11.7158],[75.5366,11.7194],[75.5378,11.716],[75.5454,11.7177],[75.5479,11.7154],[75.5555,11.7217],[75.5558,11.7277],[75.5433,11.7344],[75.5462,11.7563],[75.5385,11.7602],[75.5382,11.7627]]]]},"properties":{"dtname":"Mahe","stname":"PUDUCHERRY","stcode11":"34","dtcode11":"636","year_stat":"2011_c","Shape_Length":27726.6851616009,"Shape_Area":9293844.29983979,"OBJECTID":712,"test":0,"Dist_LGD":599,"State_LGD":34}},{"type":"Feature","id":713,"geometry":{"type":"Polygon","coordinates":[[[82.2317,16.7562],[82.2281,16.7607],[82.2246,16.7561],[82.2212,16.7581],[82.2201,16.756],[82.2226,16.7561],[82.2199,16.7503],[82.2145,16.7527],[82.2114,16.7504],[82.2068,16.7429],[82.2087,16.7399],[82.2056,16.7346],[82.1863,16.7371],[82.1864,16.73],[82.195,16.7302],[82.1934,16.7216],[82.2038,16.7177],[82.2323,16.7182],[82.239,16.7163],[82.2667,16.6947],[82.2945,16.7045],[82.3104,16.7188],[82.3138,16.7294],[82.3055,16.7483],[82.2897,16.7267],[82.276,16.7274],[82.2698,16.7218],[82.2581,16.7204],[82.2435,16.7223],[82.2175,16.7328],[82.2181,16.7408],[82.2251,16.7494],[82.2245,16.7529],[82.2298,16.753],[82.2317,16.7562]]]},"properties":{"dtname":"Yanam","stname":"PUDUCHERRY","stcode11":"34","dtcode11":"634","year_stat":"2011_c","Shape_Length":46212.83479619349,"Shape_Area":34278853.0915249,"OBJECTID":713,"test":0,"Dist_LGD":601,"State_LGD":34}}]}