{"type":"FeatureCollection","crs":{"type":"name","properties":{"name":"EPSG:4326"}},"features":[{"type":"Feature","id":633,"geometry":{"type":"Polygon","coordinates":[[[79.0719,31.4561],[79.0661,31.4471],[79.0673,31.4377],[79.0587,31.4263],[79.0505,31.4266],[79.0476,31.4225],[79.0419,31.4295],[79.0369,31.43],[79.0229,31.4273],[79.0215,31.4228],[79.0185,31.4247],[79.0158,31.4232],[79.013,31.4074],[79.0154,31.3878],[79.0073,31.3785],[79.0131,31.3604],[79.0182,31.3574],[79.0154,31.3544],[79.0151,31.347],[78.9987,31.3399],[78.9852,31.3474],[78.9879,31.3557],[78.977,31.363],[78.9735,31.3585],[78.9671,31.356],[78.9433,31.3657],[78.9382,31.3473],[78.9305,31.3415],[78.9247,31.3283],[78.9162,31.3214],[78.916,31.3157],[78.9105,31.3097],[78.9043,31.3093],[78.8964,31.3034],[78.9002,31.2951],[78.8973,31.2902],[78.882,31.2869],[78.8812,31.2843],[78.8856,31.2754],[78.8861,31.2686],[78.9161,31.2487],[78.922,31.2316],[78.9221,31.2254],[78.9261,31.2232],[78.929,31.2171],[78.9477,31.2169],[78.9487,31.2134],[78.9438,31.2066],[78.948,31.1986],[78.9583,31.1905],[78.9575,31.1867],[78.9792,31.1791],[78.9859,31.1739],[78.9905,31.1614],[78.9882,31.1543],[78.9908,31.1483],[78.9876,31.1434],[78.9908,31.1381],[78.9996,31.1348],[79.0089,31.11],[79.0022,31.1125],[78.99,31.1086],[78.973,31.1082],[78.9631,31.1013],[78.9507,31.0981],[78.9451,31.1007],[78.9322,31.1008],[78.9259,31.1095],[78.9206,31.1108],[78.9127,31.1077],[78.9123,31.1022],[78.9086,31.0989],[78.9004,31.0999],[78.8906,31.097],[78.8854,31.0988],[78.8729,31.1089],[78.8652,31.1201],[78.848,31.1252],[78.8415,31.1298],[78.8381,31.1384],[78.8312,31.1407],[78.8273,31.1527],[78.823,31.1578],[78.8249,31.1636],[78.8107,31.172],[78.8105,31.1803],[78.8174,31.1897],[78.8164,31.1945],[78.8099,31.1984],[78.7967,31.1965],[78.7652,31.1858],[78.7284,31.1897],[78.7183,31.1879],[78.7034,31.1891],[78.6868,31.1978],[78.6719,31.197],[78.6673,31.1908],[78.6617,31.1893],[78.658,31.1851],[78.66,31.1912],[78.6491,31.2023],[78.6493,31.211],[78.647,31.2148],[78.626,31.218],[78.6226,31.2242],[78.6093,31.2293],[78.6009,31.2282],[78.5968,31.2252],[78.5782,31.2253],[78.5749,31.2213],[78.5681,31.2192],[78.5655,31.2136],[78.5516,31.2],[78.5076,31.196],[78.4837,31.199],[78.4798,31.2139],[78.4728,31.2185],[78.4617,31.2361],[78.4557,31.2411],[78.45,31.2407],[78.4436,31.2444],[78.4342,31.2547],[78.4259,31.2443],[78.4207,31.2441],[78.4142,31.2397],[78.4069,31.2423],[78.4028,31.248],[78.4072,31.2563],[78.3977,31.2663],[78.3962,31.2754],[78.3863,31.2715],[78.3835,31.2826],[78.3703,31.2864],[78.352,31.2807],[78.3399,31.2828],[78.3319,31.2777],[78.318,31.279],[78.3168,31.2816],[78.3111,31.2832],[78.308,31.2756],[78.3104,31.2712],[78.3063,31.26],[78.2919,31.26],[78.2829,31.2663],[78.276,31.2616],[78.2687,31.2487],[78.2626,31.2453],[78.2605,31.2398],[78.2495,31.2401],[78.2507,31.2334],[78.2469,31.2305],[78.2432,31.2294],[78.2264,31.2351],[78.2203,31.234],[78.2162,31.2298],[78.2152,31.2221],[78.2124,31.2196],[78.1995,31.2173],[78.187,31.2271],[78.1602,31.2256],[78.1581,31.219],[78.1536,31.2183],[78.1477,31.2107],[78.1334,31.2084],[78.1286,31.2009],[78.1235,31.2002],[78.1036,31.1855],[78.0659,31.1872],[78.0512,31.18],[78.0426,31.1786],[78.041,31.173],[78.0338,31.1698],[78.0297,31.1642],[78.0303,31.151],[78.0206,31.1516],[78.0144,31.1579],[78.0008,31.162],[77.9847,31.157],[77.9673,31.1734],[77.9589,31.171],[77.9515,31.1614],[77.9432,31.1613],[77.9351,31.1548],[77.9248,31.1505],[77.9086,31.1541],[77.8987,31.1503],[77.9004,31.1423],[77.894,31.134],[77.889,31.1331],[77.8907,31.1218],[77.8805,31.1149],[77.8732,31.115],[77.8638,31.1086],[77.8605,31.1017],[77.8637,31.094],[77.8512,31.0734],[77.838,31.0727],[77.8289,31.0583],[77.8243,31.0555],[77.822,31.0553],[77.8229,31.0587],[77.8113,31.0592],[77.8168,31.0568],[77.816,31.0501],[77.8216,31.0468],[77.8214,31.0428],[77.8278,31.0303],[77.8323,31.0282],[77.8343,31.0175],[77.8316,31.0123],[77.8378,31.0051],[77.8384,30.9984],[77.8434,30.9952],[77.8388,30.9901],[77.8407,30.9876],[77.8393,30.9809],[77.8439,30.9791],[77.8437,30.975],[77.8548,30.9644],[77.8541,30.9535],[77.8633,30.9565],[77.8685,30.9511],[77.8678,30.9467],[77.8707,30.9443],[77.8802,30.9489],[77.8843,30.9456],[77.8972,30.9557],[77.9002,30.9524],[77.9092,30.9566],[77.9271,30.9721],[77.9687,30.9777],[77.9744,30.9712],[77.9824,30.9696],[77.984,30.9653],[77.99,30.9634],[77.9865,30.9596],[77.9951,30.9569],[78.0002,30.9518],[78.0005,30.9481],[78.0105,30.9381],[78.0134,30.9302],[78.0193,30.9234],[78.0205,30.9187],[78.0149,30.9162],[78.0164,30.9089],[77.9976,30.9061],[77.9887,30.9003],[77.9785,30.9001],[77.974,30.8895],[77.9844,30.8793],[77.982,30.8743],[77.984,30.8668],[77.9871,30.8596],[77.9914,30.8594],[77.9892,30.8525],[77.9914,30.841],[77.9988,30.8268],[78.003,30.8224],[78.0118,30.8187],[78.0273,30.8042],[78.0267,30.7958],[78.0233,30.7895],[78.0476,30.7749],[78.0541,30.765],[78.0622,30.7614],[78.0683,30.7521],[78.0688,30.7432],[78.0792,30.7407],[78.0777,30.7306],[78.0837,30.7187],[78.0789,30.7098],[78.0722,30.7067],[78.0738,30.6985],[78.0669,30.6857],[78.0667,30.675],[78.0626,30.6666],[78.0476,30.6615],[78.0426,30.653],[78.0331,30.6453],[78.0291,30.6456],[78.0204,30.6531],[78.0108,30.651],[78.0094,30.646],[78.0141,30.6299],[78.013,30.626],[78.0082,30.6243],[78.0082,30.6206],[78.0126,30.6166],[78.024,30.6133],[78.0413,30.6026],[78.0464,30.6021],[78.0753,30.6074],[78.0662,30.6189],[78.0649,30.6238],[78.0869,30.6342],[78.0932,30.6319],[78.1008,30.6353],[78.115,30.6344],[78.1252,30.6407],[78.1305,30.6357],[78.1396,30.6323],[78.1538,30.6357],[78.163,30.6267],[78.1624,30.6208],[78.1706,30.6048],[78.1645,30.6007],[78.1647,30.5885],[78.1753,30.5854],[78.1855,30.5857],[78.2052,30.5783],[78.2353,30.5864],[78.2436,30.5953],[78.2411,30.6017],[78.2491,30.6109],[78.259,30.6073],[78.2687,30.6138],[78.2776,30.612],[78.2889,30.5996],[78.2958,30.5947],[78.3001,30.5944],[78.2992,30.5894],[78.302,30.5869],[78.2923,30.5814],[78.2886,30.572],[78.2965,30.5695],[78.3018,30.5643],[78.2982,30.5624],[78.2861,30.5637],[78.2865,30.5526],[78.2897,30.5512],[78.2938,30.5553],[78.3078,30.5562],[78.3138,30.5612],[78.3047,30.5716],[78.3077,30.5726],[78.318,30.5743],[78.3243,30.5605],[78.3281,30.5598],[78.3277,30.5582],[78.3328,30.5634],[78.3388,30.5626],[78.3385,30.5514],[78.345,30.5493],[78.3426,30.545],[78.3489,30.5337],[78.3565,30.5334],[78.3546,30.5291],[78.3614,30.5215],[78.3699,30.5177],[78.3769,30.518],[78.3818,30.5125],[78.3937,30.5062],[78.3925,30.4983],[78.3966,30.4967],[78.3966,30.4935],[78.4033,30.493],[78.4048,30.4908],[78.4033,30.4848],[78.4076,30.4803],[78.4045,30.4716],[78.4136,30.4685],[78.4112,30.4752],[78.4149,30.4883],[78.4243,30.4952],[78.4257,30.5056],[78.4233,30.5089],[78.4258,30.511],[78.4255,30.5165],[78.437,30.5231],[78.4431,30.5239],[78.4442,30.5352],[78.4466,30.5368],[78.4497,30.5346],[78.4537,30.5426],[78.4508,30.5474],[78.4507,30.5636],[78.4466,30.5674],[78.4386,30.5696],[78.4363,30.5737],[78.4397,30.5859],[78.4364,30.5905],[78.4393,30.5917],[78.4415,30.6048],[78.4466,30.6088],[78.4468,30.6141],[78.4683,30.614],[78.4791,30.6254],[78.4826,30.6212],[78.4871,30.6219],[78.5019,30.6084],[78.5092,30.5976],[78.5136,30.5954],[78.5093,30.5878],[78.4995,30.5809],[78.499,30.5657],[78.4957,30.5573],[78.4983,30.5525],[78.4949,30.5409],[78.4968,30.539],[78.4967,30.5307],[78.5083,30.5304],[78.5155,30.5327],[78.5183,30.5276],[78.5291,30.5316],[78.5389,30.5271],[78.5471,30.5333],[78.5439,30.5515],[78.5486,30.5588],[78.5495,30.5735],[78.5541,30.5756],[78.5599,30.585],[78.5599,30.5893],[78.5775,30.6022],[78.5732,30.6061],[78.5834,30.6177],[78.5845,30.6223],[78.5946,30.6268],[78.5971,30.6308],[78.5961,30.6498],[78.6,30.6723],[78.5852,30.6806],[78.5879,30.6873],[78.6009,30.6917],[78.6113,30.6863],[78.6209,30.6913],[78.6233,30.6886],[78.6307,30.6894],[78.6368,30.6846],[78.6563,30.6898],[78.6611,30.7074],[78.6829,30.7136],[78.7002,30.7156],[78.7141,30.7264],[78.7194,30.7338],[78.7276,30.7302],[78.74,30.7165],[78.7519,30.7105],[78.7569,30.7129],[78.7591,30.718],[78.7702,30.721],[78.8049,30.7244],[78.8081,30.7191],[78.8116,30.7252],[78.8299,30.732],[78.8345,30.7371],[78.8479,30.7378],[78.8545,30.7519],[78.8526,30.7723],[78.8496,30.7787],[78.856,30.7956],[78.854,30.8068],[78.8625,30.8161],[78.8503,30.8366],[78.8494,30.8475],[78.8595,30.8589],[78.8682,30.8627],[78.8721,30.8752],[78.8819,30.8777],[78.8956,30.8711],[78.9033,30.8735],[78.9074,30.8721],[78.9148,30.8774],[78.9251,30.8782],[78.926,30.8737],[78.9333,30.8735],[78.9392,30.8686],[78.9455,30.8537],[78.9516,30.8554],[78.9761,30.8534],[78.9948,30.8616],[79.003,30.8586],[79.0071,30.8524],[79.0172,30.8445],[79.0206,30.8307],[79.0188,30.8218],[79.0278,30.8115],[79.0352,30.8059],[79.0433,30.8068],[79.0553,30.8009],[79.0678,30.7983],[79.0757,30.7882],[79.0918,30.7759],[79.1175,30.7731],[79.1268,30.7696],[79.1297,30.7666],[79.1323,30.7558],[79.1429,30.7475],[79.1614,30.7563],[79.1691,30.7559],[79.1744,30.7521],[79.183,30.7502],[79.1973,30.7401],[79.1995,30.733],[79.2077,30.7377],[79.2356,30.733],[79.2447,30.7345],[79.2534,30.7279],[79.2558,30.7228],[79.2747,30.7243],[79.2799,30.7307],[79.2798,30.7378],[79.2896,30.7499],[79.2802,30.7563],[79.2718,30.7585],[79.2611,30.7701],[79.2625,30.7727],[79.2593,30.7797],[79.2454,30.785],[79.2439,30.7924],[79.2387,30.7977],[79.2401,30.8034],[79.2248,30.8112],[79.2263,30.8195],[79.2409,30.8248],[79.2366,30.8389],[79.2424,30.8427],[79.2513,30.8434],[79.259,30.8694],[79.2703,30.8699],[79.2809,30.8767],[79.2718,30.8916],[79.27,30.907],[79.2836,30.9138],[79.2809,30.9234],[79.2845,30.9354],[79.2738,30.9456],[79.2669,30.9462],[79.2635,30.955],[79.292,30.9682],[79.3011,30.9682],[79.3028,30.9651],[79.3143,30.9591],[79.3226,30.9617],[79.3304,30.97],[79.3232,30.9837],[79.3316,30.9958],[79.3285,30.9993],[79.3132,31.0018],[79.3081,31.0049],[79.3067,31.0138],[79.3203,31.0244],[79.3522,31.0315],[79.3624,31.0369],[79.3755,31.0538],[79.3828,31.0555],[79.3872,31.0671],[79.3915,31.0696],[79.3995,31.0684],[79.4065,31.0707],[79.4121,31.0763],[79.4136,31.0958],[79.4102,31.1073],[79.4033,31.1138],[79.3873,31.117],[79.3716,31.1135],[79.3633,31.1187],[79.3621,31.1231],[79.3491,31.121],[79.337,31.1266],[79.3352,31.1325],[79.326,31.1312],[79.3184,31.1359],[79.3066,31.1526],[79.3057,31.1628],[79.3009,31.1667],[79.3053,31.1744],[79.3005,31.1877],[79.2999,31.2072],[79.2963,31.2176],[79.2861,31.225],[79.2789,31.2372],[79.2582,31.237],[79.2511,31.2412],[79.2471,31.2474],[79.2219,31.2599],[79.2224,31.2629],[79.2431,31.2751],[79.2458,31.2827],[79.2466,31.2917],[79.2259,31.3014],[79.2224,31.3093],[79.2172,31.3124],[79.2213,31.3247],[79.2333,31.3339],[79.225,31.3401],[79.22,31.3412],[79.2116,31.3499],[79.1885,31.3527],[79.1669,31.361],[79.1666,31.3737],[79.1737,31.3837],[79.168,31.391],[79.168,31.3965],[79.1536,31.4038],[79.1518,31.4084],[79.1445,31.4139],[79.1388,31.4259],[79.139,31.4336],[79.1157,31.4372],[79.1049,31.4423],[79.0961,31.4517],[79.0834,31.446],[79.0719,31.4561]]]},"properties":{"dtname":"Uttarkashi","stname":"UTTARAKHAND","stcode11":"05","dtcode11":"056","year_stat":"2011_c","Shape_Length":817689.3776538833,"Shape_Area":10930281998.709305,"OBJECTID":633,"test":0,"Dist_LGD":57,"State_LGD":5}},{"type":"Feature","id":639,"geometry":{"type":"Polygon","coordinates":[[[79.4126,31.0758],[79.4013,31.0688],[79.3915,31.0696],[79.3872,31.0671],[79.3828,31.0555],[79.3755,31.0538],[79.3624,31.0369],[79.3522,31.0315],[79.3203,31.0244],[79.3067,31.0138],[79.3081,31.0049],[79.3132,31.0018],[79.3285,30.9993],[79.3316,30.9958],[79.3232,30.9837],[79.3304,30.97],[79.3218,30.961],[79.3143,30.9591],[79.3028,30.9651],[79.3011,30.9682],[79.292,30.9682],[79.2635,30.955],[79.2669,30.9462],[79.2738,30.9456],[79.2845,30.9354],[79.2809,30.9234],[79.2836,30.9138],[79.27,30.907],[79.2718,30.8916],[79.2809,30.8767],[79.2703,30.8699],[79.259,30.8694],[79.2513,30.8434],[79.2424,30.8427],[79.2366,30.8389],[79.2409,30.8248],[79.2263,30.8195],[79.2249,30.8117],[79.228,30.8079],[79.2401,30.8034],[79.2387,30.7977],[79.2439,30.7924],[79.2454,30.785],[79.2593,30.7797],[79.2625,30.7727],[79.2611,30.7701],[79.2718,30.7585],[79.2802,30.7563],[79.2896,30.7499],[79.2798,30.7378],[79.2799,30.7307],[79.2747,30.7243],[79.2949,30.7206],[79.298,30.7182],[79.3006,30.7068],[79.2997,30.6951],[79.3045,30.6894],[79.3057,30.6829],[79.3037,30.6784],[79.3109,30.6723],[79.3237,30.67],[79.3275,30.6669],[79.3315,30.6579],[79.3448,30.6546],[79.3533,30.6469],[79.356,30.6316],[79.3541,30.6254],[79.3479,30.6237],[79.3475,30.6085],[79.3418,30.6057],[79.3387,30.5968],[79.3331,30.5937],[79.3233,30.595],[79.307,30.5894],[79.3039,30.5753],[79.2953,30.561],[79.2653,30.5668],[79.2565,30.5664],[79.2456,30.559],[79.2466,30.553],[79.2414,30.5485],[79.2454,30.5378],[79.2289,30.5271],[79.2265,30.5219],[79.2282,30.5161],[79.2255,30.5097],[79.2267,30.5054],[79.2248,30.5039],[79.2265,30.4992],[79.2218,30.4905],[79.2072,30.4858],[79.1916,30.477],[79.187,30.4708],[79.1862,30.4626],[79.1797,30.4595],[79.1741,30.4492],[79.1666,30.4463],[79.1657,30.4402],[79.1744,30.4285],[79.1725,30.4152],[79.1646,30.4106],[79.164,30.3858],[79.1492,30.3782],[79.1191,30.3847],[79.1104,30.3813],[79.1078,30.3747],[79.1293,30.3647],[79.1317,30.3505],[79.1389,30.3468],[79.1376,30.3423],[79.1413,30.3416],[79.1414,30.338],[79.1444,30.3393],[79.145,30.3365],[79.1509,30.3352],[79.151,30.3315],[79.1546,30.3328],[79.1593,30.3282],[79.1576,30.3231],[79.1543,30.322],[79.1539,30.3248],[79.1488,30.3226],[79.1444,30.3009],[79.1469,30.3007],[79.1469,30.2985],[79.1667,30.2974],[79.1705,30.2954],[79.16,30.2932],[79.1536,30.2966],[79.1446,30.2923],[79.1418,30.287],[79.1373,30.2853],[79.1222,30.2898],[79.1203,30.2935],[79.1068,30.2889],[79.1068,30.285],[79.1019,30.2789],[79.1079,30.2699],[79.1035,30.256],[79.0884,30.24],[79.0761,30.2212],[79.088,30.2147],[79.0943,30.2164],[79.1012,30.2112],[79.0979,30.206],[79.0946,30.206],[79.0976,30.1968],[79.1026,30.1953],[79.1081,30.1893],[79.112,30.1896],[79.1222,30.1801],[79.1266,30.1797],[79.1267,30.169],[79.1397,30.1658],[79.144,30.1552],[79.1359,30.1509],[79.1335,30.1461],[79.1344,30.1183],[79.1446,30.1127],[79.1513,30.112],[79.1537,30.0997],[79.1603,30.0931],[79.1696,30.094],[79.1699,30.097],[79.1724,30.0966],[79.1808,30.0906],[79.1867,30.091],[79.1931,30.0845],[79.2031,30.0632],[79.1937,30.0593],[79.189,30.0475],[79.1889,30.0373],[79.2024,30.0354],[79.2178,30.0227],[79.2163,30.0106],[79.2231,30.0007],[79.224,29.9918],[79.2187,29.9859],[79.2248,29.9781],[79.2304,29.9792],[79.2411,29.9737],[79.246,29.97],[79.2508,29.9608],[79.256,29.9633],[79.2726,29.9604],[79.2846,29.9517],[79.284,29.9429],[79.286,29.9387],[79.2823,29.9256],[79.3018,29.9285],[79.3091,29.9318],[79.3172,29.9278],[79.3251,29.9293],[79.3259,29.9388],[79.3351,29.9431],[79.3303,29.9508],[79.3249,29.9729],[79.3389,29.9727],[79.3457,29.9603],[79.3562,29.9497],[79.3574,29.9433],[79.3668,29.9385],[79.374,29.927],[79.3787,29.9293],[79.3857,29.9288],[79.4047,29.9425],[79.4171,29.9432],[79.4205,29.935],[79.4245,29.9347],[79.4285,29.9369],[79.4364,29.9526],[79.4488,29.958],[79.4491,29.9647],[79.4641,29.9719],[79.4669,29.9786],[79.4716,29.9795],[79.4721,29.9977],[79.4842,30.0234],[79.4926,30.0222],[79.4985,30.0155],[79.5232,30.0135],[79.5269,30.0054],[79.5329,30.0],[79.5477,29.9959],[79.5625,30.0035],[79.5661,30.0024],[79.579,30.006],[79.5874,30.0046],[79.5953,30.0102],[79.5963,30.0134],[79.6101,30.0202],[79.6263,30.0174],[79.6378,30.0199],[79.6459,30.0145],[79.6547,30.0122],[79.6631,30.0049],[79.6692,30.009],[79.68,30.0096],[79.6947,30.0044],[79.7088,30.0043],[79.7207,30.0014],[79.7369,30.0057],[79.7485,30.0049],[79.766,30.0102],[79.778,30.0059],[79.7823,30.0078],[79.7892,30.0163],[79.7983,30.0159],[79.8129,30.0228],[79.8109,30.03],[79.8162,30.0478],[79.8242,30.0522],[79.829,30.0591],[79.8111,30.0763],[79.8048,30.0788],[79.7916,30.0778],[79.7887,30.0805],[79.7772,30.0978],[79.7817,30.113],[79.7745,30.1209],[79.773,30.1285],[79.7631,30.1331],[79.7666,30.1435],[79.7821,30.1524],[79.7864,30.1654],[79.7811,30.1717],[79.7828,30.1808],[79.7915,30.1882],[79.7996,30.2036],[79.8017,30.2127],[79.815,30.2171],[79.8221,30.2266],[79.8193,30.2348],[79.815,30.2378],[79.8178,30.2455],[79.8041,30.2609],[79.804,30.2693],[79.7974,30.2806],[79.8003,30.2848],[79.8132,30.2856],[79.8236,30.2898],[79.8444,30.2882],[79.8519,30.2862],[79.8733,30.2711],[79.8983,30.2765],[79.9015,30.2817],[79.9188,30.2876],[79.9318,30.2984],[79.9424,30.2986],[79.955,30.2902],[79.9769,30.299],[79.996,30.335],[79.9964,30.3517],[79.9991,30.3576],[79.9974,30.3657],[80.0082,30.3692],[80.0177,30.3826],[80.033,30.3929],[80.0314,30.3969],[80.0378,30.407],[80.0375,30.4097],[80.0299,30.4134],[80.0309,30.4218],[80.0339,30.4258],[80.0327,30.4328],[80.0376,30.444],[80.02,30.449],[80.0227,30.4537],[80.0196,30.4602],[80.0086,30.4694],[80.0093,30.4742],[80.0202,30.4812],[80.0155,30.4855],[80.0158,30.4919],[80.0092,30.4945],[80.0126,30.5022],[80.007,30.5068],[80.0062,30.5223],[79.9948,30.5355],[79.9978,30.5442],[80.0117,30.5609],[80.0126,30.5756],[80.0197,30.5788],[80.0234,30.5875],[80.0428,30.5984],[80.0396,30.6087],[80.0299,30.6153],[80.0363,30.6209],[80.0353,30.625],[80.0302,30.6288],[80.0333,30.636],[80.0212,30.6405],[80.0197,30.6452],[80.0152,30.6484],[80.017,30.6572],[80.0135,30.6658],[80.0071,30.6667],[80.0008,30.6765],[79.9831,30.6892],[79.9851,30.6936],[79.9795,30.7094],[79.9852,30.7087],[79.9936,30.7169],[80.0185,30.7279],[80.0257,30.7344],[80.0443,30.7328],[80.0583,30.7281],[80.0804,30.7294],[80.0947,30.7235],[80.1007,30.7252],[80.1019,30.728],[80.0956,30.7417],[80.0967,30.7471],[80.0871,30.7573],[80.0833,30.7702],[80.0839,30.7749],[80.0916,30.7827],[80.1017,30.7882],[80.0971,30.7924],[80.0868,30.7962],[80.0733,30.8216],[80.0551,30.8382],[80.0538,30.844],[80.0504,30.845],[80.0418,30.8393],[80.0362,30.8432],[80.0327,30.8427],[80.0095,30.8686],[79.9999,30.8687],[79.997,30.8661],[79.9909,30.8763],[79.9687,30.8814],[79.9627,30.8888],[79.9501,30.8833],[79.9402,30.8846],[79.9322,30.88],[79.9107,30.9133],[79.8889,30.9183],[79.8864,30.9304],[79.8888,30.9379],[79.8833,30.9403],[79.8823,30.9541],[79.8744,30.9673],[79.8648,30.9727],[79.8557,30.9765],[79.8385,30.9722],[79.8172,30.9717],[79.8075,30.9802],[79.8017,30.9776],[79.7969,30.9787],[79.7918,30.9866],[79.7754,30.9869],[79.7532,31.0064],[79.7469,31.0016],[79.7371,30.9811],[79.7319,30.9787],[79.7169,30.9751],[79.7102,30.9767],[79.6992,30.9706],[79.6738,30.9824],[79.6654,30.9827],[79.6632,30.9769],[79.6634,30.9656],[79.6367,30.9534],[79.6198,30.9502],[79.614,30.9442],[79.6056,30.9403],[79.603,30.9335],[79.6011,30.9332],[79.6009,30.9393],[79.5918,30.9454],[79.5691,30.9492],[79.5643,30.9555],[79.5553,30.9559],[79.5526,30.958],[79.5461,30.9693],[79.539,30.9747],[79.5391,30.979],[79.5462,30.9841],[79.5479,30.9896],[79.5266,30.9889],[79.5161,30.9972],[79.5201,31.0055],[79.5164,31.0118],[79.5084,31.015],[79.5099,31.0259],[79.5069,31.0321],[79.4905,31.0315],[79.4699,31.0355],[79.4529,31.0312],[79.4338,31.0228],[79.4264,31.024],[79.4174,31.0445],[79.4163,31.0725],[79.4126,31.0758]]]},"properties":{"dtname":"Chamoli","stname":"UTTARAKHAND","stcode11":"05","dtcode11":"057","year_stat":"2011_c","Shape_Length":619157.7531853898,"Shape_Area":10549102599.604336,"OBJECTID":639,"test":0,"Dist_LGD":47,"State_LGD":5}},{"type":"Feature","id":640,"geometry":{"type":"Polygon","coordinates":[[[77.8175,31.0331],[77.8114,31.0317],[77.807,31.0268],[77.8075,31.0163],[77.8099,31.0111],[77.825,31.0099],[77.822,31.0044],[77.8318,30.9941],[77.8242,30.9885],[77.824,30.9805],[77.8224,30.9766],[77.8163,30.9729],[77.8144,30.9619],[77.8242,30.9572],[77.8322,30.9597],[77.8376,30.9532],[77.8286,30.9534],[77.8243,30.9506],[77.8101,30.9557],[77.8024,30.9634],[77.79,30.9705],[77.771,30.9744],[77.7541,30.9645],[77.7488,30.9523],[77.754,30.9376],[77.7527,30.9339],[77.7639,30.9305],[77.7628,30.9182],[77.7659,30.9197],[77.7675,30.9174],[77.7826,30.9168],[77.7918,30.9218],[77.8049,30.9237],[77.8133,30.9219],[77.8109,30.9167],[77.8159,30.9104],[77.8153,30.9045],[77.8088,30.8968],[77.8014,30.8934],[77.7988,30.8681],[77.8036,30.8651],[77.8057,30.8533],[77.7792,30.8604],[77.7761,30.8755],[77.7734,30.8776],[77.7632,30.8805],[77.7582,30.8769],[77.7561,30.8727],[77.7572,30.8601],[77.7542,30.8555],[77.7459,30.8512],[77.744,30.8467],[77.7577,30.8352],[77.7613,30.8261],[77.7484,30.8217],[77.7456,30.8132],[77.7329,30.8011],[77.7319,30.7919],[77.7213,30.7759],[77.7038,30.7652],[77.7089,30.7526],[77.7024,30.746],[77.7079,30.74],[77.7207,30.7419],[77.7283,30.7342],[77.7332,30.7354],[77.7373,30.7304],[77.7366,30.7242],[77.7467,30.7198],[77.7456,30.7139],[77.7558,30.707],[77.7504,30.7002],[77.7526,30.6967],[77.7469,30.6945],[77.7474,30.6799],[77.7591,30.6758],[77.7597,30.6732],[77.7642,30.6709],[77.7725,30.6692],[77.7812,30.66],[77.7895,30.6623],[77.7925,30.6588],[77.7869,30.655],[77.7812,30.6467],[77.7867,30.6418],[77.7864,30.6368],[77.7906,30.6341],[77.786,30.63],[77.7861,30.6245],[77.7925,30.621],[77.7962,30.6137],[77.7802,30.6129],[77.7711,30.6164],[77.7689,30.6146],[77.7717,30.597],[77.7643,30.596],[77.7556,30.6048],[77.7519,30.6018],[77.7461,30.604],[77.7432,30.6016],[77.7468,30.5975],[77.7432,30.5962],[77.7431,30.5932],[77.7566,30.5857],[77.7671,30.5712],[77.7675,30.5654],[77.774,30.5579],[77.7836,30.5599],[77.7941,30.5533],[77.7996,30.5577],[77.8064,30.5546],[77.8178,30.5611],[77.8226,30.5538],[77.8199,30.5469],[77.8277,30.5328],[77.8268,30.5278],[77.8202,30.5251],[77.8185,30.5082],[77.816,30.5057],[77.7999,30.5011],[77.7831,30.5006],[77.7757,30.4944],[77.7643,30.4911],[77.7394,30.4761],[77.7317,30.4732],[77.721,30.4731],[77.7072,30.4593],[77.6979,30.4559],[77.6902,30.4481],[77.6708,30.4443],[77.6524,30.4481],[77.649,30.4452],[77.6461,30.4335],[77.6433,30.4319],[77.637,30.4332],[77.6319,30.4313],[77.6227,30.4347],[77.5961,30.4273],[77.5731,30.4124],[77.5746,30.4006],[77.5776,30.3978],[77.5825,30.3999],[77.5854,30.405],[77.5904,30.4063],[77.5983,30.4049],[77.6017,30.3998],[77.6029,30.403],[77.6185,30.4024],[77.6236,30.4053],[77.631,30.3978],[77.6479,30.4047],[77.6572,30.4007],[77.6597,30.3906],[77.6724,30.3905],[77.6765,30.3878],[77.6781,30.3757],[77.6861,30.3793],[77.6896,30.3769],[77.7098,30.3417],[77.7218,30.3303],[77.7321,30.3281],[77.747,30.3202],[77.7611,30.3183],[77.7842,30.3057],[77.7942,30.2972],[77.8328,30.2802],[77.839,30.2746],[77.8472,30.2767],[77.8465,30.2717],[77.8587,30.2715],[77.8657,30.2659],[77.8796,30.262],[77.8857,30.267],[77.894,30.2654],[77.9109,30.2571],[77.937,30.2492],[77.9415,30.2399],[77.9498,30.2424],[77.9515,30.2453],[77.9608,30.2438],[77.9607,30.2389],[77.9558,30.2306],[77.9689,30.2203],[77.9733,30.2207],[77.9752,30.2185],[77.9742,30.2132],[77.9837,30.204],[77.9859,30.2044],[77.9931,30.1898],[78.0046,30.1761],[78.0111,30.1637],[78.0144,30.1479],[78.0265,30.1339],[78.0296,30.122],[78.0327,30.1198],[78.0331,30.1107],[78.0359,30.1105],[78.0355,30.1036],[78.0457,30.0977],[78.0468,30.0918],[78.0599,30.0869],[78.0695,30.0755],[78.0673,30.0724],[78.0721,30.0691],[78.0719,30.0632],[78.0745,30.0597],[78.0714,30.0577],[78.0667,30.047],[78.0691,30.0421],[78.0742,30.042],[78.0766,30.0372],[78.0809,30.0363],[78.082,30.032],[78.0858,30.0335],[78.0918,30.0289],[78.0992,30.028],[78.1006,30.0258],[78.094,30.0158],[78.0961,30.0113],[78.0987,30.0123],[78.1044,30.0076],[78.1071,30.011],[78.1137,30.0111],[78.1228,29.9983],[78.1296,30.0011],[78.1386,29.9783],[78.1431,29.9781],[78.1488,29.9679],[78.1581,29.9689],[78.1613,29.9651],[78.1664,29.966],[78.1719,29.9639],[78.1687,29.9691],[78.1799,29.9791],[78.1832,29.9906],[78.1891,29.9973],[78.1923,29.9941],[78.1937,29.9868],[78.1977,29.988],[78.1868,29.9721],[78.1871,29.9622],[78.1915,29.9656],[78.2021,29.9662],[78.2078,29.9775],[78.2172,29.9869],[78.2259,29.9847],[78.2315,29.9926],[78.2323,29.9986],[78.2258,30.0064],[78.2275,30.0156],[78.2449,30.0176],[78.2489,30.023],[78.2475,30.0341],[78.2621,30.039],[78.2716,30.0471],[78.2764,30.0572],[78.281,30.0608],[78.2922,30.0841],[78.291,30.1],[78.3054,30.1026],[78.3102,30.1082],[78.3098,30.1128],[78.303,30.1148],[78.3013,30.1116],[78.2957,30.1174],[78.2802,30.1219],[78.2828,30.1293],[78.2773,30.1293],[78.2547,30.1383],[78.257,30.1527],[78.2615,30.1611],[78.2417,30.1658],[78.2421,30.172],[78.237,30.1748],[78.2337,30.1844],[78.2343,30.1871],[78.2428,30.1917],[78.2432,30.1971],[78.2486,30.2032],[78.2546,30.2049],[78.256,30.2099],[78.2697,30.2207],[78.2828,30.2225],[78.2937,30.2305],[78.2966,30.2335],[78.2953,30.2356],[78.2988,30.2456],[78.2885,30.2528],[78.287,30.2605],[78.2769,30.2718],[78.2816,30.2766],[78.28,30.2836],[78.2839,30.2924],[78.2783,30.2964],[78.2681,30.3021],[78.2582,30.2856],[78.2367,30.2876],[78.237,30.2992],[78.2249,30.3065],[78.2143,30.3095],[78.2091,30.2933],[78.2001,30.2939],[78.1945,30.302],[78.1855,30.3015],[78.1702,30.3068],[78.1577,30.3195],[78.1425,30.3256],[78.1334,30.3439],[78.1391,30.3505],[78.1382,30.357],[78.1418,30.3651],[78.162,30.3825],[78.1696,30.384],[78.1749,30.3823],[78.1985,30.3987],[78.2231,30.4056],[78.2346,30.4132],[78.2394,30.4232],[78.2309,30.4283],[78.2291,30.4267],[78.2261,30.4336],[78.2143,30.4405],[78.1979,30.4469],[78.1823,30.4498],[78.169,30.4448],[78.1641,30.446],[78.1602,30.4519],[78.1533,30.4563],[78.1395,30.4566],[78.1322,30.4596],[78.1235,30.4683],[78.1152,30.4716],[78.1068,30.4713],[78.1056,30.4783],[78.0966,30.4782],[78.0955,30.4747],[78.09,30.4733],[78.0816,30.4739],[78.0819,30.4674],[78.07,30.4701],[78.0708,30.4761],[78.0688,30.4774],[78.0605,30.4757],[78.0526,30.4811],[78.0395,30.4823],[78.0402,30.4727],[78.0361,30.4692],[78.0367,30.4654],[78.0323,30.4676],[78.031,30.4732],[78.0217,30.4751],[78.023,30.4782],[78.0197,30.4813],[78.0145,30.484],[78.0086,30.4836],[78.0046,30.4806],[77.9978,30.4801],[78.0001,30.4685],[77.9962,30.467],[77.9907,30.4691],[77.9875,30.4669],[77.9804,30.4767],[77.9764,30.476],[77.9733,30.4862],[77.9587,30.4892],[77.9388,30.5034],[77.9361,30.5114],[77.9415,30.5133],[77.9474,30.5114],[77.9467,30.5161],[77.9493,30.5179],[77.963,30.5139],[77.9684,30.5094],[77.9747,30.5136],[77.9787,30.5087],[77.9815,30.5088],[77.9878,30.515],[77.9869,30.5177],[77.9794,30.5166],[77.9754,30.5224],[77.9763,30.5253],[77.9844,30.5238],[77.9862,30.5259],[77.9813,30.5309],[77.9756,30.529],[77.9748,30.5377],[77.9829,30.5393],[77.9846,30.5509],[77.9805,30.555],[77.9895,30.5559],[77.9911,30.5594],[78.0012,30.5608],[78.0043,30.5664],[78.0027,30.5724],[78.0096,30.5797],[78.0092,30.5902],[78.0106,30.5926],[78.0142,30.5913],[78.0138,30.5955],[78.0102,30.5994],[78.0127,30.6039],[78.0133,30.615],[78.0081,30.6213],[78.0082,30.6243],[78.013,30.626],[78.0141,30.6299],[78.0094,30.646],[78.0108,30.651],[78.0204,30.6531],[78.0291,30.6456],[78.0331,30.6453],[78.0426,30.653],[78.0476,30.6615],[78.0626,30.6666],[78.0667,30.675],[78.0669,30.6857],[78.0738,30.6985],[78.0722,30.7067],[78.0797,30.7108],[78.0836,30.7221],[78.0777,30.7306],[78.0792,30.7407],[78.0688,30.7432],[78.0683,30.7521],[78.0622,30.7614],[78.0541,30.765],[78.0476,30.7749],[78.0233,30.7895],[78.0267,30.7958],[78.0273,30.8042],[78.0118,30.8187],[78.0005,30.8244],[77.9915,30.8406],[77.9892,30.8525],[77.9914,30.8594],[77.9871,30.8596],[77.982,30.874],[77.9844,30.8793],[77.974,30.8895],[77.9785,30.9001],[77.9887,30.9003],[77.9976,30.9061],[78.0164,30.9089],[78.0149,30.9162],[78.0205,30.9187],[78.0108,30.9377],[78.0005,30.9481],[78.0002,30.9518],[77.9951,30.9569],[77.9865,30.9596],[77.9902,30.9631],[77.984,30.9653],[77.9828,30.9693],[77.9744,30.9712],[77.9687,30.9777],[77.9626,30.9777],[77.9591,30.9755],[77.9271,30.9721],[77.9241,30.9677],[77.9044,30.9537],[77.8998,30.9525],[77.8972,30.9557],[77.8849,30.9458],[77.8802,30.9489],[77.8707,30.9443],[77.8678,30.9467],[77.8685,30.9511],[77.8633,30.9565],[77.8536,30.9539],[77.8548,30.9644],[77.8437,30.975],[77.8439,30.9791],[77.8393,30.9809],[77.8407,30.9876],[77.8388,30.9901],[77.8434,30.9952],[77.8384,30.9984],[77.8378,31.0051],[77.8316,31.0123],[77.8343,31.0175],[77.832,31.0288],[77.8229,31.0294],[77.8175,31.0331]]]},"properties":{"dtname":"Dehradun","stname":"UTTARAKHAND","stcode11":"05","dtcode11":"060","year_stat":"2011_c","Shape_Length":592796.0824068403,"Shape_Area":4186572764.884769,"OBJECTID":640,"test":0,"Dist_LGD":49,"State_LGD":5}},{"type":"Feature","id":645,"geometry":{"type":"Polygon","coordinates":[[[78.9221,30.8786],[78.9148,30.8774],[78.9074,30.8721],[78.9033,30.8735],[78.8956,30.8711],[78.8825,30.8777],[78.8726,30.8754],[78.8682,30.8627],[78.8595,30.8589],[78.8494,30.8475],[78.8503,30.8366],[78.8625,30.8161],[78.854,30.8068],[78.856,30.7956],[78.8496,30.7787],[78.8526,30.7723],[78.8545,30.7519],[78.8479,30.7378],[78.8345,30.7371],[78.8299,30.732],[78.8116,30.7252],[78.8081,30.7191],[78.8049,30.7244],[78.7702,30.721],[78.7591,30.718],[78.7569,30.7129],[78.7519,30.7105],[78.74,30.7165],[78.7276,30.7302],[78.7194,30.7338],[78.7141,30.7264],[78.7002,30.7156],[78.6829,30.7136],[78.6611,30.7074],[78.6563,30.6898],[78.6368,30.6846],[78.6307,30.6894],[78.6233,30.6886],[78.6209,30.6913],[78.6113,30.6863],[78.6009,30.6917],[78.5879,30.6873],[78.5852,30.6806],[78.6,30.6723],[78.5961,30.6498],[78.5971,30.6308],[78.5946,30.6268],[78.5845,30.6223],[78.5834,30.6177],[78.5732,30.6061],[78.5775,30.6022],[78.5599,30.5893],[78.5599,30.585],[78.5541,30.5756],[78.5495,30.5735],[78.5486,30.5588],[78.5439,30.5515],[78.5471,30.5333],[78.5389,30.5271],[78.5291,30.5316],[78.5183,30.5276],[78.5155,30.5327],[78.5083,30.5304],[78.4967,30.5307],[78.4968,30.539],[78.4949,30.5409],[78.4983,30.5525],[78.4957,30.5573],[78.499,30.5657],[78.4995,30.5809],[78.5093,30.5878],[78.5136,30.5954],[78.5092,30.5976],[78.5019,30.6084],[78.4871,30.6219],[78.4826,30.6212],[78.4791,30.6254],[78.4683,30.614],[78.4468,30.6141],[78.4466,30.6088],[78.4415,30.6048],[78.4393,30.5917],[78.4364,30.5905],[78.4397,30.5859],[78.4363,30.5737],[78.4386,30.5696],[78.4466,30.5674],[78.4507,30.5636],[78.4508,30.5474],[78.4537,30.5426],[78.4497,30.5346],[78.4466,30.5368],[78.4442,30.5352],[78.4431,30.5239],[78.437,30.5231],[78.4255,30.5165],[78.4258,30.511],[78.4233,30.5089],[78.4257,30.5056],[78.4243,30.4952],[78.4149,30.4883],[78.4112,30.4752],[78.4136,30.4685],[78.4045,30.4716],[78.4076,30.4803],[78.4033,30.4848],[78.4048,30.4908],[78.4033,30.493],[78.3966,30.4935],[78.3966,30.4967],[78.3925,30.4983],[78.3937,30.5062],[78.3818,30.5125],[78.3769,30.518],[78.3699,30.5177],[78.3614,30.5215],[78.3546,30.5291],[78.3565,30.5334],[78.3489,30.5337],[78.3426,30.545],[78.345,30.5493],[78.3385,30.5514],[78.3388,30.5626],[78.3328,30.5634],[78.3277,30.5582],[78.3281,30.5598],[78.3243,30.5605],[78.318,30.5743],[78.3077,30.5726],[78.3047,30.5716],[78.3138,30.5612],[78.3078,30.5562],[78.2938,30.5553],[78.2897,30.5512],[78.2865,30.5526],[78.2861,30.5637],[78.2982,30.5624],[78.3018,30.5643],[78.2965,30.5695],[78.2886,30.572],[78.2923,30.5814],[78.302,30.5869],[78.2992,30.5894],[78.3001,30.5944],[78.2958,30.5947],[78.288,30.6003],[78.2786,30.6115],[78.2687,30.6138],[78.259,30.6073],[78.2491,30.6109],[78.2411,30.6017],[78.2436,30.5953],[78.2353,30.5864],[78.2052,30.5783],[78.1855,30.5857],[78.1753,30.5854],[78.1647,30.5885],[78.1645,30.6007],[78.1706,30.6048],[78.1624,30.6208],[78.163,30.6267],[78.1538,30.6357],[78.1396,30.6323],[78.1305,30.6357],[78.1252,30.6407],[78.115,30.6344],[78.1008,30.6353],[78.0932,30.6319],[78.0869,30.6342],[78.0649,30.6238],[78.0662,30.6189],[78.0756,30.6076],[78.0628,30.6043],[78.0424,30.6021],[78.0306,30.6103],[78.0126,30.6166],[78.0133,30.6069],[78.0102,30.5994],[78.0143,30.5918],[78.0106,30.5926],[78.0092,30.5902],[78.0094,30.5791],[78.0026,30.5721],[78.004,30.5658],[77.9998,30.5598],[77.9922,30.5598],[77.9905,30.5562],[77.9805,30.555],[77.9846,30.5509],[77.9829,30.5393],[77.9748,30.5377],[77.9756,30.529],[77.9813,30.5309],[77.9862,30.5259],[77.9844,30.5238],[77.9763,30.5253],[77.9754,30.5224],[77.9794,30.5166],[77.9869,30.5177],[77.9878,30.515],[77.9815,30.5088],[77.9787,30.5087],[77.9747,30.5136],[77.9684,30.5094],[77.963,30.5139],[77.9493,30.5179],[77.9467,30.5161],[77.9474,30.5114],[77.9415,30.5133],[77.9361,30.5114],[77.938,30.5049],[77.9587,30.4892],[77.9733,30.4862],[77.9764,30.476],[77.9804,30.4767],[77.9875,30.4669],[77.9907,30.4691],[77.9962,30.467],[78.0001,30.4685],[77.9978,30.4801],[78.0046,30.4806],[78.0086,30.4836],[78.0145,30.484],[78.0197,30.4813],[78.023,30.4782],[78.0217,30.4751],[78.031,30.4732],[78.0323,30.4676],[78.0367,30.4654],[78.0361,30.4692],[78.0402,30.4727],[78.0395,30.4823],[78.0526,30.4811],[78.0605,30.4757],[78.0688,30.4774],[78.0708,30.4761],[78.07,30.4701],[78.0819,30.4674],[78.0816,30.4739],[78.09,30.4733],[78.0955,30.4747],[78.0966,30.4782],[78.1056,30.4783],[78.1068,30.4713],[78.1152,30.4716],[78.1235,30.4683],[78.1322,30.4596],[78.1395,30.4566],[78.1533,30.4563],[78.1602,30.4519],[78.1641,30.446],[78.169,30.4448],[78.1823,30.4498],[78.1979,30.4469],[78.2143,30.4405],[78.2261,30.4336],[78.2291,30.4267],[78.2309,30.4283],[78.2389,30.4239],[78.2394,30.4208],[78.2346,30.4132],[78.2231,30.4056],[78.1985,30.3987],[78.1749,30.3823],[78.1696,30.384],[78.162,30.3825],[78.1418,30.3651],[78.1382,30.357],[78.1391,30.3505],[78.1334,30.3439],[78.1425,30.3256],[78.1577,30.3195],[78.1702,30.3068],[78.1855,30.3015],[78.1945,30.302],[78.2001,30.2939],[78.2091,30.2933],[78.2143,30.3095],[78.2249,30.3065],[78.237,30.2992],[78.2367,30.2876],[78.2582,30.2856],[78.2681,30.3021],[78.2839,30.2924],[78.28,30.2836],[78.2816,30.2766],[78.2769,30.2718],[78.287,30.2605],[78.2885,30.2528],[78.2988,30.2456],[78.2953,30.2356],[78.2966,30.2335],[78.2828,30.2225],[78.2697,30.2207],[78.256,30.2099],[78.2546,30.2049],[78.2486,30.2032],[78.2432,30.1971],[78.2428,30.1917],[78.2339,30.1858],[78.237,30.1748],[78.2421,30.172],[78.2417,30.1658],[78.2615,30.1611],[78.257,30.1527],[78.2547,30.1383],[78.2773,30.1293],[78.2828,30.1293],[78.2802,30.1219],[78.2957,30.1174],[78.3013,30.1116],[78.303,30.1148],[78.3098,30.1128],[78.3099,30.12],[78.3169,30.1249],[78.3289,30.1245],[78.3305,30.1327],[78.3348,30.1353],[78.3425,30.1353],[78.3654,30.1201],[78.3744,30.117],[78.3821,30.1217],[78.3889,30.1208],[78.3914,30.1226],[78.3911,30.1351],[78.4046,30.1374],[78.4175,30.1306],[78.4254,30.1131],[78.4388,30.1113],[78.434,30.0991],[78.4348,30.0805],[78.4464,30.0739],[78.4505,30.0691],[78.4655,30.0645],[78.477,30.0668],[78.4796,30.0557],[78.4874,30.0582],[78.4924,30.0727],[78.4972,30.0755],[78.501,30.0744],[78.4992,30.0631],[78.5113,30.055],[78.5143,30.0584],[78.5141,30.0662],[78.5227,30.0658],[78.5248,30.0739],[78.5323,30.0758],[78.5507,30.0702],[78.5631,30.0691],[78.5658,30.0617],[78.577,30.0629],[78.5838,30.0533],[78.5891,30.0529],[78.5889,30.0626],[78.591,30.0662],[78.5987,30.0646],[78.6021,30.0682],[78.5888,30.0726],[78.5824,30.0724],[78.5921,30.087],[78.579,30.1038],[78.5809,30.1059],[78.5869,30.1053],[78.5882,30.1079],[78.5871,30.122],[78.6013,30.1268],[78.596,30.1312],[78.5975,30.1449],[78.6058,30.1431],[78.608,30.1487],[78.6173,30.1509],[78.6201,30.1563],[78.6207,30.1785],[78.645,30.1945],[78.6426,30.2038],[78.6471,30.2075],[78.6579,30.2046],[78.6638,30.2061],[78.6701,30.2127],[78.6803,30.2102],[78.6794,30.2175],[78.6838,30.2213],[78.6817,30.2238],[78.6836,30.2264],[78.6799,30.2317],[78.6829,30.2386],[78.6871,30.2386],[78.6924,30.2345],[78.6992,30.2364],[78.7047,30.2314],[78.7134,30.2325],[78.7139,30.2364],[78.7161,30.2369],[78.7189,30.2322],[78.7484,30.2132],[78.7552,30.2176],[78.7626,30.217],[78.7662,30.226],[78.7785,30.2255],[78.7873,30.2286],[78.7919,30.2282],[78.7978,30.2212],[78.8067,30.2198],[78.809,30.2276],[78.821,30.2296],[78.8195,30.2376],[78.8267,30.2434],[78.8443,30.2365],[78.8466,30.2386],[78.8473,30.2465],[78.86,30.2437],[78.8751,30.2518],[78.8782,30.2603],[78.8824,30.2601],[78.8975,30.2509],[78.9014,30.2427],[78.9099,30.2498],[78.9111,30.257],[78.9201,30.2614],[78.9202,30.2649],[78.9131,30.269],[78.8935,30.2728],[78.8832,30.2714],[78.8735,30.2756],[78.8728,30.2849],[78.8584,30.3021],[78.861,30.3082],[78.8578,30.3137],[78.8689,30.322],[78.8638,30.3282],[78.8549,30.3329],[78.8582,30.347],[78.8455,30.3559],[78.8352,30.3575],[78.838,30.36],[78.8388,30.3767],[78.8341,30.3841],[78.8351,30.3917],[78.8168,30.4009],[78.824,30.4081],[78.8256,30.4158],[78.833,30.4173],[78.8372,30.4252],[78.8441,30.43],[78.8489,30.4447],[78.8434,30.4501],[78.8506,30.4563],[78.8352,30.4745],[78.8238,30.4785],[78.8257,30.4831],[78.8318,30.4839],[78.8376,30.4909],[78.85,30.491],[78.8664,30.5092],[78.8678,30.5186],[78.8622,30.5295],[78.8626,30.542],[78.8583,30.5505],[78.863,30.5545],[78.8659,30.5612],[78.8629,30.5668],[78.8693,30.5717],[78.8731,30.5783],[78.8892,30.586],[78.8905,30.5958],[78.8863,30.6036],[78.9026,30.6161],[78.9034,30.6222],[78.9093,30.6296],[78.9053,30.6543],[78.9098,30.6632],[78.9088,30.6681],[78.9121,30.6763],[78.9107,30.6906],[78.9162,30.6951],[78.9167,30.7012],[78.9237,30.7142],[78.9281,30.7188],[78.9448,30.7217],[78.9519,30.7322],[78.9602,30.7349],[78.9713,30.7301],[78.9792,30.7336],[78.992,30.7317],[78.9952,30.734],[78.995,30.7377],[78.9989,30.7436],[79.003,30.7439],[79.0002,30.749],[79.0183,30.7498],[79.0209,30.7631],[79.0284,30.7676],[79.0235,30.7794],[79.0299,30.792],[79.0259,30.7978],[79.0339,30.8029],[79.0353,30.8062],[79.0188,30.8218],[79.0206,30.8307],[79.0172,30.8445],[79.0071,30.8524],[79.003,30.8586],[78.9948,30.8616],[78.9761,30.8534],[78.9516,30.8554],[78.9455,30.8537],[78.9392,30.8686],[78.9333,30.8735],[78.926,30.8737],[78.9251,30.8782],[78.9221,30.8786]]]},"properties":{"dtname":"Tehri Garhwal","stname":"UTTARAKHAND","stcode11":"05","dtcode11":"059","year_stat":"2011_c","Shape_Length":643117.0933111898,"Shape_Area":5276176446.224715,"OBJECTID":645,"test":0,"Dist_LGD":55,"State_LGD":5}},{"type":"Feature","id":648,"geometry":{"type":"Polygon","coordinates":[[[79.0393,30.8075],[79.0259,30.7978],[79.0299,30.792],[79.0235,30.7794],[79.0284,30.7676],[79.0209,30.7631],[79.0183,30.7498],[79.0002,30.749],[79.003,30.7439],[78.9989,30.7436],[78.995,30.7377],[78.9952,30.734],[78.992,30.7317],[78.9792,30.7336],[78.9713,30.7301],[78.9602,30.7349],[78.9519,30.7322],[78.9448,30.7217],[78.9281,30.7188],[78.9237,30.7142],[78.9167,30.7012],[78.9162,30.6951],[78.9107,30.6906],[78.9121,30.6763],[78.9088,30.6681],[78.9098,30.6632],[78.9053,30.6543],[78.9093,30.6296],[78.9034,30.6222],[78.9026,30.6161],[78.8863,30.6036],[78.8905,30.5958],[78.8892,30.586],[78.8731,30.5783],[78.8693,30.5717],[78.8629,30.5668],[78.8659,30.5612],[78.863,30.5545],[78.8583,30.5505],[78.8626,30.542],[78.8622,30.5295],[78.8678,30.5186],[78.8664,30.5092],[78.85,30.491],[78.8376,30.4909],[78.8318,30.4839],[78.8257,30.4831],[78.8238,30.4785],[78.8352,30.4745],[78.8506,30.4563],[78.8434,30.4501],[78.8489,30.4447],[78.8441,30.43],[78.8372,30.4252],[78.833,30.4173],[78.8256,30.4158],[78.824,30.4081],[78.8168,30.4009],[78.8351,30.3917],[78.8341,30.3841],[78.8388,30.3767],[78.838,30.36],[78.8352,30.3575],[78.8455,30.3559],[78.8582,30.347],[78.8549,30.3329],[78.8638,30.3282],[78.8689,30.322],[78.8578,30.3137],[78.861,30.3082],[78.8584,30.3021],[78.8728,30.2849],[78.8735,30.2756],[78.8832,30.2714],[78.8935,30.2728],[78.9095,30.27],[78.9204,30.2646],[78.9197,30.2607],[78.9111,30.257],[78.9107,30.2514],[78.9068,30.2461],[78.9011,30.2426],[78.8992,30.2447],[78.8908,30.2359],[78.9074,30.235],[78.915,30.2302],[78.9148,30.2267],[78.9104,30.2225],[78.9132,30.2171],[78.9105,30.2129],[78.9155,30.2101],[78.9148,30.2042],[78.9095,30.2025],[78.9074,30.2089],[78.9023,30.2096],[78.9034,30.2018],[78.8989,30.18],[78.9293,30.1815],[78.9383,30.1768],[78.9477,30.1776],[78.9554,30.1748],[78.9771,30.1801],[78.9941,30.1789],[79.0011,30.1841],[79.0062,30.1826],[79.0103,30.1856],[79.0196,30.1849],[79.0292,30.1917],[79.0293,30.2066],[79.0387,30.2164],[79.0423,30.2171],[79.0474,30.2138],[79.0548,30.2165],[79.0617,30.215],[79.0704,30.2201],[79.076,30.2205],[79.0773,30.2258],[79.0964,30.2468],[79.0977,30.2517],[79.1035,30.256],[79.1079,30.2699],[79.1019,30.2789],[79.1068,30.285],[79.1068,30.2889],[79.1203,30.2935],[79.1222,30.2898],[79.1373,30.2853],[79.1418,30.287],[79.1446,30.2923],[79.1536,30.2966],[79.16,30.2932],[79.1705,30.2954],[79.1667,30.2974],[79.1469,30.2985],[79.1469,30.3007],[79.1444,30.3009],[79.1488,30.3226],[79.1539,30.3248],[79.1543,30.322],[79.1576,30.3231],[79.1593,30.3282],[79.1546,30.3328],[79.151,30.3315],[79.1509,30.3352],[79.145,30.3365],[79.1444,30.3393],[79.1414,30.338],[79.1413,30.3416],[79.1376,30.3423],[79.1389,30.3468],[79.1317,30.3505],[79.1293,30.3647],[79.1078,30.3747],[79.1104,30.3813],[79.1191,30.3847],[79.1492,30.3782],[79.1566,30.3828],[79.1616,30.3831],[79.1653,30.388],[79.1646,30.4106],[79.1725,30.4152],[79.1744,30.4285],[79.1657,30.4402],[79.1666,30.4463],[79.1741,30.4492],[79.1797,30.4595],[79.1862,30.4626],[79.187,30.4708],[79.1916,30.477],[79.2072,30.4858],[79.2218,30.4905],[79.2265,30.4992],[79.2248,30.5039],[79.2267,30.5054],[79.2255,30.5097],[79.2282,30.5161],[79.2265,30.5219],[79.2289,30.5271],[79.2454,30.5378],[79.2414,30.5485],[79.2466,30.553],[79.2456,30.559],[79.2565,30.5664],[79.2653,30.5668],[79.2953,30.561],[79.3039,30.5753],[79.3068,30.5893],[79.3217,30.5947],[79.3323,30.5934],[79.3387,30.5968],[79.3415,30.6054],[79.3461,30.6067],[79.3481,30.6099],[79.3463,30.6132],[79.3479,30.6237],[79.3541,30.6254],[79.356,30.6316],[79.3533,30.6469],[79.3467,30.6535],[79.3315,30.6579],[79.3275,30.6669],[79.3237,30.67],[79.3109,30.6723],[79.3037,30.6784],[79.3057,30.6815],[79.3045,30.6894],[79.2997,30.6951],[79.3006,30.7068],[79.2961,30.7202],[79.27,30.7248],[79.2629,30.7223],[79.2558,30.7228],[79.2534,30.7279],[79.2447,30.7345],[79.2356,30.733],[79.2077,30.7377],[79.1995,30.733],[79.1973,30.7401],[79.183,30.7502],[79.1744,30.7521],[79.1691,30.7559],[79.1614,30.7563],[79.1429,30.7475],[79.1323,30.7558],[79.1273,30.7693],[79.1175,30.7731],[79.0918,30.7759],[79.0757,30.7882],[79.0678,30.7983],[79.0393,30.8075]]]},"properties":{"dtname":"Rudraprayag","stname":"UTTARAKHAND","stcode11":"05","dtcode11":"058","year_stat":"2011_c","Shape_Length":294312.11459859955,"Shape_Area":2686932402.1228356,"OBJECTID":648,"test":0,"Dist_LGD":54,"State_LGD":5}},{"type":"Feature","id":649,"geometry":{"type":"Polygon","coordinates":[[[80.1729,30.8085],[80.1555,30.8048],[80.1549,30.7945],[80.1518,30.7891],[80.1414,30.7924],[80.1375,30.7904],[80.1378,30.7873],[80.1288,30.7871],[80.1249,30.7809],[80.1185,30.7799],[80.1147,30.7815],[80.1095,30.78],[80.1017,30.7882],[80.0931,30.784],[80.0844,30.7756],[80.0835,30.7691],[80.0868,30.758],[80.0967,30.7471],[80.0958,30.741],[80.102,30.7299],[80.1005,30.7251],[80.0943,30.7235],[80.0804,30.7294],[80.0559,30.7283],[80.0443,30.7328],[80.0257,30.7344],[80.0185,30.7279],[79.9936,30.7169],[79.9852,30.7087],[79.9795,30.7094],[79.9851,30.6936],[79.9831,30.6892],[80.0008,30.6765],[80.0071,30.6667],[80.0135,30.6658],[80.017,30.6572],[80.0152,30.6484],[80.0197,30.6452],[80.0212,30.6405],[80.0333,30.636],[80.0302,30.6288],[80.0353,30.625],[80.0363,30.6209],[80.0299,30.6153],[80.0396,30.6087],[80.0428,30.5984],[80.0234,30.5875],[80.0197,30.5788],[80.0126,30.5756],[80.0117,30.5609],[79.9978,30.5442],[79.995,30.5375],[79.9963,30.532],[80.0033,30.5277],[80.0063,30.522],[80.007,30.5068],[80.0126,30.5022],[80.0092,30.4945],[80.0158,30.4919],[80.0155,30.4855],[80.0202,30.4812],[80.0093,30.4742],[80.0086,30.4694],[80.0196,30.4602],[80.0227,30.4537],[80.02,30.449],[80.0376,30.444],[80.0327,30.4328],[80.0339,30.4258],[80.0309,30.4218],[80.0299,30.4134],[80.0375,30.4097],[80.0378,30.407],[80.0314,30.3969],[80.033,30.3929],[80.0177,30.3826],[80.0082,30.3692],[79.9974,30.3657],[79.9991,30.3576],[79.9964,30.3517],[79.9966,30.3372],[79.9869,30.3166],[80.025,30.314],[80.036,30.3028],[80.0415,30.2915],[80.0489,30.287],[80.0679,30.2813],[80.0608,30.2709],[80.0632,30.2658],[80.0685,30.267],[80.0731,30.2629],[80.0714,30.2583],[80.0745,30.2534],[80.0731,30.2433],[80.0776,30.2378],[80.093,30.2267],[80.1105,30.2283],[80.1161,30.2267],[80.117,30.2181],[80.1081,30.1996],[80.1112,30.1919],[80.1032,30.1642],[80.1042,30.1485],[80.0967,30.1365],[80.0944,30.1283],[80.0884,30.125],[80.0824,30.1116],[80.0822,30.1002],[80.0845,30.096],[80.0798,30.0833],[80.0856,30.0707],[80.0847,30.0625],[80.0754,30.047],[80.0749,30.0389],[80.0704,30.0313],[80.0696,30.02],[80.0675,30.019],[80.0732,30.0099],[80.0712,30.0008],[80.0757,29.9981],[80.0762,29.9938],[80.0812,29.9889],[80.091,29.9691],[80.1018,29.9601],[80.115,29.9548],[80.131,29.9432],[80.1385,29.9416],[80.1567,29.9119],[80.1586,29.9044],[80.1486,29.8979],[80.1434,29.9022],[80.1267,29.8995],[80.1162,29.9056],[80.1075,29.9065],[80.0959,29.8973],[80.096,29.8937],[80.0904,29.8884],[80.0855,29.887],[80.0778,29.8907],[80.0713,29.9009],[80.0535,29.9027],[80.045,29.8956],[80.0267,29.8964],[80.0128,29.8877],[80.0055,29.8739],[80.0078,29.8579],[80.0067,29.8511],[79.978,29.8524],[79.9769,29.8417],[79.9792,29.8433],[79.9813,29.841],[79.9935,29.8451],[79.9946,29.8383],[79.9981,29.8353],[80.0197,29.8287],[80.0165,29.8205],[80.0188,29.8108],[80.0233,29.8115],[80.0325,29.8066],[80.0339,29.7962],[80.0387,29.7951],[80.0403,29.7881],[80.0336,29.7824],[80.0182,29.7828],[80.0127,29.7741],[80.0034,29.778],[79.9998,29.7745],[79.9984,29.7644],[79.992,29.7654],[79.9752,29.7597],[79.964,29.7644],[79.9457,29.7641],[79.9316,29.7666],[79.9322,29.7739],[79.9292,29.7862],[79.9314,29.79],[79.9125,29.7928],[79.9122,29.7894],[79.9095,29.7893],[79.9087,29.7966],[79.9044,29.7986],[79.8986,29.7919],[79.8939,29.7949],[79.8921,29.7937],[79.8926,29.7894],[79.8869,29.7762],[79.8753,29.7734],[79.8699,29.7675],[79.8573,29.7681],[79.8504,29.7715],[79.8463,29.7766],[79.8246,29.7818],[79.8221,29.7816],[79.8237,29.7772],[79.821,29.7733],[79.827,29.7696],[79.8266,29.7595],[79.8327,29.75],[79.8684,29.7389],[79.8859,29.7206],[79.8912,29.7182],[79.894,29.7123],[79.8894,29.7041],[79.8962,29.704],[79.9027,29.6978],[79.9146,29.698],[79.9179,29.696],[79.9248,29.6989],[79.9405,29.6868],[79.9419,29.6823],[79.9466,29.6854],[79.9578,29.6776],[79.958,29.6694],[79.9635,29.6639],[79.959,29.6568],[79.9687,29.6498],[79.9829,29.6178],[79.9886,29.6139],[79.994,29.5939],[79.9929,29.5886],[79.997,29.5802],[79.9994,29.5597],[80.0046,29.5581],[80.0111,29.5513],[80.0312,29.5511],[80.0669,29.5374],[80.0652,29.5279],[80.0748,29.5218],[80.092,29.5194],[80.1027,29.5235],[80.107,29.5223],[80.1125,29.5147],[80.1291,29.5057],[80.1298,29.5019],[80.1254,29.4955],[80.1326,29.4891],[80.1395,29.4881],[80.1423,29.483],[80.1475,29.4803],[80.1499,29.4713],[80.161,29.4748],[80.1632,29.4725],[80.1619,29.4688],[80.1669,29.4649],[80.1821,29.4646],[80.1835,29.4576],[80.1958,29.4592],[80.205,29.4519],[80.2194,29.4524],[80.2429,29.4437],[80.2449,29.4479],[80.2528,29.4471],[80.2559,29.4501],[80.2639,29.4479],[80.2721,29.4486],[80.273,29.451],[80.2678,29.4543],[80.2752,29.4571],[80.2806,29.4555],[80.2789,29.4499],[80.2858,29.4494],[80.2932,29.4523],[80.2961,29.45],[80.3004,29.4505],[80.2994,29.4553],[80.292,29.4629],[80.2855,29.4753],[80.2928,29.4777],[80.2972,29.4882],[80.3038,29.4836],[80.3125,29.4829],[80.3139,29.4877],[80.312,29.4945],[80.3152,29.5002],[80.3292,29.5057],[80.3328,29.5116],[80.342,29.5108],[80.3481,29.5185],[80.3492,29.5238],[80.354,29.5261],[80.3578,29.5315],[80.3489,29.5412],[80.3416,29.5412],[80.3452,29.5477],[80.3448,29.5522],[80.3607,29.5561],[80.3644,29.5638],[80.3794,29.5612],[80.3807,29.5715],[80.3904,29.5732],[80.3926,29.5814],[80.4046,29.5901],[80.4086,29.5961],[80.4095,29.6069],[80.4061,29.6132],[80.4103,29.6238],[80.4205,29.6296],[80.4197,29.6403],[80.4146,29.6453],[80.4162,29.6524],[80.4102,29.6544],[80.4085,29.661],[80.4002,29.6609],[80.3992,29.6638],[80.3903,29.6672],[80.3901,29.672],[80.3848,29.6777],[80.3854,29.6843],[80.3812,29.6894],[80.3808,29.6985],[80.3738,29.7145],[80.3763,29.7197],[80.368,29.7237],[80.371,29.7334],[80.3661,29.7406],[80.369,29.7497],[80.3846,29.7506],[80.3884,29.7597],[80.398,29.7592],[80.3976,29.7652],[80.4047,29.7778],[80.4045,29.7818],[80.4072,29.7837],[80.4073,29.7942],[80.4132,29.7912],[80.4163,29.795],[80.4281,29.7977],[80.4354,29.8049],[80.444,29.7984],[80.4643,29.8009],[80.4791,29.7947],[80.4934,29.7946],[80.4948,29.797],[80.4926,29.8008],[80.4988,29.8072],[80.4978,29.8108],[80.5004,29.8155],[80.5071,29.8224],[80.5222,29.8269],[80.5239,29.8313],[80.5311,29.8374],[80.5365,29.8383],[80.5389,29.8458],[80.5535,29.8493],[80.5524,29.8548],[80.5549,29.8602],[80.5621,29.8664],[80.5583,29.8708],[80.5662,29.8782],[80.5719,29.8913],[80.5705,29.9083],[80.5725,29.9175],[80.5834,29.9377],[80.6019,29.957],[80.6116,29.9578],[80.6294,29.9639],[80.6514,29.9547],[80.6753,29.9573],[80.6902,29.9735],[80.7121,29.9898],[80.7188,30.0006],[80.7361,29.9997],[80.744,30.0045],[80.7504,30.0115],[80.7527,30.0205],[80.7567,30.0242],[80.7559,30.0398],[80.7618,30.0499],[80.7794,30.0571],[80.7905,30.0738],[80.8053,30.0899],[80.8152,30.0971],[80.8225,30.1001],[80.829,30.0977],[80.8367,30.0982],[80.8455,30.1044],[80.8453,30.1078],[80.841,30.1113],[80.8428,30.1153],[80.8571,30.1216],[80.871,30.1234],[80.8769,30.1286],[80.8781,30.1337],[80.8715,30.1537],[80.8715,30.1603],[80.8624,30.1696],[80.88,30.1826],[80.8839,30.1884],[80.8834,30.195],[80.895,30.2116],[80.9074,30.2227],[80.915,30.2203],[80.9197,30.2157],[80.9222,30.2076],[80.9162,30.1968],[80.9162,30.1879],[80.9284,30.1748],[80.9337,30.1781],[80.9401,30.178],[80.941,30.1803],[80.9524,30.1849],[80.9709,30.1867],[80.9695,30.1896],[80.9743,30.1925],[80.9857,30.1868],[80.9946,30.1864],[81.0003,30.1918],[81.0068,30.1917],[81.0089,30.1946],[81.0285,30.1955],[81.0345,30.1976],[81.0366,30.1994],[81.0353,30.2031],[81.0436,30.2052],[81.0453,30.2095],[81.041,30.2155],[81.0302,30.2195],[81.0309,30.2259],[81.0268,30.2273],[81.0307,30.2356],[81.0294,30.2401],[81.0321,30.2468],[81.0114,30.2557],[81.0082,30.2621],[80.9996,30.2675],[80.9874,30.2687],[80.9818,30.272],[80.9541,30.2707],[80.9394,30.2667],[80.9355,30.2629],[80.9263,30.2684],[80.9256,30.2735],[80.9314,30.2785],[80.9269,30.2833],[80.9144,30.2885],[80.9074,30.2975],[80.9085,30.3037],[80.8902,30.3028],[80.8844,30.2997],[80.8809,30.3024],[80.8734,30.3027],[80.8724,30.3071],[80.8638,30.3141],[80.8472,30.3175],[80.8384,30.3142],[80.8267,30.3144],[80.8181,30.3222],[80.8037,30.3235],[80.8012,30.3335],[80.7868,30.3428],[80.7867,30.3539],[80.7798,30.3554],[80.7728,30.3658],[80.7508,30.3794],[80.7486,30.3868],[80.7344,30.3999],[80.7083,30.4175],[80.6998,30.413],[80.6897,30.4143],[80.6873,30.4195],[80.6779,30.4229],[80.6771,30.4292],[80.6583,30.4425],[80.6408,30.4505],[80.637,30.4502],[80.6239,30.4625],[80.613,30.4585],[80.6084,30.4637],[80.6072,30.4717],[80.5986,30.4709],[80.5959,30.4672],[80.5826,30.4674],[80.5751,30.4633],[80.5655,30.4632],[80.5646,30.4588],[80.5588,30.453],[80.5486,30.4479],[80.5409,30.4483],[80.5284,30.4571],[80.5199,30.4709],[80.5073,30.4744],[80.4984,30.4872],[80.4895,30.4843],[80.4833,30.4896],[80.4661,30.4905],[80.4523,30.4971],[80.4449,30.4974],[80.4431,30.5022],[80.4322,30.5084],[80.4292,30.5139],[80.4166,30.5179],[80.4178,30.5244],[80.4106,30.5255],[80.4004,30.5195],[80.3859,30.5181],[80.38,30.5195],[80.3777,30.5242],[80.3658,30.5284],[80.3608,30.5247],[80.3469,30.5208],[80.3393,30.5253],[80.3322,30.5382],[80.3225,30.5443],[80.3154,30.565],[80.2834,30.57],[80.2676,30.5674],[80.2611,30.5686],[80.2544,30.5645],[80.2352,30.5814],[80.2221,30.579],[80.2126,30.5842],[80.2093,30.5883],[80.2151,30.6037],[80.2148,30.6085],[80.2174,30.6104],[80.2162,30.6151],[80.2118,30.6183],[80.2148,30.6211],[80.2123,30.627],[80.2198,30.6344],[80.2198,30.6425],[80.2071,30.6507],[80.1934,30.6675],[80.1971,30.6729],[80.1984,30.6866],[80.2177,30.6876],[80.2325,30.6911],[80.2333,30.7091],[80.2487,30.7199],[80.2492,30.7443],[80.2438,30.7449],[80.2371,30.7508],[80.2348,30.7599],[80.2272,30.7591],[80.2131,30.7513],[80.1977,30.7617],[80.1928,30.7698],[80.1986,30.7753],[80.1993,30.7791],[80.1921,30.781],[80.1838,30.7912],[80.178,30.8051],[80.1729,30.8085]]]},"properties":{"dtname":"Pithoragarh","stname":"UTTARAKHAND","stcode11":"05","dtcode11":"062","year_stat":"2011_c","Shape_Length":714343.3604728696,"Shape_Area":9679194216.27404,"OBJECTID":649,"test":0,"Dist_LGD":53,"State_LGD":5}},{"type":"Feature","id":659,"geometry":{"type":"Polygon","coordinates":[[[79.9978,30.3168],[79.9869,30.3166],[79.9769,30.299],[79.9616,30.2918],[79.9547,30.2902],[79.9424,30.2986],[79.9318,30.2984],[79.9188,30.2876],[79.9015,30.2817],[79.8983,30.2765],[79.8733,30.2711],[79.8519,30.2862],[79.8444,30.2882],[79.8254,30.2899],[79.8132,30.2856],[79.7995,30.2844],[79.7973,30.2788],[79.804,30.2693],[79.8041,30.2609],[79.8178,30.2455],[79.815,30.2378],[79.8193,30.2348],[79.8221,30.2266],[79.815,30.2171],[79.8017,30.2127],[79.7996,30.2036],[79.7915,30.1882],[79.7828,30.1808],[79.7811,30.1717],[79.7864,30.1654],[79.7821,30.1524],[79.7666,30.1435],[79.7631,30.1331],[79.773,30.1285],[79.7745,30.1209],[79.7817,30.113],[79.7772,30.0978],[79.7887,30.0805],[79.7916,30.0778],[79.8048,30.0788],[79.8111,30.0763],[79.829,30.0591],[79.8242,30.0522],[79.8162,30.0478],[79.8109,30.03],[79.8129,30.0228],[79.7983,30.0159],[79.7892,30.0163],[79.7823,30.0078],[79.778,30.0059],[79.766,30.0102],[79.7485,30.0049],[79.7369,30.0057],[79.7207,30.0014],[79.7088,30.0043],[79.6947,30.0044],[79.68,30.0096],[79.6692,30.009],[79.6631,30.0049],[79.6547,30.0122],[79.6459,30.0145],[79.6378,30.0199],[79.6263,30.0174],[79.6101,30.0202],[79.5963,30.0134],[79.5953,30.0102],[79.5874,30.0046],[79.579,30.006],[79.5661,30.0024],[79.5625,30.0035],[79.5477,29.9959],[79.5329,30.0],[79.5269,30.0054],[79.5232,30.0135],[79.4985,30.0155],[79.4926,30.0222],[79.4841,30.0234],[79.4721,29.9977],[79.4716,29.9795],[79.4847,29.9751],[79.4882,29.9714],[79.4869,29.9624],[79.4825,29.9581],[79.4921,29.9493],[79.4942,29.8963],[79.5078,29.8736],[79.5282,29.868],[79.5416,29.8685],[79.554,29.8644],[79.5599,29.8595],[79.5751,29.864],[79.5795,29.8563],[79.5852,29.8517],[79.5957,29.8492],[79.6105,29.8413],[79.6184,29.8454],[79.6228,29.8429],[79.6353,29.8497],[79.6395,29.8485],[79.6407,29.8409],[79.6562,29.841],[79.6597,29.839],[79.6702,29.8434],[79.6763,29.8346],[79.6949,29.8274],[79.7045,29.8279],[79.7079,29.8259],[79.6973,29.815],[79.6919,29.8146],[79.689,29.8106],[79.6972,29.8071],[79.7038,29.7973],[79.7025,29.7884],[79.6963,29.7827],[79.6962,29.7656],[79.7038,29.7617],[79.7082,29.7535],[79.7086,29.7467],[79.7145,29.74],[79.7206,29.7379],[79.7217,29.7307],[79.7291,29.7279],[79.7346,29.7188],[79.7459,29.7099],[79.7523,29.7084],[79.7584,29.701],[79.7729,29.7061],[79.7803,29.7116],[79.7939,29.7071],[79.8046,29.7161],[79.807,29.7124],[79.8147,29.7116],[79.8169,29.714],[79.8194,29.711],[79.8208,29.7128],[79.8225,29.7106],[79.8237,29.7131],[79.8285,29.7099],[79.8335,29.7104],[79.8403,29.7172],[79.8615,29.7146],[79.8648,29.711],[79.8676,29.7143],[79.874,29.7153],[79.894,29.7123],[79.8912,29.7182],[79.8859,29.7206],[79.8684,29.7389],[79.8327,29.75],[79.8266,29.7595],[79.827,29.7696],[79.821,29.7733],[79.8237,29.7772],[79.8221,29.7816],[79.8444,29.7774],[79.8573,29.7681],[79.8699,29.7675],[79.8753,29.7734],[79.8869,29.7762],[79.8926,29.7894],[79.8921,29.7937],[79.8939,29.7949],[79.8986,29.7919],[79.9044,29.7986],[79.9087,29.7966],[79.9095,29.7893],[79.9122,29.7894],[79.9125,29.7928],[79.9314,29.79],[79.9292,29.7862],[79.9322,29.7739],[79.9316,29.7666],[79.9457,29.7641],[79.964,29.7644],[79.9752,29.7597],[79.992,29.7654],[79.9984,29.7644],[79.9998,29.7745],[80.0034,29.778],[80.0127,29.7741],[80.0182,29.7828],[80.0331,29.7823],[80.0381,29.7852],[80.0403,29.7881],[80.0387,29.7951],[80.0339,29.7962],[80.0327,29.8063],[80.0233,29.8115],[80.0188,29.8108],[80.0165,29.8205],[80.0197,29.8287],[79.9981,29.8353],[79.9946,29.8383],[79.9935,29.8451],[79.9813,29.841],[79.9792,29.8433],[79.9769,29.8417],[79.978,29.8524],[80.0067,29.8511],[80.0078,29.8579],[80.0055,29.8739],[80.0128,29.8877],[80.0267,29.8964],[80.045,29.8956],[80.0535,29.9027],[80.0713,29.9009],[80.0778,29.8907],[80.0855,29.887],[80.0904,29.8884],[80.096,29.8937],[80.0959,29.8973],[80.1075,29.9065],[80.1162,29.9056],[80.1267,29.8995],[80.1434,29.9022],[80.1486,29.8979],[80.1586,29.9044],[80.1567,29.9119],[80.1385,29.9416],[80.131,29.9432],[80.115,29.9548],[80.1018,29.9601],[80.091,29.9691],[80.0812,29.9889],[80.0762,29.9938],[80.0757,29.9981],[80.0712,30.0008],[80.0732,30.0099],[80.0675,30.019],[80.0696,30.02],[80.0704,30.0313],[80.0749,30.0389],[80.0754,30.047],[80.0847,30.0625],[80.0856,30.0707],[80.0798,30.0833],[80.0845,30.096],[80.0822,30.1002],[80.0824,30.1116],[80.0884,30.125],[80.0944,30.1283],[80.0967,30.1365],[80.1042,30.1485],[80.1032,30.1642],[80.1112,30.1919],[80.1081,30.1996],[80.117,30.2181],[80.1161,30.2267],[80.1105,30.2283],[80.093,30.2267],[80.0776,30.2378],[80.0731,30.2433],[80.0745,30.2534],[80.0714,30.2583],[80.0731,30.2629],[80.0685,30.267],[80.0632,30.2658],[80.0608,30.2709],[80.0679,30.2813],[80.0489,30.287],[80.0415,30.2915],[80.036,30.3028],[80.025,30.314],[79.9978,30.3168]]]},"properties":{"dtname":"Bageshwar","stname":"UTTARAKHAND","stcode11":"05","dtcode11":"063","year_stat":"2011_c","Shape_Length":370198.4883822895,"Shape_Area":2990239606.299669,"OBJECTID":659,"test":0,"Dist_LGD":46,"State_LGD":5}},{"type":"Feature","id":660,"geometry":{"type":"Polygon","coordinates":[[[77.9612,30.2424],[77.958,30.2423],[77.9469,30.2341],[77.9321,30.2144],[77.9189,30.2113],[77.912,30.1826],[77.9003,30.1727],[77.8889,30.1574],[77.8812,30.1508],[77.8661,30.1192],[77.8604,30.1133],[77.8494,30.1048],[77.8368,30.1036],[77.8366,30.0985],[77.833,30.0946],[77.8343,30.0906],[77.828,30.086],[77.8217,30.0857],[77.8104,30.0928],[77.8012,30.0955],[77.7997,30.0873],[77.7967,30.0853],[77.7984,30.0836],[77.7948,30.0813],[77.7958,30.0799],[77.7748,30.0553],[77.7711,30.0481],[77.77,30.0426],[77.7814,30.0336],[77.7794,30.0307],[77.7855,30.0279],[77.782,30.0187],[77.7758,30.018],[77.7739,30.0148],[77.7619,30.0094],[77.7642,30.0045],[77.7554,29.9991],[77.7604,29.9952],[77.7503,29.9859],[77.7437,29.9834],[77.746,29.9806],[77.7402,29.9753],[77.7406,29.9696],[77.7333,29.956],[77.7484,29.9517],[77.743,29.941],[77.7406,29.9422],[77.7305,29.9317],[77.7429,29.925],[77.743,29.9182],[77.7478,29.9112],[77.7365,29.9067],[77.7386,29.9033],[77.7337,29.9016],[77.7339,29.8997],[77.7293,29.9006],[77.7285,29.8976],[77.7318,29.8929],[77.7251,29.8904],[77.7227,29.8845],[77.7184,29.8875],[77.716,29.8859],[77.7147,29.8841],[77.7169,29.8785],[77.7208,29.8762],[77.7141,29.8703],[77.7186,29.8655],[77.7165,29.8632],[77.7234,29.8551],[77.7419,29.8519],[77.744,29.8399],[77.7402,29.8348],[77.7557,29.8254],[77.754,29.8209],[77.759,29.8186],[77.7561,29.8129],[77.7516,29.8107],[77.7632,29.8027],[77.7654,29.796],[77.7747,29.7911],[77.7724,29.7801],[77.7778,29.775],[77.7731,29.7688],[77.7803,29.7651],[77.7693,29.7506],[77.7695,29.7454],[77.7827,29.7363],[77.7697,29.7177],[77.7717,29.7139],[77.7787,29.7107],[77.7918,29.71],[77.8026,29.7034],[77.8105,29.7024],[77.799,29.6862],[77.83,29.6683],[77.8368,29.6718],[77.8386,29.6705],[77.8431,29.6753],[77.8471,29.6755],[77.8502,29.68],[77.8537,29.6816],[77.8557,29.6801],[77.8628,29.6895],[77.8747,29.6873],[77.8795,29.693],[77.879,29.7003],[77.8826,29.7025],[77.8909,29.6989],[77.8966,29.7023],[77.9021,29.7012],[77.9125,29.696],[77.914,29.6985],[77.9201,29.6993],[77.9158,29.7023],[77.9169,29.7056],[77.9198,29.7051],[77.9264,29.7143],[77.9346,29.7112],[77.9381,29.7145],[77.9409,29.7109],[77.947,29.7125],[77.953,29.7074],[77.9496,29.7042],[77.951,29.7016],[77.9399,29.6961],[77.9509,29.6874],[77.9474,29.6831],[77.9494,29.6799],[77.9699,29.6665],[77.9695,29.6563],[77.9664,29.6502],[77.9794,29.6427],[77.9818,29.6452],[77.9838,29.6437],[77.9774,29.6313],[77.976,29.6174],[77.9777,29.6135],[77.9602,29.6117],[77.9484,29.617],[77.9333,29.6006],[77.9403,29.5928],[77.9671,29.5802],[77.9731,29.5804],[77.9749,29.5851],[77.9864,29.5844],[77.9952,29.5958],[78.0008,29.5863],[78.0216,29.5809],[78.0152,29.5873],[78.0183,29.5983],[78.0331,29.6117],[78.0343,29.6104],[78.0465,29.6161],[78.0488,29.6147],[78.0571,29.6267],[78.0575,29.6307],[78.0685,29.6305],[78.0867,29.6251],[78.0815,29.6352],[78.0934,29.6405],[78.104,29.6413],[78.1193,29.65],[78.1305,29.6526],[78.1376,29.6636],[78.1716,29.6916],[78.1805,29.6969],[78.1884,29.6923],[78.196,29.6927],[78.2036,29.7283],[78.2001,29.7303],[78.2039,29.7373],[78.2216,29.7407],[78.2296,29.7368],[78.2402,29.7415],[78.2459,29.7346],[78.2501,29.7343],[78.2556,29.7383],[78.2597,29.7384],[78.2622,29.7436],[78.267,29.7429],[78.2683,29.7465],[78.2809,29.7558],[78.2845,29.7618],[78.2927,29.7591],[78.3095,29.78],[78.3129,29.7795],[78.3244,29.7899],[78.3332,29.7927],[78.3357,29.7967],[78.3294,29.8028],[78.3209,29.8277],[78.3153,29.8623],[78.2997,29.873],[78.2918,29.8819],[78.2859,29.8834],[78.2763,29.8975],[78.2709,29.8986],[78.2667,29.9042],[78.275,29.9227],[78.2659,29.9271],[78.2498,29.9297],[78.246,29.9361],[78.2226,29.9497],[78.2021,29.9662],[78.1915,29.9656],[78.1871,29.9622],[78.1868,29.9721],[78.1977,29.988],[78.1937,29.9868],[78.1923,29.9941],[78.1891,29.9973],[78.1832,29.9906],[78.1799,29.9791],[78.1687,29.9691],[78.1719,29.9639],[78.1664,29.966],[78.1613,29.9651],[78.1581,29.9689],[78.1488,29.9679],[78.1431,29.9781],[78.1386,29.9783],[78.1296,30.0011],[78.1228,29.9983],[78.1137,30.0111],[78.1071,30.011],[78.1044,30.0076],[78.0987,30.0123],[78.0961,30.0113],[78.094,30.0158],[78.1006,30.0258],[78.0992,30.028],[78.0918,30.0289],[78.0858,30.0335],[78.082,30.032],[78.0809,30.0363],[78.0766,30.0372],[78.0742,30.042],[78.0691,30.0421],[78.0667,30.047],[78.0714,30.0577],[78.0745,30.0597],[78.0719,30.0632],[78.0721,30.0691],[78.0673,30.0724],[78.0695,30.0755],[78.0599,30.0869],[78.0468,30.0918],[78.0457,30.0977],[78.0355,30.1036],[78.0359,30.1105],[78.0331,30.1107],[78.0327,30.1198],[78.0296,30.122],[78.0265,30.1339],[78.0144,30.1479],[78.0111,30.1637],[78.0046,30.1761],[77.9931,30.1898],[77.9859,30.2044],[77.9837,30.204],[77.9742,30.2132],[77.9752,30.2185],[77.9733,30.2207],[77.9689,30.2203],[77.9558,30.2306],[77.9612,30.2424]]]},"properties":{"dtname":"Hardwar","stname":"UTTARAKHAND","stcode11":"05","dtcode11":"068","year_stat":"2011_c","Shape_Length":336783.85309544456,"Shape_Area":3056682483.519448,"OBJECTID":660,"test":1,"Dist_LGD":50,"State_LGD":5}},{"type":"Feature","id":661,"geometry":{"type":"Polygon","coordinates":[[[78.8804,30.2603],[78.8775,30.2599],[78.8751,30.2518],[78.8593,30.2434],[78.8475,30.2467],[78.8466,30.2386],[78.8443,30.2365],[78.8267,30.2434],[78.8195,30.2376],[78.821,30.2296],[78.809,30.2276],[78.8067,30.2198],[78.7978,30.2212],[78.7919,30.2282],[78.7873,30.2286],[78.7785,30.2255],[78.7662,30.226],[78.7626,30.217],[78.7552,30.2176],[78.7485,30.2132],[78.7189,30.2322],[78.7161,30.2369],[78.7139,30.2364],[78.7134,30.2325],[78.7047,30.2314],[78.6992,30.2364],[78.6924,30.2345],[78.6871,30.2386],[78.6829,30.2386],[78.6799,30.2317],[78.6836,30.2264],[78.6817,30.2238],[78.6838,30.2213],[78.6794,30.2175],[78.6803,30.2102],[78.6701,30.2127],[78.6638,30.2061],[78.6579,30.2046],[78.6471,30.2075],[78.6426,30.2038],[78.645,30.1945],[78.6207,30.1785],[78.6201,30.1563],[78.6173,30.1509],[78.608,30.1487],[78.6058,30.1431],[78.5975,30.1449],[78.596,30.1312],[78.6013,30.1268],[78.5871,30.122],[78.5882,30.1079],[78.5869,30.1053],[78.5809,30.1059],[78.579,30.1038],[78.5921,30.087],[78.5824,30.0724],[78.5888,30.0726],[78.6021,30.0682],[78.5987,30.0646],[78.591,30.0662],[78.588,30.0526],[78.5838,30.0533],[78.577,30.0629],[78.5658,30.0617],[78.5631,30.0691],[78.5507,30.0702],[78.5323,30.0758],[78.5248,30.0739],[78.5227,30.0658],[78.5141,30.0662],[78.5143,30.0584],[78.5113,30.055],[78.4992,30.0631],[78.501,30.0744],[78.4972,30.0755],[78.4924,30.0727],[78.488,30.0588],[78.4802,30.0555],[78.477,30.0668],[78.4655,30.0645],[78.4505,30.0691],[78.4464,30.0739],[78.4348,30.0805],[78.434,30.0991],[78.4388,30.1113],[78.4254,30.1131],[78.4188,30.1288],[78.4101,30.1354],[78.401,30.1378],[78.3917,30.1354],[78.3914,30.1226],[78.3889,30.1208],[78.3821,30.1217],[78.3739,30.117],[78.3487,30.1298],[78.3425,30.1353],[78.3329,30.1345],[78.3286,30.1244],[78.3186,30.1255],[78.3099,30.12],[78.3102,30.1082],[78.3067,30.1033],[78.291,30.1],[78.2922,30.0841],[78.281,30.0608],[78.2764,30.0572],[78.2716,30.0471],[78.2621,30.039],[78.2475,30.0341],[78.2489,30.023],[78.2449,30.0176],[78.2275,30.0156],[78.2258,30.0064],[78.2323,29.9986],[78.2315,29.9926],[78.2259,29.9847],[78.2172,29.9869],[78.2078,29.9775],[78.2021,29.9662],[78.2226,29.9497],[78.246,29.9361],[78.2498,29.9297],[78.2659,29.9271],[78.275,29.9227],[78.2667,29.9042],[78.2709,29.8986],[78.2763,29.8975],[78.2859,29.8834],[78.2918,29.8819],[78.2997,29.873],[78.3153,29.8623],[78.3195,29.8331],[78.3318,29.799],[78.3927,29.7675],[78.4091,29.7634],[78.4285,29.7645],[78.4426,29.7523],[78.454,29.746],[78.4737,29.7399],[78.4885,29.7382],[78.501,29.733],[78.513,29.7241],[78.5165,29.7195],[78.5214,29.6935],[78.5215,29.6579],[78.5327,29.6388],[78.5408,29.6271],[78.5804,29.5864],[78.6167,29.5588],[78.6242,29.5566],[78.6385,29.5467],[78.6505,29.5461],[78.6997,29.5063],[78.7109,29.5005],[78.7201,29.5022],[78.745,29.5008],[78.7492,29.496],[78.7565,29.4946],[78.7776,29.4772],[78.7997,29.4646],[78.8106,29.4659],[78.8227,29.4598],[78.8402,29.4575],[78.8791,29.4439],[78.9002,29.4415],[78.921,29.4343],[78.9231,29.4423],[78.9335,29.4453],[78.9355,29.4491],[78.9381,29.4486],[78.9427,29.4522],[78.9473,29.4589],[78.9523,29.4586],[78.9503,29.4642],[78.963,29.4933],[78.9597,29.4969],[78.9631,29.5052],[78.9625,29.5191],[78.9635,29.521],[78.9691,29.5201],[78.9708,29.5224],[78.9666,29.5278],[78.9705,29.5388],[78.993,29.5528],[79.0022,29.5517],[79.0061,29.5545],[79.0064,29.5565],[78.9985,29.5624],[79.0081,29.5716],[79.009,29.5861],[79.0218,29.5837],[79.0265,29.5893],[79.0371,29.5846],[79.0404,29.5903],[79.0438,29.5916],[79.0528,29.5872],[79.0607,29.588],[79.0632,29.5994],[79.0593,29.6038],[79.0623,29.6056],[79.0622,29.6105],[79.0676,29.6171],[79.0671,29.6205],[79.0715,29.6218],[79.0756,29.6169],[79.0809,29.6159],[79.0823,29.6198],[79.0944,29.6277],[79.0863,29.6295],[79.0783,29.6371],[79.0813,29.6506],[79.0845,29.6525],[79.0833,29.6546],[79.0874,29.6636],[79.0903,29.6638],[79.0983,29.6739],[79.1034,29.6675],[79.1007,29.6652],[79.1012,29.662],[79.1053,29.6606],[79.1089,29.6651],[79.1092,29.6765],[79.1162,29.6829],[79.1136,29.6845],[79.1146,29.6914],[79.1098,29.6912],[79.1047,29.699],[79.1125,29.7041],[79.1149,29.7094],[79.1198,29.7097],[79.1211,29.7182],[79.1189,29.7205],[79.1157,29.7194],[79.1161,29.726],[79.1081,29.7329],[79.1124,29.7649],[79.1092,29.7752],[79.1148,29.7699],[79.1201,29.7724],[79.1271,29.7816],[79.1271,29.7847],[79.1241,29.7878],[79.1227,29.7981],[79.1184,29.8026],[79.12,29.8094],[79.1144,29.8185],[79.1104,29.8325],[79.1022,29.8367],[79.0969,29.8485],[79.0908,29.8504],[79.0875,29.856],[79.0673,29.8625],[79.0709,29.8728],[79.077,29.877],[79.0786,29.886],[79.0838,29.8909],[79.0908,29.8933],[79.1008,29.8904],[79.1063,29.8938],[79.1188,29.895],[79.1264,29.9017],[79.1282,29.9065],[79.1398,29.9065],[79.1588,29.9156],[79.1643,29.9154],[79.1728,29.9078],[79.1768,29.9076],[79.1894,29.9235],[79.1922,29.9444],[79.1982,29.9463],[79.2048,29.9394],[79.2083,29.9434],[79.2148,29.9407],[79.2215,29.9463],[79.2266,29.9454],[79.229,29.9481],[79.2265,29.9521],[79.2319,29.963],[79.23,29.9723],[79.2187,29.9859],[79.224,29.9918],[79.2231,30.0007],[79.2163,30.0106],[79.2178,30.0227],[79.2024,30.0354],[79.1922,30.0354],[79.1885,30.0383],[79.189,30.0475],[79.1937,30.0593],[79.2031,30.0632],[79.1934,30.0842],[79.1867,30.091],[79.1808,30.0906],[79.1724,30.0966],[79.1699,30.097],[79.1696,30.094],[79.1603,30.0931],[79.1537,30.0997],[79.1513,30.112],[79.1446,30.1127],[79.1344,30.1183],[79.1335,30.1461],[79.1359,30.1509],[79.1437,30.1547],[79.1441,30.1585],[79.1403,30.1614],[79.1391,30.1664],[79.1262,30.1695],[79.1266,30.1797],[79.1222,30.1801],[79.112,30.1896],[79.1081,30.1893],[79.1026,30.1953],[79.0976,30.1968],[79.0946,30.206],[79.0979,30.206],[79.1012,30.2112],[79.0943,30.2164],[79.088,30.2147],[79.076,30.2205],[79.0704,30.2201],[79.0617,30.215],[79.0548,30.2165],[79.0474,30.2138],[79.0423,30.2171],[79.0387,30.2164],[79.0293,30.2066],[79.0292,30.1917],[79.0196,30.1849],[79.0103,30.1856],[79.0062,30.1826],[79.0011,30.1841],[78.9941,30.1789],[78.9771,30.1801],[78.9554,30.1748],[78.9477,30.1776],[78.9383,30.1768],[78.9293,30.1815],[78.8989,30.18],[78.9034,30.2018],[78.9023,30.2096],[78.9074,30.2089],[78.9095,30.2025],[78.9148,30.2042],[78.9155,30.2101],[78.9105,30.2129],[78.9132,30.2171],[78.9104,30.2225],[78.9148,30.2267],[78.915,30.2302],[78.9074,30.235],[78.8908,30.2355],[78.8996,30.2449],[78.8975,30.2509],[78.8804,30.2603]]]},"properties":{"dtname":"Garhwal","stname":"UTTARAKHAND","stcode11":"05","dtcode11":"061","year_stat":"2011_c","Shape_Length":485903.0090113999,"Shape_Area":7047634795.302203,"OBJECTID":661,"test":0,"Dist_LGD":52,"State_LGD":5}},{"type":"Feature","id":666,"geometry":{"type":"Polygon","coordinates":[[[79.2304,29.9792],[79.2248,29.9781],[79.2315,29.9693],[79.2316,29.9608],[79.2265,29.9521],[79.2286,29.9471],[79.2255,29.9451],[79.2215,29.9463],[79.2148,29.9407],[79.2083,29.9434],[79.2048,29.9394],[79.1982,29.9463],[79.1926,29.9448],[79.1894,29.9235],[79.1768,29.9076],[79.1728,29.9078],[79.1643,29.9154],[79.1588,29.9156],[79.1398,29.9065],[79.1282,29.9065],[79.1264,29.9017],[79.1188,29.895],[79.1063,29.8938],[79.1015,29.8904],[79.0938,29.8932],[79.0877,29.8926],[79.0786,29.886],[79.077,29.877],[79.0709,29.8728],[79.0675,29.864],[79.0729,29.8595],[79.0769,29.8602],[79.0875,29.856],[79.0908,29.8504],[79.0967,29.8488],[79.1022,29.8367],[79.1104,29.8325],[79.1144,29.8185],[79.12,29.8094],[79.1182,29.8032],[79.1227,29.7981],[79.1271,29.7816],[79.1209,29.7729],[79.1148,29.7699],[79.1092,29.7752],[79.1122,29.7591],[79.11,29.7533],[79.1102,29.7421],[79.1079,29.7394],[79.1087,29.731],[79.1113,29.7313],[79.1173,29.7237],[79.1157,29.7194],[79.1189,29.7205],[79.1211,29.7178],[79.1198,29.7097],[79.1149,29.7094],[79.1125,29.7041],[79.1047,29.699],[79.1098,29.6912],[79.1146,29.6914],[79.1136,29.6845],[79.1162,29.6829],[79.1092,29.6765],[79.1089,29.6651],[79.1053,29.6606],[79.1014,29.6618],[79.1006,29.6648],[79.1033,29.6677],[79.1009,29.6725],[79.0962,29.6737],[79.0903,29.6638],[79.0874,29.6636],[79.0833,29.6546],[79.0845,29.6525],[79.0816,29.6512],[79.0792,29.6445],[79.078,29.639],[79.0806,29.6333],[79.0944,29.6277],[79.0823,29.6198],[79.0809,29.6159],[79.0756,29.6169],[79.0715,29.6218],[79.0671,29.6205],[79.0676,29.6171],[79.0622,29.6105],[79.0623,29.6056],[79.0593,29.6038],[79.0632,29.5994],[79.0607,29.588],[79.0564,29.5865],[79.0427,29.5915],[79.0371,29.5846],[79.0565,29.5795],[79.0591,29.582],[79.0719,29.5799],[79.0769,29.5823],[79.0906,29.573],[79.0906,29.5681],[79.11,29.5585],[79.1114,29.555],[79.1093,29.5535],[79.1086,29.5442],[79.1242,29.5496],[79.1328,29.5485],[79.1408,29.5527],[79.1454,29.5447],[79.1437,29.5418],[79.147,29.5399],[79.1679,29.5347],[79.1787,29.5347],[79.1975,29.5238],[79.203,29.5229],[79.2127,29.5256],[79.2168,29.5217],[79.2231,29.5222],[79.2331,29.5315],[79.2331,29.5376],[79.2406,29.5364],[79.2454,29.5422],[79.2469,29.5491],[79.2501,29.5499],[79.2749,29.5739],[79.2866,29.5783],[79.2871,29.5901],[79.2997,29.5906],[79.3078,29.6012],[79.3227,29.6039],[79.3345,29.6121],[79.3406,29.607],[79.3486,29.6067],[79.3537,29.6],[79.3487,29.597],[79.3502,29.5942],[79.3586,29.5981],[79.3672,29.5909],[79.3804,29.5881],[79.3876,29.5766],[79.3919,29.5755],[79.3976,29.5685],[79.3991,29.5638],[79.4094,29.5624],[79.4124,29.5567],[79.424,29.5512],[79.4345,29.5395],[79.4389,29.5385],[79.4433,29.5247],[79.4507,29.5168],[79.4604,29.5174],[79.467,29.5103],[79.4754,29.5094],[79.4803,29.5044],[79.4819,29.4967],[79.4942,29.503],[79.5014,29.4969],[79.5166,29.5121],[79.5234,29.524],[79.5274,29.5492],[79.5349,29.5456],[79.5407,29.5505],[79.5499,29.5511],[79.552,29.5476],[79.5505,29.5405],[79.5718,29.5397],[79.5841,29.5451],[79.5897,29.5503],[79.5977,29.5503],[79.6127,29.557],[79.6212,29.5559],[79.6292,29.5517],[79.6321,29.5425],[79.6481,29.5478],[79.6565,29.5418],[79.6654,29.5413],[79.6651,29.5343],[79.6798,29.5274],[79.6815,29.5219],[79.6837,29.5217],[79.681,29.5167],[79.6812,29.5075],[79.6836,29.5064],[79.6794,29.5],[79.6895,29.4738],[79.6921,29.4697],[79.7032,29.4668],[79.71,29.4597],[79.7148,29.4624],[79.7159,29.4583],[79.7219,29.4574],[79.7338,29.4615],[79.7267,29.4468],[79.7358,29.4315],[79.7384,29.4338],[79.7417,29.4299],[79.7443,29.4301],[79.7488,29.4341],[79.7538,29.4349],[79.7639,29.4335],[79.7672,29.4373],[79.7679,29.4477],[79.7781,29.4514],[79.7808,29.4491],[79.7877,29.449],[79.7984,29.4373],[79.8086,29.4397],[79.8232,29.4329],[79.8253,29.4266],[79.8292,29.4256],[79.8408,29.4273],[79.8486,29.4321],[79.8503,29.4362],[79.8461,29.4446],[79.8487,29.4442],[79.8509,29.4528],[79.8527,29.4516],[79.8568,29.4561],[79.8571,29.4505],[79.8617,29.4489],[79.8673,29.4546],[79.8661,29.4567],[79.8713,29.4614],[79.8765,29.4731],[79.8843,29.4787],[79.8868,29.4836],[79.891,29.4826],[79.8943,29.4861],[79.8974,29.4846],[79.9097,29.4899],[79.9108,29.4867],[79.9154,29.4875],[79.9138,29.4833],[79.9173,29.4829],[79.9188,29.4747],[79.927,29.4725],[79.9306,29.4764],[79.9344,29.4764],[79.9351,29.4793],[79.9377,29.4763],[79.9447,29.4789],[79.9459,29.477],[79.9472,29.5],[79.9531,29.4993],[79.961,29.4944],[79.9516,29.4783],[79.9534,29.4749],[79.9569,29.4742],[79.9599,29.4773],[79.9723,29.4775],[79.977,29.4856],[79.9855,29.4847],[79.9889,29.4893],[79.9924,29.4863],[79.9951,29.4878],[80.0007,29.4853],[80.0032,29.4898],[80.0196,29.4932],[80.0235,29.4986],[80.0298,29.4998],[80.0308,29.5083],[80.0518,29.511],[80.0779,29.521],[80.0652,29.5279],[80.0669,29.5374],[80.0312,29.5511],[80.0111,29.5513],[80.0046,29.5581],[79.9994,29.5597],[79.997,29.5802],[79.9929,29.5886],[79.994,29.5939],[79.9886,29.6139],[79.9829,29.6178],[79.9687,29.6498],[79.959,29.6568],[79.9634,29.665],[79.958,29.6694],[79.9578,29.6776],[79.9509,29.6834],[79.9456,29.6855],[79.9419,29.6823],[79.9405,29.6868],[79.9248,29.6989],[79.9179,29.696],[79.9146,29.698],[79.9018,29.6981],[79.8962,29.704],[79.8894,29.7041],[79.894,29.7123],[79.8765,29.7153],[79.8676,29.7143],[79.8648,29.711],[79.8615,29.7146],[79.8403,29.7172],[79.8335,29.7104],[79.8285,29.7099],[79.8237,29.7131],[79.8225,29.7106],[79.8208,29.7128],[79.8194,29.711],[79.8169,29.714],[79.8147,29.7116],[79.807,29.7124],[79.8046,29.7161],[79.7939,29.7071],[79.7803,29.7116],[79.7729,29.7061],[79.7584,29.701],[79.7523,29.7084],[79.7459,29.7099],[79.7346,29.7188],[79.7291,29.7279],[79.7217,29.7307],[79.7206,29.7379],[79.7145,29.74],[79.7086,29.7467],[79.7082,29.7535],[79.7038,29.7617],[79.6962,29.7656],[79.6963,29.7827],[79.7025,29.7884],[79.7038,29.7973],[79.6972,29.8071],[79.689,29.8106],[79.6919,29.8146],[79.6973,29.815],[79.7079,29.8259],[79.7045,29.8279],[79.6949,29.8274],[79.6763,29.8346],[79.6702,29.8434],[79.6597,29.839],[79.6562,29.841],[79.6407,29.8409],[79.6395,29.8485],[79.6353,29.8497],[79.6228,29.8429],[79.6184,29.8454],[79.6105,29.8413],[79.5957,29.8492],[79.5852,29.8517],[79.5795,29.8563],[79.5751,29.864],[79.5599,29.8595],[79.554,29.8644],[79.5416,29.8685],[79.5282,29.868],[79.5078,29.8736],[79.4942,29.8963],[79.4921,29.9493],[79.4827,29.9574],[79.4869,29.9624],[79.4886,29.9702],[79.4847,29.9751],[79.4788,29.9757],[79.4728,29.9798],[79.4669,29.9786],[79.4641,29.9719],[79.4491,29.9647],[79.4494,29.9589],[79.4471,29.9561],[79.4364,29.9526],[79.4285,29.9369],[79.4245,29.9347],[79.4205,29.935],[79.4171,29.9432],[79.4047,29.9425],[79.3857,29.9288],[79.3787,29.9293],[79.374,29.927],[79.3668,29.9385],[79.3574,29.9433],[79.3562,29.9497],[79.3457,29.9603],[79.3389,29.9727],[79.3249,29.9729],[79.3303,29.9508],[79.3351,29.9431],[79.3259,29.9388],[79.3251,29.9293],[79.3172,29.9278],[79.3091,29.9318],[79.3018,29.9285],[79.2823,29.9256],[79.286,29.9387],[79.284,29.9429],[79.2846,29.9517],[79.2726,29.9604],[79.256,29.9633],[79.2508,29.9608],[79.2455,29.9705],[79.2304,29.9792]]]},"properties":{"dtname":"Almora\n","stname":"UTTARAKHAND","stcode11":"05","dtcode11":"064","year_stat":"2011_c","Shape_Length":462107.68670206604,"Shape_Area":4182304383.078059,"OBJECTID":666,"test":0,"Dist_LGD":45,"State_LGD":5}},{"type":"Feature","id":673,"geometry":{"type":"Polygon","coordinates":[[[79.3359,29.6118],[79.3322,29.6119],[79.3227,29.6039],[79.3078,29.6012],[79.2997,29.5906],[79.2871,29.5901],[79.2866,29.5783],[79.2749,29.5739],[79.2501,29.5499],[79.2469,29.5491],[79.2454,29.5422],[79.2406,29.5364],[79.2331,29.5376],[79.2331,29.5315],[79.2265,29.5243],[79.2177,29.5216],[79.2135,29.5256],[79.203,29.5229],[79.197,29.5239],[79.1787,29.5347],[79.1679,29.5347],[79.1461,29.5402],[79.1437,29.5418],[79.1454,29.5447],[79.1408,29.5527],[79.1328,29.5485],[79.1242,29.5496],[79.1086,29.5442],[79.1093,29.5535],[79.1114,29.555],[79.11,29.5585],[79.0906,29.5681],[79.0906,29.573],[79.0769,29.5823],[79.0719,29.5799],[79.0591,29.582],[79.0565,29.5795],[79.0265,29.5893],[79.0218,29.5837],[79.009,29.5861],[79.0081,29.5716],[78.9985,29.5624],[79.0064,29.5565],[79.0061,29.5545],[79.0022,29.5517],[78.993,29.5528],[78.9709,29.5392],[78.9689,29.5359],[78.9666,29.5278],[78.9708,29.5224],[78.9691,29.5201],[78.9635,29.521],[78.9625,29.5191],[78.9631,29.5052],[78.9597,29.4969],[78.963,29.4933],[78.9503,29.4642],[78.9523,29.4586],[78.9473,29.4589],[78.9427,29.4522],[78.9381,29.4486],[78.9355,29.4491],[78.9335,29.4453],[78.9231,29.4423],[78.921,29.4343],[78.9417,29.4387],[78.9402,29.4353],[78.9431,29.4348],[78.9383,29.4341],[78.9257,29.426],[78.9187,29.4099],[78.9184,29.4036],[78.9126,29.4012],[78.9122,29.3943],[78.9022,29.385],[78.8925,29.3813],[78.8873,29.3731],[78.8777,29.375],[78.8759,29.3711],[78.8798,29.3676],[78.8717,29.3623],[78.8603,29.3583],[78.8519,29.3604],[78.8525,29.3527],[78.856,29.3498],[78.8648,29.3496],[78.8697,29.3451],[78.8758,29.3468],[78.8791,29.3517],[78.8862,29.3419],[78.8929,29.3456],[78.8997,29.3456],[78.9279,29.341],[78.9304,29.3356],[78.9551,29.3245],[78.9582,29.3212],[78.9564,29.318],[78.9859,29.3166],[78.9881,29.3212],[78.9926,29.3235],[78.9995,29.3185],[79.0082,29.3251],[79.0144,29.3227],[79.0187,29.3255],[79.0267,29.3182],[79.0285,29.3136],[79.023,29.3086],[79.0295,29.3055],[79.0125,29.2898],[79.0222,29.2822],[79.0225,29.2756],[79.03,29.2653],[79.0405,29.264],[79.0391,29.2628],[79.0418,29.2594],[79.0418,29.2542],[79.0495,29.2617],[79.0552,29.262],[79.0596,29.2688],[79.0644,29.2716],[79.0691,29.27],[79.0759,29.278],[79.0904,29.2751],[79.0916,29.2682],[79.0959,29.2631],[79.0934,29.2595],[79.108,29.2552],[79.12,29.2693],[79.1344,29.2753],[79.1483,29.2713],[79.1629,29.2636],[79.2202,29.248],[79.2772,29.2396],[79.3632,29.1563],[79.3753,29.1519],[79.3836,29.1442],[79.4013,29.1147],[79.4356,29.0836],[79.416,29.0515],[79.5593,29.0529],[79.6275,29.0501],[79.6326,29.0547],[79.6341,29.0616],[79.6387,29.063],[79.6455,29.0703],[79.6487,29.0699],[79.6519,29.0775],[79.6534,29.0743],[79.6648,29.0684],[79.6738,29.0696],[79.6828,29.0631],[79.6929,29.0532],[79.6945,29.0448],[79.7106,29.0311],[79.7202,29.031],[79.7251,29.0269],[79.7463,29.0256],[79.7505,29.0264],[79.7474,29.0321],[79.7542,29.0319],[79.7642,29.037],[79.7772,29.0303],[79.7765,29.0277],[79.7717,29.0274],[79.7734,29.0253],[79.7886,29.0272],[79.7894,29.0235],[79.7919,29.023],[79.8003,29.025],[79.8064,29.0164],[79.7965,29.0136],[79.7932,28.9983],[79.8,28.9995],[79.8066,28.9904],[79.8099,28.9936],[79.8126,28.9927],[79.8117,28.9849],[79.8242,28.9902],[79.8274,28.9892],[79.8248,28.9949],[79.8294,28.9945],[79.8374,29.0006],[79.8395,28.9986],[79.8379,28.9947],[79.842,28.9962],[79.8464,29.0015],[79.8452,29.0048],[79.8478,29.004],[79.8498,29.0097],[79.8576,29.013],[79.8629,29.0099],[79.8691,28.996],[79.8737,28.992],[79.8755,28.9929],[79.8737,28.9836],[79.8702,28.9817],[79.876,28.9785],[79.8805,28.9834],[79.8778,28.9856],[79.8813,28.9857],[79.8782,28.99],[79.8795,28.9936],[79.8862,28.9961],[79.8868,28.993],[79.896,28.9935],[79.8931,28.9946],[79.8962,28.9965],[79.8936,29.0011],[79.9029,29.007],[79.897,29.0091],[79.9011,29.0118],[79.9012,29.0164],[79.9063,29.0199],[79.9068,29.0254],[79.9116,29.0281],[79.9123,29.0334],[79.9147,29.0332],[79.9153,29.0301],[79.9208,29.031],[79.9379,29.0443],[79.9459,29.0433],[79.9618,29.0467],[79.9725,29.0548],[79.9694,29.0537],[79.9646,29.0567],[79.9541,29.0693],[79.954,29.0816],[79.9612,29.1089],[79.9767,29.1171],[79.9748,29.1206],[79.9661,29.1255],[79.9535,29.1269],[79.9411,29.1327],[79.9213,29.1339],[79.9153,29.1288],[79.9105,29.1287],[79.9059,29.1341],[79.8969,29.1354],[79.8956,29.1479],[79.8926,29.152],[79.8827,29.154],[79.8779,29.1581],[79.8804,29.1735],[79.8915,29.1746],[79.9007,29.1821],[79.9039,29.1949],[79.9127,29.2004],[79.918,29.2073],[79.9236,29.2091],[79.9267,29.2142],[79.9219,29.2239],[79.911,29.2327],[79.9068,29.2501],[79.9033,29.2532],[79.9002,29.252],[79.8973,29.257],[79.8902,29.2559],[79.8891,29.2535],[79.8765,29.2597],[79.8685,29.2603],[79.8667,29.2665],[79.8559,29.2769],[79.8504,29.2723],[79.8472,29.2775],[79.844,29.2709],[79.8399,29.2729],[79.8251,29.269],[79.819,29.2715],[79.8128,29.2819],[79.8177,29.2867],[79.812,29.2927],[79.8156,29.294],[79.8146,29.3],[79.8174,29.3006],[79.8182,29.308],[79.8058,29.3148],[79.8054,29.3281],[79.7935,29.3364],[79.8072,29.3405],[79.8151,29.338],[79.8168,29.34],[79.8186,29.3382],[79.8321,29.338],[79.8301,29.3266],[79.8319,29.3233],[79.8439,29.3221],[79.8501,29.3143],[79.858,29.311],[79.8653,29.3156],[79.863,29.3172],[79.8633,29.3275],[79.8679,29.3322],[79.8713,29.3451],[79.8906,29.3508],[79.8946,29.3476],[79.9,29.3483],[79.8986,29.3492],[79.9024,29.3532],[79.902,29.3558],[79.8993,29.3593],[79.8962,29.3593],[79.8921,29.3698],[79.8872,29.3664],[79.884,29.3681],[79.8821,29.3661],[79.8757,29.3709],[79.8578,29.3699],[79.8595,29.3799],[79.8478,29.3857],[79.8421,29.3974],[79.8374,29.3954],[79.833,29.3974],[79.8334,29.4059],[79.8476,29.4183],[79.8563,29.4328],[79.8286,29.4256],[79.8253,29.4266],[79.8232,29.4329],[79.8086,29.4397],[79.7984,29.4373],[79.7877,29.449],[79.7808,29.4491],[79.7781,29.4514],[79.7679,29.4477],[79.7672,29.4373],[79.7639,29.4335],[79.7538,29.4349],[79.7488,29.4341],[79.7443,29.4301],[79.7417,29.4299],[79.7384,29.4338],[79.7358,29.4315],[79.7267,29.4468],[79.7338,29.4615],[79.7219,29.4574],[79.7159,29.4583],[79.7148,29.4624],[79.71,29.4597],[79.7032,29.4668],[79.6921,29.4697],[79.6895,29.4738],[79.6794,29.5],[79.6836,29.5064],[79.6812,29.5075],[79.681,29.5167],[79.6837,29.5217],[79.6815,29.5219],[79.6798,29.5274],[79.6651,29.5343],[79.6654,29.5413],[79.6565,29.5418],[79.6481,29.5478],[79.6321,29.5425],[79.6292,29.5517],[79.6212,29.5559],[79.6127,29.557],[79.5977,29.5503],[79.5897,29.5503],[79.5841,29.5451],[79.5718,29.5397],[79.5505,29.5405],[79.552,29.5476],[79.5499,29.5511],[79.5407,29.5505],[79.5349,29.5456],[79.5274,29.5492],[79.5234,29.524],[79.5166,29.5121],[79.5014,29.4969],[79.4942,29.503],[79.4819,29.4967],[79.4803,29.5044],[79.4754,29.5094],[79.467,29.5103],[79.4604,29.5174],[79.4507,29.5168],[79.4433,29.5247],[79.4389,29.5385],[79.4345,29.5395],[79.424,29.5512],[79.4124,29.5567],[79.4094,29.5624],[79.3991,29.5638],[79.3976,29.5685],[79.3919,29.5755],[79.3876,29.5766],[79.3804,29.5881],[79.3672,29.5909],[79.3586,29.5981],[79.3502,29.5942],[79.3487,29.597],[79.3537,29.6],[79.3486,29.6067],[79.3406,29.607],[79.3359,29.6118]]]},"properties":{"dtname":"Nainital","stname":"UTTARAKHAND","stcode11":"05","dtcode11":"066","year_stat":"2011_c","Shape_Length":507186.73583790567,"Shape_Area":5266857867.6796055,"OBJECTID":673,"test":0,"Dist_LGD":51,"State_LGD":5}},{"type":"Feature","id":675,"geometry":{"type":"Polygon","coordinates":[[[80.1045,29.5235],[80.094,29.5195],[80.0814,29.5219],[80.0518,29.511],[80.0308,29.5083],[80.0301,29.5001],[80.0235,29.4986],[80.0196,29.4932],[80.0032,29.4898],[80.0007,29.4853],[79.9951,29.4878],[79.9924,29.4863],[79.9889,29.4893],[79.9855,29.4847],[79.977,29.4856],[79.9723,29.4775],[79.9599,29.4773],[79.9569,29.4742],[79.9534,29.4749],[79.9516,29.4783],[79.961,29.4944],[79.9531,29.4993],[79.9472,29.5],[79.9459,29.477],[79.9447,29.4789],[79.9377,29.4763],[79.9351,29.4793],[79.9344,29.4764],[79.9306,29.4764],[79.927,29.4725],[79.9188,29.4747],[79.9173,29.4829],[79.9138,29.4833],[79.9154,29.4875],[79.9108,29.4867],[79.9097,29.4899],[79.8974,29.4846],[79.8943,29.4861],[79.891,29.4826],[79.8868,29.4836],[79.8843,29.4787],[79.8765,29.4731],[79.8713,29.4614],[79.8661,29.4567],[79.8673,29.4546],[79.8617,29.4489],[79.8571,29.4505],[79.8568,29.4561],[79.8527,29.4516],[79.8507,29.4526],[79.8487,29.4442],[79.8461,29.4446],[79.8503,29.4362],[79.8486,29.4321],[79.8563,29.4328],[79.8476,29.4183],[79.8334,29.4059],[79.8328,29.3979],[79.8374,29.3954],[79.8421,29.3974],[79.8478,29.3857],[79.8595,29.3799],[79.8578,29.3699],[79.8757,29.3709],[79.8821,29.3661],[79.884,29.3681],[79.8872,29.3664],[79.8921,29.3698],[79.8962,29.3593],[79.8993,29.3593],[79.902,29.3558],[79.9024,29.3532],[79.8986,29.3492],[79.9,29.3483],[79.8946,29.3476],[79.8906,29.3508],[79.8713,29.3451],[79.8679,29.3322],[79.8633,29.3275],[79.863,29.3172],[79.8653,29.3156],[79.858,29.311],[79.8501,29.3143],[79.8439,29.3221],[79.8319,29.3233],[79.8301,29.3266],[79.8321,29.338],[79.8186,29.3382],[79.8168,29.34],[79.8151,29.338],[79.8072,29.3405],[79.7935,29.3364],[79.8054,29.3281],[79.8058,29.3148],[79.8182,29.308],[79.8174,29.3006],[79.8146,29.3],[79.8156,29.294],[79.812,29.2927],[79.8177,29.2867],[79.8128,29.2819],[79.819,29.2715],[79.8251,29.269],[79.8399,29.2729],[79.844,29.2709],[79.8472,29.2775],[79.8504,29.2723],[79.8559,29.2769],[79.8667,29.2665],[79.8685,29.2603],[79.8765,29.2597],[79.8891,29.2535],[79.8902,29.2559],[79.8973,29.257],[79.9002,29.252],[79.9033,29.2532],[79.9068,29.2501],[79.911,29.2327],[79.9219,29.2239],[79.9267,29.2142],[79.9236,29.2091],[79.918,29.2073],[79.9127,29.2004],[79.9039,29.1949],[79.9007,29.1821],[79.8915,29.1746],[79.8804,29.1735],[79.8779,29.1581],[79.8827,29.154],[79.8926,29.152],[79.8956,29.1479],[79.8969,29.1354],[79.9059,29.1341],[79.9105,29.1287],[79.9153,29.1288],[79.9213,29.1339],[79.9411,29.1327],[79.9535,29.1269],[79.9661,29.1255],[79.9757,29.1196],[79.9762,29.1167],[79.9612,29.1089],[79.954,29.082],[79.9541,29.0693],[79.9684,29.0541],[79.9733,29.0554],[79.9823,29.0654],[79.9975,29.0674],[80.0072,29.074],[80.0151,29.093],[80.0203,29.0786],[80.0313,29.0601],[80.0329,29.0519],[80.0478,29.0251],[80.052,29.0086],[80.0583,29.0044],[80.055,28.9945],[80.0504,28.9921],[80.0507,28.9828],[80.053,28.9827],[80.0598,28.9678],[80.0599,28.9602],[80.0656,28.9596],[80.07,28.9529],[80.074,28.9535],[80.0744,28.9489],[80.0772,28.9469],[80.0736,28.9386],[80.0967,28.9757],[80.1009,28.9868],[80.118,28.9814],[80.1269,29.0055],[80.1358,29.0074],[80.1248,29.0115],[80.1313,29.0297],[80.1259,29.0312],[80.1382,29.0601],[80.1296,29.0619],[80.1446,29.1026],[80.1615,29.1135],[80.1659,29.1258],[80.1774,29.1277],[80.1843,29.1365],[80.2014,29.1297],[80.2098,29.1207],[80.2338,29.1193],[80.2394,29.1221],[80.2478,29.1316],[80.2547,29.132],[80.2587,29.1378],[80.2713,29.1404],[80.269,29.1499],[80.2615,29.1571],[80.2581,29.1659],[80.2609,29.1748],[80.2585,29.1878],[80.2412,29.2012],[80.2441,29.2127],[80.2475,29.2153],[80.248,29.2209],[80.2541,29.221],[80.2588,29.2071],[80.2636,29.2051],[80.2735,29.208],[80.2858,29.1949],[80.2921,29.197],[80.298,29.2066],[80.2938,29.211],[80.296,29.2216],[80.2912,29.2283],[80.2908,29.2332],[80.2999,29.242],[80.2971,29.2503],[80.3045,29.2722],[80.3051,29.2871],[80.3116,29.291],[80.3184,29.302],[80.3165,29.3152],[80.3076,29.3221],[80.3,29.3233],[80.2937,29.3274],[80.291,29.3369],[80.2809,29.346],[80.2797,29.3578],[80.2717,29.3629],[80.272,29.3726],[80.279,29.3781],[80.2728,29.3848],[80.2751,29.3914],[80.2627,29.3967],[80.2429,29.411],[80.2455,29.4155],[80.2444,29.4245],[80.2474,29.434],[80.2429,29.4437],[80.2194,29.4524],[80.205,29.4519],[80.1958,29.4592],[80.1835,29.4576],[80.1821,29.4646],[80.1669,29.4649],[80.1619,29.4688],[80.1632,29.4725],[80.161,29.4748],[80.1499,29.4713],[80.1475,29.4803],[80.1423,29.483],[80.1395,29.4881],[80.1326,29.4891],[80.1254,29.4955],[80.1301,29.5033],[80.1276,29.5075],[80.1125,29.5147],[80.1045,29.5235]]]},"properties":{"dtname":"Champawat","stname":"UTTARAKHAND","stcode11":"05","dtcode11":"065","year_stat":"2011_c","Shape_Length":319071.1145576619,"Shape_Area":2334290112.499186,"OBJECTID":675,"test":0,"Dist_LGD":48,"State_LGD":5}},{"type":"Feature","id":677,"geometry":{"type":"Polygon","coordinates":[[[78.83,29.3683],[78.8242,29.3664],[78.8221,29.3592],[78.8099,29.3395],[78.7999,29.3346],[78.8029,29.3313],[78.8012,29.3253],[78.8047,29.3193],[78.7982,29.3191],[78.7959,29.3118],[78.7895,29.3154],[78.7954,29.3251],[78.7934,29.3282],[78.7905,29.3306],[78.7868,29.3262],[78.7775,29.3258],[78.7733,29.3285],[78.7743,29.332],[78.7665,29.3375],[78.7608,29.333],[78.7538,29.3313],[78.7537,29.3274],[78.7495,29.3233],[78.7503,29.3174],[78.7407,29.3158],[78.7407,29.3205],[78.7337,29.322],[78.7358,29.3186],[78.7321,29.3176],[78.7313,29.3136],[78.7352,29.3066],[78.7345,29.303],[78.7272,29.3056],[78.723,29.3035],[78.7192,29.3071],[78.7184,29.3035],[78.7268,29.2979],[78.7345,29.2996],[78.765,29.2794],[78.7732,29.2712],[78.7702,29.2671],[78.7738,29.262],[78.7851,29.2537],[78.7898,29.255],[78.7919,29.2523],[78.7899,29.2477],[78.7914,29.2461],[78.7984,29.2445],[78.8076,29.2366],[78.82,29.2321],[78.8256,29.2361],[78.8323,29.2368],[78.8382,29.2426],[78.8413,29.2397],[78.8395,29.2368],[78.8434,29.2349],[78.8455,29.2368],[78.8495,29.2328],[78.8511,29.2369],[78.8583,29.2419],[78.8622,29.2395],[78.8586,29.233],[78.8707,29.2273],[78.8745,29.2303],[78.874,29.2273],[78.8764,29.2254],[78.8717,29.2228],[78.8795,29.2189],[78.8785,29.2143],[78.8833,29.2115],[78.8752,29.2052],[78.881,29.2],[78.8855,29.2033],[78.8906,29.2012],[78.8913,29.1981],[78.8867,29.1951],[78.8901,29.1923],[78.8964,29.1936],[78.8997,29.1859],[78.8946,29.1858],[78.8985,29.1819],[78.9032,29.181],[78.9034,29.1783],[78.9069,29.1801],[78.9087,29.1786],[78.9017,29.1696],[78.9089,29.1639],[78.9064,29.1517],[78.9129,29.1544],[78.9155,29.1525],[78.911,29.1445],[78.9188,29.1356],[78.9064,29.1251],[78.9269,29.1181],[78.9346,29.1297],[78.9428,29.1262],[78.9437,29.1276],[78.9565,29.12],[78.9642,29.1306],[78.9728,29.1269],[78.9747,29.136],[78.9823,29.1431],[78.9898,29.1396],[78.9913,29.1307],[79.0042,29.126],[79.0017,29.1223],[79.0062,29.1183],[79.0082,29.112],[79.0142,29.1167],[79.0267,29.1125],[79.0346,29.1178],[79.0406,29.1277],[79.0318,29.1282],[79.0273,29.1325],[79.0192,29.1294],[79.0169,29.1308],[79.0149,29.134],[79.0211,29.1459],[79.0178,29.1539],[79.0238,29.1556],[79.0298,29.147],[79.0374,29.1449],[79.0359,29.1531],[79.0394,29.1585],[79.0324,29.1592],[79.0291,29.1642],[79.0321,29.1685],[79.0358,29.1695],[79.0454,29.1642],[79.0537,29.1549],[79.0749,29.1517],[79.0906,29.1434],[79.1119,29.128],[79.1195,29.1258],[79.1227,29.1274],[79.1249,29.1331],[79.1269,29.1327],[79.1535,29.1152],[79.1513,29.1133],[79.1508,29.1035],[79.1532,29.1016],[79.1483,29.0992],[79.1515,29.0955],[79.1433,29.0867],[79.1421,29.082],[79.1442,29.0721],[79.1425,29.067],[79.1488,29.0585],[79.1619,29.049],[79.1751,29.0463],[79.1692,29.0424],[79.1708,29.0395],[79.168,29.0383],[79.1675,29.0323],[79.1644,29.0323],[79.165,29.0289],[79.1624,29.0293],[79.1653,29.0178],[79.1684,29.0195],[79.1758,29.0158],[79.1711,29.0119],[79.1809,29.0129],[79.1859,29.0177],[79.1938,29.0156],[79.1908,29.0232],[79.1943,29.0198],[79.2036,29.0208],[79.2117,29.0276],[79.2316,29.0152],[79.2449,29.0101],[79.251,29.0103],[79.2478,29.0034],[79.2591,28.9925],[79.2923,28.9739],[79.2989,28.9729],[79.3073,28.9665],[79.3109,28.9701],[79.3127,28.969],[79.3125,28.9714],[79.3099,28.9718],[79.3119,28.9771],[79.3215,28.9719],[79.3372,28.9722],[79.3563,28.9678],[79.3647,28.9681],[79.3652,28.9708],[79.361,28.972],[79.3621,28.9815],[79.3676,28.9867],[79.3724,28.9875],[79.3777,28.9758],[79.3771,28.9714],[79.3818,28.9699],[79.3853,28.9518],[79.3906,28.9474],[79.4047,28.9493],[79.408,28.952],[79.4158,28.9439],[79.4156,28.9414],[79.419,28.9401],[79.4189,28.933],[79.4158,28.9279],[79.4279,28.9198],[79.4269,28.9162],[79.4249,28.9168],[79.427,28.9154],[79.4248,28.9155],[79.4269,28.9145],[79.4254,28.9133],[79.4276,28.9128],[79.4251,28.9122],[79.4269,28.9113],[79.4243,28.9085],[79.4253,28.9053],[79.4222,28.9014],[79.4247,28.8975],[79.4229,28.8936],[79.4277,28.893],[79.431,28.8869],[79.425,28.8737],[79.4256,28.8665],[79.4417,28.8617],[79.4452,28.8639],[79.4458,28.8676],[79.4502,28.8678],[79.4516,28.8717],[79.4619,28.8668],[79.4661,28.8678],[79.4772,28.8646],[79.4787,28.8712],[79.4968,28.8729],[79.5099,28.8646],[79.5114,28.8673],[79.5218,28.8648],[79.533,28.8698],[79.5479,28.891],[79.5549,28.8938],[79.5528,28.8959],[79.5565,28.8993],[79.5706,28.8926],[79.5712,28.8865],[79.5776,28.8887],[79.5784,28.8836],[79.5843,28.8792],[79.5802,28.8712],[79.581,28.8662],[79.5735,28.8547],[79.5757,28.8505],[79.5844,28.8463],[79.5875,28.85],[79.5971,28.8513],[79.6039,28.8569],[79.6133,28.8529],[79.6214,28.8644],[79.6261,28.8667],[79.6309,28.8612],[79.636,28.8669],[79.6449,28.8635],[79.6475,28.8671],[79.6561,28.8698],[79.6657,28.8656],[79.6634,28.862],[79.6674,28.8598],[79.6774,28.8593],[79.6819,28.8569],[79.6832,28.85],[79.692,28.8479],[79.69,28.8454],[79.7067,28.8411],[79.7096,28.8512],[79.7186,28.8489],[79.7199,28.8457],[79.7264,28.861],[79.7365,28.8563],[79.7383,28.8588],[79.7457,28.86],[79.7491,28.8718],[79.7593,28.8709],[79.7668,28.875],[79.7834,28.8713],[79.7886,28.8728],[79.7951,28.8853],[79.7998,28.8875],[79.8147,28.8838],[79.8138,28.8866],[79.818,28.8879],[79.8293,28.8845],[79.8284,28.8779],[79.8331,28.8708],[79.8357,28.8715],[79.8354,28.875],[79.8447,28.8751],[79.8458,28.8636],[79.8496,28.8594],[79.8451,28.8554],[79.8453,28.8512],[79.8406,28.8477],[79.8307,28.8553],[79.8325,28.8459],[79.8368,28.84],[79.8309,28.8378],[79.8273,28.8417],[79.8238,28.8391],[79.8279,28.837],[79.8313,28.8308],[79.8372,28.8324],[79.8292,28.8215],[79.8243,28.8073],[79.819,28.8055],[79.8199,28.8122],[79.8165,28.817],[79.8072,28.8057],[79.8088,28.8001],[79.8139,28.7969],[79.8128,28.802],[79.8146,28.8027],[79.82,28.7962],[79.8229,28.7957],[79.8243,28.7983],[79.8269,28.795],[79.8343,28.7986],[79.8383,28.7976],[79.8394,28.8031],[79.8454,28.8049],[79.8455,28.8008],[79.8493,28.7997],[79.8524,28.802],[79.8506,28.8034],[79.8529,28.8062],[79.8503,28.8061],[79.8508,28.8105],[79.8466,28.8105],[79.8529,28.8138],[79.8466,28.8175],[79.8463,28.8232],[79.8486,28.8252],[79.8541,28.8242],[79.851,28.8286],[79.8539,28.8271],[79.8577,28.8307],[79.8614,28.8306],[79.8589,28.8339],[79.8632,28.8403],[79.8647,28.8378],[79.8717,28.8402],[79.8746,28.8364],[79.8726,28.8316],[79.8757,28.8332],[79.8785,28.8304],[79.8786,28.8336],[79.8834,28.834],[79.8821,28.837],[79.8882,28.8366],[79.8939,28.8315],[79.892,28.8257],[79.8941,28.8205],[79.9145,28.8185],[79.9108,28.81],[79.9155,28.8043],[79.9056,28.8031],[79.8785,28.8149],[79.8696,28.8084],[79.8747,28.8024],[79.8731,28.7973],[79.8833,28.7946],[79.8843,28.7901],[79.8973,28.7863],[79.9014,28.782],[79.9065,28.782],[79.9098,28.7855],[79.9178,28.7824],[79.9188,28.7866],[79.9238,28.7868],[79.9265,28.7901],[79.9398,28.7878],[79.9241,28.7732],[79.9306,28.7681],[79.9326,28.7628],[79.9432,28.76],[79.9386,28.7504],[79.9436,28.7487],[79.9465,28.7424],[79.9437,28.7352],[79.9455,28.7306],[79.9542,28.7229],[80.0301,28.7487],[80.0523,28.7783],[80.0617,28.7833],[80.0587,28.7885],[80.0649,28.7945],[80.0681,28.8029],[80.0592,28.8169],[80.0518,28.8204],[80.0598,28.8255],[80.0651,28.8367],[80.0589,28.9158],[80.0772,28.9469],[80.0744,28.9489],[80.074,28.9535],[80.07,28.9529],[80.0656,28.9596],[80.0594,28.961],[80.0598,28.9678],[80.053,28.9827],[80.0507,28.9828],[80.0504,28.9921],[80.055,28.9945],[80.0583,29.0044],[80.052,29.0086],[80.0478,29.0251],[80.0329,29.0519],[80.0313,29.0601],[80.0203,29.0786],[80.0149,29.0931],[80.0072,29.074],[79.9975,29.0674],[79.9814,29.0649],[79.966,29.0487],[79.9459,29.0433],[79.9379,29.0443],[79.9195,29.0306],[79.9153,29.0301],[79.9147,29.0332],[79.9123,29.0334],[79.9116,29.0281],[79.9068,29.0254],[79.9063,29.0199],[79.9012,29.0164],[79.9011,29.0118],[79.897,29.0091],[79.9029,29.007],[79.8936,29.0011],[79.8962,28.9965],[79.8931,28.9946],[79.896,28.9935],[79.8868,28.993],[79.8862,28.9961],[79.8795,28.9936],[79.8782,28.99],[79.8813,28.9857],[79.8778,28.9856],[79.8805,28.9834],[79.876,28.9785],[79.8702,28.9817],[79.8737,28.9836],[79.8755,28.9929],[79.8737,28.992],[79.8691,28.996],[79.8629,29.0099],[79.8576,29.013],[79.8498,29.0097],[79.8478,29.004],[79.8452,29.0048],[79.8464,29.0015],[79.842,28.9962],[79.8379,28.9947],[79.8395,28.9986],[79.8374,29.0006],[79.8294,28.9945],[79.8248,28.9949],[79.8274,28.9892],[79.8242,28.9902],[79.8117,28.9849],[79.8126,28.9927],[79.8099,28.9936],[79.8066,28.9904],[79.8,28.9995],[79.7932,28.9983],[79.7965,29.0136],[79.8064,29.0164],[79.8003,29.025],[79.7919,29.023],[79.7894,29.0235],[79.7886,29.0272],[79.7734,29.0253],[79.7717,29.0274],[79.7765,29.0277],[79.7772,29.0303],[79.7642,29.037],[79.7542,29.0319],[79.7474,29.0321],[79.7505,29.0264],[79.7463,29.0256],[79.7251,29.0269],[79.7202,29.031],[79.7106,29.0311],[79.6945,29.0448],[79.6929,29.0532],[79.6828,29.0631],[79.6738,29.0696],[79.6648,29.0684],[79.6534,29.0743],[79.6519,29.0775],[79.6487,29.0699],[79.6455,29.0703],[79.6387,29.063],[79.6341,29.0616],[79.6326,29.0547],[79.6275,29.0501],[79.5593,29.0529],[79.416,29.0515],[79.4356,29.0836],[79.4013,29.1147],[79.3836,29.1442],[79.3753,29.1519],[79.3632,29.1563],[79.2772,29.2396],[79.2202,29.248],[79.1629,29.2636],[79.1483,29.2713],[79.1344,29.2753],[79.12,29.2693],[79.108,29.2552],[79.0934,29.2595],[79.0959,29.2631],[79.0916,29.2682],[79.0904,29.2751],[79.0759,29.278],[79.0691,29.27],[79.0644,29.2716],[79.0596,29.2688],[79.0552,29.262],[79.0495,29.2617],[79.0418,29.2542],[79.0418,29.2594],[79.0391,29.2628],[79.0405,29.264],[79.03,29.2653],[79.0225,29.2756],[79.0222,29.2822],[79.0125,29.2898],[79.0295,29.3055],[79.023,29.3086],[79.0285,29.3136],[79.0267,29.3182],[79.0187,29.3255],[79.0144,29.3227],[79.0082,29.3251],[78.9995,29.3185],[78.9926,29.3235],[78.9881,29.3212],[78.9859,29.3166],[78.9564,29.318],[78.9582,29.3212],[78.9551,29.3245],[78.9304,29.3356],[78.927,29.3413],[78.8997,29.3456],[78.8929,29.3456],[78.8862,29.3419],[78.8791,29.3517],[78.8758,29.3468],[78.8697,29.3451],[78.8648,29.3496],[78.8584,29.3507],[78.849,29.3444],[78.8402,29.346],[78.8272,29.3547],[78.8283,29.3597],[78.8259,29.3656],[78.83,29.3683]]]},"properties":{"dtname":"Udham Singh Nagar","stname":"UTTARAKHAND","stcode11":"05","dtcode11":"067","year_stat":"2011_c","Shape_Length":662543.2261451472,"Shape_Area":3507423530.2035227,"OBJECTID":677,"test":1,"Dist_LGD":56,"State_LGD":5}}]}