{"type":"FeatureCollection","features":[{"type":"Feature","geometry":{"type":"Polygon","coordinates":[[[72.4832,22.9549],[72.4937,22.961],[72.503,22.9623],[72.5038,22.9666],[72.5119,22.9768],[72.5119,22.9888],[72.5201,22.9918],[72.518,23.0028],[72.5109,22.9973],[72.5071,23.0022],[72.5147,23.0077],[72.5209,23.0084],[72.5207,23.013],[72.5022,23.0121],[72.4913,23.0098],[72.4677,23.0101],[72.4616,23.0241],[72.4597,23.0259],[72.456,23.0398],[72.4509,23.0384],[72.4506,23.0429],[72.4483,23.043],[72.4471,23.0419],[72.4479,23.0406],[72.442,23.0388],[72.4379,23.0292],[72.4381,23.0212],[72.4397,23.0184],[72.4498,23.0173],[72.456,23.0139],[72.4602,23.0078],[72.4612,23.0037],[72.4662,23.0011],[72.4647,22.9939],[72.4673,22.9947],[72.4701,22.9893],[72.4707,22.9756],[72.4726,22.974],[72.473,22.9704],[72.4769,22.9696],[72.4772,22.9662],[72.4786,22.9665],[72.4786,22.9639],[72.4808,22.9628],[72.4807,22.9605],[72.4845,22.9606],[72.4832,22.9549]]]},"properties":{"objectid":22,"statename":"Gujarat","statecode":"24","districtname":"Ahmadabad","districtcode":"474","ulbname":"Ahmadabad (M Corp.)","ulbcode":"802484","wardname":"Sarkhej","wardcode":"33","id":null,"remark":"","st_area(shape)":0.0026802528874262156,"st_perimeter(shape)":0.33677185962764344}},{"type":"Feature","geometry":{"type":"Polygon","coordinates":[[[72.5307,22.9244],[72.5418,22.9354],[72.5432,22.941],[72.5368,22.9484],[72.5333,22.9496],[72.5211,22.9468],[72.5148,22.9492],[72.5133,22.9555],[72.517,22.9668],[72.521,22.9727],[72.5431,22.982],[72.5337,22.9955],[72.5352,22.9959],[72.5345,22.9998],[72.5359,23.0006],[72.5322,22.9995],[72.5284,23.0018],[72.5223,23.0016],[72.5229,23.0043],[72.5179,23.0033],[72.5201,22.9918],[72.512,22.9888],[72.5119,22.9768],[72.5038,22.9666],[72.503,22.9624],[72.4937,22.9611],[72.4824,22.9549],[72.4821,22.9505],[72.4849,22.949],[72.4861,22.9429],[72.4898,22.9398],[72.5008,22.9429],[72.4996,22.9351],[72.4963,22.9323],[72.4957,22.9295],[72.5039,22.9272],[72.505,22.9214],[72.5067,22.9205],[72.508,22.9157],[72.5307,22.9244]]]},"properties":{"objectid":23,"statename":"Gujarat","statecode":"24","districtname":"Ahmadabad","districtcode":"474","ulbname":"Ahmadabad (M Corp.)","ulbcode":"802484","wardname":"Maktampura","wardcode":"34","id":null,"remark":"","st_area(shape)":0.0022848666281374093,"st_perimeter(shape)":0.31921847829175}},{"type":"Feature","geometry":{"type":"Polygon","coordinates":[[[72.5884,22.9728],[72.5502,22.9762],[72.5469,22.9775],[72.5431,22.982],[72.521,22.9727],[72.5151,22.9621],[72.5133,22.9555],[72.5137,22.9517],[72.5148,22.9492],[72.5211,22.9468],[72.5333,22.9496],[72.5368,22.9484],[72.5408,22.9446],[72.5432,22.941],[72.5418,22.9354],[72.5307,22.9244],[72.5383,22.92],[72.5466,22.9232],[72.5575,22.9183],[72.56,22.9151],[72.5639,22.9169],[72.5672,22.9154],[72.5672,22.9143],[72.5701,22.9144],[72.5735,22.9174],[72.5742,22.9211],[72.5868,22.9268],[72.587,22.9289],[72.5921,22.9316],[72.5912,22.9229],[72.5959,22.9215],[72.6005,22.923],[72.601,22.9317],[72.6047,22.9328],[72.606,22.9305],[72.6089,22.9311],[72.6068,22.9494],[72.6092,22.9502],[72.6093,22.9561],[72.6133,22.9557],[72.6133,22.9583],[72.6125,22.9599],[72.606,22.9607],[72.6079,22.9673],[72.6047,22.9724],[72.5998,22.9707],[72.5987,22.9751],[72.5884,22.9728]]]},"properties":{"objectid":24,"statename":"Gujarat","statecode":"24","districtname":"Ahmadabad","districtcode":"474","ulbname":"Ahmadabad (M Corp.)","ulbcode":"802484","wardname":"Lambha","wardcode":"46","id":null,"remark":"","st_area(shape)":0.004287707219216509,"st_perimeter(shape)":0.3464741963576676}},{"type":"Feature","geometry":{"type":"Polygon","coordinates":[[[72.6297,22.9344],[72.6221,22.9435],[72.6187,22.9513],[72.626,22.9499],[72.6327,22.9509],[72.6289,22.9601],[72.6193,22.9813],[72.6109,22.9787],[72.6106,22.9727],[72.606,22.9607],[72.6125,22.9599],[72.6133,22.9557],[72.6093,22.9561],[72.6092,22.9502],[72.6068,22.9494],[72.6089,22.9311],[72.606,22.9305],[72.6105,22.9228],[72.6133,22.9227],[72.6146,22.9203],[72.6199,22.9192],[72.6274,22.9229],[72.6248,22.9278],[72.6248,22.9322],[72.6297,22.9344]]]},"properties":{"objectid":25,"statename":"Gujarat","statecode":"24","districtname":"Ahmadabad","districtcode":"474","ulbname":"Ahmadabad (M Corp.)","ulbcode":"802484","wardname":"Vatva","wardcode":"47","id":null,"remark":"","st_area(shape)":0.0009882150994000448,"st_perimeter(shape)":0.18940738811642985}},{"type":"Feature","geometry":{"type":"Polygon","coordinates":[[[72.6776,22.9856],[72.6688,22.9832],[72.6641,22.9851],[72.6643,22.9864],[72.6617,22.9864],[72.6554,22.99],[72.647,22.999],[72.6428,22.9958],[72.639,22.9951],[72.6386,22.9927],[72.6402,22.9908],[72.6404,22.9878],[72.6374,22.9868],[72.637,22.9834],[72.6286,22.9882],[72.6229,22.983],[72.6193,22.9813],[72.6327,22.9509],[72.626,22.9499],[72.6187,22.9513],[72.6221,22.9435],[72.6297,22.9344],[72.643,22.9298],[72.6569,22.9154],[72.6619,22.9169],[72.6635,22.9226],[72.6626,22.927],[72.6643,22.9303],[72.6689,22.9297],[72.6766,22.9327],[72.6801,22.9324],[72.6804,22.9314],[72.6809,22.9363],[72.6769,22.9386],[72.6765,22.9418],[72.6746,22.9413],[72.6741,22.9439],[72.6704,22.9455],[72.6684,22.9495],[72.6648,22.9476],[72.659,22.9601],[72.6571,22.9599],[72.6537,22.963],[72.6529,22.9673],[72.658,22.9688],[72.66,22.9679],[72.669,22.9741],[72.6747,22.9741],[72.6776,22.9856]]]},"properties":{"objectid":26,"statename":"Gujarat","statecode":"24","districtname":"Ahmadabad","districtcode":"474","ulbname":"Ahmadabad (M Corp.)","ulbcode":"802484","wardname":"Ramol Hathijan","wardcode":"48","id":null,"remark":"","st_area(shape)":0.0026990264638787178,"st_perimeter(shape)":0.32506468945208095}},{"type":"Feature","geometry":{"type":"Polygon","coordinates":[[[72.534,23.0095],[72.5304,23.0091],[72.5294,23.0144],[72.5207,23.013],[72.5209,23.0084],[72.5147,23.0077],[72.5071,23.0022],[72.5109,22.9973],[72.5179,23.0033],[72.5229,23.0043],[72.5223,23.0016],[72.5284,23.0018],[72.5322,22.9995],[72.5388,23.0007],[72.5395,23.0033],[72.5383,23.0076],[72.5341,23.0078],[72.534,23.0095]]]},"properties":{"objectid":27,"statename":"Gujarat","statecode":"24","districtname":"Ahmadabad","districtcode":"474","ulbname":"Ahmadabad (M Corp.)","ulbcode":"802484","wardname":"Vejalpur","wardcode":"32","id":null,"remark":"","st_area(shape)":0.0002580767534533992,"st_perimeter(shape)":0.09344974080911622}},{"type":"Feature","geometry":{"type":"Polygon","coordinates":[[[72.5431,22.982],[72.553,22.9869],[72.5643,22.9962],[72.5577,23.0],[72.5455,23.0122],[72.534,23.0095],[72.5341,23.0078],[72.5383,23.0076],[72.5395,23.0033],[72.5388,23.0007],[72.5345,22.9998],[72.5352,22.9959],[72.5337,22.9955],[72.5431,22.982]]]},"properties":{"objectid":28,"statename":"Gujarat","statecode":"24","districtname":"Ahmadabad","districtcode":"474","ulbname":"Ahmadabad (M Corp.)","ulbcode":"802484","wardname":"Vasna","wardcode":"31","id":null,"remark":"","st_area(shape)":0.0004936412439611039,"st_perimeter(shape)":0.10354984577007262}},{"type":"Feature","geometry":{"type":"Polygon","coordinates":[[[72.5755,23.0224],[72.553,23.0193],[72.5451,23.014],[72.5455,23.0122],[72.5577,23.0],[72.5643,22.9962],[72.5723,23.0057],[72.5749,23.0111],[72.5759,23.0142],[72.5755,23.0224]]]},"properties":{"objectid":29,"statename":"Gujarat","statecode":"24","districtname":"Ahmadabad","districtcode":"474","ulbname":"Ahmadabad (M Corp.)","ulbcode":"802484","wardname":"Paldi","wardcode":"30","id":null,"remark":"","st_area(shape)":0.000500586848479147,"st_perimeter(shape)":0.08985384793863888}},{"type":"Feature","geometry":{"type":"Polygon","coordinates":[[[72.581,23.01],[72.5749,23.0112],[72.5723,23.0057],[72.5643,22.9962],[72.553,22.9869],[72.5431,22.982],[72.5454,22.9788],[72.5502,22.9762],[72.5884,22.9728],[72.5858,22.979],[72.586,22.9817],[72.583,22.9853],[72.5826,22.9902],[72.5794,22.9958],[72.5818,22.9962],[72.5822,22.9994],[72.5836,23.0001],[72.5852,23.0046],[72.5867,23.0048],[72.5865,23.0076],[72.5804,23.0078],[72.581,23.01]]]},"properties":{"objectid":30,"statename":"Gujarat","statecode":"24","districtname":"Ahmadabad","districtcode":"474","ulbname":"Ahmadabad (M Corp.)","ulbcode":"802484","wardname":"Beherampura","wardcode":"35","id":null,"remark":"","st_area(shape)":0.0008876260856286077,"st_perimeter(shape)":0.14860601399579876}},{"type":"Feature","geometry":{"type":"Polygon","coordinates":[[[72.5924,23.0114],[72.5913,23.0138],[72.581,23.01],[72.5804,23.0078],[72.5865,23.0076],[72.5867,23.0048],[72.5852,23.0046],[72.5836,23.0001],[72.5822,22.9994],[72.5818,22.9962],[72.5794,22.9958],[72.5826,22.9902],[72.583,22.9853],[72.5852,22.9831],[72.5904,22.9838],[72.5916,22.9867],[72.5964,22.9869],[72.595,22.9913],[72.5933,22.9917],[72.5924,23.0114]]]},"properties":{"objectid":31,"statename":"Gujarat","statecode":"24","districtname":"Ahmadabad","districtcode":"474","ulbname":"Ahmadabad (M Corp.)","ulbcode":"802484","wardname":"Danilimda","wardcode":"36","id":null,"remark":"","st_area(shape)":0.0003067448569408111,"st_perimeter(shape)":0.09286945574986459}},{"type":"Feature","geometry":{"type":"Polygon","coordinates":[[[72.6113,22.987],[72.5958,22.989],[72.5964,22.9869],[72.5916,22.9867],[72.5904,22.9838],[72.5852,22.9831],[72.5884,22.9728],[72.5987,22.9751],[72.5998,22.9707],[72.6047,22.9724],[72.6079,22.9673],[72.6106,22.9727],[72.6113,22.987]]]},"properties":{"objectid":32,"statename":"Gujarat","statecode":"24","districtname":"Ahmadabad","districtcode":"474","ulbname":"Ahmadabad (M Corp.)","ulbcode":"802484","wardname":"Isanpur","wardcode":"45","id":null,"remark":"","st_area(shape)":0.00035919686095975113,"st_perimeter(shape)":0.08894165207437878}},{"type":"Feature","geometry":{"type":"Polygon","coordinates":[[[72.6113,22.987],[72.6099,22.9887],[72.6109,22.9919],[72.6115,22.9934],[72.614,22.9929],[72.605,23.0134],[72.5924,23.0114],[72.5933,22.9917],[72.595,22.9913],[72.5958,22.989],[72.6113,22.987]]]},"properties":{"objectid":33,"statename":"Gujarat","statecode":"24","districtname":"Ahmadabad","districtcode":"474","ulbname":"Ahmadabad (M Corp.)","ulbcode":"802484","wardname":"Maninagar","wardcode":"37","id":null,"remark":"","st_area(shape)":0.00039332627066878507,"st_perimeter(shape)":0.08557065472620705}},{"type":"Feature","geometry":{"type":"Polygon","coordinates":[[[72.6091,23.0137],[72.605,23.0134],[72.614,22.9929],[72.6115,22.9934],[72.6101,22.9899],[72.6113,22.987],[72.6109,22.9787],[72.6193,22.9813],[72.6251,22.9847],[72.6204,22.9851],[72.6201,22.9867],[72.6175,22.9881],[72.6207,22.9915],[72.623,22.9916],[72.6235,22.9944],[72.6257,22.9934],[72.6263,22.9973],[72.6246,22.9989],[72.6236,23.0032],[72.62,23.0041],[72.6193,23.0018],[72.6143,23.0023],[72.6154,23.0046],[72.6135,23.0064],[72.6166,23.0107],[72.6096,23.0103],[72.6091,23.0137]]]},"properties":{"objectid":34,"statename":"Gujarat","statecode":"24","districtname":"Ahmadabad","districtcode":"474","ulbname":"Ahmadabad (M Corp.)","ulbcode":"802484","wardname":"Khokhra","wardcode":"44","id":null,"remark":"","st_area(shape)":0.00032377976218661396,"st_perimeter(shape)":0.12641363508294406}},{"type":"Feature","geometry":{"type":"Polygon","coordinates":[[[72.6385,23.0144],[72.6322,23.0122],[72.633,23.0144],[72.6292,23.0141],[72.6271,23.0174],[72.6133,23.0171],[72.6128,23.0159],[72.6164,23.0157],[72.619,23.0142],[72.6185,23.0131],[72.6091,23.0137],[72.609,23.0123],[72.6096,23.0103],[72.6166,23.0107],[72.6135,23.0064],[72.6154,23.0046],[72.6143,23.0023],[72.6193,23.0018],[72.62,23.0041],[72.6226,23.0036],[72.6246,22.9989],[72.6278,23.008],[72.6371,23.0049],[72.6385,23.0144]]]},"properties":{"objectid":35,"statename":"Gujarat","statecode":"24","districtname":"Ahmadabad","districtcode":"474","ulbname":"Ahmadabad (M Corp.)","ulbcode":"802484","wardname":"Amraiwadi","wardcode":"39","id":null,"remark":"","st_area(shape)":0.00027468058422999735,"st_perimeter(shape)":0.11634065190548896}},{"type":"Feature","geometry":{"type":"Polygon","coordinates":[[[72.6286,22.9882],[72.6329,22.9927],[72.6363,23.0025],[72.6271,23.0044],[72.6246,22.9989],[72.6263,22.9973],[72.6257,22.9934],[72.6235,22.9944],[72.623,22.9916],[72.6207,22.9915],[72.6175,22.9881],[72.6201,22.9867],[72.6204,22.9851],[72.6251,22.9847],[72.6286,22.9882]]]},"properties":{"objectid":36,"statename":"Gujarat","statecode":"24","districtname":"Ahmadabad","districtcode":"474","ulbname":"Ahmadabad (M Corp.)","ulbcode":"802484","wardname":"Bhaipura-Hatkeshwar","wardcode":"43","id":null,"remark":"","st_area(shape)":0.00017102555475054156,"st_perimeter(shape)":0.06552240742785835}},{"type":"Feature","geometry":{"type":"Polygon","coordinates":[[[72.6849,23.0212],[72.6752,23.0198],[72.6751,23.0212],[72.6721,23.021],[72.6716,23.0194],[72.6679,23.0208],[72.6641,23.0194],[72.6598,23.0196],[72.6598,23.0181],[72.654,23.0189],[72.655,23.0098],[72.6514,23.0108],[72.6428,23.0048],[72.6445,23.003],[72.6455,22.9982],[72.6468,22.9979],[72.647,22.999],[72.6554,22.99],[72.6617,22.9864],[72.6643,22.9864],[72.6641,22.9851],[72.6688,22.9832],[72.684,22.9888],[72.6868,22.9921],[72.6893,22.993],[72.689,22.9959],[72.6908,23.0005],[72.6944,23.0037],[72.6894,23.0069],[72.6852,23.0118],[72.681,23.0114],[72.6811,23.0159],[72.6849,23.0212]]]},"properties":{"objectid":37,"statename":"Gujarat","statecode":"24","districtname":"Ahmadabad","districtcode":"474","ulbname":"Ahmadabad (M Corp.)","ulbcode":"802484","wardname":"Vastral","wardcode":"41","id":null,"remark":"","st_area(shape)":0.001227557743768337,"st_perimeter(shape)":0.16716842222189185}},{"type":"Feature","geometry":{"type":"Polygon","coordinates":[[[72.6418,23.0148],[72.6385,23.0144],[72.6371,23.0049],[72.6278,23.008],[72.6271,23.0044],[72.6363,23.0025],[72.6329,22.9927],[72.6286,22.9882],[72.637,22.9834],[72.6374,22.9868],[72.6404,22.9878],[72.6387,22.9945],[72.6428,22.9958],[72.6455,22.9981],[72.6431,23.0054],[72.6514,23.0108],[72.6449,23.0131],[72.6447,23.0148],[72.6418,23.0148]]]},"properties":{"objectid":38,"statename":"Gujarat","statecode":"24","districtname":"Ahmadabad","districtcode":"474","ulbname":"Ahmadabad (M Corp.)","ulbcode":"802484","wardname":"Indrapuri","wardcode":"42","id":null,"remark":"","st_area(shape)":0.0002831430330255521,"st_perimeter(shape)":0.11458476385426491}},{"type":"Feature","geometry":{"type":"Polygon","coordinates":[[[72.6418,23.0148],[72.6424,23.0185],[72.6483,23.022],[72.6495,23.0281],[72.6487,23.0306],[72.659,23.0322],[72.6582,23.0352],[72.6603,23.036],[72.6593,23.0364],[72.6594,23.0387],[72.6577,23.0386],[72.6574,23.0409],[72.6465,23.0383],[72.6404,23.0389],[72.6387,23.0268],[72.6258,23.0218],[72.626,23.0206],[72.6282,23.0201],[72.6384,23.0206],[72.6385,23.0144],[72.6418,23.0148]]]},"properties":{"objectid":39,"statename":"Gujarat","statecode":"24","districtname":"Ahmadabad","districtcode":"474","ulbname":"Ahmadabad (M Corp.)","ulbcode":"802484","wardname":"Virat Nagar","wardcode":"25","id":null,"remark":"","st_area(shape)":0.0003335699386203613,"st_perimeter(shape)":0.11026972767971382}},{"type":"Feature","geometry":{"type":"Polygon","coordinates":[[[72.6541,23.0406],[72.6574,23.0409],[72.6577,23.0386],[72.6594,23.0387],[72.6593,23.0364],[72.6603,23.036],[72.6582,23.0352],[72.659,23.0322],[72.6669,23.0328],[72.6719,23.0316],[72.6738,23.0281],[72.6794,23.0278],[72.6795,23.0263],[72.6863,23.026],[72.6868,23.0338],[72.6828,23.0342],[72.6811,23.0375],[72.6816,23.0466],[72.6805,23.0478],[72.6826,23.0545],[72.6801,23.0584],[72.6807,23.0643],[72.6766,23.068],[72.6769,23.0694],[72.6643,23.0713],[72.6639,23.0695],[72.6623,23.0687],[72.6635,23.0641],[72.6625,23.064],[72.6627,23.0606],[72.6598,23.0604],[72.6577,23.0497],[72.6546,23.0501],[72.654,23.0487],[72.6554,23.046],[72.6541,23.0406]]]},"properties":{"objectid":40,"statename":"Gujarat","statecode":"24","districtname":"Ahmadabad","districtcode":"474","ulbname":"Ahmadabad (M Corp.)","ulbcode":"802484","wardname":"Nikol","wardcode":"24","id":null,"remark":"","st_area(shape)":0.0009151068711483262,"st_perimeter(shape)":0.1576688333119854}},{"type":"Feature","geometry":{"type":"Polygon","coordinates":[[[72.6849,23.0212],[72.6863,23.026],[72.6795,23.0263],[72.6794,23.0278],[72.6738,23.0281],[72.6719,23.0316],[72.6658,23.0328],[72.6536,23.0319],[72.6487,23.0306],[72.6495,23.0281],[72.6483,23.022],[72.6424,23.0185],[72.6418,23.0148],[72.6447,23.0148],[72.6449,23.0131],[72.655,23.0098],[72.654,23.0189],[72.6598,23.0181],[72.6598,23.0196],[72.6641,23.0194],[72.6679,23.0208],[72.6716,23.0194],[72.6721,23.021],[72.6751,23.0212],[72.6752,23.0198],[72.6849,23.0212]]]},"properties":{"objectid":41,"statename":"Gujarat","statecode":"24","districtname":"Ahmadabad","districtcode":"474","ulbname":"Ahmadabad (M Corp.)","ulbcode":"802484","wardname":"Odhav","wardcode":"40","id":null,"remark":"","st_area(shape)":0.0004807737923072442,"st_perimeter(shape)":0.1306937648918862}},{"type":"Feature","geometry":{"type":"Polygon","coordinates":[[[72.6807,23.1065],[72.678,23.1062],[72.6725,23.1086],[72.6649,23.0945],[72.6599,23.0968],[72.6559,23.0946],[72.6518,23.0982],[72.6516,23.1018],[72.6476,23.1024],[72.6435,23.0962],[72.6383,23.0928],[72.6308,23.091],[72.6085,23.091],[72.6061,23.0875],[72.6026,23.0871],[72.6026,23.0848],[72.6042,23.0858],[72.6151,23.083],[72.6178,23.0796],[72.6289,23.0784],[72.6295,23.0794],[72.6344,23.08],[72.6375,23.0773],[72.6383,23.0803],[72.643,23.0822],[72.6463,23.0799],[72.6456,23.0772],[72.6473,23.0757],[72.6807,23.1065]]]},"properties":{"objectid":42,"statename":"Gujarat","statecode":"24","districtname":"Ahmadabad","districtcode":"474","ulbname":"Ahmadabad (M Corp.)","ulbcode":"802484","wardname":"Sardarnagar","wardcode":"11","id":null,"remark":"","st_area(shape)":0.0008005999902982061,"st_perimeter(shape)":0.2094735631487049}},{"type":"Feature","geometry":{"type":"Polygon","coordinates":[[[72.6769,23.0694],[72.6854,23.069],[72.7009,23.0731],[72.6994,23.0777],[72.69,23.0769],[72.6881,23.0778],[72.6857,23.0865],[72.6918,23.0883],[72.6949,23.091],[72.6943,23.0937],[72.69,23.1027],[72.6831,23.1024],[72.6809,23.1034],[72.6807,23.1065],[72.6517,23.0798],[72.6534,23.0782],[72.6431,23.0651],[72.6428,23.0571],[72.6466,23.0568],[72.6478,23.0546],[72.6513,23.0563],[72.6498,23.0589],[72.6523,23.0632],[72.6559,23.0632],[72.6559,23.0602],[72.6627,23.0606],[72.6625,23.064],[72.6635,23.0641],[72.6623,23.0687],[72.6639,23.0695],[72.6643,23.0713],[72.6769,23.0694]]]},"properties":{"objectid":43,"statename":"Gujarat","statecode":"24","districtname":"Ahmadabad","districtcode":"474","ulbname":"Ahmadabad (M Corp.)","ulbcode":"802484","wardname":"Naroda","wardcode":"12","id":null,"remark":"","st_area(shape)":0.0012575599627332502,"st_perimeter(shape)":0.21217319158394085}},{"type":"Feature","geometry":{"type":"Polygon","coordinates":[[[72.641,23.0461],[72.6431,23.0651],[72.6534,23.0782],[72.6517,23.0798],[72.6269,23.0569],[72.6323,23.0502],[72.641,23.0461]]]},"properties":{"objectid":44,"statename":"Gujarat","statecode":"24","districtname":"Ahmadabad","districtcode":"474","ulbname":"Ahmadabad (M Corp.)","ulbcode":"802484","wardname":"Saijpur-Bogha","wardcode":"13","id":null,"remark":"","st_area(shape)":0.00027122206429289387,"st_perimeter(shape)":0.09064104561148867}},{"type":"Feature","geometry":{"type":"Polygon","coordinates":[[[72.6269,23.0569],[72.6473,23.0757],[72.6456,23.0772],[72.6463,23.0799],[72.643,23.0822],[72.6383,23.0803],[72.6379,23.0775],[72.6369,23.0778],[72.6324,23.0716],[72.632,23.0666],[72.6282,23.0653],[72.629,23.0635],[72.6262,23.0605],[72.6238,23.0599],[72.6172,23.0641],[72.6153,23.0604],[72.6269,23.0569]]]},"properties":{"objectid":45,"statename":"Gujarat","statecode":"24","districtname":"Ahmadabad","districtcode":"474","ulbname":"Ahmadabad (M Corp.)","ulbcode":"802484","wardname":"Kubernagar","wardcode":"14","id":null,"remark":"","st_area(shape)":0.00020535115508790995,"st_perimeter(shape)":0.09944751172300523}},{"type":"Feature","geometry":{"type":"Polygon","coordinates":[[[72.6598,23.0604],[72.6559,23.0602],[72.6559,23.0632],[72.6523,23.0632],[72.6498,23.0589],[72.6513,23.0563],[72.6478,23.0546],[72.6466,23.0568],[72.6428,23.0571],[72.6404,23.0389],[72.6465,23.0383],[72.6541,23.0406],[72.6554,23.046],[72.654,23.0487],[72.6546,23.0501],[72.6577,23.0497],[72.6598,23.0604]]]},"properties":{"objectid":46,"statename":"Gujarat","statecode":"24","districtname":"Ahmadabad","districtcode":"474","ulbname":"Ahmadabad (M Corp.)","ulbcode":"802484","wardname":"Thakkarbapa Nagar","wardcode":"23","id":null,"remark":"","st_area(shape)":0.0002973357254385589,"st_perimeter(shape)":0.08780464057689866}},{"type":"Feature","geometry":{"type":"Polygon","coordinates":[[[72.6269,23.0569],[72.6153,23.0604],[72.6075,23.0487],[72.6073,23.0459],[72.6047,23.0467],[72.6044,23.0454],[72.6015,23.0454],[72.5999,23.039],[72.611,23.0421],[72.6269,23.0569]]]},"properties":{"objectid":47,"statename":"Gujarat","statecode":"24","districtname":"Ahmadabad","districtcode":"474","ulbname":"Ahmadabad (M Corp.)","ulbcode":"802484","wardname":"Asarva","wardcode":"15","id":null,"remark":"","st_area(shape)":0.00021241140570874234,"st_perimeter(shape)":0.07716275242880889}},{"type":"Feature","geometry":{"type":"Polygon","coordinates":[[[72.6258,23.0218],[72.614,23.0221],[72.6146,23.0238],[72.6134,23.0259],[72.6089,23.0262],[72.6065,23.0246],[72.6038,23.0269],[72.6017,23.0266],[72.6023,23.0198],[72.605,23.0134],[72.6071,23.0143],[72.6153,23.0126],[72.6185,23.0131],[72.619,23.0142],[72.6164,23.0157],[72.6128,23.0159],[72.6133,23.0171],[72.6248,23.0175],[72.6271,23.0174],[72.6292,23.0141],[72.633,23.0144],[72.6322,23.0122],[72.6385,23.0144],[72.6384,23.0206],[72.6282,23.0201],[72.626,23.0206],[72.6258,23.0218]]]},"properties":{"objectid":48,"statename":"Gujarat","statecode":"24","districtname":"Ahmadabad","districtcode":"474","ulbname":"Ahmadabad (M Corp.)","ulbcode":"802484","wardname":"Gomtipur","wardcode":"38","id":null,"remark":"","st_area(shape)":0.0002827356298516849,"st_perimeter(shape)":0.11914912987643402}},{"type":"Feature","geometry":{"type":"Polygon","coordinates":[[[72.6258,23.0218],[72.6271,23.0222],[72.6269,23.0284],[72.6219,23.0284],[72.6216,23.0348],[72.6228,23.0381],[72.6219,23.0385],[72.6232,23.0397],[72.6122,23.0365],[72.6103,23.0355],[72.6107,23.0336],[72.6036,23.0318],[72.6018,23.0332],[72.6017,23.0266],[72.6038,23.0269],[72.6065,23.0246],[72.6089,23.0262],[72.6134,23.0259],[72.6146,23.0238],[72.614,23.0221],[72.6258,23.0218]]]},"properties":{"objectid":49,"statename":"Gujarat","statecode":"24","districtname":"Ahmadabad","districtcode":"474","ulbname":"Ahmadabad (M Corp.)","ulbcode":"802484","wardname":"Saraspur-Rakhial","wardcode":"27","id":null,"remark":"","st_area(shape)":0.00026428287239229747,"st_perimeter(shape)":0.0882788559915184}},{"type":"Feature","geometry":{"type":"Polygon","coordinates":[[[72.6404,23.0389],[72.6291,23.0388],[72.6241,23.0404],[72.6219,23.0385],[72.6228,23.0381],[72.6216,23.0348],[72.6219,23.0284],[72.6269,23.0284],[72.6271,23.0222],[72.6387,23.0268],[72.6404,23.0389]]]},"properties":{"objectid":50,"statename":"Gujarat","statecode":"24","districtname":"Ahmadabad","districtcode":"474","ulbname":"Ahmadabad (M Corp.)","ulbcode":"802484","wardname":"Bapunagar","wardcode":"26","id":null,"remark":"","st_area(shape)":0.00023387535859431744,"st_perimeter(shape)":0.06699731933704814}},{"type":"Feature","geometry":{"type":"Polygon","coordinates":[[[72.641,23.0461],[72.6323,23.0502],[72.6269,23.0569],[72.611,23.0421],[72.5997,23.0391],[72.6014,23.0332],[72.6031,23.0331],[72.6036,23.0318],[72.6107,23.0336],[72.6103,23.0355],[72.615,23.0377],[72.6241,23.0404],[72.6291,23.0388],[72.6404,23.0389],[72.641,23.0461]]]},"properties":{"objectid":51,"statename":"Gujarat","statecode":"24","districtname":"Ahmadabad","districtcode":"474","ulbname":"Ahmadabad (M Corp.)","ulbcode":"802484","wardname":"India Colony","wardcode":"22","id":null,"remark":"","st_area(shape)":0.0004068029299254237,"st_perimeter(shape)":0.1100196690568605}},{"type":"Feature","geometry":{"type":"Polygon","coordinates":[[[72.6128,23.0565],[72.6089,23.0592],[72.5984,23.0599],[72.5958,23.0649],[72.5895,23.0616],[72.5906,23.0545],[72.5932,23.0492],[72.5925,23.0479],[72.5897,23.0479],[72.588,23.0379],[72.593,23.0376],[72.5935,23.0406],[72.5965,23.0401],[72.597,23.0349],[72.5988,23.031],[72.6014,23.0332],[72.5997,23.0391],[72.6015,23.0454],[72.6044,23.0454],[72.6047,23.0467],[72.6073,23.0459],[72.6075,23.0487],[72.6128,23.0565]]]},"properties":{"objectid":52,"statename":"Gujarat","statecode":"24","districtname":"Ahmadabad","districtcode":"474","ulbname":"Ahmadabad (M Corp.)","ulbcode":"802484","wardname":"Shahibag","wardcode":"16","id":null,"remark":"","st_area(shape)":0.00039703939593069965,"st_perimeter(shape)":0.11481525445729011}},{"type":"Feature","geometry":{"type":"Polygon","coordinates":[[[72.5895,23.0616],[72.5893,23.063],[72.5828,23.0594],[72.5775,23.0537],[72.5738,23.04],[72.5739,23.0338],[72.5769,23.0343],[72.5775,23.0315],[72.5789,23.0312],[72.5799,23.0393],[72.588,23.0379],[72.5897,23.0479],[72.5925,23.0479],[72.5932,23.0492],[72.5906,23.0545],[72.5895,23.0616]]]},"properties":{"objectid":53,"statename":"Gujarat","statecode":"24","districtname":"Ahmadabad","districtcode":"474","ulbname":"Ahmadabad (M Corp.)","ulbcode":"802484","wardname":"Shahpur","wardcode":"17","id":null,"remark":"","st_area(shape)":0.0003306017517228429,"st_perimeter(shape)":0.08898101069498182}},{"type":"Feature","geometry":{"type":"Polygon","coordinates":[[[72.5832,23.0264],[72.5836,23.0305],[72.5861,23.0347],[72.5798,23.037],[72.5789,23.0312],[72.577,23.0318],[72.5769,23.0343],[72.5739,23.0338],[72.5755,23.0224],[72.5759,23.0142],[72.5749,23.0112],[72.581,23.01],[72.5913,23.0138],[72.5912,23.0167],[72.5857,23.0201],[72.5858,23.0166],[72.5832,23.0158],[72.5842,23.0234],[72.5832,23.0264]]]},"properties":{"objectid":54,"statename":"Gujarat","statecode":"24","districtname":"Ahmadabad","districtcode":"474","ulbname":"Ahmadabad (M Corp.)","ulbcode":"802484","wardname":"Jamalpur","wardcode":"29","id":null,"remark":"","st_area(shape)":0.00025189940847956786,"st_perimeter(shape)":0.09783891848014761}},{"type":"Feature","geometry":{"type":"Polygon","coordinates":[[[72.6018,23.0332],[72.595,23.0295],[72.5936,23.0318],[72.5909,23.0323],[72.5907,23.0298],[72.589,23.0278],[72.5832,23.0264],[72.5842,23.0234],[72.5832,23.0158],[72.5858,23.0166],[72.5857,23.0201],[72.5912,23.0167],[72.5924,23.0114],[72.605,23.0134],[72.6019,23.0215],[72.6018,23.0332]]]},"properties":{"objectid":55,"statename":"Gujarat","statecode":"24","districtname":"Ahmadabad","districtcode":"474","ulbname":"Ahmadabad (M Corp.)","ulbcode":"802484","wardname":"Khadia","wardcode":"28","id":null,"remark":"","st_area(shape)":0.0002907372210173393,"st_perimeter(shape)":0.08903796589614076}},{"type":"Feature","geometry":{"type":"Polygon","coordinates":[[[72.598,23.0308],[72.5965,23.0401],[72.5935,23.0406],[72.593,23.0376],[72.5799,23.0393],[72.5798,23.037],[72.5861,23.0347],[72.5836,23.0305],[72.5832,23.0264],[72.589,23.0278],[72.5907,23.0298],[72.5909,23.0323],[72.5936,23.0318],[72.595,23.0295],[72.598,23.0308]]]},"properties":{"objectid":56,"statename":"Gujarat","statecode":"24","districtname":"Ahmadabad","districtcode":"474","ulbname":"Ahmadabad (M Corp.)","ulbcode":"802484","wardname":"Dariyapur","wardcode":"21","id":null,"remark":"","st_area(shape)":0.0001334123997222228,"st_perimeter(shape)":0.0687198627709543}},{"type":"Feature","geometry":{"type":"Polygon","coordinates":[[[72.5638,23.1163],[72.568,23.1241],[72.5687,23.1289],[72.5657,23.1355],[72.5583,23.1393],[72.5562,23.1359],[72.5489,23.1329],[72.5482,23.1309],[72.5413,23.1314],[72.5352,23.1106],[72.5478,23.1063],[72.54,23.0837],[72.5352,23.0812],[72.5324,23.0838],[72.5311,23.0756],[72.5385,23.0765],[72.5411,23.074],[72.5561,23.0805],[72.5536,23.0924],[72.5579,23.1026],[72.5607,23.1049],[72.5671,23.1039],[72.5628,23.115],[72.5628,23.1163],[72.5638,23.1163]]]},"properties":{"objectid":57,"statename":"Gujarat","statecode":"24","districtname":"Ahmadabad","districtcode":"474","ulbname":"Ahmadabad (M Corp.)","ulbcode":"802484","wardname":"Chandlodia","wardcode":"2","id":null,"remark":"","st_area(shape)":0.00120512491288832,"st_perimeter(shape)":0.20517239794855435}},{"type":"Feature","geometry":{"type":"Polygon","coordinates":[[[72.6131,23.1178],[72.6142,23.1232],[72.6123,23.1231],[72.612,23.126],[72.6105,23.1274],[72.6085,23.129],[72.5975,23.1308],[72.5969,23.1318],[72.5882,23.1291],[72.5869,23.1304],[72.5831,23.13],[72.5782,23.1179],[72.5713,23.1223],[72.5699,23.1165],[72.5678,23.1156],[72.5628,23.1163],[72.5628,23.115],[72.568,23.1031],[72.5752,23.1005],[72.5779,23.1028],[72.5822,23.1017],[72.5857,23.1021],[72.5859,23.1038],[72.587,23.1036],[72.5865,23.1014],[72.5874,23.1015],[72.5884,23.0982],[72.6131,23.1178]]]},"properties":{"objectid":58,"statename":"Gujarat","statecode":"24","districtname":"Ahmadabad","districtcode":"474","ulbname":"Ahmadabad (M Corp.)","ulbcode":"802484","wardname":"Chandkheda","wardcode":"3","id":null,"remark":"","st_area(shape)":0.0010058103620275136,"st_perimeter(shape)":0.1564107892387587}},{"type":"Feature","geometry":{"type":"Polygon","coordinates":[[[72.5671,23.1039],[72.5607,23.1049],[72.5579,23.1026],[72.5536,23.0924],[72.5561,23.0805],[72.5718,23.0862],[72.5675,23.0778],[72.5725,23.0705],[72.5766,23.0687],[72.5827,23.0701],[72.5843,23.0722],[72.5859,23.0716],[72.5873,23.0729],[72.5863,23.0779],[72.5819,23.0842],[72.5826,23.0878],[72.5789,23.0967],[72.5765,23.0996],[72.5671,23.1039]]]},"properties":{"objectid":59,"statename":"Gujarat","statecode":"24","districtname":"Ahmadabad","districtcode":"474","ulbname":"Ahmadabad (M Corp.)","ulbcode":"802484","wardname":"Ranip","wardcode":"5","id":null,"remark":"","st_area(shape)":0.0007054098849001746,"st_perimeter(shape)":0.1269253837549481}},{"type":"Feature","geometry":{"type":"Polygon","coordinates":[[[72.5893,23.063],[72.5966,23.0682],[72.5988,23.0722],[72.6013,23.089],[72.6108,23.0928],[72.6097,23.1006],[72.6115,23.1046],[72.6131,23.1044],[72.6136,23.1078],[72.6167,23.1094],[72.6185,23.1148],[72.6127,23.115],[72.6131,23.1178],[72.5884,23.0982],[72.5874,23.1015],[72.5865,23.1014],[72.587,23.1036],[72.5859,23.1038],[72.5857,23.1021],[72.5822,23.1017],[72.5779,23.1028],[72.5752,23.1005],[72.5776,23.0986],[72.5811,23.0928],[72.5826,23.0878],[72.5819,23.0842],[72.5863,23.0779],[72.5893,23.063]]]},"properties":{"objectid":60,"statename":"Gujarat","statecode":"24","districtname":"Ahmadabad","districtcode":"474","ulbname":"Ahmadabad (M Corp.)","ulbcode":"802484","wardname":"Sabarmati","wardcode":"4","id":null,"remark":"","st_area(shape)":0.0008753391509889891,"st_perimeter(shape)":0.1759893676211242}},{"type":"Feature","geometry":{"type":"Polygon","coordinates":[[[72.5893,23.063],[72.5885,23.0697],[72.5876,23.0695],[72.5868,23.0724],[72.5766,23.0687],[72.571,23.0723],[72.5655,23.0721],[72.5674,23.0647],[72.5667,23.0623],[72.568,23.0594],[72.5718,23.0561],[72.5715,23.0523],[72.5663,23.0531],[72.5668,23.0548],[72.5625,23.0552],[72.5645,23.0469],[72.5618,23.0475],[72.5619,23.0453],[72.5639,23.0395],[72.5738,23.04],[72.5775,23.0537],[72.5828,23.0594],[72.5893,23.063]]]},"properties":{"objectid":61,"statename":"Gujarat","statecode":"24","districtname":"Ahmadabad","districtcode":"474","ulbname":"Ahmadabad (M Corp.)","ulbcode":"802484","wardname":"S.P.Stadium","wardcode":"10","id":null,"remark":"","st_area(shape)":0.0004617575424447387,"st_perimeter(shape)":0.12802237359609947}},{"type":"Feature","geometry":{"type":"Polygon","coordinates":[[[72.5587,23.0707],[72.5561,23.0805],[72.5374,23.0724],[72.5369,23.0695],[72.5334,23.0681],[72.5324,23.0663],[72.5359,23.0653],[72.5341,23.0621],[72.5313,23.0636],[72.5308,23.0611],[72.5386,23.0582],[72.5387,23.0596],[72.5444,23.0614],[72.5471,23.0676],[72.5587,23.0707]]]},"properties":{"objectid":63,"statename":"Gujarat","statecode":"24","districtname":"Ahmadabad","districtcode":"474","ulbname":"Ahmadabad (M Corp.)","ulbcode":"802484","wardname":"Ghatlodia","wardcode":"7","id":null,"remark":"","st_area(shape)":0.0002667970467921985,"st_perimeter(shape)":0.08753217520834908}},{"type":"Feature","geometry":{"type":"Polygon","coordinates":[[[72.5625,23.0552],[72.5587,23.0707],[72.5471,23.0676],[72.5444,23.0614],[72.5387,23.0596],[72.5386,23.0582],[72.5362,23.0587],[72.536,23.0576],[72.5378,23.0518],[72.5468,23.052],[72.5439,23.0476],[72.5459,23.0473],[72.5645,23.0469],[72.5625,23.0552]]]},"properties":{"objectid":64,"statename":"Gujarat","statecode":"24","districtname":"Ahmadabad","districtcode":"474","ulbname":"Ahmadabad (M Corp.)","ulbcode":"802484","wardname":"Naranpura","wardcode":"9","id":null,"remark":"","st_area(shape)":0.0004317105037929524,"st_perimeter(shape)":0.09633409491469526}},{"type":"Feature","geometry":{"type":"Polygon","coordinates":[[[72.5739,23.0338],[72.5738,23.04],[72.5639,23.0395],[72.5618,23.0475],[72.5439,23.0476],[72.5308,23.026],[72.534,23.0234],[72.5362,23.0184],[72.5364,23.0157],[72.5349,23.0143],[72.534,23.0095],[72.5455,23.0122],[72.5451,23.014],[72.553,23.0193],[72.5755,23.0224],[72.5739,23.0338]]]},"properties":{"objectid":65,"statename":"Gujarat","statecode":"24","districtname":"Ahmadabad","districtcode":"474","ulbname":"Ahmadabad (M Corp.)","ulbcode":"802484","wardname":"Navrangpura","wardcode":"18","id":null,"remark":"","st_area(shape)":0.0010583309949542925,"st_perimeter(shape)":0.14632955803421055}},{"type":"Feature","geometry":{"type":"Polygon","coordinates":[[[72.5439,23.0476],[72.5468,23.052],[72.5337,23.0523],[72.5336,23.0458],[72.5305,23.046],[72.5277,23.0403],[72.5179,23.0444],[72.5158,23.0463],[72.5165,23.0478],[72.506,23.0458],[72.5047,23.0423],[72.4943,23.0399],[72.4927,23.0376],[72.4894,23.0381],[72.49,23.0441],[72.4882,23.0439],[72.4879,23.0422],[72.4857,23.042],[72.4838,23.0436],[72.4765,23.0428],[72.471,23.0407],[72.4672,23.0409],[72.4615,23.0366],[72.4634,23.034],[72.4759,23.029],[72.4759,23.023],[72.48,23.0168],[72.4911,23.0244],[72.49,23.0285],[72.508,23.0271],[72.5212,23.0276],[72.5251,23.032],[72.5308,23.026],[72.5439,23.0476]]]},"properties":{"objectid":66,"statename":"Gujarat","statecode":"24","districtname":"Ahmadabad","districtcode":"474","ulbname":"Ahmadabad (M Corp.)","ulbcode":"802484","wardname":"Bodakdev","wardcode":"19","id":null,"remark":"","st_area(shape)":0.0012236592816102661,"st_perimeter(shape)":0.24581167066987894}},{"type":"Feature","geometry":{"type":"Polygon","coordinates":[[[72.4985,23.0997],[72.4826,23.0974],[72.4783,23.0946],[72.4775,23.0887],[72.472,23.0852],[72.4671,23.0849],[72.4651,23.0832],[72.4599,23.0839],[72.4603,23.0794],[72.4662,23.0812],[72.468,23.0774],[72.4726,23.0737],[72.4747,23.0696],[72.4725,23.0691],[72.4721,23.0635],[72.4682,23.0618],[72.4622,23.0603],[72.4527,23.0624],[72.4491,23.0604],[72.449,23.0536],[72.4477,23.0518],[72.4492,23.0516],[72.4492,23.0505],[72.4464,23.0435],[72.4471,23.0419],[72.4506,23.0429],[72.4509,23.0384],[72.456,23.0398],[72.4579,23.0316],[72.4631,23.0335],[72.4615,23.0366],[72.4671,23.0409],[72.471,23.0406],[72.4766,23.0428],[72.4838,23.0435],[72.4857,23.042],[72.4879,23.0422],[72.4882,23.0439],[72.49,23.0441],[72.4894,23.038],[72.4928,23.0376],[72.4943,23.0398],[72.5048,23.0423],[72.5058,23.0456],[72.5081,23.0466],[72.5109,23.0459],[72.5129,23.0475],[72.5165,23.0478],[72.5158,23.0463],[72.5179,23.0444],[72.5277,23.0403],[72.5305,23.046],[72.5336,23.0458],[72.5338,23.0523],[72.5378,23.0518],[72.5361,23.0552],[72.5362,23.0587],[72.5308,23.061],[72.5313,23.0636],[72.5265,23.0678],[72.503,23.0579],[72.4992,23.0595],[72.5021,23.061],[72.5028,23.063],[72.502,23.0642],[72.4999,23.0639],[72.4976,23.068],[72.4998,23.0802],[72.4927,23.0842],[72.4985,23.0997]]]},"properties":{"objectid":68,"statename":"Gujarat","statecode":"24","districtname":"Ahmadabad","districtcode":"474","ulbname":"Ahmadabad (M Corp.)","ulbcode":"802484","wardname":"Thaltej","wardcode":"8","id":null,"remark":"","st_area(shape)":0.0026677309751000334,"st_perimeter(shape)":0.3789948605857722}},{"type":"Feature","geometry":{"type":"Polygon","coordinates":[[[72.5308,23.026],[72.5251,23.032],[72.5212,23.0276],[72.508,23.0271],[72.49,23.0285],[72.4911,23.0244],[72.48,23.0168],[72.4759,23.023],[72.4759,23.029],[72.4645,23.0343],[72.4579,23.0316],[72.4677,23.0101],[72.4913,23.0098],[72.5022,23.0121],[72.5294,23.0144],[72.5304,23.0091],[72.534,23.0095],[72.5349,23.0143],[72.5364,23.0157],[72.5362,23.0184],[72.534,23.0234],[72.5308,23.026]]]},"properties":{"objectid":69,"statename":"Gujarat","statecode":"24","districtname":"Ahmadabad","districtcode":"474","ulbname":"Ahmadabad (M Corp.)","ulbcode":"802484","wardname":"Jodhpur","wardcode":"20","id":null,"remark":"","st_area(shape)":0.0011468137603458971,"st_perimeter(shape)":0.21490955276481974}}]}