{"type":"FeatureCollection","features":[{"type":"Feature","geometry":{"type":"Polygon","coordinates":[[[77.4228,23.2664],[77.4131,23.2672],[77.4122,23.2613],[77.411,23.2614],[77.4105,23.2589],[77.4144,23.258],[77.4156,23.263],[77.422,23.2646],[77.4232,23.2627],[77.4246,23.2658],[77.4243,23.2669],[77.4237,23.2658],[77.4228,23.2664]]]},"properties":{"objectid":37334,"statename":"Madhya Pradesh","statecode":"23","districtname":null,"districtcode":"444","ulbname":"Bhopal","ulbcode":"802312","wardname":"Chandbad","wardcode":"36","id":null,"remark":"","st_area(shape)":5.711759699994809e-05,"st_perimeter(shape)":0.04777640843234862}},{"type":"Feature","geometry":{"type":"Polygon","coordinates":[[[77.4188,23.2422],[77.4133,23.2431],[77.4043,23.2379],[77.4119,23.2377],[77.4131,23.2368],[77.4124,23.2336],[77.4165,23.2315],[77.4263,23.2329],[77.4269,23.2351],[77.4232,23.2367],[77.4242,23.239],[77.4188,23.2422]]]},"properties":{"objectid":37335,"statename":"Madhya Pradesh","statecode":"23","districtname":null,"districtcode":"444","ulbname":"Bhopal","ulbcode":"802312","wardname":"Pandit Madanmohan Malviya","wardcode":"33","id":null,"remark":"","st_area(shape)":0.00013647933800004533,"st_perimeter(shape)":0.06208952068827567}},{"type":"Feature","geometry":{"type":"Polygon","coordinates":[[[77.45,23.2525],[77.4447,23.2529],[77.4446,23.2544],[77.4459,23.2548],[77.4445,23.2551],[77.4461,23.2604],[77.4448,23.2624],[77.4412,23.2633],[77.4405,23.266],[77.4424,23.2666],[77.4398,23.2667],[77.4395,23.2634],[77.438,23.2632],[77.4387,23.2612],[77.4361,23.2613],[77.4368,23.2587],[77.4344,23.2579],[77.4347,23.253],[77.4312,23.2522],[77.4293,23.255],[77.427,23.2541],[77.4311,23.251],[77.4367,23.2515],[77.4368,23.2526],[77.4389,23.2531],[77.4403,23.252],[77.439,23.2495],[77.4413,23.25],[77.4429,23.2465],[77.4484,23.249],[77.4501,23.2467],[77.45,23.2525]]]},"properties":{"objectid":37336,"statename":"Madhya Pradesh","statecode":"23","districtname":null,"districtcode":"444","ulbname":"Bhopal","ulbcode":"802312","wardname":"Punjabi Bagh","wardcode":"70","id":null,"remark":"","st_area(shape)":0.00016763288850008245,"st_perimeter(shape)":0.10915960038758056}},{"type":"Feature","geometry":{"type":"Polygon","coordinates":[[[77.4032,23.2845],[77.4005,23.2859],[77.398,23.2857],[77.3963,23.2833],[77.3937,23.2842],[77.3904,23.2869],[77.3891,23.2909],[77.387,23.2906],[77.3759,23.285],[77.3777,23.2825],[77.3765,23.2782],[77.3929,23.2758],[77.3933,23.2747],[77.3966,23.2761],[77.3967,23.2774],[77.3983,23.2766],[77.3989,23.2777],[77.4004,23.2774],[77.4004,23.2793],[77.403,23.2762],[77.4032,23.2845]]]},"properties":{"objectid":37337,"statename":"Madhya Pradesh","statecode":"23","districtname":null,"districtcode":"444","ulbname":"Bhopal","ulbcode":"802312","wardname":"Geetanjali","wardcode":"13","id":null,"remark":"","st_area(shape)":0.00026994577799983687,"st_perimeter(shape)":0.08605593802588597}},{"type":"Feature","geometry":{"type":"Polygon","coordinates":[[[77.4099,23.2722],[77.4131,23.2721],[77.4139,23.2761],[77.4128,23.2765],[77.4145,23.2782],[77.4033,23.2885],[77.4035,23.2788],[77.4118,23.2768],[77.4119,23.2746],[77.4108,23.2734],[77.4084,23.2754],[77.4037,23.2765],[77.4028,23.2754],[77.4049,23.2743],[77.4047,23.2732],[77.41,23.273],[77.4099,23.2722]]]},"properties":{"objectid":37338,"statename":"Madhya Pradesh","statecode":"23","districtname":null,"districtcode":"444","ulbname":"Bhopal","ulbcode":"802312","wardname":"Motilal Nehru","wardcode":"16","id":null,"remark":"","st_area(shape)":9.059764800016184e-05,"st_perimeter(shape)":0.07089260873728973}},{"type":"Feature","geometry":{"type":"Polygon","coordinates":[[[77.4019,23.2556],[77.402,23.2616],[77.3958,23.2616],[77.395,23.2585],[77.4019,23.2556]]]},"properties":{"objectid":37339,"statename":"Madhya Pradesh","statecode":"23","districtname":null,"districtcode":"444","ulbname":"Bhopal","ulbcode":"802312","wardname":"Jain Mandir","wardcode":"21","id":null,"remark":"","st_area(shape)":3.000058300008346e-05,"st_perimeter(shape)":0.026358956502185775}},{"type":"Feature","geometry":{"type":"Polygon","coordinates":[[[77.4027,23.2549],[77.4046,23.2544],[77.4069,23.2613],[77.407,23.2625],[77.4038,23.2641],[77.4017,23.2633],[77.4015,23.262],[77.4015,23.2549],[77.4027,23.2549]]]},"properties":{"objectid":37340,"statename":"Madhya Pradesh","statecode":"23","districtname":null,"districtcode":"444","ulbname":"Bhopal","ulbcode":"802312","wardname":"Mahavir Swami","wardcode":"20","id":null,"remark":"","st_area(shape)":3.47339579999943e-05,"st_perimeter(shape)":0.029646388151749522}},{"type":"Feature","geometry":{"type":"Polygon","coordinates":[[[77.444,23.2054],[77.4397,23.204],[77.4412,23.1986],[77.4393,23.1984],[77.4393,23.1969],[77.4348,23.1976],[77.4365,23.1878],[77.4484,23.1901],[77.444,23.2054]]]},"properties":{"objectid":37341,"statename":"Madhya Pradesh","statecode":"23","districtname":null,"districtcode":"444","ulbname":"Bhopal","ulbcode":"802312","wardname":"Gulmohar","wardcode":"50","id":null,"remark":"","st_area(shape)":0.0001328257215000124,"st_perimeter(shape)":0.05932877008121254}},{"type":"Feature","geometry":{"type":"Polygon","coordinates":[[[77.4336,23.1679],[77.4318,23.1675],[77.4279,23.1699],[77.4254,23.169],[77.423,23.1701],[77.4228,23.1716],[77.4168,23.1719],[77.4142,23.1612],[77.4195,23.1583],[77.4239,23.1606],[77.4283,23.1611],[77.4284,23.1598],[77.4324,23.1597],[77.433,23.1573],[77.4357,23.158],[77.4377,23.1558],[77.4374,23.1543],[77.4391,23.1533],[77.4406,23.1542],[77.4465,23.1526],[77.4496,23.1542],[77.4495,23.1559],[77.4515,23.1574],[77.452,23.1622],[77.4497,23.167],[77.4358,23.1667],[77.4336,23.1679]]]},"properties":{"objectid":37342,"statename":"Madhya Pradesh","statecode":"23","districtname":null,"districtcode":"444","ulbname":"Bhopal","ulbcode":"802312","wardname":"Sankhedi","wardcode":"83","id":null,"remark":"","st_area(shape)":0.00040546499000009435,"st_perimeter(shape)":0.10996818430626032}},{"type":"Feature","geometry":{"type":"Polygon","coordinates":[[[77.4336,23.1679],[77.4346,23.1699],[77.4369,23.1708],[77.4334,23.1713],[77.4317,23.1733],[77.4329,23.1764],[77.4296,23.1775],[77.43,23.1797],[77.4285,23.1813],[77.4241,23.1843],[77.4221,23.1843],[77.4228,23.1855],[77.4213,23.1872],[77.4232,23.1876],[77.422,23.1895],[77.4171,23.1897],[77.4168,23.1719],[77.4228,23.1716],[77.423,23.1701],[77.4254,23.169],[77.4279,23.1699],[77.4318,23.1675],[77.4336,23.1679]]]},"properties":{"objectid":37343,"statename":"Madhya Pradesh","statecode":"23","districtname":null,"districtcode":"444","ulbname":"Bhopal","ulbcode":"802312","wardname":"Danish Kunj","wardcode":"82","id":null,"remark":"","st_area(shape)":0.00021947086750009762,"st_perimeter(shape)":0.08474343404053047}},{"type":"Feature","geometry":{"type":"Polygon","coordinates":[[[77.4916,23.2024],[77.495,23.2025],[77.5,23.2122],[77.5056,23.2135],[77.5115,23.2177],[77.5254,23.2224],[77.5251,23.2236],[77.5145,23.2284],[77.5089,23.2354],[77.505,23.233],[77.5008,23.235],[77.4955,23.2302],[77.4922,23.2292],[77.4788,23.231],[77.4765,23.2251],[77.4742,23.223],[77.4751,23.2213],[77.4712,23.219],[77.4731,23.2158],[77.475,23.2162],[77.476,23.2183],[77.4779,23.2163],[77.4811,23.2163],[77.4836,23.2135],[77.4881,23.2137],[77.4852,23.206],[77.4914,23.2042],[77.4916,23.2024]]]},"properties":{"objectid":37362,"statename":"Madhya Pradesh","statecode":"23","districtname":null,"districtcode":"444","ulbname":"Bhopal","ulbcode":"802312","wardname":"Govind Pura","wardcode":"60","id":null,"remark":"","st_area(shape)":0.0008326957334370902,"st_perimeter(shape)":0.16416951865499346}},{"type":"Feature","geometry":{"type":"Polygon","coordinates":[[[77.4285,23.2284],[77.4277,23.2307],[77.4219,23.2311],[77.4219,23.2298],[77.4196,23.2293],[77.4181,23.2272],[77.4218,23.2273],[77.4218,23.2261],[77.4122,23.2249],[77.4125,23.2231],[77.4172,23.2174],[77.4232,23.2174],[77.4268,23.2157],[77.4312,23.2226],[77.4283,23.2241],[77.4285,23.2284]]]},"properties":{"objectid":37698,"statename":"Madhya Pradesh","statecode":"23","districtname":null,"districtcode":"444","ulbname":"Bhopal","ulbcode":"802312","wardname":"Pandit Ravishankar Shukla","wardcode":"46","id":null,"remark":"","st_area(shape)":0.0001706316720001616,"st_perimeter(shape)":0.06635517146469865}},{"type":"Feature","geometry":{"type":"Polygon","coordinates":[[[77.4202,23.2547],[77.4188,23.2557],[77.4178,23.2516],[77.4154,23.2518],[77.4156,23.2481],[77.422,23.2502],[77.4212,23.2461],[77.4238,23.2477],[77.4222,23.2499],[77.4247,23.2516],[77.4202,23.2547]]]},"properties":{"objectid":37699,"statename":"Madhya Pradesh","statecode":"23","districtname":null,"districtcode":"444","ulbname":"Bhopal","ulbcode":"802312","wardname":"Rani Laxmi Bai","wardcode":"42","id":null,"remark":"","st_area(shape)":4.0758978500169486e-05,"st_perimeter(shape)":0.040752119236535954}},{"type":"Feature","geometry":{"type":"Polygon","coordinates":[[[77.4618,23.2061],[77.4583,23.212],[77.451,23.2112],[77.4511,23.2164],[77.442,23.2161],[77.4534,23.1854],[77.4622,23.1879],[77.462,23.19],[77.4599,23.1921],[77.455,23.1939],[77.4592,23.1951],[77.4583,23.1988],[77.4638,23.2001],[77.4618,23.2061]]]},"properties":{"objectid":37700,"statename":"Madhya Pradesh","statecode":"23","districtname":null,"districtcode":"444","ulbname":"Bhopal","ulbcode":"802312","wardname":"Barkatullah","wardcode":"54","id":null,"remark":"","st_area(shape)":0.00035759755899971845,"st_perimeter(shape)":0.10363701696605584}},{"type":"Feature","geometry":{"type":"Polygon","coordinates":[[[77.4279,23.2913],[77.4207,23.2942],[77.4213,23.2956],[77.4258,23.2955],[77.4259,23.2981],[77.4249,23.2983],[77.4229,23.2962],[77.4195,23.2961],[77.4135,23.2933],[77.4151,23.292],[77.411,23.2868],[77.4147,23.2855],[77.4181,23.2884],[77.421,23.2867],[77.4246,23.2867],[77.4279,23.2913]]]},"properties":{"objectid":37701,"statename":"Madhya Pradesh","statecode":"23","districtname":null,"districtcode":"444","ulbname":"Bhopal","ulbcode":"802312","wardname":"Bhopal Memorial Hospital","wardcode":"73","id":null,"remark":"","st_area(shape)":9.89547339998312e-05,"st_perimeter(shape)":0.06345596024326144}},{"type":"Feature","geometry":{"type":"Polygon","coordinates":[[[77.4821,23.1997],[77.4843,23.1956],[77.4888,23.2011],[77.4916,23.2024],[77.4914,23.2042],[77.4852,23.206],[77.4881,23.2137],[77.4836,23.2135],[77.4811,23.2163],[77.4779,23.2163],[77.476,23.2183],[77.475,23.2162],[77.4731,23.2158],[77.4712,23.219],[77.4751,23.2213],[77.4742,23.223],[77.4765,23.2251],[77.4788,23.231],[77.4663,23.2319],[77.4661,23.2297],[77.4632,23.2285],[77.4647,23.2265],[77.4563,23.2206],[77.4566,23.2167],[77.4637,23.217],[77.4632,23.2189],[77.4649,23.2194],[77.4656,23.2177],[77.4713,23.217],[77.4688,23.2155],[77.4693,23.2146],[77.4636,23.2135],[77.4653,23.2092],[77.4672,23.2101],[77.4685,23.2041],[77.4732,23.2019],[77.4762,23.1988],[77.4796,23.1978],[77.4821,23.1997]]]},"properties":{"objectid":37713,"statename":"Madhya Pradesh","statecode":"23","districtname":null,"districtcode":"444","ulbname":"Bhopal","ulbcode":"802312","wardname":"Barkheda Pathani","wardcode":"56","id":null,"remark":"","st_area(shape)":0.0005408390386017157,"st_perimeter(shape)":0.17295764422266158}},{"type":"Feature","geometry":{"type":"Polygon","coordinates":[[[77.4187,23.2313],[77.4136,23.2326],[77.4124,23.2337],[77.4131,23.2368],[77.4105,23.2381],[77.4043,23.2379],[77.4013,23.2353],[77.4023,23.2246],[77.4218,23.2261],[77.4218,23.2273],[77.4181,23.2272],[77.4196,23.2293],[77.4219,23.2298],[77.4219,23.2311],[77.4187,23.2313]]]},"properties":{"objectid":38099,"statename":"Madhya Pradesh","statecode":"23","districtname":null,"districtcode":"444","ulbname":"Bhopal","ulbcode":"802312","wardname":"Chatrapati Shivaji","wardcode":"31","id":null,"remark":"","st_area(shape)":0.00018513856199995214,"st_perimeter(shape)":0.072198369529894}},{"type":"Feature","geometry":{"type":"Polygon","coordinates":[[[77.4122,23.2249],[77.407,23.2253],[77.4075,23.2213],[77.4185,23.2174],[77.4207,23.2111],[77.4195,23.2088],[77.4228,23.209],[77.4241,23.2066],[77.4262,23.2105],[77.4268,23.2157],[77.4232,23.2174],[77.4172,23.2174],[77.4126,23.2228],[77.4122,23.2249]]]},"properties":{"objectid":38100,"statename":"Madhya Pradesh","statecode":"23","districtname":null,"districtcode":"444","ulbname":"Bhopal","ulbcode":"802312","wardname":"Dr. Rajendra Prasad","wardcode":"47","id":null,"remark":"","st_area(shape)":9.130674649998449e-05,"st_perimeter(shape)":0.06935140116621348}},{"type":"Feature","geometry":{"type":"Polygon","coordinates":[[[77.4159,23.252],[77.4089,23.2548],[77.4057,23.2504],[77.3973,23.2502],[77.4048,23.2463],[77.4008,23.2426],[77.4031,23.2389],[77.4011,23.2375],[77.4013,23.2353],[77.4133,23.2431],[77.4217,23.2414],[77.418,23.2446],[77.4212,23.2461],[77.4221,23.2501],[77.4156,23.2481],[77.4159,23.252]]]},"properties":{"objectid":38101,"statename":"Madhya Pradesh","statecode":"23","districtname":null,"districtcode":"444","ulbname":"Bhopal","ulbcode":"802312","wardname":"Ravindra Nath Tagore","wardcode":"34","id":null,"remark":"","st_area(shape)":0.00020221138750001663,"st_perimeter(shape)":0.0958719300101854}},{"type":"Feature","geometry":{"type":"Polygon","coordinates":[[[77.4346,23.2568],[77.4268,23.2628],[77.424,23.2617],[77.4252,23.2586],[77.4275,23.2579],[77.4309,23.2523],[77.4347,23.253],[77.4346,23.2568]]]},"properties":{"objectid":38102,"statename":"Madhya Pradesh","statecode":"23","districtname":null,"districtcode":"444","ulbname":"Bhopal","ulbcode":"802312","wardname":"Guru Nanak Dev","wardcode":"69","id":null,"remark":"","st_area(shape)":5.3448281999888936e-05,"st_perimeter(shape)":0.03536312878709055}},{"type":"Feature","geometry":{"type":"Polygon","coordinates":[[[77.4348,23.1976],[77.4348,23.1989],[77.4322,23.1985],[77.4324,23.1971],[77.4309,23.1966],[77.4299,23.2023],[77.4228,23.2009],[77.417,23.1972],[77.4201,23.1963],[77.4219,23.192],[77.4259,23.1909],[77.4305,23.1861],[77.4365,23.1878],[77.4348,23.1976]]]},"properties":{"objectid":38104,"statename":"Madhya Pradesh","statecode":"23","districtname":null,"districtcode":"444","ulbname":"Bhopal","ulbcode":"802312","wardname":"Shahapura","wardcode":"51","id":null,"remark":"","st_area(shape)":0.00016874029049983923,"st_perimeter(shape)":0.062407982485984885}},{"type":"Feature","geometry":{"type":"Polygon","coordinates":[[[77.3381,23.3014],[77.3356,23.2982],[77.3358,23.2952],[77.3343,23.2961],[77.3308,23.2908],[77.3112,23.3003],[77.3097,23.2993],[77.3043,23.3019],[77.3037,23.3008],[77.3087,23.2983],[77.3084,23.2972],[77.3177,23.2929],[77.3147,23.2865],[77.3233,23.2829],[77.3337,23.2807],[77.334,23.2767],[77.3322,23.2736],[77.3532,23.2756],[77.3534,23.28],[77.355,23.2802],[77.3577,23.2837],[77.3536,23.2874],[77.3522,23.2865],[77.3518,23.2796],[77.3415,23.2842],[77.3443,23.2854],[77.3438,23.2869],[77.3516,23.2893],[77.3545,23.2938],[77.3544,23.2957],[77.3534,23.2973],[77.3453,23.2953],[77.3442,23.2961],[77.345,23.2977],[77.3425,23.2998],[77.3415,23.3002],[77.341,23.2989],[77.3381,23.3014]]]},"properties":{"objectid":38121,"statename":"Madhya Pradesh","statecode":"23","districtname":null,"districtcode":"444","ulbname":"Bhopal","ulbcode":"802312","wardname":"Cto Bairagarh","wardcode":"2","id":null,"remark":"","st_area(shape)":0.0006381868020622321,"st_perimeter(shape)":0.20238605519351457}},{"type":"Feature","geometry":{"type":"Polygon","coordinates":[[[77.3909,23.3198],[77.3926,23.3187],[77.3926,23.3164],[77.3981,23.3141],[77.4012,23.3192],[77.4038,23.318],[77.4052,23.3115],[77.4038,23.2962],[77.413,23.2971],[77.4144,23.3029],[77.4173,23.3032],[77.415,23.3155],[77.4162,23.3193],[77.4163,23.3273],[77.4124,23.3301],[77.4142,23.3334],[77.4083,23.3351],[77.4048,23.3387],[77.4008,23.3386],[77.3964,23.3335],[77.3883,23.3298],[77.3909,23.3198]]]},"properties":{"objectid":38122,"statename":"Madhya Pradesh","statecode":"23","districtname":null,"districtcode":"444","ulbname":"Bhopal","ulbcode":"802312","wardname":"Navi Bagh","wardcode":"79","id":null,"remark":"","st_area(shape)":0.0006820281138165389,"st_perimeter(shape)":0.14362991069199413}},{"type":"Feature","geometry":{"type":"Polygon","coordinates":[[[77.4586,23.2922],[77.4619,23.2953],[77.4624,23.2975],[77.4607,23.304],[77.459,23.3047],[77.4577,23.3084],[77.4564,23.3082],[77.4567,23.3096],[77.4503,23.3119],[77.441,23.3067],[77.4358,23.3021],[77.4211,23.2817],[77.4221,23.2812],[77.421,23.2794],[77.4256,23.2783],[77.4245,23.2762],[77.429,23.2774],[77.4288,23.2756],[77.4322,23.2746],[77.4308,23.2708],[77.4328,23.2677],[77.4374,23.2669],[77.4377,23.2734],[77.443,23.273],[77.4452,23.274],[77.4452,23.2776],[77.4437,23.2782],[77.4443,23.2814],[77.4553,23.2787],[77.457,23.2836],[77.4582,23.2836],[77.4594,23.2898],[77.4555,23.29],[77.4586,23.2922]]]},"properties":{"objectid":38123,"statename":"Madhya Pradesh","statecode":"23","districtname":null,"districtcode":"444","ulbname":"Bhopal","ulbcode":"802312","wardname":"Bhanpur","wardcode":"74","id":null,"remark":"","st_area(shape)":0.0010035076167346333,"st_perimeter(shape)":0.1635743053882629}},{"type":"Feature","geometry":{"type":"Polygon","coordinates":[[[77.3855,23.2733],[77.3822,23.2726],[77.3806,23.2756],[77.3801,23.2733],[77.3761,23.2741],[77.3754,23.2717],[77.381,23.2649],[77.3883,23.2618],[77.3894,23.2649],[77.3877,23.2657],[77.3878,23.2684],[77.3889,23.2684],[77.389,23.2703],[77.3922,23.2701],[77.3928,23.2731],[77.3855,23.2733]]]},"properties":{"objectid":38559,"statename":"Madhya Pradesh","statecode":"23","districtname":null,"districtcode":"444","ulbname":"Bhopal","ulbcode":"802312","wardname":"Idgah Hills","wardcode":"10","id":null,"remark":"","st_area(shape)":0.00012211332700011243,"st_perimeter(shape)":0.06107832923092555}},{"type":"Feature","geometry":{"type":"Polygon","coordinates":[[[77.4197,23.2795],[77.4134,23.2798],[77.4145,23.2782],[77.4128,23.2765],[77.4139,23.2761],[77.4133,23.2724],[77.4094,23.2722],[77.4084,23.2693],[77.4098,23.2686],[77.404,23.2641],[77.4081,23.262],[77.4109,23.2628],[77.411,23.2614],[77.4122,23.2613],[77.4124,23.265],[77.4158,23.2742],[77.4197,23.2795]]]},"properties":{"objectid":38560,"statename":"Madhya Pradesh","statecode":"23","districtname":null,"districtcode":"444","ulbname":"Bhopal","ulbcode":"802312","wardname":"Ram Mandir","wardcode":"18","id":null,"remark":"","st_area(shape)":8.31398099999789e-05,"st_perimeter(shape)":0.0649328903840062}},{"type":"Feature","geometry":{"type":"Polygon","coordinates":[[[77.3955,23.2156],[77.3977,23.2179],[77.3964,23.2203],[77.3934,23.2191],[77.3905,23.2198],[77.3889,23.2174],[77.386,23.218],[77.385,23.2197],[77.3842,23.2191],[77.3852,23.2164],[77.3893,23.2156],[77.3839,23.2146],[77.3871,23.2121],[77.3918,23.212],[77.3955,23.2156]]]},"properties":{"objectid":38561,"statename":"Madhya Pradesh","statecode":"23","districtname":null,"districtcode":"444","ulbname":"Bhopal","ulbcode":"802312","wardname":"Goswami Tulsidas","wardcode":"27","id":null,"remark":"","st_area(shape)":6.720255950005913e-05,"st_perimeter(shape)":0.05016260549529877}},{"type":"Feature","geometry":{"type":"Polygon","coordinates":[[[77.3991,23.2723],[77.399,23.274],[77.3962,23.2735],[77.3952,23.2726],[77.3962,23.2702],[77.3933,23.2688],[77.3949,23.2679],[77.3957,23.2616],[77.3988,23.2616],[77.4006,23.2664],[77.4011,23.2701],[77.3994,23.2704],[77.3991,23.2723]]]},"properties":{"objectid":38562,"statename":"Madhya Pradesh","statecode":"23","districtname":"Bhopal","districtcode":"444","ulbname":"Bhopal","ulbcode":"802312","wardname":"Bag Munshi Hussain Kha","wardcode":"9","id":null,"remark":"","st_area(shape)":5.5794130599243376e-05,"st_perimeter(shape)":0.03817069465936589}},{"type":"Feature","geometry":{"type":"Polygon","coordinates":[[[77.4424,23.2119],[77.4404,23.2127],[77.4391,23.2124],[77.4394,23.2116],[77.4311,23.2116],[77.4312,23.206],[77.4336,23.2058],[77.4328,23.2022],[77.4348,23.2021],[77.4365,23.2042],[77.4373,23.2029],[77.4392,23.2028],[77.4391,23.2056],[77.4421,23.2045],[77.444,23.2054],[77.4424,23.2119]]]},"properties":{"objectid":38563,"statename":"Madhya Pradesh","statecode":"23","districtname":null,"districtcode":"444","ulbname":"Bhopal","ulbcode":"802312","wardname":"Asha Niketan","wardcode":"49","id":null,"remark":"","st_area(shape)":9.279378349988447e-05,"st_perimeter(shape)":0.05217822803765799}},{"type":"Feature","geometry":{"type":"Polygon","coordinates":[[[77.3922,23.2701],[77.389,23.2703],[77.3889,23.2684],[77.3878,23.2684],[77.3877,23.2657],[77.3894,23.2649],[77.3883,23.2618],[77.382,23.2643],[77.3828,23.2602],[77.3816,23.2593],[77.3802,23.2611],[77.3739,23.2603],[77.3708,23.2612],[77.3682,23.2639],[77.3636,23.2614],[77.356,23.2607],[77.3559,23.2574],[77.3615,23.2486],[77.37,23.2466],[77.375,23.2477],[77.389,23.2455],[77.3982,23.252],[77.3987,23.2558],[77.4001,23.2559],[77.4001,23.257],[77.3968,23.258],[77.3965,23.2572],[77.395,23.2585],[77.3958,23.2609],[77.3949,23.2679],[77.3924,23.2678],[77.3922,23.2701]]]},"properties":{"objectid":38564,"statename":"Madhya Pradesh","statecode":"23","districtname":"Bhopal","districtcode":"444","ulbname":"Bhopal","ulbcode":"802312","wardname":"Royal Market","wardcode":"8","id":null,"remark":"","st_area(shape)":0.0005991460135157943,"st_perimeter(shape)":0.13783202346841117}},{"type":"Feature","geometry":{"type":"Polygon","coordinates":[[[77.4099,23.2722],[77.41,23.273],[77.4047,23.2732],[77.4049,23.2743],[77.4028,23.2754],[77.4018,23.272],[77.3991,23.2723],[77.3994,23.2704],[77.4011,23.2701],[77.4006,23.2664],[77.4043,23.265],[77.4064,23.2662],[77.4098,23.2686],[77.4084,23.2693],[77.4099,23.2722]]]},"properties":{"objectid":38565,"statename":"Madhya Pradesh","statecode":"23","districtname":null,"districtcode":"444","ulbname":"Bhopal","ulbcode":"802312","wardname":"Ibrahimganj","wardcode":"17","id":null,"remark":"","st_area(shape)":6.549572249996287e-05,"st_perimeter(shape)":0.03931242519796336}},{"type":"Feature","geometry":{"type":"Polygon","coordinates":[[[77.4032,23.2845],[77.4033,23.2885],[77.3968,23.2904],[77.3891,23.2909],[77.3904,23.2869],[77.3937,23.2842],[77.3963,23.2833],[77.398,23.2857],[77.4005,23.2859],[77.4032,23.2845]]]},"properties":{"objectid":38566,"statename":"Madhya Pradesh","statecode":"23","districtname":null,"districtcode":"444","ulbname":"Bhopal","ulbcode":"802312","wardname":"Nariyal Kheda","wardcode":"12","id":null,"remark":"","st_area(shape)":6.74955800001671e-05,"st_perimeter(shape)":0.03893207683412927}},{"type":"Feature","geometry":{"type":"Polygon","coordinates":[[[77.4159,23.252],[77.4178,23.2516],[77.4188,23.2557],[77.416,23.2576],[77.4105,23.2589],[77.4089,23.2548],[77.4159,23.252]]]},"properties":{"objectid":38567,"statename":"Madhya Pradesh","statecode":"23","districtname":null,"districtcode":"444","ulbname":"Bhopal","ulbcode":"802312","wardname":"Jahangirabad","wardcode":"35","id":null,"remark":"","st_area(shape)":4.353153499994579e-05,"st_perimeter(shape)":0.028978974197006242}},{"type":"Feature","geometry":{"type":"Polygon","coordinates":[[[77.41,23.1964],[77.4079,23.1973],[77.4066,23.1965],[77.4026,23.2001],[77.4006,23.2],[77.4,23.1958],[77.4027,23.19],[77.4045,23.1891],[77.4044,23.1867],[77.3996,23.1853],[77.3993,23.1806],[77.4058,23.1787],[77.4106,23.1799],[77.4098,23.1768],[77.4144,23.1749],[77.4167,23.1715],[77.4171,23.1897],[77.4139,23.1912],[77.4149,23.1935],[77.41,23.1964]]]},"properties":{"objectid":38568,"statename":"Madhya Pradesh","statecode":"23","districtname":null,"districtcode":"444","ulbname":"Bhopal","ulbcode":"802312","wardname":"Sarvadharam Kolar","wardcode":"80","id":null,"remark":"","st_area(shape)":0.00030017026749999047,"st_perimeter(shape)":0.09582302613546652}},{"type":"Feature","geometry":{"type":"Polygon","coordinates":[[[77.5089,23.2354],[77.5104,23.2376],[77.5067,23.2372],[77.505,23.2444],[77.4869,23.2477],[77.4857,23.2436],[77.4857,23.2294],[77.4922,23.2292],[77.4955,23.2302],[77.5008,23.235],[77.505,23.233],[77.5089,23.2354]]]},"properties":{"objectid":38569,"statename":"Madhya Pradesh","statecode":"23","districtname":null,"districtcode":"444","ulbname":"Bhopal","ulbcode":"802312","wardname":"Khajurikala","wardcode":"61","id":null,"remark":"","st_area(shape)":0.0002976066504999948,"st_perimeter(shape)":0.08181063025715991}},{"type":"Feature","geometry":{"type":"Polygon","coordinates":[[[77.4015,23.2331],[77.4011,23.2378],[77.3987,23.2404],[77.3945,23.2371],[77.3929,23.2341],[77.3945,23.2321],[77.3874,23.2264],[77.3892,23.2244],[77.3918,23.2239],[77.3925,23.2261],[77.4023,23.2246],[77.4015,23.2331]]]},"properties":{"objectid":38879,"statename":"Madhya Pradesh","statecode":"23","districtname":null,"districtcode":"444","ulbname":"Bhopal","ulbcode":"802312","wardname":"Jawaharlal Nehru","wardcode":"32","id":null,"remark":"","st_area(shape)":0.0001337584819998247,"st_perimeter(shape)":0.055228226337047374}},{"type":"Feature","geometry":{"type":"Polygon","coordinates":[[[77.3759,23.285],[77.3758,23.2869],[77.3783,23.2901],[77.3768,23.2921],[77.3782,23.294],[77.3761,23.3004],[77.369,23.2974],[77.3669,23.2995],[77.3589,23.2986],[77.358,23.2997],[77.3534,23.2973],[77.3547,23.2944],[77.3516,23.2893],[77.3438,23.2869],[77.3443,23.2854],[77.3415,23.2842],[77.3508,23.2794],[77.3518,23.2796],[77.3515,23.2828],[77.3526,23.2829],[77.3522,23.2865],[77.3536,23.2874],[77.3577,23.2837],[77.3534,23.2793],[77.3537,23.2705],[77.3543,23.2665],[77.3564,23.2637],[77.356,23.2607],[77.3636,23.2614],[77.3682,23.2639],[77.367,23.2671],[77.3687,23.2713],[77.3777,23.2825],[77.3759,23.285]]]},"properties":{"objectid":38880,"statename":"Madhya Pradesh","statecode":"23","districtname":null,"districtcode":"444","ulbname":"Bhopal","ulbcode":"802312","wardname":"Mahavir Giri","wardcode":"6","id":null,"remark":"","st_area(shape)":0.0007762919974998831,"st_perimeter(shape)":0.1599426493875825}},{"type":"Feature","geometry":{"type":"Polygon","coordinates":[[[77.3682,23.2639],[77.3705,23.2613],[77.3737,23.2603],[77.3793,23.2612],[77.3816,23.2593],[77.3828,23.2602],[77.382,23.2643],[77.3754,23.2717],[77.3778,23.2811],[77.373,23.2777],[77.3687,23.2713],[77.367,23.2671],[77.3682,23.2639]]]},"properties":{"objectid":38881,"statename":"Madhya Pradesh","statecode":"23","districtname":null,"districtcode":"444","ulbname":"Bhopal","ulbcode":"802312","wardname":"Koh-E-Fiza","wardcode":"7","id":null,"remark":"","st_area(shape)":0.0001633054159999389,"st_perimeter(shape)":0.06457099319946794}},{"type":"Feature","geometry":{"type":"Polygon","coordinates":[[[77.411,23.2614],[77.4109,23.2628],[77.408,23.2621],[77.4006,23.2664],[77.3988,23.2616],[77.4015,23.262],[77.4017,23.2633],[77.4038,23.2641],[77.407,23.2625],[77.4055,23.2585],[77.4063,23.2571],[77.4104,23.2577],[77.411,23.2614]]]},"properties":{"objectid":38882,"statename":"Madhya Pradesh","statecode":"23","districtname":null,"districtcode":"444","ulbname":"Bhopal","ulbcode":"802312","wardname":"Lal Bahadur Shastri","wardcode":"19","id":null,"remark":"","st_area(shape)":3.662791749994382e-05,"st_perimeter(shape)":0.04539150010629504}},{"type":"Feature","geometry":{"type":"Polygon","coordinates":[[[77.3939,23.2753],[77.3765,23.2782],[77.3761,23.2742],[77.3801,23.2733],[77.3806,23.2756],[77.3822,23.2726],[77.3922,23.2735],[77.3923,23.2678],[77.3933,23.2679],[77.3943,23.2688],[77.3939,23.2719],[77.3951,23.2728],[77.3939,23.2753]]]},"properties":{"objectid":38883,"statename":"Madhya Pradesh","statecode":"23","districtname":null,"districtcode":"444","ulbname":"Bhopal","ulbcode":"802312","wardname":"Babu Jagjeevan Ram","wardcode":"11","id":null,"remark":"","st_area(shape)":6.758238050009e-05,"st_perimeter(shape)":0.06455663260892207}},{"type":"Feature","geometry":{"type":"Polygon","coordinates":[[[77.4104,23.2577],[77.4063,23.2571],[77.4051,23.2584],[77.4049,23.2515],[77.408,23.2527],[77.4104,23.2577]]]},"properties":{"objectid":38884,"statename":"Madhya Pradesh","statecode":"23","districtname":null,"districtcode":"444","ulbname":"Bhopal","ulbcode":"802312","wardname":"Islampur","wardcode":"23","id":null,"remark":"","st_area(shape)":2.5143358000050628e-05,"st_perimeter(shape)":0.02341899169758835}},{"type":"Feature","geometry":{"type":"Polygon","coordinates":[[[77.4001,23.2559],[77.3987,23.2558],[77.3981,23.251],[77.4037,23.2497],[77.4057,23.2504],[77.4046,23.2544],[77.4001,23.2559]]]},"properties":{"objectid":38885,"statename":"Madhya Pradesh","statecode":"23","districtname":null,"districtcode":"444","ulbname":"Bhopal","ulbcode":"802312","wardname":" Moti Mazid","wardcode":"22","id":null,"remark":"","st_area(shape)":3.362240449989195e-05,"st_perimeter(shape)":0.025236448270979213}},{"type":"Feature","geometry":{"type":"Polygon","coordinates":[[[77.4311,23.2116],[77.4262,23.2116],[77.4241,23.2066],[77.4228,23.209],[77.4189,23.2074],[77.4178,23.2038],[77.4212,23.2008],[77.4187,23.1995],[77.4176,23.1973],[77.4228,23.2009],[77.4299,23.2023],[77.4309,23.1966],[77.4324,23.1971],[77.4322,23.1985],[77.4348,23.1989],[77.4348,23.1976],[77.4379,23.1966],[77.4393,23.1969],[77.4393,23.1984],[77.4412,23.1986],[77.4412,23.2008],[77.4397,23.2026],[77.4413,23.2056],[77.4391,23.2056],[77.4392,23.2028],[77.4373,23.2029],[77.4365,23.2042],[77.4348,23.2021],[77.4328,23.2022],[77.4336,23.2058],[77.4312,23.206],[77.4311,23.2116]]]},"properties":{"objectid":38886,"statename":"Madhya Pradesh","statecode":"23","districtname":null,"districtcode":"444","ulbname":"Bhopal","ulbcode":"802312","wardname":"Arera Colony","wardcode":"48","id":null,"remark":"","st_area(shape)":0.00016685734100026586,"st_perimeter(shape)":0.10812846604063252}},{"type":"Feature","geometry":{"type":"Polygon","coordinates":[[[77.4185,23.2603],[77.4179,23.2592],[77.4151,23.2605],[77.4144,23.258],[77.4202,23.2547],[77.4249,23.2549],[77.423,23.2562],[77.4223,23.2594],[77.4217,23.2568],[77.4175,23.257],[77.4185,23.2603]]]},"properties":{"objectid":38887,"statename":"Madhya Pradesh","statecode":"23","districtname":null,"districtcode":"444","ulbname":"Bhopal","ulbcode":"802312","wardname":"Aish Bagh","wardcode":"40","id":null,"remark":"","st_area(shape)":2.357395350005044e-05,"st_perimeter(shape)":0.04316243905333273}},{"type":"Feature","geometry":{"type":"Polygon","coordinates":[[[77.4534,23.1854],[77.442,23.2161],[77.4484,23.1901],[77.441,23.1894],[77.4305,23.1861],[77.4259,23.1909],[77.4219,23.192],[77.4201,23.1963],[77.4169,23.1969],[77.4171,23.1897],[77.422,23.1895],[77.4232,23.1876],[77.4213,23.1872],[77.4228,23.1855],[77.4221,23.1843],[77.4241,23.1843],[77.4286,23.1813],[77.43,23.1797],[77.4296,23.1775],[77.4329,23.1764],[77.4316,23.1735],[77.4327,23.172],[77.4368,23.171],[77.4343,23.1697],[77.4337,23.1676],[77.4497,23.167],[77.452,23.1622],[77.4515,23.1574],[77.4495,23.1559],[77.4496,23.1544],[77.4598,23.1465],[77.4686,23.144],[77.4717,23.145],[77.4719,23.1491],[77.4742,23.1549],[77.4534,23.1854]]]},"properties":{"objectid":38888,"statename":"Madhya Pradesh","statecode":"23","districtname":null,"districtcode":"444","ulbname":"Bhopal","ulbcode":"802312","wardname":"Misrod","wardcode":"52","id":null,"remark":"","st_area(shape)":0.0011067451260005615,"st_perimeter(shape)":0.257514314948423}},{"type":"Feature","geometry":{"type":"Polygon","coordinates":[[[77.4649,23.2645],[77.4689,23.2688],[77.4614,23.2772],[77.4443,23.2814],[77.4447,23.2732],[77.4377,23.2733],[77.4374,23.2669],[77.4424,23.2666],[77.4405,23.266],[77.4412,23.2633],[77.4448,23.2624],[77.4461,23.2608],[77.4445,23.2551],[77.4459,23.2548],[77.4446,23.2544],[77.4447,23.2529],[77.4562,23.2515],[77.4579,23.2675],[77.459,23.2678],[77.4591,23.2715],[77.4628,23.275],[77.4639,23.2684],[77.4626,23.268],[77.4649,23.2645]]]},"properties":{"objectid":38889,"statename":"Madhya Pradesh","statecode":"23","districtname":null,"districtcode":"444","ulbname":"Bhopal","ulbcode":"802312","wardname":"Govindpura Udyogik Shetra","wardcode":"65","id":null,"remark":"","st_area(shape)":0.0004610846844993564,"st_perimeter(shape)":0.1410030428021556}},{"type":"Feature","geometry":{"type":"Polygon","coordinates":[[[77.4649,23.2645],[77.4626,23.268],[77.4639,23.2684],[77.4628,23.275],[77.4591,23.2715],[77.459,23.2678],[77.4579,23.2675],[77.4562,23.2515],[77.463,23.2504],[77.4649,23.2645]]]},"properties":{"objectid":38890,"statename":"Madhya Pradesh","statecode":"23","districtname":null,"districtcode":"444","ulbname":"Bhopal","ulbcode":"802312","wardname":"Narela Sankari","wardcode":"66","id":null,"remark":"","st_area(shape)":0.00014247757750037232,"st_perimeter(shape)":0.06296165139410395}},{"type":"Feature","geometry":{"type":"Polygon","coordinates":[[[77.356,23.2607],[77.3564,23.2637],[77.3543,23.2665],[77.3532,23.2756],[77.3357,23.274],[77.3371,23.2679],[77.3351,23.2669],[77.336,23.267],[77.3368,23.2637],[77.3429,23.2638],[77.3447,23.2557],[77.3476,23.2553],[77.3478,23.254],[77.352,23.2518],[77.3552,23.2523],[77.359,23.2483],[77.3615,23.2486],[77.3559,23.2574],[77.356,23.2607]]]},"properties":{"objectid":38891,"statename":"Madhya Pradesh","statecode":"23","districtname":null,"districtcode":"444","ulbname":"Bhopal","ulbcode":"802312","wardname":"Sadhu Vaswani","wardcode":"5","id":null,"remark":"","st_area(shape)":0.00035047680150023213,"st_perimeter(shape)":0.09920006791747742}},{"type":"Feature","geometry":{"type":"Polygon","coordinates":[[[77.4135,23.2933],[77.4066,23.292],[77.4065,23.2906],[77.4035,23.2909],[77.4037,23.295],[77.4007,23.2955],[77.4009,23.2972],[77.393,23.2977],[77.3929,23.2909],[77.4001,23.2898],[77.4081,23.2849],[77.4106,23.2859],[77.4151,23.292],[77.4135,23.2933]]]},"properties":{"objectid":38892,"statename":"Madhya Pradesh","statecode":"23","districtname":null,"districtcode":"444","ulbname":"Bhopal","ulbcode":"802312","wardname":"Russali","wardcode":"77","id":null,"remark":"","st_area(shape)":0.00012507568449986805,"st_perimeter(shape)":0.06618659796082116}},{"type":"Feature","geometry":{"type":"Polygon","coordinates":[[[77.3429,23.2627],[77.3425,23.2643],[77.3407,23.2632],[77.3378,23.2644],[77.3368,23.2637],[77.335,23.2675],[77.3371,23.2679],[77.3357,23.274],[77.3322,23.2736],[77.3335,23.2704],[77.3268,23.2694],[77.3308,23.2582],[77.3382,23.2514],[77.3447,23.2557],[77.3429,23.2627]]]},"properties":{"objectid":38893,"statename":"Madhya Pradesh","statecode":"23","districtname":null,"districtcode":"444","ulbname":"Bhopal","ulbcode":"802312","wardname":"Hemukalani Ward","wardcode":"4","id":null,"remark":"","st_area(shape)":0.00019599181949977545,"st_perimeter(shape)":0.07463998197724978}},{"type":"Feature","geometry":{"type":"Polygon","coordinates":[[[77.4718,23.265],[77.4703,23.2656],[77.4696,23.2628],[77.4684,23.2636],[77.4669,23.2609],[77.4645,23.2617],[77.463,23.2504],[77.4671,23.2498],[77.4674,23.2534],[77.4717,23.2529],[77.4718,23.2542],[77.4736,23.2538],[77.4754,23.2549],[77.4789,23.254],[77.4782,23.2566],[77.4718,23.265]]]},"properties":{"objectid":38894,"statename":"Madhya Pradesh","statecode":"23","districtname":null,"districtcode":"444","ulbname":"Bhopal","ulbcode":"802312","wardname":"Indrapuri","wardcode":"67","id":null,"remark":"","st_area(shape)":0.0001305938360001045,"st_perimeter(shape)":0.05844169952564884}},{"type":"Feature","geometry":{"type":"Polygon","coordinates":[[[77.4346,23.267],[77.4308,23.2709],[77.4237,23.269],[77.4228,23.2664],[77.4237,23.2658],[77.4244,23.2668],[77.4245,23.2645],[77.4235,23.2646],[77.423,23.2625],[77.424,23.2617],[77.4268,23.2628],[77.43,23.2606],[77.4303,23.2627],[77.4343,23.2622],[77.4346,23.267]]]},"properties":{"objectid":38895,"statename":"Madhya Pradesh","statecode":"23","districtname":null,"districtcode":"444","ulbname":"Bhopal","ulbcode":"802312","wardname":"Semra","wardcode":"38","id":null,"remark":"","st_area(shape)":7.91418390000805e-05,"st_perimeter(shape)":0.046057414568318716}},{"type":"Feature","geometry":{"type":"Polygon","coordinates":[[[77.3615,23.2486],[77.3611,23.2388],[77.3651,23.2411],[77.371,23.2424],[77.3775,23.2414],[77.3797,23.2395],[77.3755,23.2321],[77.3762,23.2279],[77.3804,23.2241],[77.3829,23.2283],[77.3876,23.2299],[77.3876,23.2315],[77.3886,23.2314],[77.3894,23.2341],[77.3933,23.2387],[77.3981,23.2412],[77.4011,23.2375],[77.4031,23.2389],[77.4008,23.2426],[77.4048,23.2463],[77.3977,23.2497],[77.3974,23.2523],[77.389,23.2455],[77.375,23.2477],[77.37,23.2466],[77.3615,23.2486]]]},"properties":{"objectid":38896,"statename":"Madhya Pradesh","statecode":"23","districtname":null,"districtcode":"444","ulbname":"Bhopal","ulbcode":"802312","wardname":"Rani Kamlapat","wardcode":"24","id":null,"remark":"","st_area(shape)":0.0004537630959998487,"st_perimeter(shape)":0.14674175293983924}},{"type":"Feature","geometry":{"type":"Polygon","coordinates":[[[77.4765,23.1795],[77.4744,23.1799],[77.4744,23.1834],[77.4726,23.1861],[77.4774,23.1872],[77.4744,23.1936],[77.4716,23.1943],[77.472,23.1962],[77.4707,23.1963],[77.4706,23.195],[77.4625,23.1954],[77.455,23.1939],[77.4599,23.1921],[77.462,23.19],[77.4622,23.1879],[77.4534,23.1854],[77.4742,23.1549],[77.4775,23.1578],[77.4871,23.1587],[77.4863,23.1598],[77.487,23.1618],[77.4858,23.1625],[77.4863,23.166],[77.4834,23.1685],[77.4828,23.1727],[77.4808,23.1736],[77.4807,23.1768],[77.4765,23.1795]]]},"properties":{"objectid":38897,"statename":"Madhya Pradesh","statecode":"23","districtname":null,"districtcode":"444","ulbname":"Bhopal","ulbcode":"802312","wardname":"Jatkhed","wardcode":"53","id":null,"remark":"","st_area(shape)":0.0006791407490004027,"st_perimeter(shape)":0.15424665163865295}},{"type":"Feature","geometry":{"type":"Polygon","coordinates":[[[77.4023,23.2246],[77.3925,23.2261],[77.3905,23.2198],[77.3934,23.2191],[77.3964,23.2203],[77.3977,23.2179],[77.3955,23.2156],[77.3981,23.2135],[77.3976,23.2162],[77.3988,23.2175],[77.4038,23.221],[77.4057,23.2197],[77.4063,23.2213],[77.4038,23.2213],[77.4023,23.2246]]]},"properties":{"objectid":39254,"statename":"Madhya Pradesh","statecode":"23","districtname":null,"districtcode":"444","ulbname":"Bhopal","ulbcode":"802312","wardname":"Rani Awantibai","wardcode":"28","id":null,"remark":"","st_area(shape)":7.979959850006511e-05,"st_perimeter(shape)":0.056165690028821325}},{"type":"Feature","geometry":{"type":"Polygon","coordinates":[[[77.4255,23.2782],[77.421,23.2794],[77.4221,23.2812],[77.4211,23.2817],[77.4158,23.2742],[77.4131,23.2672],[77.4228,23.2664],[77.4235,23.2689],[77.4308,23.2709],[77.4322,23.2746],[77.4288,23.2756],[77.429,23.2774],[77.4245,23.2762],[77.4255,23.2782]]]},"properties":{"objectid":39255,"statename":"Madhya Pradesh","statecode":"23","districtname":null,"districtcode":"444","ulbname":"Bhopal","ulbcode":"802312","wardname":"Kapda Mil","wardcode":"37","id":null,"remark":"","st_area(shape)":0.0001516456745001079,"st_perimeter(shape)":0.06257754105009407}},{"type":"Feature","geometry":{"type":"Polygon","coordinates":[[[77.4024,23.274],[77.3968,23.2762],[77.394,23.2754],[77.394,23.2734],[77.3951,23.2728],[77.3939,23.2719],[77.3942,23.27],[77.3962,23.2702],[77.3952,23.2726],[77.3979,23.2744],[77.3991,23.2723],[77.4018,23.272],[77.4024,23.274]]]},"properties":{"objectid":39256,"statename":"Madhya Pradesh","statecode":"23","districtname":null,"districtcode":"444","ulbname":"Bhopal","ulbcode":"802312","wardname":"Shahjanabad","wardcode":"14","id":null,"remark":"","st_area(shape)":2.2539717999929584e-05,"st_perimeter(shape)":0.034840391735652954}},{"type":"Feature","geometry":{"type":"Polygon","coordinates":[[[77.4035,23.2788],[77.403,23.2762],[77.4004,23.2793],[77.4004,23.2774],[77.3989,23.2777],[77.3983,23.2766],[77.3967,23.2774],[77.3966,23.2761],[77.4024,23.274],[77.4037,23.2765],[77.4085,23.2754],[77.4108,23.2734],[77.4119,23.2746],[77.4118,23.2768],[77.4035,23.2788]]]},"properties":{"objectid":39257,"statename":"Madhya Pradesh","statecode":"23","districtname":null,"districtcode":"444","ulbname":"Bhopal","ulbcode":"802312","wardname":"J.P.Nagar","wardcode":"15","id":null,"remark":"","st_area(shape)":3.947886200003234e-05,"st_perimeter(shape)":0.0468430272210204}},{"type":"Feature","geometry":{"type":"Polygon","coordinates":[[[77.439,23.2495],[77.4403,23.252],[77.4384,23.2531],[77.4367,23.2515],[77.4334,23.2511],[77.4309,23.2511],[77.4303,23.2523],[77.4279,23.2495],[77.4339,23.2458],[77.4351,23.2467],[77.437,23.246],[77.439,23.2495]]]},"properties":{"objectid":39258,"statename":"Madhya Pradesh","statecode":"23","districtname":null,"districtcode":"444","ulbname":"Bhopal","ulbcode":"802312","wardname":"Subhash Chandra Bose","wardcode":"44","id":null,"remark":"","st_area(shape)":4.6621100500096905e-05,"st_perimeter(shape)":0.03695998268305124}},{"type":"Feature","geometry":{"type":"Polygon","coordinates":[[[77.4397,23.2235],[77.4368,23.2338],[77.4326,23.2312],[77.4353,23.2269],[77.4343,23.2264],[77.4331,23.2287],[77.4323,23.2276],[77.4305,23.2293],[77.4285,23.2284],[77.4283,23.2241],[77.4312,23.2226],[77.4268,23.2157],[77.4262,23.2116],[77.4381,23.2114],[77.4404,23.2127],[77.4424,23.2119],[77.4397,23.2235]]]},"properties":{"objectid":39259,"statename":"Madhya Pradesh","statecode":"23","districtname":null,"districtcode":"444","ulbname":"Bhopal","ulbcode":"802312","wardname":"Indira Gandhi","wardcode":"45","id":null,"remark":"","st_area(shape)":0.00021635501499995465,"st_perimeter(shape)":0.08171349895455772}},{"type":"Feature","geometry":{"type":"Polygon","coordinates":[[[77.4293,23.255],[77.4275,23.2579],[77.4252,23.2586],[77.424,23.2617],[77.4238,23.2591],[77.4223,23.2592],[77.423,23.2562],[77.4249,23.2549],[77.4202,23.2547],[77.4247,23.2516],[77.4272,23.2531],[77.4275,23.2549],[77.4293,23.255]]]},"properties":{"objectid":39260,"statename":"Madhya Pradesh","statecode":"23","districtname":null,"districtcode":"444","ulbname":"Bhopal","ulbcode":"802312","wardname":"Bagfharat Afza","wardcode":"41","id":null,"remark":"","st_area(shape)":3.3453211499881085e-05,"st_perimeter(shape)":0.04091225697589359}},{"type":"Feature","geometry":{"type":"Polygon","coordinates":[[[77.4438,23.2238],[77.4425,23.2278],[77.4456,23.2307],[77.4445,23.233],[77.4431,23.233],[77.4441,23.2389],[77.4423,23.239],[77.4428,23.2402],[77.4503,23.2357],[77.4501,23.2451],[77.4427,23.2449],[77.4424,23.2467],[77.4384,23.2468],[77.4369,23.2436],[77.4322,23.2472],[77.4342,23.2441],[77.4397,23.2235],[77.4438,23.2238]]]},"properties":{"objectid":39261,"statename":"Madhya Pradesh","statecode":"23","districtname":null,"districtcode":"444","ulbname":"Bhopal","ulbcode":"802312","wardname":"Kasturba","wardcode":"58","id":null,"remark":"","st_area(shape)":0.0002035886225000957,"st_perimeter(shape)":0.09675177434220916}},{"type":"Feature","geometry":{"type":"Polygon","coordinates":[[[77.4195,23.2961],[77.419,23.3034],[77.4144,23.3029],[77.413,23.2971],[77.4113,23.2975],[77.4104,23.2961],[77.4078,23.2972],[77.408,23.2961],[77.4038,23.2962],[77.4042,23.301],[77.4023,23.3013],[77.4026,23.3029],[77.3937,23.3029],[77.3932,23.2989],[77.3913,23.2994],[77.394,23.2972],[77.4009,23.2972],[77.4007,23.2955],[77.4037,23.295],[77.4035,23.2909],[77.4065,23.2906],[77.4066,23.292],[77.4096,23.292],[77.4195,23.2961]]]},"properties":{"objectid":39262,"statename":"Madhya Pradesh","statecode":"23","districtname":null,"districtcode":"444","ulbname":"Bhopal","ulbcode":"802312","wardname":"Karond","wardcode":"78","id":null,"remark":"","st_area(shape)":0.00015770445450032967,"st_perimeter(shape)":0.0946170367543386}},{"type":"Feature","geometry":{"type":"Polygon","coordinates":[[[77.4374,23.2669],[77.4346,23.267],[77.4343,23.2622],[77.4319,23.2629],[77.43,23.2617],[77.4339,23.2567],[77.4358,23.2591],[77.4368,23.2587],[77.4361,23.2613],[77.4387,23.2612],[77.438,23.2632],[77.4395,23.2634],[77.4398,23.2667],[77.4374,23.2669]]]},"properties":{"objectid":39263,"statename":"Madhya Pradesh","statecode":"23","districtname":null,"districtcode":"444","ulbname":"Bhopal","ulbcode":"802312","wardname":"Dussehra Maidan Ashoka Garden","wardcode":"71","id":null,"remark":"","st_area(shape)":4.7929672999956594e-05,"st_perimeter(shape)":0.04294749909644102}},{"type":"Feature","geometry":{"type":"Polygon","coordinates":[[[77.3987,23.2404],[77.3981,23.2412],[77.3933,23.2387],[77.3894,23.2341],[77.3886,23.2314],[77.3876,23.2315],[77.3876,23.2299],[77.3829,23.2283],[77.3806,23.2243],[77.387,23.2223],[77.389,23.2236],[77.3874,23.2264],[77.3945,23.2321],[77.3929,23.2341],[77.3945,23.2371],[77.3987,23.2404]]]},"properties":{"objectid":39264,"statename":"Madhya Pradesh","statecode":"23","districtname":null,"districtcode":"444","ulbname":"Bhopal","ulbcode":"802312","wardname":"Swami Vivekanand","wardcode":"25","id":null,"remark":"","st_area(shape)":8.651058650005888e-05,"st_perimeter(shape)":0.06334767838340483}},{"type":"Feature","geometry":{"type":"Polygon","coordinates":[[[77.4656,23.2088],[77.4636,23.2135],[77.4693,23.2146],[77.4688,23.2155],[77.4713,23.217],[77.4656,23.2177],[77.4649,23.2194],[77.4632,23.2189],[77.4637,23.217],[77.4566,23.2167],[77.4563,23.2206],[77.4647,23.2265],[77.4632,23.2285],[77.4661,23.2297],[77.4663,23.2319],[77.4464,23.2317],[77.4476,23.2287],[77.4499,23.2288],[77.4498,23.2274],[77.4522,23.2248],[77.4397,23.2235],[77.4414,23.2161],[77.4511,23.2164],[77.451,23.2112],[77.4583,23.212],[77.4618,23.2061],[77.4656,23.2088]]]},"properties":{"objectid":39265,"statename":"Madhya Pradesh","statecode":"23","districtname":null,"districtcode":"444","ulbname":"Bhopal","ulbcode":"802312","wardname":"Saket Sakti","wardcode":"57","id":null,"remark":"","st_area(shape)":0.0003675558104999601,"st_perimeter(shape)":0.1455372333774488}},{"type":"Feature","geometry":{"type":"Polygon","coordinates":[[[77.4663,23.2319],[77.4661,23.25],[77.45,23.2525],[77.4501,23.2467],[77.4484,23.249],[77.4429,23.2465],[77.4413,23.25],[77.4378,23.2488],[77.437,23.246],[77.4351,23.2467],[77.4339,23.2458],[77.4369,23.2436],[77.4384,23.2468],[77.4424,23.2467],[77.4427,23.2449],[77.4501,23.2451],[77.4503,23.2357],[77.4428,23.2402],[77.4423,23.239],[77.4441,23.2389],[77.4431,23.233],[77.4445,23.233],[77.4456,23.2307],[77.4425,23.2278],[77.4438,23.2238],[77.4522,23.2248],[77.4498,23.2274],[77.4499,23.2288],[77.4476,23.2287],[77.4464,23.2317],[77.4663,23.2319]]]},"properties":{"objectid":39266,"statename":"Madhya Pradesh","statecode":"23","districtname":null,"districtcode":"444","ulbname":"Bhopal","ulbcode":"802312","wardname":"Barkheda Bhel","wardcode":"59","id":null,"remark":"","st_area(shape)":0.00043529064150002304,"st_perimeter(shape)":0.1710891902687536}},{"type":"Feature","geometry":{"type":"Polygon","coordinates":[[[77.4869,23.2477],[77.4855,23.2486],[77.4847,23.2519],[77.4755,23.249],[77.4661,23.25],[77.4663,23.2319],[77.475,23.232],[77.4857,23.2301],[77.4857,23.2436],[77.4869,23.2477]]]},"properties":{"objectid":39546,"statename":"Madhya Pradesh","statecode":"23","districtname":null,"districtcode":"444","ulbname":"Bhopal","ulbcode":"802312","wardname":"Gautam Buddha","wardcode":"63","id":null,"remark":"","st_area(shape)":0.00036240464950005957,"st_perimeter(shape)":0.08002182682876013}},{"type":"Feature","geometry":{"type":"Polygon","coordinates":[[[77.4131,23.2193],[77.4075,23.2213],[77.407,23.2253],[77.4023,23.2246],[77.4038,23.2213],[77.4085,23.221],[77.4087,23.2192],[77.4172,23.215],[77.4183,23.2132],[77.414,23.2115],[77.414,23.2069],[77.4107,23.2004],[77.4116,23.2002],[77.4113,23.1963],[77.4099,23.1962],[77.4145,23.194],[77.4139,23.1912],[77.4171,23.1897],[77.4169,23.1969],[77.4212,23.2008],[77.4178,23.2038],[77.4189,23.2074],[77.4201,23.2072],[77.4207,23.2111],[77.4185,23.2174],[77.4131,23.2193]]]},"properties":{"objectid":39547,"statename":"Madhya Pradesh","statecode":"23","districtname":null,"districtcode":"444","ulbname":"Bhopal","ulbcode":"802312","wardname":"Khushabhau Thakre","wardcode":"30","id":null,"remark":"","st_area(shape)":0.00017283255949968607,"st_perimeter(shape)":0.11953931143883738}},{"type":"Feature","geometry":{"type":"Polygon","coordinates":[[[77.423,23.2627],[77.422,23.2646],[77.4156,23.263],[77.4147,23.2616],[77.4171,23.2593],[77.4192,23.2599],[77.4175,23.257],[77.4217,23.2568],[77.4218,23.2595],[77.4238,23.2591],[77.423,23.2627]]]},"properties":{"objectid":39949,"statename":"Madhya Pradesh","statecode":"23","districtname":null,"districtcode":"444","ulbname":"Bhopal","ulbcode":"802312","wardname":"Naveen Nagar","wardcode":"39","id":null,"remark":"","st_area(shape)":4.08453864999633e-05,"st_perimeter(shape)":0.03729238886611462}},{"type":"Feature","geometry":{"type":"Polygon","coordinates":[[[77.4318,23.2468],[77.4279,23.2495],[77.4299,23.2525],[77.4256,23.253],[77.4238,23.2501],[77.4223,23.2503],[77.4238,23.2477],[77.418,23.2446],[77.4242,23.239],[77.4235,23.236],[77.4269,23.2351],[77.4268,23.2334],[77.4187,23.2313],[77.4277,23.2307],[77.4285,23.2284],[77.4305,23.2293],[77.4323,23.2276],[77.4331,23.2287],[77.4343,23.2264],[77.4353,23.2269],[77.4326,23.2312],[77.4368,23.2338],[77.4342,23.2441],[77.4318,23.2468]]]},"properties":{"objectid":39950,"statename":"Madhya Pradesh","statecode":"23","districtname":null,"districtcode":"444","ulbname":"Bhopal","ulbcode":"802312","wardname":"Maharana Pratap","wardcode":"43","id":null,"remark":"","st_area(shape)":0.00024845203649970275,"st_perimeter(shape)":0.10046566279128606}},{"type":"Feature","geometry":{"type":"Polygon","coordinates":[[[77.5089,23.2354],[77.5145,23.2284],[77.5195,23.2255],[77.5231,23.225],[77.524,23.2288],[77.5274,23.2318],[77.5269,23.2346],[77.5298,23.2382],[77.5216,23.242],[77.5182,23.2529],[77.5195,23.2574],[77.5172,23.261],[77.5196,23.2635],[77.5199,23.266],[77.5257,23.2705],[77.5235,23.2723],[77.5073,23.2751],[77.5081,23.2783],[77.5061,23.2791],[77.4997,23.2766],[77.5019,23.27],[77.5004,23.2656],[77.4934,23.2566],[77.4847,23.2519],[77.486,23.248],[77.505,23.2444],[77.5067,23.2372],[77.5104,23.2376],[77.5089,23.2354]]]},"properties":{"objectid":39978,"statename":"Madhya Pradesh","statecode":"23","districtname":null,"districtcode":"444","ulbname":"Bhopal","ulbcode":"802312","wardname":"Hathaikheda","wardcode":"62","id":null,"remark":"","st_area(shape)":0.0010676723830661374,"st_perimeter(shape)":0.18879452944455463}},{"type":"Feature","geometry":{"type":"Polygon","coordinates":[[[77.4142,23.1612],[77.4057,23.1254],[77.4103,23.1222],[77.4129,23.1231],[77.4158,23.122],[77.4155,23.1196],[77.4194,23.1176],[77.4213,23.1149],[77.4231,23.1157],[77.4249,23.124],[77.4264,23.1257],[77.4317,23.12],[77.4317,23.1185],[77.4343,23.1175],[77.4424,23.1159],[77.4453,23.121],[77.4476,23.12],[77.4479,23.1211],[77.4508,23.12],[77.4511,23.1188],[77.4524,23.1201],[77.4531,23.1162],[77.4563,23.1156],[77.4562,23.121],[77.4603,23.1284],[77.4627,23.1272],[77.4637,23.1245],[77.467,23.1242],[77.4665,23.1267],[77.4694,23.1267],[77.4699,23.124],[77.4675,23.1231],[77.4717,23.1214],[77.4696,23.1193],[77.4735,23.1199],[77.475,23.1178],[77.4762,23.1199],[77.478,23.12],[77.4769,23.1176],[77.4777,23.1155],[77.4801,23.1158],[77.4796,23.1189],[77.4815,23.1201],[77.4832,23.1183],[77.4823,23.1134],[77.4849,23.1135],[77.4863,23.1156],[77.4889,23.1134],[77.4916,23.1151],[77.4924,23.1115],[77.4947,23.1129],[77.4957,23.1158],[77.4914,23.1239],[77.4956,23.128],[77.4977,23.1357],[77.4884,23.1441],[77.4752,23.1451],[77.4686,23.144],[77.4582,23.1472],[77.4503,23.1543],[77.4465,23.1526],[77.4406,23.1542],[77.4391,23.1533],[77.4374,23.1543],[77.4377,23.1558],[77.4357,23.158],[77.433,23.1573],[77.4324,23.1597],[77.4284,23.1598],[77.4283,23.1611],[77.4239,23.1606],[77.4195,23.1583],[77.4142,23.1612]]]},"properties":{"objectid":39980,"statename":"Madhya Pradesh","statecode":"23","districtname":null,"districtcode":"444","ulbname":"Bhopal","ulbcode":"802312","wardname":"Ratanpur Road","wardcode":"84","id":null,"remark":"","st_area(shape)":0.0027230069143585416,"st_perimeter(shape)":0.3535806162918399}},{"type":"Feature","geometry":{"type":"Polygon","coordinates":[[[77.4717,23.145],[77.4884,23.1441],[77.495,23.1387],[77.4977,23.1357],[77.4956,23.128],[77.4919,23.1248],[77.4916,23.122],[77.4957,23.1158],[77.4978,23.1174],[77.5007,23.1151],[77.5006,23.1135],[77.5087,23.111],[77.5108,23.1117],[77.5117,23.1137],[77.5096,23.1169],[77.5128,23.1177],[77.5147,23.1208],[77.5163,23.1201],[77.516,23.1164],[77.5226,23.1181],[77.5243,23.1162],[77.5309,23.1193],[77.5346,23.119],[77.5354,23.1203],[77.5332,23.1225],[77.5333,23.1209],[77.5313,23.1217],[77.5293,23.1201],[77.5232,23.1236],[77.5243,23.1248],[77.5224,23.1274],[77.5254,23.1284],[77.5253,23.1333],[77.5276,23.1352],[77.5307,23.1416],[77.5308,23.1471],[77.5254,23.1503],[77.5245,23.153],[77.5214,23.1533],[77.5207,23.1616],[77.5155,23.172],[77.5156,23.1787],[77.5169,23.1818],[77.5146,23.1821],[77.5122,23.1879],[77.5088,23.1885],[77.5068,23.1905],[77.5077,23.1924],[77.5048,23.1993],[77.4977,23.1944],[77.495,23.1944],[77.4936,23.1971],[77.4907,23.1984],[77.4889,23.1946],[77.4856,23.1918],[77.4863,23.1902],[77.484,23.184],[77.4824,23.1837],[77.4819,23.1849],[77.4806,23.1845],[77.4807,23.1829],[77.4783,23.1827],[77.4765,23.1795],[77.4807,23.1768],[77.4808,23.1736],[77.4828,23.1727],[77.4834,23.1685],[77.4863,23.166],[77.4858,23.1625],[77.487,23.1618],[77.4871,23.1584],[77.4762,23.1573],[77.4734,23.1539],[77.4717,23.145]]]},"properties":{"objectid":39981,"statename":"Madhya Pradesh","statecode":"23","districtname":null,"districtcode":"444","ulbname":"Bhopal","ulbcode":"802312","wardname":"Katara","wardcode":"85","id":null,"remark":"","st_area(shape)":0.002858154814119772,"st_perimeter(shape)":0.3479593165231614}},{"type":"Feature","geometry":{"type":"Polygon","coordinates":[[[77.4586,23.2922],[77.4555,23.29],[77.4594,23.2898],[77.4582,23.2836],[77.457,23.2836],[77.4553,23.2787],[77.4625,23.2767],[77.4689,23.2688],[77.4649,23.2645],[77.4645,23.2617],[77.4669,23.2609],[77.4684,23.2636],[77.4696,23.2628],[77.4703,23.2656],[77.4718,23.265],[77.4785,23.2707],[77.4786,23.2719],[77.4805,23.2729],[77.4793,23.2741],[77.4799,23.2759],[77.4819,23.2757],[77.4833,23.2777],[77.4825,23.2791],[77.4752,23.2822],[77.4762,23.2885],[77.4692,23.2859],[77.4672,23.2869],[77.4686,23.2892],[77.4629,23.2933],[77.4586,23.2922]]]},"properties":{"objectid":40379,"statename":"Madhya Pradesh","statecode":"23","districtname":null,"districtcode":"444","ulbname":"Bhopal","ulbcode":"802312","wardname":"Ayodhya Nagar","wardcode":"68","id":null,"remark":"","st_area(shape)":0.0004037179475905032,"st_perimeter(shape)":0.12204002997856653}},{"type":"Feature","geometry":{"type":"Polygon","coordinates":[[[77.3775,23.1913],[77.3725,23.1889],[77.3693,23.1818],[77.369,23.1787],[77.3707,23.1737],[77.3793,23.1711],[77.3818,23.168],[77.3881,23.171],[77.3905,23.174],[77.3958,23.1728],[77.4012,23.1745],[77.3996,23.1786],[77.3996,23.1853],[77.4044,23.1863],[77.4045,23.1891],[77.4027,23.19],[77.4,23.1958],[77.4003,23.1993],[77.4026,23.2001],[77.4066,23.1965],[77.4079,23.1973],[77.4113,23.1963],[77.4116,23.2002],[77.4107,23.2004],[77.414,23.2069],[77.4139,23.2113],[77.4178,23.2122],[77.4177,23.2147],[77.4087,23.2192],[77.4085,23.221],[77.4063,23.2213],[77.4054,23.2195],[77.4038,23.221],[77.3976,23.2162],[77.3981,23.2135],[77.3955,23.2156],[77.3918,23.212],[77.3857,23.2119],[77.3815,23.2102],[77.3805,23.2082],[77.3778,23.2087],[77.3766,23.2073],[77.3696,23.2055],[77.3702,23.2035],[77.372,23.2036],[77.3803,23.1986],[77.3805,23.1973],[77.3778,23.1954],[77.3775,23.1913]]]},"properties":{"objectid":40380,"statename":"Madhya Pradesh","statecode":"23","districtname":null,"districtcode":"444","ulbname":"Bhopal","ulbcode":"802312","wardname":"Maulana Abdul Kalaam Azad","wardcode":"29","id":null,"remark":"","st_area(shape)":0.0013833246844771733,"st_perimeter(shape)":0.2188286420594195}},{"type":"Feature","geometry":{"type":"Polygon","coordinates":[[[77.4821,23.1997],[77.4783,23.1979],[77.4688,23.2039],[77.4671,23.2101],[77.4618,23.2061],[77.4638,23.2001],[77.4583,23.1988],[77.4592,23.1951],[77.4574,23.1944],[77.4706,23.195],[77.4707,23.1963],[77.472,23.1962],[77.4716,23.1943],[77.4744,23.1936],[77.4774,23.1872],[77.4726,23.1861],[77.4744,23.1834],[77.4744,23.1799],[77.4765,23.1795],[77.4783,23.1827],[77.4807,23.1829],[77.4806,23.1845],[77.484,23.184],[77.4863,23.1902],[77.4821,23.1997]]]},"properties":{"objectid":40381,"statename":"Madhya Pradesh","statecode":"23","districtname":null,"districtcode":"444","ulbname":"Bhopal","ulbcode":"802312","wardname":"Bagmugaliya","wardcode":"55","id":null,"remark":"","st_area(shape)":0.0002999016299288176,"st_perimeter(shape)":0.12430016067923702}},{"type":"Feature","geometry":{"type":"Polygon","coordinates":[[[77.3804,23.1687],[77.3787,23.165],[77.374,23.1648],[77.3699,23.161],[77.3685,23.1529],[77.365,23.1484],[77.3673,23.1414],[77.3663,23.1349],[77.37,23.1326],[77.382,23.1296],[77.3893,23.1336],[77.3949,23.1312],[77.3997,23.1307],[77.4005,23.1295],[77.4035,23.1298],[77.4048,23.128],[77.4046,23.1246],[77.4167,23.1715],[77.4144,23.1749],[77.4098,23.1768],[77.4104,23.18],[77.4058,23.1787],[77.3997,23.1797],[77.4012,23.1745],[77.3958,23.1728],[77.3905,23.174],[77.3881,23.171],[77.3818,23.168],[77.3804,23.1687]]]},"properties":{"objectid":40769,"statename":"Madhya Pradesh","statecode":"23","districtname":null,"districtcode":"444","ulbname":"Bhopal","ulbcode":"802312","wardname":"Kanha Kunj","wardcode":"81","id":null,"remark":"","st_area(shape)":0.0017950257496387246,"st_perimeter(shape)":0.19747318785671664}},{"type":"Feature","geometry":{"type":"Polygon","coordinates":[[[77.4503,23.3119],[77.454,23.3145],[77.4484,23.3219],[77.4483,23.3246],[77.4473,23.3231],[77.4452,23.3243],[77.4398,23.3216],[77.4338,23.322],[77.4327,23.3199],[77.4311,23.3204],[77.4332,23.3152],[77.4306,23.3135],[77.4313,23.311],[77.4298,23.3078],[77.4285,23.3084],[77.4269,23.3064],[77.4281,23.304],[77.4326,23.306],[77.4358,23.3127],[77.4391,23.312],[77.4401,23.3065],[77.4353,23.3022],[77.4306,23.3046],[77.43,23.3034],[77.4282,23.3035],[77.4287,23.3022],[77.4272,23.3007],[77.419,23.3034],[77.4195,23.2961],[77.4229,23.2962],[77.4236,23.2979],[77.4258,23.2981],[77.4258,23.2955],[77.4213,23.2956],[77.4207,23.2942],[77.4279,23.2913],[77.4383,23.3047],[77.4503,23.3119]]]},"properties":{"objectid":40770,"statename":"Madhya Pradesh","statecode":"23","districtname":null,"districtcode":"444","ulbname":"Bhopal","ulbcode":"802312","wardname":"Rajiv Gandhi","wardcode":"72","id":null,"remark":"","st_area(shape)":0.0003888570618121873,"st_perimeter(shape)":0.18823314388990964}},{"type":"Feature","geometry":{"type":"Polygon","coordinates":[[[77.367,23.3107],[77.3673,23.3152],[77.3638,23.3201],[77.3632,23.3256],[77.3617,23.3257],[77.3615,23.3321],[77.3566,23.3335],[77.3389,23.3299],[77.3278,23.31],[77.341,23.2989],[77.3415,23.3002],[77.3425,23.2998],[77.345,23.2977],[77.3442,23.2961],[77.3467,23.295],[77.3612,23.3012],[77.3645,23.3015],[77.367,23.3107]]]},"properties":{"objectid":41164,"statename":"Madhya Pradesh","statecode":"23","districtname":null,"districtcode":"444","ulbname":"Bhopal","ulbcode":"802312","wardname":"Mahatma Gandhi Ward","wardcode":"1","id":null,"remark":"","st_area(shape)":0.0010258780082621631,"st_perimeter(shape)":0.12984181426292185}},{"type":"Feature","geometry":{"type":"Polygon","coordinates":[[[77.4911,23.2552],[77.5004,23.2656],[77.5019,23.27],[77.4989,23.2786],[77.5019,23.2836],[77.5051,23.2848],[77.5033,23.2855],[77.504,23.2868],[77.5017,23.2901],[77.4994,23.2887],[77.4999,23.2864],[77.4943,23.2834],[77.4914,23.2801],[77.4879,23.2813],[77.4884,23.2759],[77.4859,23.2757],[77.4832,23.2776],[77.4819,23.2757],[77.4799,23.2759],[77.4793,23.2741],[77.4805,23.2729],[77.4718,23.265],[77.4782,23.2566],[77.4789,23.254],[77.4754,23.2549],[77.4736,23.2538],[77.4718,23.2542],[77.4717,23.2529],[77.4674,23.2534],[77.4671,23.2498],[77.4755,23.249],[77.4855,23.252],[77.4911,23.2552]]]},"properties":{"objectid":41165,"statename":"Madhya Pradesh","statecode":"23","districtname":null,"districtcode":"444","ulbname":"Bhopal","ulbcode":"802312","wardname":"Sonagiri","wardcode":"64","id":null,"remark":"","st_area(shape)":0.0006481070428952844,"st_perimeter(shape)":0.1620095290919697}},{"type":"Feature","geometry":{"type":"Polygon","coordinates":[[[77.314,23.2521],[77.3124,23.2385],[77.3108,23.234],[77.311,23.2286],[77.3153,23.2275],[77.3223,23.2299],[77.3276,23.2295],[77.3298,23.2315],[77.333,23.2296],[77.3332,23.2181],[77.3356,23.2153],[77.3384,23.205],[77.3361,23.2023],[77.3324,23.1882],[77.3374,23.1879],[77.3478,23.1843],[77.3497,23.1855],[77.3537,23.1941],[77.3642,23.1954],[77.3714,23.1922],[77.3775,23.1913],[77.3778,23.1954],[77.3805,23.1973],[77.3803,23.1986],[77.372,23.2036],[77.3702,23.2035],[77.3696,23.2055],[77.3766,23.2073],[77.3778,23.2087],[77.3805,23.2082],[77.3815,23.2102],[77.3869,23.2122],[77.3839,23.2146],[77.3893,23.2156],[77.3852,23.2164],[77.3842,23.2191],[77.385,23.2197],[77.386,23.218],[77.3889,23.2174],[77.3903,23.2183],[77.3918,23.2239],[77.3894,23.2245],[77.387,23.2223],[77.3845,23.2239],[77.3834,23.2227],[77.3762,23.2279],[77.3755,23.2323],[77.3797,23.2395],[77.3781,23.2412],[77.3686,23.2422],[77.3611,23.2388],[77.3615,23.2486],[77.359,23.2483],[77.3552,23.2523],[77.352,23.2518],[77.3478,23.254],[77.3472,23.2555],[77.3434,23.2555],[77.3359,23.2506],[77.3322,23.2528],[77.3255,23.2513],[77.3237,23.2539],[77.3214,23.2513],[77.3166,23.2529],[77.314,23.2521]]]},"properties":{"objectid":41166,"statename":"Madhya Pradesh","statecode":"23","districtname":null,"districtcode":"444","ulbname":"Bhopal","ulbcode":"802312","wardname":"Dr. Ambedkar","wardcode":"26","id":null,"remark":"","st_area(shape)":0.0030802700290531396,"st_perimeter(shape)":0.3542656429323467}},{"type":"Feature","geometry":{"type":"Polygon","coordinates":[[[77.3322,23.2736],[77.334,23.2767],[77.3337,23.2807],[77.3233,23.2829],[77.3147,23.2865],[77.3177,23.2929],[77.3084,23.2972],[77.3087,23.2983],[77.3037,23.3008],[77.3043,23.3019],[77.3097,23.2993],[77.3112,23.3003],[77.317,23.2975],[77.3198,23.3008],[77.3192,23.3099],[77.316,23.307],[77.3028,23.3022],[77.2971,23.2984],[77.2957,23.2912],[77.2927,23.2882],[77.2909,23.3005],[77.2853,23.3036],[77.2785,23.305],[77.2606,23.3065],[77.2608,23.3019],[77.2707,23.2863],[77.2713,23.2835],[77.271,23.2783],[77.2677,23.2721],[77.2654,23.2716],[77.2644,23.2691],[77.2643,23.2603],[77.2631,23.2597],[77.2639,23.256],[77.2709,23.2427],[77.283,23.2456],[77.2901,23.244],[77.2893,23.2461],[77.2917,23.2482],[77.2947,23.2474],[77.2937,23.2492],[77.2928,23.2489],[77.2936,23.2505],[77.3014,23.253],[77.3046,23.2526],[77.3066,23.2505],[77.308,23.2528],[77.3104,23.2519],[77.3166,23.2529],[77.322,23.2514],[77.3237,23.2539],[77.3255,23.2513],[77.3322,23.2528],[77.3341,23.251],[77.3373,23.2509],[77.3382,23.2514],[77.3308,23.2582],[77.3268,23.2694],[77.3335,23.2704],[77.3322,23.2736]]]},"properties":{"objectid":45133,"statename":"Madhya Pradesh","statecode":"23","districtname":null,"districtcode":"444","ulbname":"Bhopal","ulbcode":"802312","wardname":"Bhori","wardcode":"3","id":null,"remark":"","st_area(shape)":0.00319180136864939,"st_perimeter(shape)":0.36108258349170796}},{"type":"Feature","geometry":{"type":"MultiPolygon","coordinates":[[[[77.4285,23.3083],[77.4298,23.3078],[77.4309,23.3123],[77.4238,23.3165],[77.4208,23.3168],[77.4155,23.314],[77.4173,23.3032],[77.4214,23.3032],[77.4272,23.3007],[77.4287,23.3022],[77.4282,23.3035],[77.43,23.3034],[77.4306,23.3046],[77.4353,23.3022],[77.4401,23.3065],[77.4402,23.309],[77.439,23.3121],[77.4353,23.3126],[77.4326,23.306],[77.4281,23.304],[77.4269,23.3071],[77.4283,23.3071],[77.4285,23.3083]]],[[[77.4202,23.2872],[77.4179,23.2883],[77.4147,23.2855],[77.411,23.2868],[77.4081,23.2849],[77.4134,23.2798],[77.4185,23.2789],[77.4246,23.2867],[77.4202,23.2872]]]]},"properties":{"objectid":67056,"statename":"Madhya Pradesh","statecode":"23","districtname":"Bhopal","districtcode":"444","ulbname":"Bhopal","ulbcode":"802312","wardname":"Chola","wardcode":"76","id":null,"remark":"","st_area(shape)":0.00030971663910990175,"st_perimeter(shape)":0.14406958815044665}},{"type":"Feature","geometry":{"type":"Polygon","coordinates":[[[77.3909,23.3198],[77.3878,23.3164],[77.3805,23.3133],[77.3784,23.31],[77.3732,23.3093],[77.367,23.3107],[77.3645,23.3015],[77.3602,23.3008],[77.358,23.2997],[77.3585,23.2986],[77.3669,23.2995],[77.369,23.2974],[77.3761,23.3004],[77.3782,23.294],[77.3768,23.2921],[77.3783,23.2901],[77.3758,23.2869],[77.3759,23.285],[77.3851,23.2902],[77.3929,23.2909],[77.3931,23.2982],[77.3913,23.2994],[77.3932,23.2989],[77.3937,23.3029],[77.4026,23.3029],[77.4023,23.3013],[77.4042,23.301],[77.4052,23.3117],[77.4045,23.317],[77.4025,23.319],[77.4012,23.3192],[77.3981,23.3141],[77.3926,23.3164],[77.3926,23.3187],[77.3909,23.3198]]]},"properties":{"objectid":67059,"statename":"Madhya Pradesh","statecode":"23","districtname":null,"districtcode":"444","ulbname":"Bhopal","ulbcode":"802312","wardname":"Badbai","wardcode":"75","id":null,"remark":"","st_area(shape)":0.0007221268645283265,"st_perimeter(shape)":0.1767734850031393}}]}