{"type":"FeatureCollection","features":[{"type":"Feature","geometry":{"type":"Polygon","coordinates":[[[75.8262,22.7122],[75.8227,22.7107],[75.8231,22.7069],[75.8278,22.7084],[75.8271,22.7123],[75.8262,22.7122]]]},"properties":{"objectid":37364,"statename":"Madhya Pradesh","statecode":"23","districtname":null,"districtcode":"439","ulbname":"Indore (Imc)","ulbcode":"802273","wardname":"Chandan Nagar","wardcode":"2","id":null,"remark":"","st_area(shape)":2.053577834430874e-05,"st_perimeter(shape)":0.018200145242154027}},{"type":"Feature","geometry":{"type":"Polygon","coordinates":[[[75.8636,22.7358],[75.8565,22.7449],[75.8528,22.7436],[75.8532,22.7399],[75.85,22.734],[75.8571,22.7346],[75.8574,22.7307],[75.8546,22.7299],[75.8574,22.729],[75.857,22.7248],[75.8532,22.7244],[75.856,22.719],[75.8628,22.72],[75.8635,22.7171],[75.8665,22.7172],[75.8665,22.7197],[75.8684,22.7198],[75.8685,22.7236],[75.865,22.7238],[75.8634,22.7217],[75.862,22.7225],[75.8633,22.7298],[75.8616,22.7327],[75.8636,22.7358]]]},"properties":{"objectid":37365,"statename":"Madhya Pradesh","statecode":"23","districtname":null,"districtcode":"439","ulbname":"Indore (Imc)","ulbcode":"802273","wardname":"Devi Ahilyabai","wardcode":"57","id":null,"remark":"","st_area(shape)":0.00021135153875983446,"st_perimeter(shape)":0.10649992164231717}},{"type":"Feature","geometry":{"type":"Polygon","coordinates":[[[75.9246,22.802],[75.9212,22.8022],[75.9191,22.8063],[75.8996,22.806],[75.9021,22.7931],[75.899,22.7848],[75.8862,22.7861],[75.8865,22.7915],[75.8896,22.7951],[75.8867,22.7998],[75.8908,22.8052],[75.8874,22.8086],[75.8891,22.8104],[75.8924,22.811],[75.8927,22.8122],[75.8901,22.8149],[75.8902,22.8172],[75.8837,22.8167],[75.8846,22.8155],[75.8821,22.8148],[75.8837,22.8096],[75.882,22.8085],[75.8829,22.8052],[75.8817,22.8049],[75.8809,22.8018],[75.8796,22.8018],[75.8805,22.8007],[75.8801,22.794],[75.8733,22.7725],[75.8767,22.7709],[75.8785,22.7738],[75.8818,22.7746],[75.8823,22.7786],[75.8858,22.7809],[75.8861,22.7845],[75.8876,22.7845],[75.891,22.7841],[75.891,22.7825],[75.9006,22.7767],[75.8992,22.7725],[75.9017,22.7717],[75.9028,22.775],[75.9117,22.7749],[75.9195,22.7727],[75.9321,22.7729],[75.931,22.7814],[75.925,22.7939],[75.9246,22.802]]]},"properties":{"objectid":37366,"statename":"Madhya Pradesh","statecode":"23","districtname":null,"districtcode":"439","ulbname":"Indore (Imc)","ulbcode":"802273","wardname":"Lasudiya Mori","wardcode":"35","id":null,"remark":"","st_area(shape)":0.0012841493170544194,"st_perimeter(shape)":0.28449105247625484}},{"type":"Feature","geometry":{"type":"Polygon","coordinates":[[[75.9119,22.7317],[75.9084,22.7318],[75.9088,22.7347],[75.9123,22.7342],[75.9086,22.7352],[75.9112,22.7387],[75.9136,22.7381],[75.9134,22.7396],[75.9119,22.7396],[75.9115,22.7426],[75.9159,22.7421],[75.9167,22.7455],[75.914,22.7453],[75.9121,22.7428],[75.9032,22.7428],[75.9034,22.7401],[75.9037,22.7411],[75.9062,22.7408],[75.9069,22.7373],[75.9055,22.7356],[75.9031,22.7359],[75.903,22.7339],[75.9038,22.7341],[75.9021,22.7317],[75.8992,22.7307],[75.9042,22.7305],[75.9062,22.7267],[75.91,22.7275],[75.9099,22.7242],[75.9119,22.7263],[75.9119,22.728],[75.91,22.7286],[75.9119,22.7317]]]},"properties":{"objectid":37367,"statename":"Madhya Pradesh","statecode":"23","districtname":null,"districtcode":"439","ulbname":"Indore (Imc)","ulbcode":"802273","wardname":"Khajrana Ganesh","wardcode":"40","id":null,"remark":"","st_area(shape)":0.00011562536281386347,"st_perimeter(shape)":0.11425188851195403}},{"type":"Feature","geometry":{"type":"Polygon","coordinates":[[[75.8403,22.7431],[75.837,22.7435],[75.8367,22.742],[75.8305,22.7417],[75.8284,22.7364],[75.8413,22.727],[75.8435,22.7266],[75.8435,22.7303],[75.8412,22.7303],[75.8412,22.734],[75.8436,22.7336],[75.8435,22.7375],[75.8445,22.7374],[75.8403,22.7431]]]},"properties":{"objectid":37368,"statename":"Madhya Pradesh","statecode":"23","districtname":null,"districtcode":"439","ulbname":"Indore (Imc)","ulbcode":"802273","wardname":"Sangam Nagar","wardcode":"13","id":null,"remark":"","st_area(shape)":0.00015444789899393785,"st_perimeter(shape)":0.06142359921839346}},{"type":"Feature","geometry":{"type":"Polygon","coordinates":[[[75.9,22.7076],[75.8984,22.7021],[75.892,22.7057],[75.8913,22.7026],[75.8882,22.7042],[75.8829,22.7114],[75.8794,22.7092],[75.8778,22.7047],[75.8816,22.7013],[75.8889,22.7006],[75.897,22.6933],[75.9116,22.6907],[75.9125,22.6981],[75.911,22.6981],[75.9109,22.7004],[75.9069,22.7008],[75.9058,22.706],[75.9,22.7076]]]},"properties":{"objectid":37369,"statename":"Madhya Pradesh","statecode":"23","districtname":null,"districtcode":"439","ulbname":"Indore (Imc)","ulbcode":"802273","wardname":"Residency","wardcode":"54","id":null,"remark":"","st_area(shape)":0.00030881496806231827,"st_perimeter(shape)":0.10447375947981452}},{"type":"Feature","geometry":{"type":"Polygon","coordinates":[[[75.8374,22.7162],[75.8338,22.7156],[75.8345,22.7174],[75.8312,22.7143],[75.8279,22.7144],[75.8277,22.7127],[75.8293,22.7122],[75.829,22.7089],[75.8258,22.7078],[75.8258,22.7064],[75.8335,22.7089],[75.833,22.706],[75.8375,22.7075],[75.837,22.7084],[75.8386,22.7086],[75.8402,22.713],[75.8428,22.7132],[75.8429,22.7153],[75.8374,22.7162]]]},"properties":{"objectid":37370,"statename":"Madhya Pradesh","statecode":"23","districtname":null,"districtcode":"439","ulbname":"Indore (Imc)","ulbcode":"802273","wardname":"Loknayak Nagar","wardcode":"70","id":null,"remark":"","st_area(shape)":9.967336931588178e-05,"st_perimeter(shape)":0.06271651817298293}},{"type":"Feature","geometry":{"type":"Polygon","coordinates":[[[75.8244,22.6997],[75.8214,22.7052],[75.8159,22.7043],[75.8153,22.7052],[75.804,22.7016],[75.8051,22.6917],[75.8114,22.6892],[75.8156,22.6856],[75.8155,22.6871],[75.8193,22.6874],[75.8192,22.6891],[75.8209,22.6892],[75.8251,22.6983],[75.8244,22.6997]]]},"properties":{"objectid":37371,"statename":"Madhya Pradesh","statecode":"23","districtname":null,"districtcode":"439","ulbname":"Indore (Imc)","ulbcode":"802273","wardname":"Prajapat Nagar","wardcode":"85","id":null,"remark":"","st_area(shape)":0.0002773394526273429,"st_perimeter(shape)":0.0690504121056286}},{"type":"Feature","geometry":{"type":"Polygon","coordinates":[[[75.8836,22.6988],[75.8814,22.6974],[75.8768,22.6999],[75.8774,22.698],[75.8676,22.6926],[75.8769,22.6793],[75.8832,22.6797],[75.882,22.6821],[75.8833,22.6823],[75.884,22.6844],[75.8922,22.687],[75.8921,22.6896],[75.8845,22.6891],[75.886,22.6961],[75.8836,22.6988]]]},"properties":{"objectid":37714,"statename":"Madhya Pradesh","statecode":"23","districtname":null,"districtcode":"439","ulbname":"Indore (Imc)","ulbcode":"802273","wardname":"Chitavad","wardcode":"64","id":null,"remark":"","st_area(shape)":0.0002535725977062549,"st_perimeter(shape)":0.0830270025202557}},{"type":"Feature","geometry":{"type":"Polygon","coordinates":[[[75.8902,22.7218],[75.8882,22.7232],[75.89,22.7235],[75.8902,22.7254],[75.8873,22.7256],[75.8846,22.7198],[75.8834,22.7132],[75.8961,22.7111],[75.8902,22.7218]]]},"properties":{"objectid":37715,"statename":"Madhya Pradesh","statecode":"23","districtname":null,"districtcode":"439","ulbname":"Indore (Imc)","ulbcode":"802273","wardname":"Gita Bhavan","wardcode":"48","id":null,"remark":"","st_area(shape)":9.739610453935935e-05,"st_perimeter(shape)":0.05099393741044552}},{"type":"Feature","geometry":{"type":"Polygon","coordinates":[[[75.833,22.706],[75.8335,22.7089],[75.827,22.7065],[75.8251,22.7076],[75.8251,22.7055],[75.8235,22.7054],[75.8255,22.695],[75.8269,22.6935],[75.8284,22.6938],[75.8286,22.6926],[75.8324,22.6924],[75.8329,22.6942],[75.8346,22.6937],[75.8356,22.6955],[75.8333,22.6978],[75.8356,22.6995],[75.8362,22.7033],[75.8336,22.7039],[75.833,22.706]]]},"properties":{"objectid":37716,"statename":"Madhya Pradesh","statecode":"23","districtname":null,"districtcode":"439","ulbname":"Indore (Imc)","ulbcode":"802273","wardname":"Gushmata Nagar","wardcode":"83","id":null,"remark":"","st_area(shape)":0.00013825066105854308,"st_perimeter(shape)":0.06093510742681481}},{"type":"Feature","geometry":{"type":"Polygon","coordinates":[[[75.9176,22.7473],[75.9177,22.7484],[75.9198,22.7483],[75.92,22.7501],[75.918,22.7502],[75.9182,22.7529],[75.9214,22.7521],[75.9219,22.7616],[75.916,22.7617],[75.9175,22.7559],[75.9061,22.7576],[75.9076,22.7672],[75.9019,22.739],[75.9001,22.7391],[75.9003,22.7371],[75.8977,22.7374],[75.8978,22.7338],[75.9015,22.7354],[75.9023,22.7329],[75.9038,22.7341],[75.903,22.7339],[75.903,22.7358],[75.9055,22.7356],[75.9069,22.7373],[75.9062,22.7408],[75.9037,22.7411],[75.9034,22.7401],[75.9032,22.7428],[75.9121,22.7428],[75.9124,22.7443],[75.9167,22.7455],[75.9176,22.7473]]]},"properties":{"objectid":37717,"statename":"Madhya Pradesh","statecode":"23","districtname":null,"districtcode":"439","ulbname":"Indore (Imc)","ulbcode":"802273","wardname":"Sai Krupa","wardcode":"37","id":null,"remark":"","st_area(shape)":0.0002734661856176606,"st_perimeter(shape)":0.14617476085318218}},{"type":"Feature","geometry":{"type":"Polygon","coordinates":[[[75.872,22.7843],[75.8704,22.7924],[75.8657,22.7925],[75.8652,22.7941],[75.8581,22.7944],[75.8562,22.7854],[75.8532,22.7843],[75.849,22.7896],[75.8473,22.7898],[75.8477,22.7633],[75.85,22.7472],[75.8525,22.7473],[75.854,22.7495],[75.8533,22.7526],[75.857,22.7531],[75.8574,22.7547],[75.8573,22.7568],[75.8555,22.7566],[75.8552,22.7582],[75.85,22.7589],[75.8543,22.7643],[75.8717,22.7792],[75.872,22.7843]]]},"properties":{"objectid":37718,"statename":"Madhya Pradesh","statecode":"23","districtname":null,"districtcode":"439","ulbname":"Indore (Imc)","ulbcode":"802273","wardname":"Vishvakarma","wardcode":"19","id":null,"remark":"","st_area(shape)":0.0005840156685829662,"st_perimeter(shape)":0.14965856680137266}},{"type":"Feature","geometry":{"type":"Polygon","coordinates":[[[75.8723,22.7635],[75.8709,22.7641],[75.8702,22.7608],[75.8679,22.7612],[75.8677,22.7597],[75.8692,22.7592],[75.8694,22.7546],[75.8709,22.7566],[75.8737,22.7571],[75.874,22.7544],[75.8796,22.7529],[75.8801,22.7545],[75.8723,22.7635]]]},"properties":{"objectid":37719,"statename":"Madhya Pradesh","statecode":"23","districtname":null,"districtcode":"439","ulbname":"Indore (Imc)","ulbcode":"802273","wardname":"Pandit Dindayal Upadhyay","wardcode":"22","id":null,"remark":"","st_area(shape)":5.641007256773874e-05,"st_perimeter(shape)":0.04649300109055264}},{"type":"Feature","geometry":{"type":"Polygon","coordinates":[[[75.9175,22.6981],[75.9125,22.6981],[75.9116,22.6907],[75.8997,22.6929],[75.8958,22.69],[75.8921,22.6896],[75.8922,22.687],[75.8963,22.6881],[75.9063,22.687],[75.9211,22.6803],[75.9219,22.6854],[75.9192,22.6859],[75.9198,22.6916],[75.9186,22.6916],[75.9175,22.6981]]]},"properties":{"objectid":38125,"statename":"Madhya Pradesh","statecode":"23","districtname":null,"districtcode":"439","ulbname":"Indore (Imc)","ulbcode":"802273","wardname":"Bhagvati Nagar","wardcode":"51","id":null,"remark":"","st_area(shape)":0.00020536876836216007,"st_perimeter(shape)":0.08858183240551552}},{"type":"Feature","geometry":{"type":"Polygon","coordinates":[[[75.8996,22.7644],[75.8892,22.7666],[75.8897,22.7692],[75.8852,22.769],[75.8823,22.7716],[75.8783,22.7665],[75.8806,22.7654],[75.879,22.7644],[75.8799,22.7634],[75.879,22.7622],[75.881,22.7596],[75.881,22.7625],[75.898,22.7593],[75.8996,22.7644]]]},"properties":{"objectid":38126,"statename":"Madhya Pradesh","statecode":"23","districtname":null,"districtcode":"439","ulbname":"Indore (Imc)","ulbcode":"802273","wardname":"Atal Bihari Vajpeyi","wardcode":"32","id":null,"remark":"","st_area(shape)":0.00013645383032250718,"st_perimeter(shape)":0.06639588836949341}},{"type":"Feature","geometry":{"type":"MultiPolygon","coordinates":[[[[75.8907,22.7357],[75.8892,22.7395],[75.8863,22.7362],[75.8849,22.7372],[75.8841,22.7363],[75.8855,22.7351],[75.8837,22.7324],[75.8867,22.7313],[75.8857,22.73],[75.8869,22.7278],[75.888,22.7275],[75.8907,22.7357]]],[[[75.8809,22.735],[75.88,22.7341],[75.8806,22.7317],[75.882,22.7329],[75.8809,22.735]]]]},"properties":{"objectid":38127,"statename":"Madhya Pradesh","statecode":"23","districtname":null,"districtcode":"439","ulbname":"Indore (Imc)","ulbcode":"802273","wardname":"Drbhimrao Ambedkar","wardcode":"45","id":null,"remark":"","st_area(shape)":4.786234942732489e-05,"st_perimeter(shape)":0.048032714426550875}},{"type":"Feature","geometry":{"type":"Polygon","coordinates":[[[75.8615,22.7201],[75.8536,22.7181],[75.8531,22.7151],[75.8549,22.7149],[75.8527,22.7137],[75.8521,22.7099],[75.8533,22.7096],[75.8533,22.708],[75.8559,22.7077],[75.8559,22.7117],[75.8571,22.7111],[75.8591,22.7135],[75.858,22.7151],[75.8593,22.7164],[75.8585,22.7188],[75.8611,22.7182],[75.8615,22.7201]]]},"properties":{"objectid":38128,"statename":"Madhya Pradesh","statecode":"23","districtname":null,"districtcode":"439","ulbname":"Indore (Imc)","ulbcode":"802273","wardname":"Harsiddhi","wardcode":"59","id":null,"remark":"","st_area(shape)":5.4801335572347415e-05,"st_perimeter(shape)":0.04731280321119498}},{"type":"Feature","geometry":{"type":"Polygon","coordinates":[[[75.9221,22.7464],[75.9176,22.7473],[75.9159,22.7421],[75.9115,22.7426],[75.9119,22.7396],[75.9139,22.739],[75.9127,22.7378],[75.9112,22.7387],[75.9089,22.7359],[75.9123,22.7342],[75.9088,22.7347],[75.9084,22.7318],[75.9125,22.7317],[75.9128,22.7338],[75.9141,22.7333],[75.9145,22.7385],[75.9268,22.7455],[75.9221,22.7464]]]},"properties":{"objectid":38129,"statename":"Madhya Pradesh","statecode":"23","districtname":null,"districtcode":"439","ulbname":"Indore (Imc)","ulbcode":"802273","wardname":"Haji Colony","wardcode":"38","id":null,"remark":"","st_area(shape)":8.560320940586892e-05,"st_perimeter(shape)":0.07534152005965826}},{"type":"Feature","geometry":{"type":"Polygon","coordinates":[[[75.8464,22.7472],[75.8463,22.7497],[75.843,22.75],[75.8435,22.7566],[75.8422,22.7574],[75.8305,22.7567],[75.8328,22.7526],[75.8359,22.7529],[75.8352,22.7514],[75.8361,22.751],[75.8349,22.7497],[75.8369,22.7476],[75.8464,22.7472]]]},"properties":{"objectid":38130,"statename":"Madhya Pradesh","statecode":"23","districtname":null,"districtcode":"439","ulbname":"Indore (Imc)","ulbcode":"802273","wardname":"Kushvah Nagar","wardcode":"17","id":null,"remark":"","st_area(shape)":0.00010164004981343041,"st_perimeter(shape)":0.052862300119201816}},{"type":"Feature","geometry":{"type":"Polygon","coordinates":[[[75.8268,22.721],[75.8252,22.7211],[75.8247,22.7163],[75.8258,22.7163],[75.8257,22.7129],[75.8271,22.7123],[75.8278,22.7084],[75.829,22.7089],[75.8293,22.7118],[75.8277,22.7127],[75.8279,22.7144],[75.8312,22.7143],[75.8326,22.7166],[75.8308,22.7177],[75.8311,22.7197],[75.8268,22.721]]]},"properties":{"objectid":38131,"statename":"Madhya Pradesh","statecode":"23","districtname":null,"districtcode":"439","ulbname":"Indore (Imc)","ulbcode":"802273","wardname":"Rajnagar","wardcode":"5","id":null,"remark":"","st_area(shape)":4.711588408624711e-05,"st_perimeter(shape)":0.04267285998483093}},{"type":"Feature","geometry":{"type":"Polygon","coordinates":[[[75.902,22.7328],[75.9015,22.7354],[75.8973,22.7338],[75.8972,22.7317],[75.8991,22.7307],[75.8954,22.7286],[75.8948,22.7231],[75.8911,22.7235],[75.8913,22.7218],[75.8902,22.7218],[75.8923,22.7188],[75.8956,22.7198],[75.8948,22.7219],[75.8989,22.7211],[75.8964,22.7222],[75.9061,22.72],[75.9058,22.724],[75.9027,22.731],[75.8992,22.7307],[75.9021,22.7317],[75.902,22.7328]]]},"properties":{"objectid":38132,"statename":"Madhya Pradesh","statecode":"23","districtname":null,"districtcode":"439","ulbname":"Indore (Imc)","ulbcode":"802273","wardname":"Swami Vivekanand","wardcode":"42","id":null,"remark":"","st_area(shape)":0.00012108597534772714,"st_perimeter(shape)":0.07941293508133797}},{"type":"Feature","geometry":{"type":"Polygon","coordinates":[[[75.8675,22.7128],[75.8604,22.7132],[75.8602,22.7141],[75.8589,22.7131],[75.8604,22.7108],[75.865,22.7087],[75.8631,22.7067],[75.8639,22.7047],[75.8654,22.7056],[75.8662,22.7033],[75.8674,22.7033],[75.8661,22.7061],[75.8675,22.7081],[75.8716,22.7066],[75.8719,22.7088],[75.8744,22.7073],[75.8757,22.7083],[75.87,22.7121],[75.8696,22.7136],[75.8675,22.7128]]]},"properties":{"objectid":38133,"statename":"Madhya Pradesh","statecode":"23","districtname":null,"districtcode":"439","ulbname":"Indore (Imc)","ulbcode":"802273","wardname":"Ravji Bazar","wardcode":"62","id":null,"remark":"","st_area(shape)":7.295313168189409e-05,"st_perimeter(shape)":0.05951356976948548}},{"type":"Feature","geometry":{"type":"Polygon","coordinates":[[[75.8758,22.7712],[75.8733,22.7725],[75.8775,22.7867],[75.872,22.7843],[75.8717,22.7792],[75.863,22.7718],[75.869,22.7654],[75.8665,22.7655],[75.8655,22.7633],[75.8624,22.7627],[75.8632,22.7598],[75.8647,22.7598],[75.8648,22.7554],[75.8694,22.7546],[75.8692,22.7592],[75.8677,22.7597],[75.8679,22.7612],[75.8702,22.7608],[75.8709,22.7641],[75.8723,22.7635],[75.8758,22.7712]]]},"properties":{"objectid":38134,"statename":"Madhya Pradesh","statecode":"23","districtname":null,"districtcode":"439","ulbname":"Indore (Imc)","ulbcode":"802273","wardname":"Shyam Nagar","wardcode":"21","id":null,"remark":"","st_area(shape)":0.0001933144991373105,"st_perimeter(shape)":0.0994301064041012}},{"type":"Feature","geometry":{"type":"Polygon","coordinates":[[[75.8456,22.7054],[75.8437,22.7054],[75.8422,22.7017],[75.8413,22.7021],[75.8391,22.6986],[75.84,22.6981],[75.838,22.6918],[75.8417,22.6921],[75.8402,22.6862],[75.8428,22.6861],[75.849,22.6936],[75.8445,22.6971],[75.8456,22.7054]]]},"properties":{"objectid":38135,"statename":"Madhya Pradesh","statecode":"23","districtname":null,"districtcode":"439","ulbname":"Indore (Imc)","ulbcode":"802273","wardname":"Lokmanya Nagar","wardcode":"72","id":null,"remark":"","st_area(shape)":0.00010255463040632963,"st_perimeter(shape)":0.05713495932476402}},{"type":"Feature","geometry":{"type":"Polygon","coordinates":[[[75.8324,22.6924],[75.8265,22.6933],[75.824,22.6855],[75.8197,22.6874],[75.8155,22.6871],[75.8158,22.6827],[75.8215,22.683],[75.8215,22.6819],[75.8229,22.6836],[75.8247,22.6829],[75.8269,22.6847],[75.8293,22.6848],[75.8301,22.6866],[75.8331,22.6865],[75.8336,22.6885],[75.8352,22.6882],[75.8357,22.6899],[75.8374,22.6901],[75.8381,22.6921],[75.8324,22.6924]]]},"properties":{"objectid":38136,"statename":"Madhya Pradesh","statecode":"23","districtname":null,"districtcode":"439","ulbname":"Indore (Imc)","ulbcode":"802273","wardname":"Sudama Nagar","wardcode":"82","id":null,"remark":"","st_area(shape)":0.00010879289854855187,"st_perimeter(shape)":0.06822492538856807}},{"type":"Feature","geometry":{"type":"Polygon","coordinates":[[[75.8546,22.744],[75.8554,22.7449],[75.8542,22.7465],[75.8531,22.7459],[75.8528,22.7483],[75.8524,22.7472],[75.8493,22.7473],[75.8484,22.744],[75.8454,22.7444],[75.8454,22.7422],[75.8485,22.7431],[75.8499,22.7421],[75.8495,22.7367],[75.8478,22.7361],[75.8492,22.7338],[75.8532,22.7399],[75.8528,22.7436],[75.8546,22.744]]]},"properties":{"objectid":38586,"statename":"Madhya Pradesh","statecode":"23","districtname":null,"districtcode":"439","ulbname":"Indore (Imc)","ulbcode":"802273","wardname":"Banganga","wardcode":"10","id":null,"remark":"","st_area(shape)":5.1857229887989194e-05,"st_perimeter(shape)":0.054588046877713334}},{"type":"Feature","geometry":{"type":"Polygon","coordinates":[[[75.8547,22.6913],[75.849,22.6936],[75.833,22.6742],[75.8322,22.67],[75.8279,22.6664],[75.8318,22.6657],[75.8329,22.661],[75.8314,22.6585],[75.8348,22.6625],[75.8388,22.6644],[75.8457,22.6723],[75.8531,22.6721],[75.8549,22.6823],[75.8531,22.6886],[75.8541,22.6886],[75.8547,22.6913]]]},"properties":{"objectid":38587,"statename":"Madhya Pradesh","statecode":"23","districtname":null,"districtcode":"439","ulbname":"Indore (Imc)","ulbcode":"802273","wardname":"Choithram","wardcode":"78","id":null,"remark":"","st_area(shape)":0.0003869628468772078,"st_perimeter(shape)":0.10596815622577518}},{"type":"Feature","geometry":{"type":"Polygon","coordinates":[[[75.8908,22.698],[75.8889,22.7006],[75.885,22.7006],[75.8836,22.6988],[75.886,22.6964],[75.8847,22.6889],[75.8897,22.6899],[75.889,22.6951],[75.8901,22.6962],[75.8888,22.698],[75.8908,22.698]]]},"properties":{"objectid":38588,"statename":"Madhya Pradesh","statecode":"23","districtname":null,"districtcode":"439","ulbname":"Indore (Imc)","ulbcode":"802273","wardname":"Drmaulana Azad Nagar","wardcode":"53","id":null,"remark":"","st_area(shape)":5.1081406900310505e-05,"st_perimeter(shape)":0.039762815824709266}},{"type":"Feature","geometry":{"type":"Polygon","coordinates":[[[75.8511,22.7192],[75.8465,22.7197],[75.8462,22.7175],[75.8381,22.7179],[75.8373,22.7158],[75.8429,22.7153],[75.8417,22.7084],[75.8425,22.706],[75.8434,22.7082],[75.846,22.7081],[75.8463,22.7138],[75.8493,22.7141],[75.8495,22.7156],[75.8477,22.7164],[75.8535,22.7162],[75.8536,22.7181],[75.8511,22.7192]]]},"properties":{"objectid":38589,"statename":"Madhya Pradesh","statecode":"23","districtname":null,"districtcode":"439","ulbname":"Indore (Imc)","ulbcode":"802273","wardname":"Jawahar Marg","wardcode":"69","id":null,"remark":"","st_area(shape)":7.883508223377789e-05,"st_perimeter(shape)":0.0664803381122734}},{"type":"Feature","geometry":{"type":"Polygon","coordinates":[[[75.8757,22.7083],[75.8744,22.7073],[75.8719,22.7088],[75.8716,22.7066],[75.8675,22.7081],[75.8661,22.7061],[75.8673,22.7015],[75.8661,22.7011],[75.8654,22.6984],[75.8678,22.6988],[75.8702,22.698],[75.8704,22.6963],[75.8743,22.6962],[75.8777,22.6984],[75.8768,22.6999],[75.8814,22.6974],[75.8842,22.6993],[75.885,22.7006],[75.8812,22.7014],[75.8782,22.7037],[75.8788,22.7074],[75.8757,22.7083]]]},"properties":{"objectid":38590,"statename":"Madhya Pradesh","statecode":"23","districtname":null,"districtcode":"439","ulbname":"Indore (Imc)","ulbcode":"802273","wardname":"Navlakha","wardcode":"63","id":null,"remark":"","st_area(shape)":0.00014252789488486132,"st_perimeter(shape)":0.06843258508120455}},{"type":"Feature","geometry":{"type":"Polygon","coordinates":[[[75.8111,22.6893],[75.8016,22.6902],[75.7873,22.688],[75.7871,22.6836],[75.7856,22.6823],[75.7856,22.6807],[75.7876,22.6809],[75.7874,22.6779],[75.7851,22.6744],[75.7862,22.6706],[75.7846,22.6667],[75.7845,22.6563],[75.786,22.6554],[75.7982,22.6574],[75.8019,22.6561],[75.8131,22.6559],[75.8287,22.6519],[75.8273,22.6433],[75.8283,22.6362],[75.8341,22.6344],[75.8377,22.6273],[75.8407,22.6262],[75.8409,22.6242],[75.8473,22.6297],[75.8462,22.6316],[75.8469,22.6328],[75.851,22.6334],[75.8514,22.6494],[75.8526,22.6497],[75.8527,22.6517],[75.8541,22.6518],[75.8558,22.6571],[75.8399,22.6567],[75.832,22.6579],[75.8313,22.6587],[75.8329,22.661],[75.8318,22.6657],[75.8287,22.6667],[75.8268,22.6667],[75.8236,22.6629],[75.8217,22.6631],[75.8223,22.6679],[75.8177,22.6689],[75.8203,22.677],[75.8189,22.6771],[75.8215,22.683],[75.8158,22.6827],[75.8156,22.6856],[75.8111,22.6893]]]},"properties":{"objectid":38591,"statename":"Madhya Pradesh","statecode":"23","districtname":null,"districtcode":"439","ulbname":"Indore (Imc)","ulbcode":"802273","wardname":"Sukh Nivas","wardcode":"79","id":null,"remark":"","st_area(shape)":0.0018739339372592994,"st_perimeter(shape)":0.2748398419320618}},{"type":"Feature","geometry":{"type":"Polygon","coordinates":[[[75.8227,22.7107],[75.8202,22.7112],[75.8205,22.7181],[75.8164,22.7191],[75.8167,22.7204],[75.8147,22.7208],[75.7989,22.7175],[75.7994,22.7152],[75.8031,22.7111],[75.8103,22.71],[75.8124,22.704],[75.8155,22.7053],[75.8159,22.7043],[75.8214,22.7052],[75.8244,22.6997],[75.8253,22.6999],[75.8235,22.7054],[75.8251,22.7055],[75.8244,22.7073],[75.8231,22.7069],[75.8227,22.7107]]]},"properties":{"objectid":38592,"statename":"Madhya Pradesh","statecode":"23","districtname":null,"districtcode":"439","ulbname":"Indore (Imc)","ulbcode":"802273","wardname":"Sirpur","wardcode":"1","id":null,"remark":"","st_area(shape)":0.0002486119080797753,"st_perimeter(shape)":0.08927323457817622}},{"type":"Feature","geometry":{"type":"Polygon","coordinates":[[[75.8823,22.7716],[75.8814,22.7744],[75.8785,22.7738],[75.8775,22.7713],[75.8758,22.7712],[75.8723,22.7635],[75.8801,22.7545],[75.881,22.7596],[75.8789,22.7641],[75.8806,22.7654],[75.8783,22.7665],[75.8823,22.7716]]]},"properties":{"objectid":38593,"statename":"Madhya Pradesh","statecode":"23","districtname":null,"districtcode":"439","ulbname":"Indore (Imc)","ulbcode":"802273","wardname":"Sukhliya","wardcode":"33","id":null,"remark":"","st_area(shape)":9.241830800517544e-05,"st_perimeter(shape)":0.05616814152499696}},{"type":"Feature","geometry":{"type":"Polygon","coordinates":[[[75.8684,22.7198],[75.8665,22.7197],[75.8665,22.7172],[75.8635,22.7171],[75.8628,22.72],[75.8615,22.7201],[75.8611,22.7182],[75.8588,22.719],[75.8593,22.7164],[75.858,22.7151],[75.8591,22.7135],[75.8675,22.7128],[75.8684,22.7198]]]},"properties":{"objectid":38594,"statename":"Madhya Pradesh","statecode":"23","districtname":null,"districtcode":"439","ulbname":"Indore (Imc)","ulbcode":"802273","wardname":"Ranipura","wardcode":"60","id":null,"remark":"","st_area(shape)":4.809283672772005e-05,"st_perimeter(shape)":0.04086477818703235}},{"type":"Feature","geometry":{"type":"Polygon","coordinates":[[[75.9228,22.725],[75.9191,22.7236],[75.9181,22.7204],[75.9158,22.7213],[75.9133,22.7194],[75.9085,22.7193],[75.908,22.7146],[75.9064,22.7142],[75.9066,22.7061],[75.9058,22.7119],[75.9,22.711],[75.8994,22.7136],[75.8951,22.713],[75.8961,22.7111],[75.8999,22.7096],[75.9,22.7076],[75.9058,22.706],[75.9069,22.7008],[75.9109,22.7004],[75.911,22.6981],[75.9175,22.6981],[75.9185,22.7148],[75.9228,22.725]]]},"properties":{"objectid":40000,"statename":"Madhya Pradesh","statecode":"23","districtname":null,"districtcode":"439","ulbname":"Indore (Imc)","ulbcode":"802273","wardname":"Brajeshvari","wardcode":"50","id":null,"remark":"","st_area(shape)":0.00029218919047527953,"st_perimeter(shape)":0.11902077680455547}},{"type":"Feature","geometry":{"type":"Polygon","coordinates":[[[75.898,22.7593],[75.881,22.7625],[75.8801,22.7545],[75.8906,22.7522],[75.8902,22.75],[75.8886,22.7503],[75.8897,22.7482],[75.8882,22.7467],[75.8893,22.747],[75.889,22.7439],[75.8928,22.7425],[75.898,22.7593]]]},"properties":{"objectid":40001,"statename":"Madhya Pradesh","statecode":"23","districtname":null,"districtcode":"439","ulbname":"Indore (Imc)","ulbcode":"802273","wardname":"Drshyam Prasad Mukharji","wardcode":"29","id":null,"remark":"","st_area(shape)":0.0001774189832936434,"st_perimeter(shape)":0.07209327449437332}},{"type":"Feature","geometry":{"type":"Polygon","coordinates":[[[75.8511,22.7192],[75.8501,22.7224],[75.8515,22.7227],[75.8501,22.7271],[75.8483,22.723],[75.8492,22.7226],[75.8462,22.7229],[75.846,22.7238],[75.8449,22.7215],[75.8461,22.7208],[75.8457,22.7176],[75.8465,22.7197],[75.8511,22.7192]]]},"properties":{"objectid":40002,"statename":"Madhya Pradesh","statecode":"23","districtname":null,"districtcode":"439","ulbname":"Indore (Imc)","ulbcode":"802273","wardname":"Juna Risala","wardcode":"8","id":null,"remark":"","st_area(shape)":2.6770977465064255e-05,"st_perimeter(shape)":0.036066761912094555}},{"type":"Feature","geometry":{"type":"Polygon","coordinates":[[[75.8435,22.7266],[75.8413,22.727],[75.8329,22.7332],[75.8321,22.7293],[75.8332,22.7291],[75.8336,22.7307],[75.8356,22.73],[75.8353,22.7279],[75.8343,22.728],[75.8336,22.7248],[75.8318,22.7251],[75.8318,22.7264],[75.8282,22.7271],[75.8287,22.7223],[75.8308,22.7217],[75.8336,22.7232],[75.8386,22.7206],[75.8424,22.7203],[75.8428,22.7217],[75.8448,22.7209],[75.846,22.7238],[75.8462,22.7229],[75.8492,22.7226],[75.8483,22.723],[75.8494,22.7262],[75.8484,22.727],[75.8466,22.7256],[75.8435,22.7266]]]},"properties":{"objectid":40003,"statename":"Madhya Pradesh","statecode":"23","districtname":null,"districtcode":"439","ulbname":"Indore (Imc)","ulbcode":"802273","wardname":"Janta Colony","wardcode":"7","id":null,"remark":"","st_area(shape)":0.00011695540144777592,"st_perimeter(shape)":0.08098421079379246}},{"type":"Feature","geometry":{"type":"Polygon","coordinates":[[[75.8559,22.7077],[75.8545,22.7084],[75.8456,22.7054],[75.8447,22.6988],[75.8482,22.6991],[75.85,22.6948],[75.8607,22.7051],[75.8591,22.7077],[75.8559,22.7077]]]},"properties":{"objectid":40004,"statename":"Madhya Pradesh","statecode":"23","districtname":null,"districtcode":"439","ulbname":"Indore (Imc)","ulbcode":"802273","wardname":"Shahid Hemu Colony","wardcode":"66","id":null,"remark":"","st_area(shape)":0.00011390382411374599,"st_perimeter(shape)":0.04794326768588095}},{"type":"Feature","geometry":{"type":"Polygon","coordinates":[[[75.8867,22.7238],[75.8684,22.7198],[75.8675,22.7128],[75.8696,22.7136],[75.8704,22.7117],[75.8788,22.7074],[75.8803,22.7101],[75.8829,22.7114],[75.8882,22.7042],[75.8913,22.7026],[75.892,22.7057],[75.8984,22.7021],[75.8999,22.7096],[75.8895,22.7129],[75.8868,22.7121],[75.8863,22.7133],[75.8834,22.7132],[75.8846,22.7198],[75.8867,22.7238]]]},"properties":{"objectid":40005,"statename":"Madhya Pradesh","statecode":"23","districtname":null,"districtcode":"439","ulbname":"Indore (Imc)","ulbcode":"802273","wardname":"Sauth Tukoganj","wardcode":"55","id":null,"remark":"","st_area(shape)":0.0002952571852129165,"st_perimeter(shape)":0.10775081765454982}},{"type":"Feature","geometry":{"type":"Polygon","coordinates":[[[75.9219,22.6854],[75.9324,22.6873],[75.9407,22.6866],[75.9412,22.6976],[75.9421,22.7012],[75.9452,22.7052],[75.948,22.7062],[75.9572,22.7057],[75.9632,22.7079],[75.9774,22.7146],[75.9773,22.717],[75.9798,22.718],[75.9829,22.7219],[75.9855,22.7219],[75.9856,22.7236],[75.9887,22.7233],[75.991,22.7314],[75.987,22.732],[75.9868,22.7341],[75.9825,22.7344],[75.9824,22.744],[75.9796,22.7444],[75.9772,22.7458],[75.9772,22.747],[75.9748,22.7471],[75.9746,22.7495],[75.9561,22.7482],[75.9465,22.7505],[75.9461,22.7531],[75.9369,22.7506],[75.9374,22.7455],[75.9358,22.745],[75.9366,22.7295],[75.9225,22.7255],[75.9185,22.7148],[75.9176,22.6957],[75.9186,22.6916],[75.9198,22.6916],[75.9192,22.6858],[75.9219,22.6854]]]},"properties":{"objectid":40006,"statename":"Madhya Pradesh","statecode":"23","districtname":null,"districtcode":"439","ulbname":"Indore (Imc)","ulbcode":"802273","wardname":"Mundala Nayata","wardcode":"76","id":null,"remark":"","st_area(shape)":0.002725992781406622,"st_perimeter(shape)":0.25902744932058547}},{"type":"Feature","geometry":{"type":"Polygon","coordinates":[[[75.8343,22.728],[75.8307,22.7283],[75.8309,22.7327],[75.8279,22.7334],[75.8276,22.7301],[75.8306,22.7283],[75.8154,22.7294],[75.8154,22.7269],[75.8259,22.7245],[75.8252,22.7213],[75.8268,22.721],[75.8285,22.7215],[75.8291,22.7237],[75.8282,22.7271],[75.8318,22.7264],[75.8318,22.7251],[75.8336,22.7248],[75.8343,22.728]]]},"properties":{"objectid":40007,"statename":"Madhya Pradesh","statecode":"23","districtname":null,"districtcode":"439","ulbname":"Indore (Imc)","ulbcode":"802273","wardname":"Sukhdev Nagar","wardcode":"4","id":null,"remark":"","st_area(shape)":7.897923891079171e-05,"st_perimeter(shape)":0.07111102709622538}},{"type":"Feature","geometry":{"type":"Polygon","coordinates":[[[75.906,22.7199],[75.8964,22.7222],[75.8989,22.7211],[75.8948,22.7219],[75.8956,22.7198],[75.8923,22.7188],[75.895,22.7136],[75.8994,22.7136],[75.9,22.711],[75.9035,22.7111],[75.9058,22.7119],[75.9061,22.7177],[75.9074,22.7175],[75.9075,22.719],[75.906,22.7199]]]},"properties":{"objectid":40008,"statename":"Madhya Pradesh","statecode":"23","districtname":null,"districtcode":"439","ulbname":"Indore (Imc)","ulbcode":"802273","wardname":"Tilaknagar","wardcode":"49","id":null,"remark":"","st_area(shape)":0.00010601235277509227,"st_perimeter(shape)":0.05514604051497094}},{"type":"Feature","geometry":{"type":"Polygon","coordinates":[[[75.8581,22.7944],[75.8579,22.7966],[75.8474,22.7991],[75.8483,22.8144],[75.8443,22.8172],[75.8414,22.816],[75.8427,22.8177],[75.8406,22.822],[75.8382,22.8211],[75.8379,22.8146],[75.8313,22.8175],[75.8264,22.8167],[75.8261,22.8127],[75.8233,22.8109],[75.8234,22.804],[75.83,22.8025],[75.8293,22.7962],[75.8278,22.7923],[75.8254,22.7904],[75.8427,22.7636],[75.8409,22.7588],[75.839,22.7577],[75.8435,22.7566],[75.843,22.75],[75.8463,22.7497],[75.8464,22.7472],[75.85,22.7472],[75.8477,22.7633],[75.8473,22.7898],[75.849,22.7896],[75.8532,22.7843],[75.8562,22.7854],[75.8581,22.7944]]]},"properties":{"objectid":40009,"statename":"Madhya Pradesh","statecode":"23","districtname":null,"districtcode":"439","ulbname":"Indore (Imc)","ulbcode":"802273","wardname":"Sant Kabir","wardcode":"18","id":null,"remark":"","st_area(shape)":0.0011364957627816533,"st_perimeter(shape)":0.22808629465421693}},{"type":"Feature","geometry":{"type":"Polygon","coordinates":[[[75.8973,22.7338],[75.8924,22.7336],[75.8907,22.7357],[75.888,22.7275],[75.8859,22.7291],[75.8867,22.7313],[75.8846,22.7323],[75.8847,22.7313],[75.8816,22.7301],[75.8808,22.7271],[75.8844,22.7274],[75.8843,22.7255],[75.8868,22.7261],[75.887,22.7245],[75.8873,22.7256],[75.8902,22.7254],[75.89,22.7235],[75.8882,22.7232],[75.8902,22.7218],[75.8913,22.7218],[75.8911,22.7235],[75.8948,22.7231],[75.8954,22.7286],[75.8991,22.7307],[75.8972,22.7317],[75.8973,22.7338]]]},"properties":{"objectid":40010,"statename":"Madhya Pradesh","statecode":"23","districtname":null,"districtcode":"439","ulbname":"Indore (Imc)","ulbcode":"802273","wardname":"Shrinagar","wardcode":"43","id":null,"remark":"","st_area(shape)":0.0001065792476028931,"st_perimeter(shape)":0.07834737790895281}},{"type":"Feature","geometry":{"type":"Polygon","coordinates":[[[75.8741,22.7413],[75.8713,22.741],[75.8707,22.7369],[75.8671,22.7375],[75.8661,22.7335],[75.8631,22.7352],[75.8616,22.7327],[75.8633,22.7298],[75.862,22.7225],[75.8634,22.7217],[75.865,22.7238],[75.8685,22.7236],[75.8684,22.7305],[75.874,22.7352],[75.8751,22.7341],[75.8769,22.7359],[75.874,22.7379],[75.8741,22.7413]]]},"properties":{"objectid":40011,"statename":"Madhya Pradesh","statecode":"23","districtname":null,"districtcode":"439","ulbname":"Indore (Imc)","ulbcode":"802273","wardname":"Snehalata Ganj","wardcode":"56","id":null,"remark":"","st_area(shape)":0.00011583546412455895,"st_perimeter(shape)":0.06847587483008141}},{"type":"Feature","geometry":{"type":"Polygon","coordinates":[[[75.8428,22.6861],[75.84,22.6867],[75.8417,22.6921],[75.838,22.6918],[75.8352,22.6882],[75.8336,22.6885],[75.8331,22.6865],[75.8301,22.6866],[75.8301,22.6853],[75.8247,22.6829],[75.8229,22.6836],[75.8189,22.6771],[75.8233,22.6773],[75.8235,22.6787],[75.8279,22.6775],[75.8295,22.6835],[75.8356,22.6835],[75.833,22.6742],[75.8428,22.6861]]]},"properties":{"objectid":40389,"statename":"Madhya Pradesh","statecode":"23","districtname":null,"districtcode":"439","ulbname":"Indore (Imc)","ulbcode":"802273","wardname":"Annapurna","wardcode":"81","id":null,"remark":"","st_area(shape)":0.00013825949743511288,"st_perimeter(shape)":0.0941830217838272}},{"type":"Feature","geometry":{"type":"Polygon","coordinates":[[[75.8534,22.7162],[75.8477,22.7164],[75.8495,22.7156],[75.8493,22.7141],[75.8463,22.7138],[75.8463,22.7103],[75.8484,22.7096],[75.849,22.7133],[75.8547,22.7143],[75.8531,22.7151],[75.8534,22.7162]]]},"properties":{"objectid":40390,"statename":"Madhya Pradesh","statecode":"23","districtname":null,"districtcode":"439","ulbname":"Indore (Imc)","ulbcode":"802273","wardname":"Bambai Bazar","wardcode":"68","id":null,"remark":"","st_area(shape)":2.3458635838878038e-05,"st_perimeter(shape)":0.034261867123707004}},{"type":"Feature","geometry":{"type":"Polygon","coordinates":[[[75.8799,22.6739],[75.878,22.6737],[75.8779,22.6749],[75.8646,22.6752],[75.8596,22.6803],[75.8582,22.6775],[75.8591,22.675],[75.8551,22.6752],[75.8549,22.6715],[75.8457,22.6723],[75.8388,22.6644],[75.8343,22.662],[75.832,22.6579],[75.8399,22.6567],[75.8558,22.6571],[75.8541,22.6518],[75.8527,22.6517],[75.8526,22.6497],[75.8514,22.6494],[75.851,22.6334],[75.8469,22.6328],[75.8462,22.6316],[75.8474,22.6302],[75.8673,22.6305],[75.8868,22.6265],[75.8915,22.6419],[75.8912,22.6431],[75.888,22.6423],[75.8851,22.6562],[75.8964,22.6584],[75.9013,22.6578],[75.9012,22.6625],[75.9028,22.6634],[75.9037,22.6716],[75.8867,22.6741],[75.8799,22.6739]]]},"properties":{"objectid":40391,"statename":"Madhya Pradesh","statecode":"23","districtname":null,"districtcode":"439","ulbname":"Indore (Imc)","ulbcode":"802273","wardname":"Bilawali","wardcode":"77","id":null,"remark":"Final","st_area(shape)":0.0020739877256769315,"st_perimeter(shape)":0.26249059024895727}},{"type":"Feature","geometry":{"type":"Polygon","coordinates":[[[75.8394,22.7573],[75.8427,22.7636],[75.8254,22.7904],[75.8254,22.7778],[75.8227,22.7753],[75.7945,22.7819],[75.7772,22.7813],[75.7759,22.7603],[75.7685,22.7597],[75.7728,22.7523],[75.7736,22.7433],[75.7787,22.7412],[75.7838,22.7415],[75.7935,22.7387],[75.7948,22.7284],[75.798,22.7298],[75.808,22.7289],[75.8093,22.7303],[75.8143,22.7291],[75.8148,22.7316],[75.8186,22.7306],[75.818,22.7335],[75.8196,22.7332],[75.8202,22.7364],[75.8226,22.7372],[75.823,22.7392],[75.8145,22.7403],[75.8131,22.7373],[75.8007,22.7446],[75.8026,22.7511],[75.8062,22.7517],[75.8089,22.756],[75.8231,22.755],[75.8394,22.7573]]]},"properties":{"objectid":40392,"statename":"Madhya Pradesh","statecode":"23","districtname":null,"districtcode":"439","ulbname":"Indore (Imc)","ulbcode":"802273","wardname":"Bijasan","wardcode":"15","id":null,"remark":"","st_area(shape)":0.002260944841377029,"st_perimeter(shape)":0.29674576283201487}},{"type":"Feature","geometry":{"type":"Polygon","coordinates":[[[75.833,22.6742],[75.8356,22.6835],[75.8295,22.6835],[75.8279,22.6775],[75.8235,22.6787],[75.8233,22.6773],[75.8203,22.677],[75.8177,22.6689],[75.8223,22.6679],[75.8217,22.6631],[75.8236,22.6629],[75.8268,22.6667],[75.8279,22.6664],[75.8322,22.67],[75.833,22.6742]]]},"properties":{"objectid":40393,"statename":"Madhya Pradesh","statecode":"23","districtname":null,"districtcode":"439","ulbname":"Indore (Imc)","ulbcode":"802273","wardname":"Drrajendra Prasad","wardcode":"80","id":null,"remark":"","st_area(shape)":0.00018392237378814317,"st_perimeter(shape)":0.06851899589935988}},{"type":"Feature","geometry":{"type":"Polygon","coordinates":[[[75.86,22.6946],[75.86,22.6996],[75.86,22.6979],[75.8548,22.6979],[75.855,22.7006],[75.85,22.6948],[75.8482,22.6991],[75.8447,22.6988],[75.8445,22.6971],[75.8525,22.6914],[75.8591,22.6919],[75.8577,22.6948],[75.86,22.6946]]]},"properties":{"objectid":40394,"statename":"Madhya Pradesh","statecode":"23","districtname":null,"districtcode":"439","ulbname":"Indore (Imc)","ulbcode":"802273","wardname":"Laxmansingh Chauhan","wardcode":"73","id":null,"remark":"","st_area(shape)":7.21886613850143e-05,"st_perimeter(shape)":0.05860074792341638}},{"type":"Feature","geometry":{"type":"Polygon","coordinates":[[[75.856,22.719],[75.8532,22.7244],[75.857,22.7248],[75.8574,22.729],[75.8546,22.7299],[75.8574,22.7307],[75.8571,22.7346],[75.8492,22.7338],[75.8499,22.7297],[75.8478,22.7299],[75.8476,22.7276],[75.8494,22.7262],[75.8503,22.727],[75.8511,22.7192],[75.8521,22.718],[75.856,22.719]]]},"properties":{"objectid":40395,"statename":"Madhya Pradesh","statecode":"23","districtname":null,"districtcode":"439","ulbname":"Indore (Imc)","ulbcode":"802273","wardname":"Imli Bazar","wardcode":"58","id":null,"remark":"","st_area(shape)":9.70994491141007e-05,"st_perimeter(shape)":0.06530117694617649}},{"type":"Feature","geometry":{"type":"Polygon","coordinates":[[[75.8849,22.7372],[75.8809,22.7398],[75.8769,22.7359],[75.8798,22.7366],[75.8813,22.7357],[75.8805,22.7344],[75.8835,22.7332],[75.8855,22.7351],[75.884,22.7357],[75.8849,22.7372]]]},"properties":{"objectid":40396,"statename":"Madhya Pradesh","statecode":"23","districtname":null,"districtcode":"439","ulbname":"Indore (Imc)","ulbcode":"802273","wardname":"Jeen Mata","wardcode":"26","id":null,"remark":"","st_area(shape)":2.479784884956662e-05,"st_perimeter(shape)":0.030009645742799615}},{"type":"Feature","geometry":{"type":"Polygon","coordinates":[[[75.8908,22.698],[75.8888,22.698],[75.8901,22.6962],[75.889,22.6951],[75.8897,22.6899],[75.8958,22.69],[75.8997,22.6929],[75.8969,22.6933],[75.8908,22.698]]]},"properties":{"objectid":40397,"statename":"Madhya Pradesh","statecode":"23","districtname":null,"districtcode":"439","ulbname":"Indore (Imc)","ulbcode":"802273","wardname":"Musakhedi","wardcode":"52","id":null,"remark":"","st_area(shape)":5.00021296083303e-05,"st_perimeter(shape)":0.034413326384702805}},{"type":"Feature","geometry":{"type":"Polygon","coordinates":[[[75.9076,22.7672],[75.9082,22.7704],[75.9017,22.7716],[75.8931,22.7435],[75.8978,22.7433],[75.8977,22.7463],[75.903,22.7454],[75.9076,22.7672]]]},"properties":{"objectid":40398,"statename":"Madhya Pradesh","statecode":"23","districtname":null,"districtcode":"439","ulbname":"Indore (Imc)","ulbcode":"802273","wardname":"Maharaja Chatrasal","wardcode":"31","id":null,"remark":"","st_area(shape)":0.00020646754956283228,"st_perimeter(shape)":0.07591895762158674}},{"type":"Feature","geometry":{"type":"Polygon","coordinates":[[[75.8648,22.7554],[75.8626,22.7568],[75.8627,22.7535],[75.8609,22.7534],[75.8595,22.7504],[75.8654,22.7479],[75.8646,22.7447],[75.8676,22.7454],[75.8672,22.7438],[75.869,22.7441],[75.8691,22.7428],[75.8708,22.7431],[75.8718,22.7452],[75.8742,22.7438],[75.8751,22.7494],[75.8696,22.7524],[75.8698,22.7545],[75.8648,22.7554]]]},"properties":{"objectid":40399,"statename":"Madhya Pradesh","statecode":"23","districtname":null,"districtcode":"439","ulbname":"Indore (Imc)","ulbcode":"802273","wardname":"Swargiya Rajesh Joshi","wardcode":"23","id":null,"remark":"","st_area(shape)":0.00010596935971483126,"st_perimeter(shape)":0.058128164676544414}},{"type":"Feature","geometry":{"type":"Polygon","coordinates":[[[75.8751,22.7341],[75.874,22.7352],[75.8684,22.7305],[75.8684,22.7198],[75.8867,22.7238],[75.8871,22.7256],[75.8843,22.7255],[75.8844,22.7274],[75.8809,22.7268],[75.8791,22.7297],[75.8814,22.7298],[75.8785,22.7316],[75.8783,22.734],[75.8751,22.7341]]]},"properties":{"objectid":40400,"statename":"Madhya Pradesh","statecode":"23","districtname":null,"districtcode":"439","ulbname":"Indore (Imc)","ulbcode":"802273","wardname":"Sardar Vallabhbhai","wardcode":"47","id":null,"remark":"","st_area(shape)":0.00016857256326518002,"st_perimeter(shape)":0.06752563376298854}},{"type":"Feature","geometry":{"type":"Polygon","coordinates":[[[75.9214,22.6821],[75.9211,22.6803],[75.9064,22.687],[75.8963,22.6881],[75.884,22.6844],[75.8833,22.6823],[75.882,22.6821],[75.8832,22.6797],[75.8769,22.6793],[75.88,22.6737],[75.8867,22.6741],[75.9037,22.6716],[75.9028,22.6634],[75.9012,22.6625],[75.9013,22.6578],[75.913,22.6536],[75.9166,22.6511],[75.9238,22.6515],[75.9249,22.6517],[75.9258,22.6596],[75.9285,22.6648],[75.9301,22.665],[75.932,22.6681],[75.932,22.6718],[75.922,22.6773],[75.9225,22.681],[75.9214,22.6821]]]},"properties":{"objectid":40401,"statename":"Madhya Pradesh","statecode":"23","districtname":null,"districtcode":"439","ulbname":"Indore (Imc)","ulbcode":"802273","wardname":"Palda","wardcode":"75","id":null,"remark":"","st_area(shape)":0.0010375317398833301,"st_perimeter(shape)":0.16561940881409615}},{"type":"Feature","geometry":{"type":"Polygon","coordinates":[[[75.9263,22.7268],[75.9304,22.727],[75.9366,22.7295],[75.9358,22.745],[75.9374,22.7455],[75.9369,22.7506],[75.9346,22.7493],[75.925,22.7507],[75.9221,22.7464],[75.9268,22.7455],[75.9145,22.7385],[75.9141,22.7332],[75.9128,22.7338],[75.9101,22.7292],[75.9103,22.7279],[75.9157,22.7275],[75.9182,22.7282],[75.9162,22.7312],[75.9197,22.7309],[75.9236,22.7297],[75.9229,22.7277],[75.9263,22.7268]]]},"properties":{"objectid":40402,"statename":"Madhya Pradesh","statecode":"23","districtname":null,"districtcode":"439","ulbname":"Indore (Imc)","ulbcode":"802273","wardname":"Nahar Shahvali","wardcode":"39","id":null,"remark":"","st_area(shape)":0.0004111430593677814,"st_perimeter(shape)":0.1127787433454637}},{"type":"Feature","geometry":{"type":"Polygon","coordinates":[[[75.883,22.7423],[75.8764,22.7461],[75.8776,22.748],[75.8751,22.7494],[75.874,22.7477],[75.875,22.7449],[75.8742,22.7438],[75.8753,22.7431],[75.8741,22.7413],[75.8741,22.7378],[75.8769,22.7359],[75.883,22.7423]]]},"properties":{"objectid":40403,"statename":"Madhya Pradesh","statecode":"23","districtname":null,"districtcode":"439","ulbname":"Indore (Imc)","ulbcode":"802273","wardname":"Nanda Nagar","wardcode":"25","id":null,"remark":"","st_area(shape)":6.173690663687039e-05,"st_perimeter(shape)":0.04011545645454476}},{"type":"Feature","geometry":{"type":"Polygon","coordinates":[[[75.8369,22.7476],[75.8349,22.7497],[75.8361,22.751],[75.8352,22.7514],[75.8359,22.7529],[75.8328,22.7526],[75.8306,22.7564],[75.8228,22.755],[75.8102,22.7564],[75.8078,22.7548],[75.8062,22.7517],[75.8026,22.7511],[75.8007,22.7446],[75.8131,22.7373],[75.8145,22.7403],[75.823,22.7392],[75.8238,22.7334],[75.8248,22.7365],[75.8262,22.7361],[75.8267,22.7377],[75.8284,22.7364],[75.8305,22.7417],[75.8367,22.742],[75.837,22.7435],[75.8403,22.7431],[75.8369,22.7476]]]},"properties":{"objectid":40404,"statename":"Madhya Pradesh","statecode":"23","districtname":null,"districtcode":"439","ulbname":"Indore (Imc)","ulbcode":"802273","wardname":"Nandbag","wardcode":"16","id":null,"remark":"","st_area(shape)":0.0005202035912733609,"st_perimeter(shape)":0.1213793389677611}},{"type":"Feature","geometry":{"type":"Polygon","coordinates":[[[75.8801,22.7545],[75.8796,22.7529],[75.874,22.7544],[75.8739,22.757],[75.8723,22.7572],[75.8699,22.7553],[75.8696,22.7524],[75.8776,22.748],[75.8764,22.7461],[75.883,22.7423],[75.8848,22.747],[75.8821,22.7495],[75.8824,22.754],[75.8801,22.7545]]]},"properties":{"objectid":40405,"statename":"Madhya Pradesh","statecode":"23","districtname":null,"districtcode":"439","ulbname":"Indore (Imc)","ulbcode":"802273","wardname":"Pashupati Nath","wardcode":"27","id":null,"remark":"","st_area(shape)":0.00010020623728459828,"st_perimeter(shape)":0.05710754075166539}},{"type":"Feature","geometry":{"type":"Polygon","coordinates":[[[75.8595,22.7504],[75.8574,22.7547],[75.8569,22.753],[75.854,22.7533],[75.8531,22.746],[75.8543,22.7464],[75.8554,22.7449],[75.8546,22.744],[75.8565,22.7449],[75.8637,22.7357],[75.8653,22.7379],[75.8623,22.7412],[75.8645,22.7427],[75.8637,22.7449],[75.8655,22.7477],[75.8595,22.7504]]]},"properties":{"objectid":40774,"statename":"Madhya Pradesh","statecode":"23","districtname":null,"districtcode":"439","ulbname":"Indore (Imc)","ulbcode":"802273","wardname":"Bhagirathpura","wardcode":"11","id":null,"remark":"","st_area(shape)":0.00010938292946332379,"st_perimeter(shape)":0.062328408885757025}},{"type":"Feature","geometry":{"type":"Polygon","coordinates":[[[75.8269,22.6935],[75.8251,22.6983],[75.8209,22.6892],[75.8192,22.6891],[75.8193,22.6874],[75.824,22.6855],[75.8269,22.6935]]]},"properties":{"objectid":40775,"statename":"Madhya Pradesh","statecode":"23","districtname":null,"districtcode":"439","ulbname":"Indore (Imc)","ulbcode":"802273","wardname":"Dwarkapuri","wardcode":"84","id":null,"remark":"","st_area(shape)":4.658121852029561e-05,"st_perimeter(shape)":0.03481236422518997}},{"type":"Feature","geometry":{"type":"Polygon","coordinates":[[[75.8464,22.7472],[75.8369,22.7476],[75.8428,22.7399],[75.8451,22.7399],[75.8472,22.7424],[75.8454,22.7422],[75.8454,22.7444],[75.8484,22.744],[75.8493,22.7473],[75.8464,22.7472]]]},"properties":{"objectid":40776,"statename":"Madhya Pradesh","statecode":"23","districtname":null,"districtcode":"439","ulbname":"Indore (Imc)","ulbcode":"802273","wardname":"Govind Colony","wardcode":"12","id":null,"remark":"","st_area(shape)":5.1507988009872693e-05,"st_perimeter(shape)":0.040249238286532825}},{"type":"Feature","geometry":{"type":"Polygon","coordinates":[[[75.9263,22.7268],[75.9229,22.7277],[75.9236,22.7297],[75.9162,22.7312],[75.9182,22.7282],[75.9119,22.728],[75.9119,22.7263],[75.9096,22.7242],[75.91,22.7275],[75.9062,22.7267],[75.9042,22.7305],[75.9027,22.731],[75.9058,22.724],[75.9062,22.7194],[75.9075,22.719],[75.9074,22.7175],[75.9061,22.7177],[75.9056,22.7141],[75.9061,22.7061],[75.9064,22.7145],[75.908,22.7146],[75.9085,22.7193],[75.9133,22.7194],[75.9158,22.7213],[75.9181,22.7204],[75.9191,22.7236],[75.9263,22.7268]]]},"properties":{"objectid":40777,"statename":"Madhya Pradesh","statecode":"23","districtname":null,"districtcode":"439","ulbname":"Indore (Imc)","ulbcode":"802273","wardname":"Kailashpuri","wardcode":"41","id":null,"remark":"","st_area(shape)":0.00014699120568302293,"st_perimeter(shape)":0.11503529796054351}},{"type":"Feature","geometry":{"type":"Polygon","coordinates":[[[75.8742,22.7438],[75.8718,22.7452],[75.8708,22.7431],[75.8691,22.7428],[75.869,22.7441],[75.8672,22.7438],[75.8676,22.7454],[75.8647,22.7447],[75.865,22.7466],[75.864,22.7457],[75.8645,22.7427],[75.8622,22.7407],[75.8653,22.7379],[75.8637,22.7357],[75.8656,22.7332],[75.8671,22.7375],[75.8707,22.7369],[75.8713,22.741],[75.8741,22.7413],[75.8753,22.7431],[75.8742,22.7438]]]},"properties":{"objectid":40778,"statename":"Madhya Pradesh","statecode":"23","districtname":null,"districtcode":"439","ulbname":"Indore (Imc)","ulbcode":"802273","wardname":"Sant Balaji Ath Maharaj","wardcode":"24","id":null,"remark":"","st_area(shape)":7.094324176049261e-05,"st_perimeter(shape)":0.055312939325762006}},{"type":"Feature","geometry":{"type":"Polygon","coordinates":[[[75.8686,22.6932],[75.8668,22.6963],[75.8659,22.6959],[75.8668,22.6943],[75.8577,22.6948],[75.8591,22.6919],[75.8547,22.6913],[75.8541,22.6886],[75.8531,22.6886],[75.8549,22.6823],[75.8533,22.671],[75.8549,22.6715],[75.8551,22.6752],[75.8591,22.675],[75.8582,22.6775],[75.8596,22.6803],[75.8646,22.6752],[75.8779,22.6749],[75.878,22.6737],[75.8799,22.6739],[75.8676,22.6926],[75.8686,22.6932]]]},"properties":{"objectid":40779,"statename":"Madhya Pradesh","statecode":"23","districtname":null,"districtcode":"439","ulbname":"Indore (Imc)","ulbcode":"802273","wardname":"Vishnapuri","wardcode":"74","id":null,"remark":"","st_area(shape)":0.0003543011083032148,"st_perimeter(shape)":0.11247372651275664}},{"type":"Feature","geometry":{"type":"Polygon","coordinates":[[[75.8449,22.7215],[75.8389,22.7205],[75.8336,22.7232],[75.8268,22.721],[75.8311,22.7197],[75.8314,22.7166],[75.8345,22.7174],[75.8338,22.7157],[75.8349,22.7156],[75.838,22.7162],[75.8381,22.7179],[75.8457,22.7176],[75.8461,22.7208],[75.8449,22.7215]]]},"properties":{"objectid":40780,"statename":"Madhya Pradesh","statecode":"23","districtname":null,"districtcode":"439","ulbname":"Indore (Imc)","ulbcode":"802273","wardname":"Malharganj","wardcode":"6","id":null,"remark":"","st_area(shape)":7.293087351589348e-05,"st_perimeter(shape)":0.058116206710118516}},{"type":"Feature","geometry":{"type":"Polygon","coordinates":[[[75.8637,22.7075],[75.865,22.7087],[75.8604,22.7108],[75.8589,22.7131],[75.8571,22.7111],[75.8559,22.7117],[75.856,22.7076],[75.8591,22.7077],[75.8607,22.7051],[75.8637,22.7075]]]},"properties":{"objectid":40781,"statename":"Madhya Pradesh","statecode":"23","districtname":null,"districtcode":"439","ulbname":"Indore (Imc)","ulbcode":"802273","wardname":"Tatya Sarvate","wardcode":"61","id":null,"remark":"","st_area(shape)":3.30969420119597e-05,"st_perimeter(shape)":0.02836793341350003}},{"type":"Feature","geometry":{"type":"Polygon","coordinates":[[[75.941,22.7525],[75.9439,22.7736],[75.9502,22.7737],[75.9513,22.7765],[75.9536,22.7768],[75.9521,22.782],[75.9494,22.7829],[75.948,22.786],[75.9438,22.8043],[75.9358,22.8045],[75.9246,22.802],[75.925,22.7939],[75.931,22.7814],[75.9321,22.7729],[75.9195,22.7727],[75.9117,22.7749],[75.9028,22.775],[75.9017,22.7716],[75.9085,22.77],[75.9061,22.7576],[75.9175,22.7559],[75.916,22.7617],[75.9219,22.7616],[75.9214,22.7521],[75.9182,22.7529],[75.918,22.7502],[75.92,22.7501],[75.9198,22.7483],[75.9177,22.7484],[75.9176,22.7473],[75.9221,22.7464],[75.925,22.7507],[75.9346,22.7493],[75.941,22.7525]]]},"properties":{"objectid":40782,"statename":"Madhya Pradesh","statecode":"23","districtname":null,"districtcode":"439","ulbname":"Indore (Imc)","ulbcode":"802273","wardname":"Nipaniya","wardcode":"36","id":null,"remark":"","st_area(shape)":0.001347983735841131,"st_perimeter(shape)":0.24318763918668843}},{"type":"Feature","geometry":{"type":"Polygon","coordinates":[[[75.889,22.7447],[75.8893,22.747],[75.8882,22.7467],[75.8897,22.7482],[75.8885,22.7502],[75.8902,22.75],[75.8906,22.7522],[75.8824,22.754],[75.8821,22.7495],[75.8848,22.747],[75.8832,22.7424],[75.8859,22.7424],[75.8862,22.7411],[75.8863,22.742],[75.8884,22.7422],[75.8864,22.743],[75.8866,22.7441],[75.8883,22.7438],[75.886,22.7454],[75.8872,22.7462],[75.8873,22.7445],[75.889,22.7447]]]},"properties":{"objectid":40783,"statename":"Madhya Pradesh","statecode":"23","districtname":null,"districtcode":"439","ulbname":"Indore (Imc)","ulbcode":"802273","wardname":"Ma Tulja Bhavani","wardcode":"28","id":null,"remark":"","st_area(shape)":5.985294314570877e-05,"st_perimeter(shape)":0.05826804525826002}},{"type":"Feature","geometry":{"type":"Polygon","coordinates":[[[75.8284,22.7364],[75.8267,22.7377],[75.8262,22.7361],[75.8248,22.7365],[75.8238,22.7334],[75.8242,22.7365],[75.8202,22.7364],[75.8196,22.7332],[75.818,22.7335],[75.8186,22.7306],[75.8148,22.7316],[75.8143,22.7291],[75.8093,22.7303],[75.808,22.7289],[75.798,22.7298],[75.7975,22.7199],[75.7989,22.7175],[75.8147,22.7208],[75.8121,22.7228],[75.8142,22.7268],[75.8154,22.7269],[75.8154,22.7295],[75.8306,22.7283],[75.8276,22.7301],[75.8279,22.7334],[75.8309,22.7327],[75.8307,22.7283],[75.8353,22.7279],[75.8356,22.73],[75.8336,22.7307],[75.8332,22.7291],[75.8321,22.7293],[75.8329,22.7332],[75.8284,22.7364]]]},"properties":{"objectid":40784,"statename":"Madhya Pradesh","statecode":"23","districtname":null,"districtcode":"439","ulbname":"Indore (Imc)","ulbcode":"802273","wardname":"Ashok Nagar","wardcode":"14","id":null,"remark":"","st_area(shape)":0.00027445361383336556,"st_perimeter(shape)":0.14321001528994343}},{"type":"Feature","geometry":{"type":"Polygon","coordinates":[[[75.8426,22.7059],[75.8419,22.7131],[75.8402,22.713],[75.8386,22.7086],[75.837,22.7084],[75.8375,22.7075],[75.833,22.706],[75.8336,22.7039],[75.8361,22.7027],[75.8356,22.6995],[75.8333,22.6978],[75.8356,22.6955],[75.8346,22.6937],[75.8329,22.6942],[75.8324,22.6924],[75.8381,22.6921],[75.84,22.6981],[75.8391,22.6986],[75.8439,22.7049],[75.8426,22.7059]]]},"properties":{"objectid":41167,"statename":"Madhya Pradesh","statecode":"23","districtname":null,"districtcode":"439","ulbname":"Indore (Imc)","ulbcode":"802273","wardname":"Dravid Nagar","wardcode":"71","id":null,"remark":"","st_area(shape)":0.00010809111998881681,"st_perimeter(shape)":0.06905397813327627}},{"type":"Feature","geometry":{"type":"Polygon","coordinates":[[[75.8648,22.7554],[75.8647,22.7598],[75.8632,22.7598],[75.8624,22.7627],[75.8655,22.7633],[75.8665,22.7655],[75.869,22.7654],[75.863,22.7718],[75.854,22.7641],[75.8497,22.7582],[75.8548,22.7583],[75.8555,22.7566],[75.8573,22.7568],[75.8595,22.7504],[75.8609,22.7534],[75.8627,22.7535],[75.8626,22.7568],[75.8648,22.7554]]]},"properties":{"objectid":41168,"statename":"Madhya Pradesh","statecode":"23","districtname":null,"districtcode":"439","ulbname":"Indore (Imc)","ulbcode":"802273","wardname":"Gauri Nagar","wardcode":"20","id":null,"remark":"","st_area(shape)":0.00016402083854115455,"st_perimeter(shape)":0.077876623601507}},{"type":"Feature","geometry":{"type":"Polygon","coordinates":[[[75.8154,22.7269],[75.8142,22.7268],[75.8121,22.7228],[75.8167,22.7204],[75.8164,22.7191],[75.8205,22.7181],[75.8202,22.7112],[75.8228,22.7107],[75.8262,22.7122],[75.8258,22.7163],[75.8247,22.7163],[75.8259,22.7245],[75.8154,22.7269]]]},"properties":{"objectid":41169,"statename":"Madhya Pradesh","statecode":"23","districtname":null,"districtcode":"439","ulbname":"Indore (Imc)","ulbcode":"802273","wardname":"Kalani Nagar","wardcode":"3","id":null,"remark":"","st_area(shape)":0.00011804278160025025,"st_perimeter(shape)":0.05705095661846306}},{"type":"Feature","geometry":{"type":"Polygon","coordinates":[[[75.889,22.7447],[75.8873,22.7445],[75.8872,22.7462],[75.886,22.7454],[75.8883,22.7437],[75.8866,22.7441],[75.8864,22.743],[75.8884,22.7422],[75.886,22.741],[75.8859,22.7424],[75.8832,22.7424],[75.8809,22.7398],[75.8863,22.7362],[75.8892,22.7395],[75.8907,22.7357],[75.8925,22.7414],[75.8955,22.7408],[75.8958,22.7433],[75.8903,22.743],[75.889,22.7447]]]},"properties":{"objectid":41170,"statename":"Madhya Pradesh","statecode":"23","districtname":null,"districtcode":"439","ulbname":"Indore (Imc)","ulbcode":"802273","wardname":"Hig","wardcode":"44","id":null,"remark":"","st_area(shape)":6.322950843994055e-05,"st_perimeter(shape)":0.06270392565961057}},{"type":"Feature","geometry":{"type":"Polygon","coordinates":[[[75.9017,22.7717],[75.8992,22.7725],[75.9006,22.7767],[75.891,22.7825],[75.891,22.7841],[75.8861,22.7845],[75.8858,22.7809],[75.8823,22.7786],[75.8813,22.7739],[75.8823,22.7717],[75.8852,22.769],[75.8897,22.7692],[75.8892,22.7666],[75.8996,22.7644],[75.9017,22.7717]]]},"properties":{"objectid":41171,"statename":"Madhya Pradesh","statecode":"23","districtname":null,"districtcode":"439","ulbname":"Indore (Imc)","ulbcode":"802273","wardname":"Shahid Bhagatsingh","wardcode":"34","id":null,"remark":"Ok","st_area(shape)":0.0002529105980530075,"st_perimeter(shape)":0.0711604709996032}},{"type":"Feature","geometry":{"type":"Polygon","coordinates":[[[75.8526,22.7132],[75.849,22.7133],[75.8484,22.7096],[75.8463,22.7103],[75.8459,22.7079],[75.8434,22.7082],[75.8426,22.7059],[75.8475,22.7054],[75.8533,22.708],[75.8533,22.7096],[75.8521,22.7099],[75.8526,22.7132]]]},"properties":{"objectid":41172,"statename":"Madhya Pradesh","statecode":"23","districtname":null,"districtcode":"439","ulbname":"Indore (Imc)","ulbcode":"802273","wardname":"Maharaja Holkar","wardcode":"67","id":null,"remark":"","st_area(shape)":4.417893164563867e-05,"st_perimeter(shape)":0.03640334849723267}},{"type":"Feature","geometry":{"type":"Polygon","coordinates":[[[75.8492,22.7338],[75.8478,22.7361],[75.8495,22.7367],[75.8499,22.7421],[75.8483,22.7431],[75.8451,22.7399],[75.8428,22.7401],[75.8445,22.7374],[75.8435,22.7375],[75.8436,22.7336],[75.8412,22.734],[75.8412,22.7303],[75.8435,22.7303],[75.8435,22.7266],[75.8466,22.7256],[75.848,22.7266],[75.8478,22.7299],[75.8499,22.7297],[75.8492,22.7338]]]},"properties":{"objectid":41173,"statename":"Madhya Pradesh","statecode":"23","districtname":null,"districtcode":"439","ulbname":"Indore (Imc)","ulbcode":"802273","wardname":"Vrindavan","wardcode":"9","id":null,"remark":"","st_area(shape)":9.178578141652093e-05,"st_perimeter(shape)":0.05890230845032796}},{"type":"Feature","geometry":{"type":"Polygon","coordinates":[[[75.8674,22.7033],[75.8657,22.7038],[75.8654,22.7056],[75.8636,22.705],[75.8637,22.7075],[75.8551,22.7008],[75.8548,22.6979],[75.86,22.6979],[75.86,22.6996],[75.86,22.6946],[75.8668,22.6943],[75.8659,22.6959],[75.8668,22.6963],[75.8686,22.6932],[75.8743,22.6962],[75.8704,22.6963],[75.8702,22.698],[75.8678,22.6988],[75.8654,22.6984],[75.8674,22.7033]]]},"properties":{"objectid":41174,"statename":"Madhya Pradesh","statecode":"23","districtname":null,"districtcode":"439","ulbname":"Indore (Imc)","ulbcode":"802273","wardname":"Sant Kanwarram","wardcode":"65","id":null,"remark":"","st_area(shape)":0.00011231939332414755,"st_perimeter(shape)":0.07625623748782002}},{"type":"Feature","geometry":{"type":"Polygon","coordinates":[[[75.8809,22.735],[75.8798,22.7366],[75.8751,22.7341],[75.8771,22.7348],[75.8785,22.7338],[75.8785,22.7316],[75.8814,22.7298],[75.8791,22.7297],[75.8808,22.7271],[75.8822,22.7309],[75.8847,22.7313],[75.8827,22.7338],[75.88,22.732],[75.8809,22.735]]]},"properties":{"objectid":41175,"statename":"Madhya Pradesh","statecode":"23","districtname":null,"districtcode":"439","ulbname":"Indore (Imc)","ulbcode":"802273","wardname":"Somnath","wardcode":"46","id":null,"remark":"","st_area(shape)":2.461067716462273e-05,"st_perimeter(shape)":0.04575087846670218}},{"type":"Feature","geometry":{"type":"Polygon","coordinates":[[[75.903,22.7454],[75.8977,22.7463],[75.8978,22.7433],[75.8958,22.7433],[75.8955,22.7408],[75.8925,22.7414],[75.8907,22.7357],[75.8914,22.7343],[75.8978,22.7338],[75.8977,22.7374],[75.9003,22.7371],[75.9001,22.7391],[75.9019,22.739],[75.903,22.7454]]]},"properties":{"objectid":41176,"statename":"Madhya Pradesh","statecode":"23","districtname":null,"districtcode":"439","ulbname":"Indore (Imc)","ulbcode":"802273","wardname":"Sant Ravidas","wardcode":"30","id":null,"remark":"","st_area(shape)":8.652869364937577e-05,"st_perimeter(shape)":0.049971624057533304}}]}