{"type":"FeatureCollection","features":[{"type":"Feature","geometry":{"type":"Polygon","coordinates":[[[75.7965,26.8816],[75.7961,26.8827],[75.7887,26.8844],[75.7881,26.8797],[75.7976,26.8774],[75.7965,26.8816]]]},"properties":{"objectid":162371,"statename":"Rajasthan","statecode":"8","districtname":"","districtcode":"110","ulbname":"Nagar Nigam Greater Jaipur (Mc)","ulbcode":"900600","wardname":"Ward 141","wardcode":"141","id":null,"remark":"","st_area(shape)":4.0418237500088814e-05,"st_perimeter(shape)":0.028168727296686447}},{"type":"Feature","geometry":{"type":"Polygon","coordinates":[[[75.8028,26.8383],[75.8037,26.8407],[75.8084,26.8414],[75.8085,26.8469],[75.7941,26.8507],[75.7937,26.8389],[75.7983,26.839],[75.8009,26.8376],[75.8028,26.8383]]]},"properties":{"objectid":162376,"statename":"Rajasthan","statecode":"8","districtname":"","districtcode":"110","ulbname":"Nagar Nigam Greater Jaipur (Mc)","ulbcode":"900600","wardname":"Ward 125","wardcode":"125","id":null,"remark":"","st_area(shape)":0.00014132826503357432,"st_perimeter(shape)":0.050445721269416086}},{"type":"Feature","geometry":{"type":"Polygon","coordinates":[[[75.8173,26.8122],[75.813,26.8127],[75.8151,26.8083],[75.8114,26.8084],[75.8085,26.8102],[75.8099,26.8082],[75.8094,26.8067],[75.8132,26.8053],[75.8212,26.8067],[75.8255,26.8091],[75.823,26.8119],[75.8173,26.8122]]]},"properties":{"objectid":162377,"statename":"Rajasthan","statecode":"8","districtname":"","districtcode":"110","ulbname":"Nagar Nigam Greater Jaipur (Mc)","ulbcode":"900600","wardname":"Ward 101","wardcode":"101","id":null,"remark":"","st_area(shape)":6.578003645511162e-05,"st_perimeter(shape)":0.04806869336062747}},{"type":"Feature","geometry":{"type":"Polygon","coordinates":[[[75.8239,26.8772],[75.8253,26.8729],[75.8214,26.8719],[75.8231,26.8622],[75.832,26.8557],[75.8364,26.8549],[75.8499,26.8626],[75.8526,26.8655],[75.8591,26.8656],[75.8673,26.8741],[75.8572,26.8735],[75.8429,26.8756],[75.8326,26.8822],[75.8239,26.8772]]]},"properties":{"objectid":162378,"statename":"Rajasthan","statecode":"8","districtname":"","districtcode":"110","ulbname":"Nagar Nigam Greater Jaipur (Mc)","ulbcode":"900600","wardname":"Ward 110","wardcode":"110","id":null,"remark":"","st_area(shape)":0.0006537484038946994,"st_perimeter(shape)":0.11968671939074672}},{"type":"Feature","geometry":{"type":"Polygon","coordinates":[[[75.7706,26.8449],[75.7667,26.8537],[75.7662,26.8582],[75.7636,26.8608],[75.7586,26.8563],[75.7616,26.8536],[75.7677,26.8395],[75.7702,26.8404],[75.7706,26.8449]]]},"properties":{"objectid":162380,"statename":"Rajasthan","statecode":"8","districtname":"","districtcode":"110","ulbname":"Nagar Nigam Greater Jaipur (Mc)","ulbcode":"900600","wardname":"Ward 75","wardcode":"75","id":null,"remark":"","st_area(shape)":0.00010352311323232901,"st_perimeter(shape)":0.05121150859329406}},{"type":"Feature","geometry":{"type":"Polygon","coordinates":[[[75.7455,26.8987],[75.7437,26.8982],[75.7463,26.8935],[75.7586,26.8987],[75.7534,26.9028],[75.7522,26.9026],[75.7513,26.9],[75.7455,26.8987]]]},"properties":{"objectid":162381,"statename":"Rajasthan","statecode":"8","districtname":"","districtcode":"110","ulbname":"Nagar Nigam Greater Jaipur (Mc)","ulbcode":"900600","wardname":"Ward 62","wardcode":"62","id":null,"remark":"","st_area(shape)":5.7170415547923955e-05,"st_perimeter(shape)":0.0375268646854452}},{"type":"Feature","geometry":{"type":"Polygon","coordinates":[[[75.7885,26.8914],[75.7844,26.8903],[75.7819,26.892],[75.7795,26.8863],[75.7816,26.8847],[75.7827,26.8862],[75.7885,26.8852],[75.7885,26.8914]]]},"properties":{"objectid":163901,"statename":"Rajasthan","statecode":"8","districtname":"","districtcode":"110","ulbname":"Nagar Nigam Greater Jaipur (Mc)","ulbcode":"900600","wardname":"Ward 144","wardcode":"144","id":null,"remark":"","st_area(shape)":4.619705351002735e-05,"st_perimeter(shape)":0.035736164258577834}},{"type":"Feature","geometry":{"type":"Polygon","coordinates":[[[75.8084,26.856],[75.814,26.8487],[75.8183,26.8513],[75.8199,26.854],[75.8246,26.853],[75.8241,26.855],[75.8094,26.8592],[75.8084,26.856]]]},"properties":{"objectid":163902,"statename":"Rajasthan","statecode":"8","districtname":"","districtcode":"110","ulbname":"Nagar Nigam Greater Jaipur (Mc)","ulbcode":"900600","wardname":"Ward 131","wardcode":"131","id":null,"remark":"","st_area(shape)":7.887944000016264e-05,"st_perimeter(shape)":0.04313556010541304}},{"type":"Feature","geometry":{"type":"Polygon","coordinates":[[[75.796,26.874],[75.7879,26.8751],[75.7875,26.8715],[75.7972,26.8713],[75.7974,26.8732],[75.796,26.874]]]},"properties":{"objectid":163903,"statename":"Rajasthan","statecode":"8","districtname":"","districtcode":"110","ulbname":"Nagar Nigam Greater Jaipur (Mc)","ulbcode":"900600","wardname":"Ward 135","wardcode":"135","id":null,"remark":"","st_area(shape)":2.7556805109989628e-05,"st_perimeter(shape)":0.027268741302775675}},{"type":"Feature","geometry":{"type":"Polygon","coordinates":[[[75.7654,26.9745],[75.7655,26.9703],[75.7722,26.9709],[75.7721,26.9753],[75.7736,26.9787],[75.7696,26.979],[75.7703,26.9769],[75.7662,26.9768],[75.7654,26.9745]]]},"properties":{"objectid":163904,"statename":"Rajasthan","statecode":"8","districtname":"","districtcode":"110","ulbname":"Nagar Nigam Greater Jaipur (Mc)","ulbcode":"900600","wardname":"Ward 17","wardcode":"17","id":null,"remark":"","st_area(shape)":4.762188599986658e-05,"st_perimeter(shape)":0.03267459677688545}},{"type":"Feature","geometry":{"type":"Polygon","coordinates":[[[75.7502,26.9527],[75.7359,26.9591],[75.7336,26.9567],[75.733,26.953],[75.7379,26.952],[75.7388,26.9537],[75.7497,26.9503],[75.7502,26.9527]]]},"properties":{"objectid":163912,"statename":"Rajasthan","statecode":"8","districtname":"","districtcode":"110","ulbname":"Nagar Nigam Greater Jaipur (Mc)","ulbcode":"900600","wardname":"Ward 28","wardcode":"28","id":null,"remark":"","st_area(shape)":6.54594359998462e-05,"st_perimeter(shape)":0.04490664625532084}},{"type":"Feature","geometry":{"type":"Polygon","coordinates":[[[75.8206,26.812],[75.823,26.8119],[75.8259,26.8179],[75.8251,26.8234],[75.8047,26.8217],[75.8047,26.8192],[75.807,26.8191],[75.8068,26.8129],[75.8206,26.812]]]},"properties":{"objectid":163913,"statename":"Rajasthan","statecode":"8","districtname":"","districtcode":"110","ulbname":"Nagar Nigam Greater Jaipur (Mc)","ulbcode":"900600","wardname":"Ward 111","wardcode":"111","id":null,"remark":"","st_area(shape)":0.00019045734573288906,"st_perimeter(shape)":0.06164625772139269}},{"type":"Feature","geometry":{"type":"Polygon","coordinates":[[[75.8217,26.8308],[75.8252,26.8296],[75.8375,26.8289],[75.8353,26.835],[75.8279,26.8384],[75.8272,26.8353],[75.8242,26.834],[75.8217,26.8308]]]},"properties":{"objectid":163914,"statename":"Rajasthan","statecode":"8","districtname":"","districtcode":"110","ulbname":"Nagar Nigam Greater Jaipur (Mc)","ulbcode":"900600","wardname":"Ward 112","wardcode":"112","id":null,"remark":"","st_area(shape)":8.455915275165162e-05,"st_perimeter(shape)":0.04196961074188246}},{"type":"Feature","geometry":{"type":"Polygon","coordinates":[[[75.7617,26.941],[75.7544,26.9346],[75.7648,26.9337],[75.7715,26.9318],[75.7688,26.9381],[75.7618,26.9386],[75.7617,26.941]]]},"properties":{"objectid":163915,"statename":"Rajasthan","statecode":"8","districtname":"","districtcode":"110","ulbname":"Nagar Nigam Greater Jaipur (Mc)","ulbcode":"900600","wardname":"Ward 38","wardcode":"38","id":null,"remark":"","st_area(shape)":6.659124150001514e-05,"st_perimeter(shape)":0.043696296219947306}},{"type":"Feature","geometry":{"type":"Polygon","coordinates":[[[75.7567,26.9366],[75.7481,26.9377],[75.7468,26.9409],[75.7432,26.9411],[75.7436,26.9343],[75.7544,26.9346],[75.7567,26.9366]]]},"properties":{"objectid":163916,"statename":"Rajasthan","statecode":"8","districtname":"","districtcode":"110","ulbname":"Nagar Nigam Greater Jaipur (Mc)","ulbcode":"900600","wardname":"Ward 40","wardcode":"40","id":null,"remark":"","st_area(shape)":4.8093144000098014e-05,"st_perimeter(shape)":0.03670828466665883}},{"type":"Feature","geometry":{"type":"Polygon","coordinates":[[[75.7468,26.9268],[75.7534,26.9338],[75.7401,26.9335],[75.7406,26.9268],[75.7453,26.928],[75.7468,26.9268]]]},"properties":{"objectid":163917,"statename":"Rajasthan","statecode":"8","districtname":"","districtcode":"110","ulbname":"Nagar Nigam Greater Jaipur (Mc)","ulbcode":"900600","wardname":"Ward 41","wardcode":"41","id":null,"remark":"","st_area(shape)":7.030428849989758e-05,"st_perimeter(shape)":0.038081883334304574}},{"type":"Feature","geometry":{"type":"Polygon","coordinates":[[[75.7224,26.9476],[75.732,26.9458],[75.733,26.9557],[75.736,26.96],[75.7368,26.9681],[75.7384,26.9709],[75.7373,26.9758],[75.739,26.9825],[75.7357,26.9834],[75.7304,26.9816],[75.7264,26.9827],[75.7254,26.985],[75.7231,26.9861],[75.7199,26.9903],[75.7155,26.992],[75.7066,26.9743],[75.714,26.9716],[75.7188,26.9677],[75.7255,26.965],[75.7224,26.9476]]]},"properties":{"objectid":163918,"statename":"Rajasthan","statecode":"8","districtname":"","districtcode":"110","ulbname":"Nagar Nigam Greater Jaipur (Mc)","ulbcode":"900600","wardname":"Ward 43","wardcode":"43","id":null,"remark":"","st_area(shape)":0.000726558629000335,"st_perimeter(shape)":0.13682936064386306}},{"type":"Feature","geometry":{"type":"Polygon","coordinates":[[[75.7147,26.9095],[75.7151,26.9154],[75.7112,26.9159],[75.7124,26.9199],[75.7105,26.9202],[75.712,26.9238],[75.6975,26.9245],[75.6969,26.9207],[75.7022,26.9199],[75.7009,26.9093],[75.7118,26.9096],[75.7118,26.9059],[75.7136,26.9059],[75.7147,26.9059],[75.7147,26.9095]]]},"properties":{"objectid":163919,"statename":"Rajasthan","statecode":"8","districtname":"","districtcode":"110","ulbname":"Nagar Nigam Greater Jaipur (Mc)","ulbcode":"900600","wardname":"Ward 50","wardcode":"50","id":null,"remark":"","st_area(shape)":0.00019818366851470843,"st_perimeter(shape)":0.0760639310925807}},{"type":"Feature","geometry":{"type":"Polygon","coordinates":[[[75.7457,26.8429],[75.747,26.8411],[75.7583,26.8565],[75.7537,26.8637],[75.7386,26.8637],[75.737,26.8609],[75.7351,26.8519],[75.7395,26.8511],[75.7457,26.8429]]]},"properties":{"objectid":163920,"statename":"Rajasthan","statecode":"8","districtname":"","districtcode":"110","ulbname":"Nagar Nigam Greater Jaipur (Mc)","ulbcode":"900600","wardname":"Ward 71","wardcode":"71","id":null,"remark":"","st_area(shape)":0.00031452374413511175,"st_perimeter(shape)":0.07341735286020071}},{"type":"Feature","geometry":{"type":"Polygon","coordinates":[[[75.7758,26.858],[75.7774,26.862],[75.7813,26.8641],[75.7869,26.8641],[75.7839,26.8685],[75.7787,26.8656],[75.7766,26.8666],[75.7741,26.8641],[75.7737,26.8591],[75.7758,26.858]]]},"properties":{"objectid":163921,"statename":"Rajasthan","statecode":"8","districtname":"","districtcode":"110","ulbname":"Nagar Nigam Greater Jaipur (Mc)","ulbcode":"900600","wardname":"Ward 80","wardcode":"80","id":null,"remark":"","st_area(shape)":5.272394881885288e-05,"st_perimeter(shape)":0.04312605735635392}},{"type":"Feature","geometry":{"type":"Polygon","coordinates":[[[75.7707,26.8806],[75.7702,26.8789],[75.7784,26.8725],[75.7802,26.8773],[75.7766,26.8786],[75.7779,26.882],[75.7743,26.8831],[75.771,26.8819],[75.7707,26.8806]]]},"properties":{"objectid":163922,"statename":"Rajasthan","statecode":"8","districtname":"","districtcode":"110","ulbname":"Nagar Nigam Greater Jaipur (Mc)","ulbcode":"900600","wardname":"Ward 78","wardcode":"78","id":null,"remark":"","st_area(shape)":5.314113302495913e-05,"st_perimeter(shape)":0.03430745464795232}},{"type":"Feature","geometry":{"type":"Polygon","coordinates":[[[75.7291,26.8849],[75.7369,26.8886],[75.7317,26.8985],[75.7276,26.8984],[75.7264,26.892],[75.7289,26.8921],[75.7291,26.8849]]]},"properties":{"objectid":163923,"statename":"Rajasthan","statecode":"8","districtname":"","districtcode":"110","ulbname":"Nagar Nigam Greater Jaipur (Mc)","ulbcode":"900600","wardname":"Ward 60","wardcode":"60","id":null,"remark":"","st_area(shape)":8.133778531288422e-05,"st_perimeter(shape)":0.04030426631088481}},{"type":"Feature","geometry":{"type":"Polygon","coordinates":[[[75.7819,26.892],[75.7801,26.8932],[75.7746,26.8918],[75.7754,26.8895],[75.7727,26.8864],[75.7731,26.8853],[75.7753,26.8857],[75.7762,26.8838],[75.7793,26.883],[75.781,26.8857],[75.7797,26.8863],[75.781,26.8886],[75.78,26.8893],[75.7815,26.8897],[75.7819,26.892]]]},"properties":{"objectid":165896,"statename":"Rajasthan","statecode":"8","districtname":"","districtcode":"110","ulbname":"Nagar Nigam Greater Jaipur (Mc)","ulbcode":"900600","wardname":"Ward 143","wardcode":"143","id":null,"remark":"","st_area(shape)":5.804938071001753e-05,"st_perimeter(shape)":0.038515115859928305}},{"type":"Feature","geometry":{"type":"Polygon","coordinates":[[[75.8016,26.885],[75.7985,26.8778],[75.8049,26.8763],[75.8079,26.8878],[75.8114,26.8936],[75.8087,26.8948],[75.8016,26.885]]]},"properties":{"objectid":165897,"statename":"Rajasthan","statecode":"8","districtname":"","districtcode":"110","ulbname":"Nagar Nigam Greater Jaipur (Mc)","ulbcode":"900600","wardname":"Ward 138","wardcode":"138","id":null,"remark":"","st_area(shape)":9.282782699978633e-05,"st_perimeter(shape)":0.04826825625779724}},{"type":"Feature","geometry":{"type":"Polygon","coordinates":[[[75.7369,26.9414],[75.7368,26.9373],[75.7433,26.9371],[75.7437,26.9443],[75.7323,26.9457],[75.7319,26.9418],[75.7369,26.9414]]]},"properties":{"objectid":165902,"statename":"Rajasthan","statecode":"8","districtname":"","districtcode":"110","ulbname":"Nagar Nigam Greater Jaipur (Mc)","ulbcode":"900600","wardname":"Ward 36","wardcode":"36","id":null,"remark":"","st_area(shape)":6.735840699998726e-05,"st_perimeter(shape)":0.03872554951693826}},{"type":"Feature","geometry":{"type":"Polygon","coordinates":[[[75.8166,26.8042],[75.8202,26.8009],[75.8243,26.8039],[75.8222,26.8071],[75.8132,26.8053],[75.8094,26.8067],[75.8099,26.8081],[75.8085,26.8102],[75.8031,26.8107],[75.8107,26.8007],[75.8166,26.8042]]]},"properties":{"objectid":165903,"statename":"Rajasthan","statecode":"8","districtname":"","districtcode":"110","ulbname":"Nagar Nigam Greater Jaipur (Mc)","ulbcode":"900600","wardname":"Ward 102","wardcode":"102","id":null,"remark":"","st_area(shape)":8.171558382495316e-05,"st_perimeter(shape)":0.05729113541534302}},{"type":"Feature","geometry":{"type":"Polygon","coordinates":[[[75.82,26.8368],[75.8186,26.8383],[75.8201,26.8419],[75.8174,26.8437],[75.8138,26.8422],[75.8141,26.8401],[75.8178,26.8377],[75.817,26.8327],[75.8147,26.8333],[75.8146,26.8269],[75.8196,26.828],[75.8216,26.8307],[75.8215,26.8351],[75.82,26.8368]]]},"properties":{"objectid":165904,"statename":"Rajasthan","statecode":"8","districtname":"","districtcode":"110","ulbname":"Nagar Nigam Greater Jaipur (Mc)","ulbcode":"900600","wardname":"Ward 107","wardcode":"107","id":null,"remark":"","st_area(shape)":7.63312996178214e-05,"st_perimeter(shape)":0.05229528449940192}},{"type":"Feature","geometry":{"type":"Polygon","coordinates":[[[75.8024,26.8121],[75.8031,26.8107],[75.8056,26.8111],[75.8114,26.8084],[75.8151,26.8083],[75.8119,26.8131],[75.8024,26.8121]]]},"properties":{"objectid":165905,"statename":"Rajasthan","statecode":"8","districtname":"","districtcode":"110","ulbname":"Nagar Nigam Greater Jaipur (Mc)","ulbcode":"900600","wardname":"Ward 100","wardcode":"100","id":null,"remark":"","st_area(shape)":3.4424430382443396e-05,"st_perimeter(shape)":0.030719067003603835}},{"type":"Feature","geometry":{"type":"Polygon","coordinates":[[[75.6768,26.8633],[75.6973,26.8709],[75.6969,26.8721],[75.6891,26.8749],[75.6786,26.8739],[75.6752,26.8757],[75.6743,26.8722],[75.6746,26.8693],[75.676,26.8686],[75.674,26.8645],[75.6745,26.8624],[75.6768,26.8633]]]},"properties":{"objectid":165906,"statename":"Rajasthan","statecode":"8","districtname":"","districtcode":"110","ulbname":"Nagar Nigam Greater Jaipur (Mc)","ulbcode":"900600","wardname":"Ward 65","wardcode":"65","id":null,"remark":"","st_area(shape)":0.00016578298365989847,"st_perimeter(shape)":0.06469007934662073}},{"type":"Feature","geometry":{"type":"Polygon","coordinates":[[[75.7593,27.0103],[75.7661,27.0202],[75.7691,27.0205],[75.7743,27.0254],[75.7729,27.0264],[75.769,27.0256],[75.7683,27.0314],[75.7661,27.0352],[75.7617,27.0327],[75.7574,27.0345],[75.7574,27.0328],[75.7533,27.034],[75.7534,27.0325],[75.7499,27.0318],[75.7381,27.0321],[75.7382,27.0299],[75.737,27.029],[75.7447,27.0194],[75.749,27.0173],[75.7506,27.0145],[75.7569,27.0133],[75.7593,27.0103]]]},"properties":{"objectid":166283,"statename":"Rajasthan","statecode":"8","districtname":"","districtcode":"110","ulbname":"Nagar Nigam Greater Jaipur (Mc)","ulbcode":"900600","wardname":"Ward 1","wardcode":"1","id":null,"remark":"","st_area(shape)":0.0004898428350003622,"st_perimeter(shape)":0.10880469813355603}},{"type":"Feature","geometry":{"type":"Polygon","coordinates":[[[75.7599,27.0037],[75.7668,27.0033],[75.7657,26.9958],[75.7671,26.9953],[75.7705,26.998],[75.7697,27.0205],[75.7661,27.0203],[75.7596,27.0114],[75.7599,27.0037]]]},"properties":{"objectid":166675,"statename":"Rajasthan","statecode":"8","districtname":"","districtcode":"110","ulbname":"Nagar Nigam Greater Jaipur (Mc)","ulbcode":"900600","wardname":"Ward 3","wardcode":"3","id":null,"remark":"","st_area(shape)":0.00016775382794006322,"st_perimeter(shape)":0.0683816990712937}},{"type":"Feature","geometry":{"type":"Polygon","coordinates":[[[75.7706,26.998],[75.7796,27.0033],[75.7793,27.0204],[75.7696,27.018],[75.7706,26.998]]]},"properties":{"objectid":166679,"statename":"Rajasthan","statecode":"8","districtname":"","districtcode":"110","ulbname":"Nagar Nigam Greater Jaipur (Mc)","ulbcode":"900600","wardname":"Ward 4","wardcode":"4","id":null,"remark":"","st_area(shape)":0.00017828011060483528,"st_perimeter(shape)":0.05806810070936527}},{"type":"Feature","geometry":{"type":"Polygon","coordinates":[[[75.7706,26.998],[75.7741,26.9816],[75.772,26.9752],[75.7721,26.9664],[75.7793,26.9631],[75.7805,26.9651],[75.783,26.9645],[75.7847,26.968],[75.79,26.9656],[75.7929,26.9657],[75.7948,26.9679],[75.7949,26.9708],[75.7895,26.9814],[75.7911,26.9872],[75.7978,26.9909],[75.7954,26.9978],[75.7892,26.9972],[75.7876,26.9994],[75.7897,27.0009],[75.7887,27.0031],[75.7842,27.0034],[75.7834,27.0055],[75.7706,26.998]]]},"properties":{"objectid":166681,"statename":"Rajasthan","statecode":"8","districtname":"","districtcode":"110","ulbname":"Nagar Nigam Greater Jaipur (Mc)","ulbcode":"900600","wardname":"Ward 8","wardcode":"8","id":null,"remark":"","st_area(shape)":0.0007507776976296294,"st_perimeter(shape)":0.13421793324693126}},{"type":"Feature","geometry":{"type":"Polygon","coordinates":[[[75.7965,26.8816],[75.798,26.8772],[75.8031,26.8881],[75.8085,26.8948],[75.8008,26.8984],[75.7982,26.8931],[75.797,26.8936],[75.7955,26.8911],[75.7941,26.8911],[75.7965,26.8816]]]},"properties":{"objectid":166684,"statename":"Rajasthan","statecode":"8","districtname":"","districtcode":"110","ulbname":"Nagar Nigam Greater Jaipur (Mc)","ulbcode":"900600","wardname":"Ward 142","wardcode":"142","id":null,"remark":"","st_area(shape)":0.00012770840689002705,"st_perimeter(shape)":0.05543417733758289}},{"type":"Feature","geometry":{"type":"Polygon","coordinates":[[[75.7896,26.8919],[75.7924,26.8947],[75.7901,26.9025],[75.7867,26.9027],[75.7832,26.9014],[75.7846,26.8954],[75.7801,26.893],[75.7844,26.8903],[75.7896,26.8919]]]},"properties":{"objectid":166685,"statename":"Rajasthan","statecode":"8","districtname":"","districtcode":"110","ulbname":"Nagar Nigam Greater Jaipur (Mc)","ulbcode":"900600","wardname":"Ward 146","wardcode":"146","id":null,"remark":"","st_area(shape)":8.818382587498189e-05,"st_perimeter(shape)":0.04352741938724435}},{"type":"Feature","geometry":{"type":"Polygon","coordinates":[[[75.7576,26.9812],[75.7544,26.9765],[75.7603,26.9756],[75.7604,26.9745],[75.7654,26.9745],[75.7662,26.9768],[75.7703,26.9769],[75.7697,26.979],[75.7576,26.9812]]]},"properties":{"objectid":166686,"statename":"Rajasthan","statecode":"8","districtname":"","districtcode":"110","ulbname":"Nagar Nigam Greater Jaipur (Mc)","ulbcode":"900600","wardname":"Ward 11","wardcode":"11","id":null,"remark":"","st_area(shape)":6.14725399999334e-05,"st_perimeter(shape)":0.04065529491586238}},{"type":"Feature","geometry":{"type":"Polygon","coordinates":[[[75.7544,26.9764],[75.7515,26.9726],[75.7573,26.9627],[75.7593,26.9621],[75.7604,26.9654],[75.7594,26.9657],[75.7603,26.9756],[75.7544,26.9764]]]},"properties":{"objectid":166687,"statename":"Rajasthan","statecode":"8","districtname":"","districtcode":"110","ulbname":"Nagar Nigam Greater Jaipur (Mc)","ulbcode":"900600","wardname":"Ward 15","wardcode":"15","id":null,"remark":"","st_area(shape)":7.86410331700669e-05,"st_perimeter(shape)":0.039305486282593664}},{"type":"Feature","geometry":{"type":"Polygon","coordinates":[[[75.7816,26.9622],[75.7723,26.9665],[75.7715,26.9593],[75.7842,26.9543],[75.7868,26.9597],[75.7816,26.9622]]]},"properties":{"objectid":166695,"statename":"Rajasthan","statecode":"8","districtname":"","districtcode":"110","ulbname":"Nagar Nigam Greater Jaipur (Mc)","ulbcode":"900600","wardname":"Ward 21","wardcode":"21","id":null,"remark":"","st_area(shape)":9.806273299986656e-05,"st_perimeter(shape)":0.04376679385124662}},{"type":"Feature","geometry":{"type":"Polygon","coordinates":[[[75.8899,26.876],[75.8926,26.8714],[75.891,26.8676],[75.8922,26.8667],[75.8925,26.8681],[75.8976,26.8705],[75.9055,26.8708],[75.9015,26.8781],[75.9035,26.8828],[75.8936,26.8858],[75.8899,26.876]]]},"properties":{"objectid":166696,"statename":"Rajasthan","statecode":"8","districtname":"","districtcode":"110","ulbname":"Nagar Nigam Greater Jaipur (Mc)","ulbcode":"900600","wardname":"Ward 123","wardcode":"123","id":null,"remark":"","st_area(shape)":0.00016931049222846712,"st_perimeter(shape)":0.06365407350921543}},{"type":"Feature","geometry":{"type":"Polygon","coordinates":[[[75.7328,26.9508],[75.7323,26.9457],[75.7469,26.9436],[75.7472,26.9471],[75.7443,26.9477],[75.7445,26.9488],[75.7328,26.9508]]]},"properties":{"objectid":166697,"statename":"Rajasthan","statecode":"8","districtname":"","districtcode":"110","ulbname":"Nagar Nigam Greater Jaipur (Mc)","ulbcode":"900600","wardname":"Ward 32","wardcode":"32","id":null,"remark":"","st_area(shape)":6.758841900001316e-05,"st_perimeter(shape)":0.039446807051859746}},{"type":"Feature","geometry":{"type":"Polygon","coordinates":[[[75.848,26.8543],[75.8499,26.8626],[75.8364,26.8549],[75.832,26.8557],[75.8231,26.8622],[75.825,26.8509],[75.8353,26.835],[75.8505,26.8354],[75.848,26.8543]]]},"properties":{"objectid":166698,"statename":"Rajasthan","statecode":"8","districtname":"","districtcode":"110","ulbname":"Nagar Nigam Greater Jaipur (Mc)","ulbcode":"900600","wardname":"Ward 113","wardcode":"113","id":null,"remark":"","st_area(shape)":0.00046826447039774444,"st_perimeter(shape)":0.10514777760780145}},{"type":"Feature","geometry":{"type":"Polygon","coordinates":[[[75.8403,26.8247],[75.8251,26.8234],[75.8259,26.8179],[75.8239,26.8133],[75.8228,26.8132],[75.8234,26.8104],[75.8255,26.8091],[75.8219,26.8073],[75.8257,26.8023],[75.8465,26.8109],[75.8426,26.8194],[75.8432,26.8252],[75.8403,26.8247]]]},"properties":{"objectid":166699,"statename":"Rajasthan","statecode":"8","districtname":"","districtcode":"110","ulbname":"Nagar Nigam Greater Jaipur (Mc)","ulbcode":"900600","wardname":"Ward 115","wardcode":"115","id":null,"remark":"","st_area(shape)":0.0003559946711891091,"st_perimeter(shape)":0.08408084441659111}},{"type":"Feature","geometry":{"type":"Polygon","coordinates":[[[75.8855,26.8534],[75.8825,26.8602],[75.8526,26.8655],[75.8499,26.8626],[75.848,26.8543],[75.8505,26.8354],[75.8977,26.837],[75.901,26.8366],[75.9021,26.834],[75.9044,26.8339],[75.9043,26.8471],[75.8992,26.8461],[75.8974,26.8484],[75.8921,26.8464],[75.8855,26.8534]]]},"properties":{"objectid":166700,"statename":"Rajasthan","statecode":"8","districtname":"","districtcode":"110","ulbname":"Nagar Nigam Greater Jaipur (Mc)","ulbcode":"900600","wardname":"Ward 120","wardcode":"120","id":null,"remark":"","st_area(shape)":0.001200877395232406,"st_perimeter(shape)":0.1626683295581592}},{"type":"Feature","geometry":{"type":"Polygon","coordinates":[[[75.7319,26.9418],[75.7311,26.9326],[75.7436,26.9339],[75.7433,26.9371],[75.7368,26.9373],[75.7369,26.9414],[75.7319,26.9418]]]},"properties":{"objectid":166701,"statename":"Rajasthan","statecode":"8","districtname":"","districtcode":"110","ulbname":"Nagar Nigam Greater Jaipur (Mc)","ulbcode":"900600","wardname":"Ward 39","wardcode":"39","id":null,"remark":"","st_area(shape)":7.076722640984323e-05,"st_perimeter(shape)":0.04111606692814322}},{"type":"Feature","geometry":{"type":"Polygon","coordinates":[[[75.7826,26.799],[75.7775,26.7979],[75.7523,26.7986],[75.7504,26.7917],[75.7427,26.7835],[75.7416,26.7756],[75.7532,26.7729],[75.7588,26.7686],[75.7678,26.7657],[75.7683,26.7668],[75.7704,26.7664],[75.7729,26.7752],[75.7753,26.7754],[75.7793,26.7816],[75.7818,26.7892],[75.7826,26.799]]]},"properties":{"objectid":166702,"statename":"Rajasthan","statecode":"8","districtname":"","districtcode":"110","ulbname":"Nagar Nigam Greater Jaipur (Mc)","ulbcode":"900600","wardname":"Ward 96","wardcode":"96","id":null,"remark":"","st_area(shape)":0.0009226488612349861,"st_perimeter(shape)":0.12708774660185546}},{"type":"Feature","geometry":{"type":"Polygon","coordinates":[[[75.8014,26.8006],[75.8102,26.794],[75.8145,26.7927],[75.816,26.7906],[75.8151,26.7797],[75.8257,26.7748],[75.8308,26.7738],[75.8084,26.8036],[75.8014,26.8006]]]},"properties":{"objectid":166703,"statename":"Rajasthan","statecode":"8","districtname":"","districtcode":"110","ulbname":"Nagar Nigam Greater Jaipur (Mc)","ulbcode":"900600","wardname":"Ward 99","wardcode":"99","id":null,"remark":"","st_area(shape)":0.00019250206714991228,"st_perimeter(shape)":0.09200201130190135}},{"type":"Feature","geometry":{"type":"Polygon","coordinates":[[[75.7301,26.9153],[75.7531,26.9151],[75.7554,26.9154],[75.7566,26.9172],[75.7662,26.9152],[75.7675,26.9104],[75.7688,26.9112],[75.7692,26.9143],[75.7711,26.9147],[75.7677,26.9173],[75.7459,26.9229],[75.7401,26.92],[75.7304,26.9209],[75.7301,26.9153]]]},"properties":{"objectid":166704,"statename":"Rajasthan","statecode":"8","districtname":"","districtcode":"110","ulbname":"Nagar Nigam Greater Jaipur (Mc)","ulbcode":"900600","wardname":"Ward 52","wardcode":"52","id":null,"remark":"","st_area(shape)":0.00020606214749978964,"st_perimeter(shape)":0.09890433951198775}},{"type":"Feature","geometry":{"type":"Polygon","coordinates":[[[75.7859,26.8417],[75.7862,26.8518],[75.779,26.8526],[75.7783,26.8491],[75.7797,26.8477],[75.7786,26.8429],[75.7799,26.8417],[75.7811,26.8328],[75.7835,26.8308],[75.7908,26.8304],[75.794,26.8315],[75.7937,26.839],[75.7851,26.8389],[75.7859,26.8417]]]},"properties":{"objectid":166705,"statename":"Rajasthan","statecode":"8","districtname":"","districtcode":"110","ulbname":"Nagar Nigam Greater Jaipur (Mc)","ulbcode":"900600","wardname":"Ward 87","wardcode":"87","id":null,"remark":"","st_area(shape)":0.00019484000319233856,"st_perimeter(shape)":0.0730129180343829}},{"type":"Feature","geometry":{"type":"Polygon","coordinates":[[[75.7298,26.9153],[75.7287,26.9058],[75.7429,26.9055],[75.7436,26.915],[75.7298,26.9153]]]},"properties":{"objectid":166706,"statename":"Rajasthan","statecode":"8","districtname":"","districtcode":"110","ulbname":"Nagar Nigam Greater Jaipur (Mc)","ulbcode":"900600","wardname":"Ward 54","wardcode":"54","id":null,"remark":"","st_area(shape)":0.00013229142150002885,"st_perimeter(shape)":0.04729396335438081}},{"type":"Feature","geometry":{"type":"Polygon","coordinates":[[[75.7636,26.8608],[75.7662,26.8582],[75.7674,26.8523],[75.7726,26.8544],[75.7735,26.8535],[75.7754,26.8543],[75.7755,26.858],[75.7737,26.8592],[75.7749,26.8664],[75.7703,26.8668],[75.7636,26.8608]]]},"properties":{"objectid":166707,"statename":"Rajasthan","statecode":"8","districtname":"","districtcode":"110","ulbname":"Nagar Nigam Greater Jaipur (Mc)","ulbcode":"900600","wardname":"Ward 76","wardcode":"76","id":null,"remark":"","st_area(shape)":0.0001116901164856617,"st_perimeter(shape)":0.0485087548836629}},{"type":"Feature","geometry":{"type":"Polygon","coordinates":[[[75.7296,26.9017],[75.7287,26.9058],[75.7185,26.9045],[75.7044,26.9005],[75.7083,26.8952],[75.7195,26.8988],[75.7317,26.8985],[75.7296,26.9017]]]},"properties":{"objectid":166708,"statename":"Rajasthan","statecode":"8","districtname":"","districtcode":"110","ulbname":"Nagar Nigam Greater Jaipur (Mc)","ulbcode":"900600","wardname":"Ward 56","wardcode":"56","id":null,"remark":"","st_area(shape)":0.00014203890377024965,"st_perimeter(shape)":0.06398177816198876}},{"type":"Feature","geometry":{"type":"Polygon","coordinates":[[[75.7403,26.8793],[75.7403,26.8636],[75.7537,26.8637],[75.7476,26.8762],[75.7482,26.8794],[75.7403,26.8793]]]},"properties":{"objectid":166709,"statename":"Rajasthan","statecode":"8","districtname":"","districtcode":"110","ulbname":"Nagar Nigam Greater Jaipur (Mc)","ulbcode":"900600","wardname":"Ward 68","wardcode":"68","id":null,"remark":"","st_area(shape)":0.00015802922664082594,"st_perimeter(shape)":0.055743522550690865}},{"type":"Feature","geometry":{"type":"Polygon","coordinates":[[[75.747,26.9051],[75.7438,26.9054],[75.7437,26.8982],[75.7513,26.9],[75.7523,26.9026],[75.7535,26.9028],[75.7528,26.9059],[75.747,26.9051]]]},"properties":{"objectid":166710,"statename":"Rajasthan","statecode":"8","districtname":"","districtcode":"110","ulbname":"Nagar Nigam Greater Jaipur (Mc)","ulbcode":"900600","wardname":"Ward 58","wardcode":"58","id":null,"remark":"","st_area(shape)":5.02598804286409e-05,"st_perimeter(shape)":0.0324901291032644}},{"type":"Feature","geometry":{"type":"Polygon","coordinates":[[[75.7978,26.9909],[75.7984,26.9892],[75.7998,26.9928],[75.8049,26.9934],[75.808,27.0078],[75.7978,27.0082],[75.7954,27.01],[75.7925,27.0102],[75.7907,27.0089],[75.7905,27.0054],[75.788,27.0055],[75.7869,27.0065],[75.7875,27.0083],[75.7839,27.0131],[75.7848,27.0197],[75.7792,27.0201],[75.7797,27.0032],[75.7834,27.0055],[75.7842,27.0034],[75.7886,27.0032],[75.7897,27.0009],[75.7876,26.9994],[75.7892,26.9972],[75.7954,26.9978],[75.7978,26.9909]]]},"properties":{"objectid":167081,"statename":"Rajasthan","statecode":"8","districtname":"","districtcode":"110","ulbname":"Nagar Nigam Greater Jaipur (Mc)","ulbcode":"900600","wardname":"Ward 5","wardcode":"5","id":null,"remark":"","st_area(shape)":0.0003500499245746493,"st_perimeter(shape)":0.12400990938812026}},{"type":"Feature","geometry":{"type":"Polygon","coordinates":[[[75.7485,26.9768],[75.7515,26.9726],[75.7603,26.985],[75.7536,26.9865],[75.7532,26.9849],[75.7493,26.9859],[75.7499,26.9873],[75.7395,26.9898],[75.7485,26.9768]]]},"properties":{"objectid":167082,"statename":"Rajasthan","statecode":"8","districtname":"","districtcode":"110","ulbname":"Nagar Nigam Greater Jaipur (Mc)","ulbcode":"900600","wardname":"Ward 9","wardcode":"9","id":null,"remark":"","st_area(shape)":0.0001450537119298441,"st_perimeter(shape)":0.06115432713360001}},{"type":"Feature","geometry":{"type":"Polygon","coordinates":[[[75.8273,26.8869],[75.8305,26.8901],[75.8199,26.8951],[75.8217,26.8988],[75.8228,26.8984],[75.8245,26.9027],[75.8215,26.9036],[75.8194,26.8998],[75.8163,26.8988],[75.8145,26.892],[75.8273,26.8869]]]},"properties":{"objectid":167087,"statename":"Rajasthan","statecode":"8","districtname":"","districtcode":"110","ulbname":"Nagar Nigam Greater Jaipur (Mc)","ulbcode":"900600","wardname":"Ward 148","wardcode":"148","id":null,"remark":"","st_area(shape)":0.00010354421300008884,"st_perimeter(shape)":0.05855948851698186}},{"type":"Feature","geometry":{"type":"Polygon","coordinates":[[[75.8225,26.8661],[75.8186,26.8833],[75.8073,26.8856],[75.8045,26.8767],[75.7985,26.8777],[75.8017,26.8645],[75.8059,26.8588],[75.8085,26.8677],[75.8175,26.8658],[75.8225,26.8661]]]},"properties":{"objectid":167088,"statename":"Rajasthan","statecode":"8","districtname":"","districtcode":"110","ulbname":"Nagar Nigam Greater Jaipur (Mc)","ulbcode":"900600","wardname":"Ward 134","wardcode":"134","id":null,"remark":"","st_area(shape)":0.0003556369909999439,"st_perimeter(shape)":0.08944543845804591}},{"type":"Feature","geometry":{"type":"Polygon","coordinates":[[[75.778,26.8822],[75.7766,26.8787],[75.7835,26.8755],[75.7878,26.8754],[75.7881,26.8797],[75.778,26.8822]]]},"properties":{"objectid":167089,"statename":"Rajasthan","statecode":"8","districtname":"","districtcode":"110","ulbname":"Nagar Nigam Greater Jaipur (Mc)","ulbcode":"900600","wardname":"Ward 136","wardcode":"136","id":null,"remark":"","st_area(shape)":5.1335794350079585e-05,"st_perimeter(shape)":0.03102862967920427}},{"type":"Feature","geometry":{"type":"Polygon","coordinates":[[[75.7884,26.8797],[75.788,26.8751],[75.7974,26.8732],[75.7976,26.8774],[75.7884,26.8797]]]},"properties":{"objectid":167090,"statename":"Rajasthan","statecode":"8","districtname":"","districtcode":"110","ulbname":"Nagar Nigam Greater Jaipur (Mc)","ulbcode":"900600","wardname":"Ward 137","wardcode":"137","id":null,"remark":"","st_area(shape)":4.172849968006404e-05,"st_perimeter(shape)":0.029409668584975502}},{"type":"Feature","geometry":{"type":"Polygon","coordinates":[[[75.7827,26.8862],[75.7793,26.883],[75.7762,26.8838],[75.7751,26.8857],[75.7743,26.8831],[75.7881,26.8797],[75.7886,26.8852],[75.7827,26.8862]]]},"properties":{"objectid":167091,"statename":"Rajasthan","statecode":"8","districtname":"","districtcode":"110","ulbname":"Nagar Nigam Greater Jaipur (Mc)","ulbcode":"900600","wardname":"Ward 140","wardcode":"140","id":null,"remark":"","st_area(shape)":4.683633705497016e-05,"st_perimeter(shape)":0.03998016612401799}},{"type":"Feature","geometry":{"type":"Polygon","coordinates":[[[75.7718,26.9631],[75.7724,26.9708],[75.7604,26.9702],[75.7595,26.9664],[75.7626,26.9656],[75.7638,26.9638],[75.7649,26.9659],[75.7718,26.9631]]]},"properties":{"objectid":167101,"statename":"Rajasthan","statecode":"8","districtname":"","districtcode":"110","ulbname":"Nagar Nigam Greater Jaipur (Mc)","ulbcode":"900600","wardname":"Ward 18","wardcode":"18","id":null,"remark":"","st_area(shape)":7.034607649997966e-05,"st_perimeter(shape)":0.0394791068042445}},{"type":"Feature","geometry":{"type":"Polygon","coordinates":[[[75.7825,26.9617],[75.7869,26.9593],[75.7903,26.9601],[75.7902,26.9651],[75.7846,26.9679],[75.7827,26.964],[75.7807,26.965],[75.7796,26.9631],[75.7825,26.9617]]]},"properties":{"objectid":167102,"statename":"Rajasthan","statecode":"8","districtname":"","districtcode":"110","ulbname":"Nagar Nigam Greater Jaipur (Mc)","ulbcode":"900600","wardname":"Ward 22","wardcode":"22","id":null,"remark":"","st_area(shape)":5.1135450500071056e-05,"st_perimeter(shape)":0.03252716168766489}},{"type":"Feature","geometry":{"type":"Polygon","coordinates":[[[75.763,26.9617],[75.7573,26.9622],[75.7671,26.9419],[75.7737,26.9401],[75.7714,26.9569],[75.7684,26.957],[75.7686,26.9593],[75.763,26.9617]]]},"properties":{"objectid":167103,"statename":"Rajasthan","statecode":"8","districtname":"","districtcode":"110","ulbname":"Nagar Nigam Greater Jaipur (Mc)","ulbcode":"900600","wardname":"Ward 25","wardcode":"25","id":null,"remark":"","st_area(shape)":0.00018215476699998408,"st_perimeter(shape)":0.0658835986122716}},{"type":"Feature","geometry":{"type":"Polygon","coordinates":[[[75.8992,26.8461],[75.8993,26.8495],[75.8919,26.8614],[75.8922,26.8667],[75.8836,26.8733],[75.8812,26.8781],[75.87,26.8901],[75.8709,26.8823],[75.8785,26.8791],[75.8759,26.8752],[75.88,26.8737],[75.8836,26.8644],[75.8882,26.8575],[75.8825,26.8602],[75.8855,26.8534],[75.8921,26.8464],[75.8974,26.8484],[75.8992,26.8461]]]},"properties":{"objectid":167104,"statename":"Rajasthan","statecode":"8","districtname":"","districtcode":"110","ulbname":"Nagar Nigam Greater Jaipur (Mc)","ulbcode":"900600","wardname":"Ward 121","wardcode":"121","id":null,"remark":"","st_area(shape)":0.0002869009728635829,"st_perimeter(shape)":0.1332274355385216}},{"type":"Feature","geometry":{"type":"Polygon","coordinates":[[[75.8142,26.8423],[75.8188,26.8451],[75.814,26.8487],[75.8146,26.8471],[75.8127,26.8459],[75.8085,26.8469],[75.8084,26.8413],[75.8142,26.8423]]]},"properties":{"objectid":167105,"statename":"Rajasthan","statecode":"8","districtname":"","districtcode":"110","ulbname":"Nagar Nigam Greater Jaipur (Mc)","ulbcode":"900600","wardname":"Ward 126","wardcode":"126","id":null,"remark":"","st_area(shape)":4.557356734663727e-05,"st_perimeter(shape)":0.032100695752028376}},{"type":"Feature","geometry":{"type":"Polygon","coordinates":[[[75.7954,26.8586],[75.7959,26.8624],[75.787,26.8648],[75.7872,26.8547],[75.7862,26.8518],[75.7938,26.8498],[75.7954,26.8586]]]},"properties":{"objectid":167106,"statename":"Rajasthan","statecode":"8","districtname":"","districtcode":"110","ulbname":"Nagar Nigam Greater Jaipur (Mc)","ulbcode":"900600","wardname":"Ward 128","wardcode":"128","id":null,"remark":"","st_area(shape)":0.00010521369587994641,"st_perimeter(shape)":0.044897351279731657}},{"type":"Feature","geometry":{"type":"Polygon","coordinates":[[[75.8084,26.856],[75.8059,26.8588],[75.8031,26.8481],[75.8127,26.8459],[75.8146,26.8471],[75.814,26.8487],[75.8084,26.856]]]},"properties":{"objectid":167107,"statename":"Rajasthan","statecode":"8","districtname":"","districtcode":"110","ulbname":"Nagar Nigam Greater Jaipur (Mc)","ulbcode":"900600","wardname":"Ward 130","wardcode":"130","id":null,"remark":"","st_area(shape)":7.528628278202819e-05,"st_perimeter(shape)":0.03834980697741172}},{"type":"Feature","geometry":{"type":"Polygon","coordinates":[[[75.733,26.953],[75.7328,26.9509],[75.7445,26.9488],[75.7443,26.9477],[75.7467,26.9472],[75.7497,26.9503],[75.7388,26.9537],[75.7379,26.952],[75.733,26.953]]]},"properties":{"objectid":167108,"statename":"Rajasthan","statecode":"8","districtname":"","districtcode":"110","ulbname":"Nagar Nigam Greater Jaipur (Mc)","ulbcode":"900600","wardname":"Ward 29","wardcode":"29","id":null,"remark":"","st_area(shape)":4.849714049983575e-05,"st_perimeter(shape)":0.041954260017411066}},{"type":"Feature","geometry":{"type":"Polygon","coordinates":[[[75.7632,26.9426],[75.7673,26.9419],[75.7609,26.9546],[75.7632,26.948],[75.757,26.9502],[75.7575,26.9444],[75.7606,26.9434],[75.7604,26.9425],[75.7632,26.9426]]]},"properties":{"objectid":167109,"statename":"Rajasthan","statecode":"8","districtname":"","districtcode":"110","ulbname":"Nagar Nigam Greater Jaipur (Mc)","ulbcode":"900600","wardname":"Ward 31","wardcode":"31","id":null,"remark":"","st_area(shape)":5.076904845500379e-05,"st_perimeter(shape)":0.046662432530479574}},{"type":"Feature","geometry":{"type":"Polygon","coordinates":[[[75.8398,26.8275],[75.8403,26.8247],[75.8432,26.8252],[75.8426,26.8194],[75.8465,26.8109],[75.8363,26.8073],[75.84,26.801],[75.8573,26.8028],[75.845,26.8281],[75.8398,26.8275]]]},"properties":{"objectid":167110,"statename":"Rajasthan","statecode":"8","districtname":"","districtcode":"110","ulbname":"Nagar Nigam Greater Jaipur (Mc)","ulbcode":"900600","wardname":"Ward 116","wardcode":"116","id":null,"remark":"","st_area(shape)":0.0002559420397708282,"st_perimeter(shape)":0.08996823683423041}},{"type":"Feature","geometry":{"type":"Polygon","coordinates":[[[75.8573,26.8028],[75.84,26.801],[75.8363,26.8073],[75.8259,26.8022],[75.8305,26.7961],[75.828,26.7956],[75.8273,26.7927],[75.8345,26.7948],[75.8407,26.79],[75.8481,26.7932],[75.8527,26.7878],[75.8633,26.784],[75.8573,26.8028]]]},"properties":{"objectid":167111,"statename":"Rajasthan","statecode":"8","districtname":"","districtcode":"110","ulbname":"Nagar Nigam Greater Jaipur (Mc)","ulbcode":"900600","wardname":"Ward 118","wardcode":"118","id":null,"remark":"","st_area(shape)":0.00039279793380874,"st_perimeter(shape)":0.11369120725470419}},{"type":"Feature","geometry":{"type":"Polygon","coordinates":[[[75.8591,26.8235],[75.8648,26.8222],[75.8669,26.8289],[75.8667,26.8356],[75.8353,26.835],[75.8375,26.8289],[75.8396,26.829],[75.8398,26.8275],[75.845,26.8281],[75.8461,26.8263],[75.8483,26.8274],[75.8591,26.8235]]]},"properties":{"objectid":167112,"statename":"Rajasthan","statecode":"8","districtname":"","districtcode":"110","ulbname":"Nagar Nigam Greater Jaipur (Mc)","ulbcode":"900600","wardname":"Ward 117","wardcode":"117","id":null,"remark":"","st_area(shape)":0.000291916958893618,"st_perimeter(shape)":0.0830629476897795}},{"type":"Feature","geometry":{"type":"Polygon","coordinates":[[[75.7308,26.9268],[75.7306,26.9209],[75.7399,26.92],[75.7453,26.9229],[75.7468,26.9268],[75.7453,26.928],[75.7406,26.9269],[75.7402,26.9311],[75.7362,26.9314],[75.7353,26.9248],[75.7343,26.9249],[75.7344,26.9266],[75.7308,26.9268]]]},"properties":{"objectid":167114,"statename":"Rajasthan","statecode":"8","districtname":"","districtcode":"110","ulbname":"Nagar Nigam Greater Jaipur (Mc)","ulbcode":"900600","wardname":"Ward 42","wardcode":"42","id":null,"remark":"","st_area(shape)":0.00010874302500007776,"st_perimeter(shape)":0.05525446692518929}},{"type":"Feature","geometry":{"type":"Polygon","coordinates":[[[75.7255,26.965],[75.7174,26.9685],[75.7158,26.9655],[75.7113,26.966],[75.7024,26.9702],[75.7043,26.9621],[75.7019,26.9516],[75.7224,26.9476],[75.7255,26.965]]]},"properties":{"objectid":167115,"statename":"Rajasthan","statecode":"8","districtname":"","districtcode":"110","ulbname":"Nagar Nigam Greater Jaipur (Mc)","ulbcode":"900600","wardname":"Ward 44","wardcode":"44","id":null,"remark":"","st_area(shape)":0.00036558308550030557,"st_perimeter(shape)":0.08458140194115463}},{"type":"Feature","geometry":{"type":"Polygon","coordinates":[[[75.6954,26.9246],[75.7184,26.9231],[75.7192,26.9315],[75.7088,26.9307],[75.7093,26.944],[75.7117,26.9431],[75.7136,26.9492],[75.7012,26.9519],[75.6934,26.9344],[75.6874,26.9368],[75.687,26.9296],[75.6838,26.9266],[75.6839,26.922],[75.6954,26.9246]]]},"properties":{"objectid":167116,"statename":"Rajasthan","statecode":"8","districtname":"","districtcode":"110","ulbname":"Nagar Nigam Greater Jaipur (Mc)","ulbcode":"900600","wardname":"Ward 45","wardcode":"45","id":null,"remark":"","st_area(shape)":0.0005428835855104645,"st_perimeter(shape)":0.1341116948604752}},{"type":"Feature","geometry":{"type":"Polygon","coordinates":[[[75.7863,26.831],[75.7827,26.831],[75.7825,26.8278],[75.7895,26.823],[75.7894,26.8185],[75.7981,26.8192],[75.7969,26.8239],[75.7988,26.8248],[75.8002,26.8275],[75.7959,26.8329],[75.7908,26.8304],[75.7863,26.831]]]},"properties":{"objectid":167117,"statename":"Rajasthan","statecode":"8","districtname":"","districtcode":"110","ulbname":"Nagar Nigam Greater Jaipur (Mc)","ulbcode":"900600","wardname":"Ward 104","wardcode":"104","id":null,"remark":"","st_area(shape)":0.0001488268919314067,"st_perimeter(shape)":0.05765017033963513}},{"type":"Feature","geometry":{"type":"Polygon","coordinates":[[[75.8146,26.84],[75.8138,26.8422],[75.8037,26.8407],[75.8015,26.8376],[75.7983,26.839],[75.7939,26.8389],[75.794,26.8327],[75.7971,26.8337],[75.8001,26.8318],[75.8095,26.8307],[75.8117,26.8277],[75.8146,26.8269],[75.8147,26.8333],[75.817,26.8327],[75.8178,26.8377],[75.8146,26.84]]]},"properties":{"objectid":167118,"statename":"Rajasthan","statecode":"8","districtname":"","districtcode":"110","ulbname":"Nagar Nigam Greater Jaipur (Mc)","ulbcode":"900600","wardname":"Ward 106","wardcode":"106","id":null,"remark":"","st_area(shape)":0.00020508964830595142,"st_perimeter(shape)":0.07635728267867999}},{"type":"Feature","geometry":{"type":"Polygon","coordinates":[[[75.7088,26.9307],[75.7192,26.9315],[75.721,26.9419],[75.7175,26.9423],[75.7185,26.9483],[75.7136,26.9492],[75.7117,26.943],[75.7093,26.944],[75.7088,26.9307]]]},"properties":{"objectid":167119,"statename":"Rajasthan","statecode":"8","districtname":"","districtcode":"110","ulbname":"Nagar Nigam Greater Jaipur (Mc)","ulbcode":"900600","wardname":"Ward 46","wardcode":"46","id":null,"remark":"","st_area(shape)":0.0001602664288649546,"st_perimeter(shape)":0.059417503944008986}},{"type":"Feature","geometry":{"type":"Polygon","coordinates":[[[75.7191,26.9326],[75.7192,26.9312],[75.7308,26.9324],[75.7321,26.9458],[75.7184,26.9482],[75.7173,26.9423],[75.7211,26.942],[75.7191,26.9326]]]},"properties":{"objectid":167120,"statename":"Rajasthan","statecode":"8","districtname":"","districtcode":"110","ulbname":"Nagar Nigam Greater Jaipur (Mc)","ulbcode":"900600","wardname":"Ward 47","wardcode":"47","id":null,"remark":"","st_area(shape)":0.00018774523280501478,"st_perimeter(shape)":0.060076053511731536}},{"type":"Feature","geometry":{"type":"Polygon","coordinates":[[[75.7491,26.8165],[75.7481,26.8168],[75.7467,26.8146],[75.7465,26.8071],[75.7495,26.8066],[75.7491,26.7987],[75.7703,26.798],[75.7707,26.8008],[75.7765,26.8067],[75.7735,26.8099],[75.7731,26.8138],[75.7491,26.8165]]]},"properties":{"objectid":167121,"statename":"Rajasthan","statecode":"8","districtname":"","districtcode":"110","ulbname":"Nagar Nigam Greater Jaipur (Mc)","ulbcode":"900600","wardname":"Ward 91","wardcode":"91","id":null,"remark":"","st_area(shape)":0.00042470997206819417,"st_perimeter(shape)":0.08836306529662834}},{"type":"Feature","geometry":{"type":"Polygon","coordinates":[[[75.7731,26.8134],[75.7736,26.8099],[75.7765,26.8067],[75.7707,26.8008],[75.7703,26.798],[75.7826,26.799],[75.7835,26.8098],[75.7813,26.8115],[75.7731,26.8134]]]},"properties":{"objectid":167122,"statename":"Rajasthan","statecode":"8","districtname":"","districtcode":"110","ulbname":"Nagar Nigam Greater Jaipur (Mc)","ulbcode":"900600","wardname":"Ward 92","wardcode":"92","id":null,"remark":"","st_area(shape)":0.0001366372972712297,"st_perimeter(shape)":0.055329790002401916}},{"type":"Feature","geometry":{"type":"Polygon","coordinates":[[[75.7819,26.819],[75.781,26.8111],[75.7835,26.8098],[75.7885,26.81],[75.7892,26.8156],[75.7828,26.8158],[75.783,26.8188],[75.7819,26.819]]]},"properties":{"objectid":167123,"statename":"Rajasthan","statecode":"8","districtname":"","districtcode":"110","ulbname":"Nagar Nigam Greater Jaipur (Mc)","ulbcode":"900600","wardname":"Ward 93","wardcode":"93","id":null,"remark":"","st_area(shape)":4.8510966814972246e-05,"st_perimeter(shape)":0.0342630467350602}},{"type":"Feature","geometry":{"type":"Polygon","coordinates":[[[75.7894,26.8185],[75.7946,26.8076],[75.7982,26.8053],[75.7985,26.8026],[75.8014,26.8006],[75.8084,26.8036],[75.7969,26.8188],[75.7894,26.8185]]]},"properties":{"objectid":167124,"statename":"Rajasthan","statecode":"8","districtname":"","districtcode":"110","ulbname":"Nagar Nigam Greater Jaipur (Mc)","ulbcode":"900600","wardname":"Ward 95","wardcode":"95","id":null,"remark":"","st_area(shape)":0.00015284262300006772,"st_perimeter(shape)":0.05931057961360943}},{"type":"Feature","geometry":{"type":"Polygon","coordinates":[[[75.7826,26.799],[75.7818,26.7889],[75.7793,26.7816],[75.7753,26.7754],[75.7729,26.7752],[75.7707,26.7668],[75.7726,26.7658],[75.7762,26.7682],[75.7823,26.7676],[75.7839,26.7697],[75.7905,26.7693],[75.7902,26.7682],[75.8051,26.7681],[75.8008,26.775],[75.8027,26.7804],[75.7948,26.7994],[75.8014,26.8006],[75.7983,26.8028],[75.7981,26.8054],[75.7946,26.8076],[75.7927,26.8064],[75.7939,26.8019],[75.7826,26.799]]]},"properties":{"objectid":167125,"statename":"Rajasthan","statecode":"8","districtname":"","districtcode":"110","ulbname":"Nagar Nigam Greater Jaipur (Mc)","ulbcode":"900600","wardname":"Ward 97","wardcode":"97","id":null,"remark":"","st_area(shape)":0.0007263278080000651,"st_perimeter(shape)":0.14821589387348727}},{"type":"Feature","geometry":{"type":"Polygon","coordinates":[[[75.7272,26.9153],[75.7269,26.9115],[75.7293,26.9114],[75.7302,26.921],[75.7154,26.924],[75.712,26.9239],[75.7112,26.9222],[75.7105,26.9202],[75.7124,26.9199],[75.7112,26.9159],[75.7272,26.9153]]]},"properties":{"objectid":167126,"statename":"Rajasthan","statecode":"8","districtname":"","districtcode":"110","ulbname":"Nagar Nigam Greater Jaipur (Mc)","ulbcode":"900600","wardname":"Ward 51","wardcode":"51","id":null,"remark":"","st_area(shape)":0.00014432304253992072,"st_perimeter(shape)":0.060761861856039524}},{"type":"Feature","geometry":{"type":"Polygon","coordinates":[[[75.7044,26.9005],[75.7285,26.9058],[75.7293,26.9114],[75.7269,26.9115],[75.7272,26.9153],[75.7151,26.9154],[75.7147,26.9059],[75.7118,26.9058],[75.7118,26.9096],[75.7016,26.9093],[75.7044,26.9005]]]},"properties":{"objectid":167128,"statename":"Rajasthan","statecode":"8","districtname":"","districtcode":"110","ulbname":"Nagar Nigam Greater Jaipur (Mc)","ulbcode":"900600","wardname":"Ward 53","wardcode":"53","id":null,"remark":"","st_area(shape)":0.00022999287505996868,"st_perimeter(shape)":0.08490196072519575}},{"type":"Feature","geometry":{"type":"Polygon","coordinates":[[[75.7711,26.8441],[75.7762,26.8437],[75.7749,26.847],[75.7783,26.8492],[75.7757,26.8494],[75.7747,26.851],[75.7781,26.8531],[75.7781,26.8551],[75.7674,26.8523],[75.7711,26.8441]]]},"properties":{"objectid":167129,"statename":"Rajasthan","statecode":"8","districtname":"","districtcode":"110","ulbname":"Nagar Nigam Greater Jaipur (Mc)","ulbcode":"900600","wardname":"Ward 82","wardcode":"82","id":null,"remark":"","st_area(shape)":7.072586819352347e-05,"st_perimeter(shape)":0.045709249481649575}},{"type":"Feature","geometry":{"type":"Polygon","coordinates":[[[75.7704,26.8406],[75.7795,26.8395],[75.7799,26.8417],[75.7784,26.845],[75.7797,26.8477],[75.7785,26.8491],[75.7749,26.847],[75.7762,26.8437],[75.7706,26.8442],[75.7704,26.8406]]]},"properties":{"objectid":167130,"statename":"Rajasthan","statecode":"8","districtname":"","districtcode":"110","ulbname":"Nagar Nigam Greater Jaipur (Mc)","ulbcode":"900600","wardname":"Ward 85","wardcode":"85","id":null,"remark":"","st_area(shape)":4.802962017803864e-05,"st_perimeter(shape)":0.03797013872862865}},{"type":"Feature","geometry":{"type":"Polygon","coordinates":[[[75.7868,26.8386],[75.7937,26.839],[75.7938,26.8498],[75.7863,26.8518],[75.7865,26.8573],[75.7851,26.8389],[75.7868,26.8386]]]},"properties":{"objectid":167131,"statename":"Rajasthan","statecode":"8","districtname":"","districtcode":"110","ulbname":"Nagar Nigam Greater Jaipur (Mc)","ulbcode":"900600","wardname":"Ward 86","wardcode":"86","id":null,"remark":"","st_area(shape)":9.613947356637998e-05,"st_perimeter(shape)":0.052934713768434706}},{"type":"Feature","geometry":{"type":"Polygon","coordinates":[[[75.7491,26.8165],[75.7731,26.8138],[75.773,26.8186],[75.7699,26.8181],[75.7488,26.8237],[75.7472,26.819],[75.7491,26.8165]]]},"properties":{"objectid":167132,"statename":"Rajasthan","statecode":"8","districtname":"","districtcode":"110","ulbname":"Nagar Nigam Greater Jaipur (Mc)","ulbcode":"900600","wardname":"Ward 88","wardcode":"88","id":null,"remark":"","st_area(shape)":0.00013700015366462543,"st_perimeter(shape)":0.0632701337274277}},{"type":"Feature","geometry":{"type":"Polygon","coordinates":[[[75.7781,26.8264],[75.7819,26.8191],[75.783,26.8188],[75.7828,26.8158],[75.7892,26.8156],[75.7901,26.8222],[75.7874,26.8252],[75.7826,26.8277],[75.783,26.8312],[75.782,26.8325],[75.7811,26.8328],[75.7773,26.8269],[75.7781,26.8264]]]},"properties":{"objectid":167133,"statename":"Rajasthan","statecode":"8","districtname":"","districtcode":"110","ulbname":"Nagar Nigam Greater Jaipur (Mc)","ulbcode":"900600","wardname":"Ward 90","wardcode":"90","id":null,"remark":"","st_area(shape)":0.00010794575945301725,"st_perimeter(shape)":0.05095424359070024}},{"type":"Feature","geometry":{"type":"Polygon","coordinates":[[[75.754,26.863],[75.7586,26.8562],[75.7636,26.8608],[75.7583,26.8647],[75.754,26.863]]]},"properties":{"objectid":167134,"statename":"Rajasthan","statecode":"8","districtname":"","districtcode":"110","ulbname":"Nagar Nigam Greater Jaipur (Mc)","ulbcode":"900600","wardname":"Ward 72","wardcode":"72","id":null,"remark":"","st_area(shape)":4.2474353807708446e-05,"st_perimeter(shape)":0.02649721516375486}},{"type":"Feature","geometry":{"type":"Polygon","coordinates":[[[75.7573,26.8722],[75.7585,26.8698],[75.7563,26.8689],[75.7588,26.8637],[75.7636,26.8608],[75.7703,26.8668],[75.7639,26.8672],[75.7611,26.8693],[75.7596,26.8732],[75.7573,26.8722]]]},"properties":{"objectid":167135,"statename":"Rajasthan","statecode":"8","districtname":"","districtcode":"110","ulbname":"Nagar Nigam Greater Jaipur (Mc)","ulbcode":"900600","wardname":"Ward 73","wardcode":"73","id":null,"remark":"","st_area(shape)":6.874385366208911e-05,"st_perimeter(shape)":0.042296726808685056}},{"type":"Feature","geometry":{"type":"Polygon","coordinates":[[[75.7583,26.8565],[75.7475,26.8417],[75.7532,26.8401],[75.7586,26.8365],[75.7646,26.8462],[75.7616,26.8536],[75.7583,26.8565]]]},"properties":{"objectid":167136,"statename":"Rajasthan","statecode":"8","districtname":"","districtcode":"110","ulbname":"Nagar Nigam Greater Jaipur (Mc)","ulbcode":"900600","wardname":"Ward 74","wardcode":"74","id":null,"remark":"","st_area(shape)":0.00016917361728473513,"st_perimeter(shape)":0.055072897927770245}},{"type":"Feature","geometry":{"type":"Polygon","coordinates":[[[75.7723,26.8677],[75.7753,26.8656],[75.7769,26.8667],[75.7775,26.8654],[75.7839,26.8685],[75.7697,26.8791],[75.771,26.8748],[75.7688,26.8711],[75.7723,26.8677]]]},"properties":{"objectid":167137,"statename":"Rajasthan","statecode":"8","districtname":"","districtcode":"110","ulbname":"Nagar Nigam Greater Jaipur (Mc)","ulbcode":"900600","wardname":"Ward 77","wardcode":"77","id":null,"remark":"","st_area(shape)":9.733549818407876e-05,"st_perimeter(shape)":0.047514591495331264}},{"type":"Feature","geometry":{"type":"Polygon","coordinates":[[[75.7373,26.8891],[75.7432,26.8796],[75.7513,26.8795],[75.7524,26.8841],[75.7509,26.8959],[75.7373,26.8891]]]},"properties":{"objectid":167138,"statename":"Rajasthan","statecode":"8","districtname":"","districtcode":"110","ulbname":"Nagar Nigam Greater Jaipur (Mc)","ulbcode":"900600","wardname":"Ward 64","wardcode":"64","id":null,"remark":"","st_area(shape)":0.00016219534761782275,"st_perimeter(shape)":0.051914024867669335}},{"type":"Feature","geometry":{"type":"Polygon","coordinates":[[[75.7482,26.8794],[75.7475,26.8762],[75.754,26.863],[75.7584,26.8647],[75.753,26.8756],[75.7529,26.8793],[75.7482,26.8794]]]},"properties":{"objectid":167139,"statename":"Rajasthan","statecode":"8","districtname":"","districtcode":"110","ulbname":"Nagar Nigam Greater Jaipur (Mc)","ulbcode":"900600","wardname":"Ward 69","wardcode":"69","id":null,"remark":"","st_area(shape)":7.920181575726232e-05,"st_perimeter(shape)":0.04334743264325996}},{"type":"Feature","geometry":{"type":"Polygon","coordinates":[[[75.7573,26.8722],[75.7596,26.8732],[75.7578,26.8801],[75.7529,26.8793],[75.753,26.8755],[75.7563,26.8689],[75.7585,26.8698],[75.7573,26.8722]]]},"properties":{"objectid":167140,"statename":"Rajasthan","statecode":"8","districtname":"","districtcode":"110","ulbname":"Nagar Nigam Greater Jaipur (Mc)","ulbcode":"900600","wardname":"Ward 70","wardcode":"70","id":null,"remark":"","st_area(shape)":4.6081785269993516e-05,"st_perimeter(shape)":0.03123027390318483}},{"type":"Feature","geometry":{"type":"Polygon","coordinates":[[[75.7167,26.8786],[75.7186,26.8731],[75.7298,26.8759],[75.7359,26.8801],[75.7433,26.8794],[75.7369,26.8886],[75.7167,26.8786]]]},"properties":{"objectid":167141,"statename":"Rajasthan","statecode":"8","districtname":"","districtcode":"110","ulbname":"Nagar Nigam Greater Jaipur (Mc)","ulbcode":"900600","wardname":"Ward 63","wardcode":"63","id":null,"remark":"","st_area(shape)":0.00017656690809267754,"st_perimeter(shape)":0.06680983761077258}},{"type":"Feature","geometry":{"type":"Polygon","coordinates":[[[75.7425,26.9857],[75.7417,26.9867],[75.7399,26.9824],[75.7424,26.9817],[75.7408,26.972],[75.7468,26.9713],[75.7464,26.9754],[75.7485,26.9768],[75.7425,26.9857]]]},"properties":{"objectid":167142,"statename":"Rajasthan","statecode":"8","districtname":"","districtcode":"110","ulbname":"Nagar Nigam Greater Jaipur (Mc)","ulbcode":"900600","wardname":"Ward 12","wardcode":"12","id":null,"remark":"","st_area(shape)":6.781086390469129e-05,"st_perimeter(shape)":0.04337599592625696}},{"type":"Feature","geometry":{"type":"Polygon","coordinates":[[[75.7672,26.9952],[75.7531,26.9983],[75.7493,26.9859],[75.7531,26.9849],[75.7536,26.9865],[75.7602,26.9849],[75.7672,26.9952]]]},"properties":{"objectid":167479,"statename":"Rajasthan","statecode":"8","districtname":"","districtcode":"110","ulbname":"Nagar Nigam Greater Jaipur (Mc)","ulbcode":"900600","wardname":"Ward 6","wardcode":"6","id":null,"remark":"","st_area(shape)":0.0001527971751549328,"st_perimeter(shape)":0.05308707053296468}},{"type":"Feature","geometry":{"type":"Polygon","coordinates":[[[75.7604,26.9851],[75.7637,26.9828],[75.7743,26.9819],[75.7706,26.9977],[75.7673,26.9953],[75.7604,26.9851]]]},"properties":{"objectid":167480,"statename":"Rajasthan","statecode":"8","districtname":"","districtcode":"110","ulbname":"Nagar Nigam Greater Jaipur (Mc)","ulbcode":"900600","wardname":"Ward 7","wardcode":"7","id":null,"remark":"","st_area(shape)":0.0001223943120000962,"st_perimeter(shape)":0.0487242178748014}},{"type":"Feature","geometry":{"type":"Polygon","coordinates":[[[75.7576,26.9812],[75.773,26.9787],[75.7743,26.9808],[75.7743,26.9819],[75.7637,26.9828],[75.7603,26.985],[75.7576,26.9812]]]},"properties":{"objectid":167483,"statename":"Rajasthan","statecode":"8","districtname":"","districtcode":"110","ulbname":"Nagar Nigam Greater Jaipur (Mc)","ulbcode":"900600","wardname":"Ward 10","wardcode":"10","id":null,"remark":"","st_area(shape)":5.413605899995233e-05,"st_perimeter(shape)":0.04130057312686844}},{"type":"Feature","geometry":{"type":"Polygon","coordinates":[[[75.7939,26.8901],[75.7924,26.8947],[75.7904,26.8917],[75.7885,26.892],[75.7885,26.8845],[75.796,26.8826],[75.7939,26.8901]]]},"properties":{"objectid":167484,"statename":"Rajasthan","statecode":"8","districtname":"","districtcode":"110","ulbname":"Nagar Nigam Greater Jaipur (Mc)","ulbcode":"900600","wardname":"Ward 145","wardcode":"145","id":null,"remark":"","st_area(shape)":5.42719448851331e-05,"st_perimeter(shape)":0.033845710169396304}},{"type":"Feature","geometry":{"type":"Polygon","coordinates":[[[75.8228,26.8984],[75.8217,26.8988],[75.8199,26.8951],[75.8305,26.8901],[75.8366,26.8962],[75.8332,26.899],[75.8288,26.8963],[75.8228,26.8984]]]},"properties":{"objectid":167485,"statename":"Rajasthan","statecode":"8","districtname":"","districtcode":"110","ulbname":"Nagar Nigam Greater Jaipur (Mc)","ulbcode":"900600","wardname":"Ward 1498","wardcode":"149","id":null,"remark":"","st_area(shape)":7.399491549988898e-05,"st_perimeter(shape)":0.04236500790823277}},{"type":"Feature","geometry":{"type":"Polygon","coordinates":[[[75.8199,26.9171],[75.8166,26.9178],[75.8163,26.9168],[75.8099,26.9162],[75.8011,26.8987],[75.8113,26.8935],[75.8074,26.8857],[75.8127,26.8849],[75.8163,26.8988],[75.8192,26.8997],[75.8211,26.9025],[75.8254,26.9152],[75.8199,26.9171]]]},"properties":{"objectid":167486,"statename":"Rajasthan","statecode":"8","districtname":"","districtcode":"110","ulbname":"Nagar Nigam Greater Jaipur (Mc)","ulbcode":"900600","wardname":"Ward 150","wardcode":"150","id":null,"remark":"","st_area(shape)":0.000399364279884842,"st_perimeter(shape)":0.09825516988625671}},{"type":"Feature","geometry":{"type":"Polygon","coordinates":[[[75.7982,26.8931],[75.8006,26.8985],[75.793,26.9024],[75.7903,26.9026],[75.7939,26.8901],[75.797,26.8936],[75.7982,26.8931]]]},"properties":{"objectid":167487,"statename":"Rajasthan","statecode":"8","districtname":"","districtcode":"110","ulbname":"Nagar Nigam Greater Jaipur (Mc)","ulbcode":"900600","wardname":"Ward 147","wardcode":"147","id":null,"remark":"","st_area(shape)":6.875246750003636e-05,"st_perimeter(shape)":0.03762618546730816}},{"type":"Feature","geometry":{"type":"Polygon","coordinates":[[[75.8081,26.8674],[75.8059,26.8588],[75.8083,26.8562],[75.8094,26.8592],[75.8242,26.8551],[75.8225,26.8661],[75.8081,26.8674]]]},"properties":{"objectid":167489,"statename":"Rajasthan","statecode":"8","districtname":"","districtcode":"110","ulbname":"Nagar Nigam Greater Jaipur (Mc)","ulbcode":"900600","wardname":"Ward 132","wardcode":"132","id":null,"remark":"","st_area(shape)":0.00015589815149983247,"st_perimeter(shape)":0.05713470845797237}},{"type":"Feature","geometry":{"type":"Polygon","coordinates":[[[75.7871,26.865],[75.7959,26.8624],[75.7972,26.8713],[75.7875,26.8715],[75.7871,26.865]]]},"properties":{"objectid":167490,"statename":"Rajasthan","statecode":"8","districtname":"","districtcode":"110","ulbname":"Nagar Nigam Greater Jaipur (Mc)","ulbcode":"900600","wardname":"Ward 133","wardcode":"133","id":null,"remark":"","st_area(shape)":7.57216984899844e-05,"st_perimeter(shape)":0.035468865279135314}},{"type":"Feature","geometry":{"type":"Polygon","coordinates":[[[75.7693,26.9642],[75.7649,26.9659],[75.7638,26.9638],[75.7626,26.9656],[75.7595,26.9664],[75.7603,26.9654],[75.7592,26.9621],[75.7661,26.9608],[75.7658,26.9599],[75.7686,26.9593],[75.7684,26.957],[75.7714,26.9569],[75.7718,26.9631],[75.7693,26.9642]]]},"properties":{"objectid":167509,"statename":"Rajasthan","statecode":"8","districtname":"","districtcode":"110","ulbname":"Nagar Nigam Greater Jaipur (Mc)","ulbcode":"900600","wardname":"Ward 20","wardcode":"20","id":null,"remark":"","st_area(shape)":5.92318201450675e-05,"st_perimeter(shape)":0.044372465535627084}},{"type":"Feature","geometry":{"type":"Polygon","coordinates":[[[75.7872,26.9596],[75.7913,26.9582],[75.7925,26.9561],[75.7953,26.9581],[75.797,26.9607],[75.7953,26.9678],[75.7921,26.9652],[75.7902,26.9655],[75.7903,26.9601],[75.7872,26.9596]]]},"properties":{"objectid":167510,"statename":"Rajasthan","statecode":"8","districtname":"","districtcode":"110","ulbname":"Nagar Nigam Greater Jaipur (Mc)","ulbcode":"900600","wardname":"Ward 23","wardcode":"23","id":null,"remark":"","st_area(shape)":5.81630245000216e-05,"st_perimeter(shape)":0.03650390463552681}},{"type":"Feature","geometry":{"type":"Polygon","coordinates":[[[75.7857,26.9515],[75.7877,26.9509],[75.7889,26.9541],[75.792,26.9554],[75.7913,26.9582],[75.7868,26.9594],[75.784,26.9528],[75.7857,26.9515]]]},"properties":{"objectid":167511,"statename":"Rajasthan","statecode":"8","districtname":"","districtcode":"110","ulbname":"Nagar Nigam Greater Jaipur (Mc)","ulbcode":"900600","wardname":"Ward 24","wardcode":"24","id":null,"remark":"","st_area(shape)":3.931581207994399e-05,"st_perimeter(shape)":0.026759391471914324}},{"type":"Feature","geometry":{"type":"Polygon","coordinates":[[[75.7727,26.9592],[75.7715,26.9592],[75.7714,26.9514],[75.773,26.9501],[75.7778,26.9504],[75.7783,26.9533],[75.7839,26.9528],[75.7842,26.9543],[75.7727,26.9592]]]},"properties":{"objectid":167512,"statename":"Rajasthan","statecode":"8","districtname":"","districtcode":"110","ulbname":"Nagar Nigam Greater Jaipur (Mc)","ulbcode":"900600","wardname":"Ward 26","wardcode":"26","id":null,"remark":"","st_area(shape)":6.533029099994959e-05,"st_perimeter(shape)":0.03950196933224493}},{"type":"Feature","geometry":{"type":"Polygon","coordinates":[[[75.8921,26.8668],[75.8919,26.8614],[75.8993,26.8495],[75.8999,26.8464],[75.908,26.8478],[75.9101,26.8546],[75.913,26.8539],[75.9152,26.8705],[75.9099,26.8714],[75.8976,26.8705],[75.8925,26.8681],[75.8921,26.8668]]]},"properties":{"objectid":167513,"statename":"Rajasthan","statecode":"8","districtname":"","districtcode":"110","ulbname":"Nagar Nigam Greater Jaipur (Mc)","ulbcode":"900600","wardname":"Ward 122","wardcode":"122","id":null,"remark":"","st_area(shape)":0.0004206444083663568,"st_perimeter(shape)":0.08341503560990418}},{"type":"Feature","geometry":{"type":"Polygon","coordinates":[[[75.7788,26.9444],[75.7796,26.947],[75.7829,26.9475],[75.7835,26.9493],[75.7869,26.9506],[75.7839,26.9527],[75.7783,26.9533],[75.7778,26.9504],[75.773,26.9501],[75.7715,26.9511],[75.7734,26.9441],[75.7788,26.9444]]]},"properties":{"objectid":167514,"statename":"Rajasthan","statecode":"8","districtname":"","districtcode":"110","ulbname":"Nagar Nigam Greater Jaipur (Mc)","ulbcode":"900600","wardname":"Ward 27","wardcode":"27","id":null,"remark":"","st_area(shape)":7.205945849988358e-05,"st_perimeter(shape)":0.04515344405588719}},{"type":"Feature","geometry":{"type":"Polygon","coordinates":[[[75.8226,26.848],[75.825,26.8509],[75.8246,26.8531],[75.8199,26.854],[75.8183,26.8513],[75.814,26.8487],[75.8189,26.845],[75.8226,26.848]]]},"properties":{"objectid":167515,"statename":"Rajasthan","statecode":"8","districtname":"","districtcode":"110","ulbname":"Nagar Nigam Greater Jaipur (Mc)","ulbcode":"900600","wardname":"Ward 127","wardcode":"127","id":null,"remark":"","st_area(shape)":4.972128720887239e-05,"st_perimeter(shape)":0.030124906400873456}},{"type":"Feature","geometry":{"type":"Polygon","coordinates":[[[75.7953,26.8584],[75.7941,26.8507],[75.8032,26.8488],[75.8059,26.8588],[75.8017,26.8645],[75.7982,26.8772],[75.7953,26.8584]]]},"properties":{"objectid":167516,"statename":"Rajasthan","statecode":"8","districtname":"","districtcode":"110","ulbname":"Nagar Nigam Greater Jaipur (Mc)","ulbcode":"900600","wardname":"Ward 129","wardcode":"129","id":null,"remark":"","st_area(shape)":0.00017249225979561845,"st_perimeter(shape)":0.06702479252189458}},{"type":"Feature","geometry":{"type":"Polygon","coordinates":[[[75.7502,26.9527],[75.7497,26.9503],[75.7474,26.9486],[75.7472,26.9462],[75.7575,26.9444],[75.757,26.9502],[75.7502,26.9527]]]},"properties":{"objectid":167517,"statename":"Rajasthan","statecode":"8","districtname":"","districtcode":"110","ulbname":"Nagar Nigam Greater Jaipur (Mc)","ulbcode":"900600","wardname":"Ward 30","wardcode":"30","id":null,"remark":"","st_area(shape)":5.225826049996651e-05,"st_perimeter(shape)":0.03176498316850693}},{"type":"Feature","geometry":{"type":"Polygon","coordinates":[[[75.7575,26.9441],[75.7541,26.9457],[75.7472,26.9462],[75.7469,26.9437],[75.7542,26.9429],[75.7575,26.9432],[75.7575,26.9441]]]},"properties":{"objectid":167518,"statename":"Rajasthan","statecode":"8","districtname":"","districtcode":"110","ulbname":"Nagar Nigam Greater Jaipur (Mc)","ulbcode":"900600","wardname":"Ward 33","wardcode":"33","id":null,"remark":"","st_area(shape)":2.719082250002492e-05,"st_perimeter(shape)":0.024986306269575206}},{"type":"Feature","geometry":{"type":"Polygon","coordinates":[[[75.7575,26.9432],[75.7546,26.9426],[75.7545,26.941],[75.7564,26.94],[75.7542,26.9399],[75.7534,26.9372],[75.7567,26.9366],[75.7632,26.9426],[75.7604,26.9425],[75.7603,26.9439],[75.7586,26.9443],[75.7575,26.9432]]]},"properties":{"objectid":167519,"statename":"Rajasthan","statecode":"8","districtname":"","districtcode":"110","ulbname":"Nagar Nigam Greater Jaipur (Mc)","ulbcode":"900600","wardname":"Ward 34","wardcode":"34","id":null,"remark":"","st_area(shape)":3.832634500000437e-05,"st_perimeter(shape)":0.03385290036109478}},{"type":"Feature","geometry":{"type":"Polygon","coordinates":[[[75.8718,26.8819],[75.8709,26.8823],[75.8699,26.8903],[75.8671,26.8728],[75.8581,26.8652],[75.8825,26.8602],[75.8881,26.8575],[75.8835,26.8644],[75.88,26.8737],[75.8759,26.8752],[75.8785,26.8791],[75.8718,26.8819]]]},"properties":{"objectid":167520,"statename":"Rajasthan","statecode":"8","districtname":"","districtcode":"110","ulbname":"Nagar Nigam Greater Jaipur (Mc)","ulbcode":"900600","wardname":"Ward 114","wardcode":"114","id":null,"remark":"","st_area(shape)":0.0003143612972062772,"st_perimeter(shape)":0.1064072708487749}},{"type":"Feature","geometry":{"type":"Polygon","coordinates":[[[75.8581,26.8235],[75.8483,26.8274],[75.8461,26.8263],[75.8573,26.8029],[75.8634,26.7838],[75.8669,26.7912],[75.8767,26.7878],[75.8777,26.7892],[75.8768,26.794],[75.8883,26.7924],[75.8946,26.7951],[75.896,26.8031],[75.8949,26.8057],[75.8947,26.8179],[75.8907,26.8191],[75.887,26.8254],[75.8878,26.8266],[75.8841,26.8278],[75.8851,26.8293],[75.8848,26.8362],[75.8667,26.8356],[75.8669,26.8289],[75.8648,26.8222],[75.8581,26.8235]]]},"properties":{"objectid":167521,"statename":"Rajasthan","statecode":"8","districtname":"","districtcode":"110","ulbname":"Nagar Nigam Greater Jaipur (Mc)","ulbcode":"900600","wardname":"Ward 119","wardcode":"119","id":null,"remark":"","st_area(shape)":0.0015417896012439685,"st_perimeter(shape)":0.190641638539953}},{"type":"Feature","geometry":{"type":"Polygon","coordinates":[[[75.7432,26.9411],[75.7468,26.9409],[75.7479,26.9378],[75.7515,26.9373],[75.7534,26.9372],[75.7542,26.9399],[75.7564,26.94],[75.7545,26.941],[75.7551,26.9429],[75.7437,26.9443],[75.7432,26.9411]]]},"properties":{"objectid":167522,"statename":"Rajasthan","statecode":"8","districtname":"","districtcode":"110","ulbname":"Nagar Nigam Greater Jaipur (Mc)","ulbcode":"900600","wardname":"Ward 37","wardcode":"37","id":null,"remark":"","st_area(shape)":5.342355949996574e-05,"st_perimeter(shape)":0.03772616722138607}},{"type":"Feature","geometry":{"type":"Polygon","coordinates":[[[75.8166,26.8042],[75.8106,26.8007],[75.8299,26.7754],[75.8162,26.7942],[75.8188,26.795],[75.8273,26.7927],[75.828,26.7956],[75.8305,26.7961],[75.8243,26.8039],[75.8202,26.8009],[75.8166,26.8042]]]},"properties":{"objectid":167523,"statename":"Rajasthan","statecode":"8","districtname":"","districtcode":"110","ulbname":"Nagar Nigam Greater Jaipur (Mc)","ulbcode":"900600","wardname":"Ward 103","wardcode":"103","id":null,"remark":"","st_area(shape)":0.0001461071628739577,"st_perimeter(shape)":0.100668752456586}},{"type":"Feature","geometry":{"type":"Polygon","coordinates":[[[75.7959,26.8329],[75.8002,26.8275],[75.7988,26.8248],[75.7969,26.8239],[75.7981,26.8192],[75.7969,26.8188],[75.8021,26.812],[75.8068,26.8129],[75.807,26.8191],[75.8047,26.8192],[75.8047,26.8217],[75.8403,26.8247],[75.8394,26.8291],[75.8253,26.8296],[75.8217,26.8308],[75.819,26.8277],[75.8139,26.8269],[75.8117,26.8277],[75.8095,26.8307],[75.8006,26.8317],[75.7971,26.8337],[75.7959,26.8329]]]},"properties":{"objectid":167524,"statename":"Rajasthan","statecode":"8","districtname":"","districtcode":"110","ulbname":"Nagar Nigam Greater Jaipur (Mc)","ulbcode":"900600","wardname":"Ward 105","wardcode":"105","id":null,"remark":"","st_area(shape)":0.00033948725306693104,"st_perimeter(shape)":0.13269393079929956}},{"type":"Feature","geometry":{"type":"Polygon","coordinates":[[[75.8177,26.8439],[75.8353,26.835],[75.8249,26.8509],[75.8177,26.8439]]]},"properties":{"objectid":167525,"statename":"Rajasthan","statecode":"8","districtname":"","districtcode":"110","ulbname":"Nagar Nigam Greater Jaipur (Mc)","ulbcode":"900600","wardname":"Ward 109","wardcode":"109","id":null,"remark":"","st_area(shape)":0.00010815948241567145,"st_perimeter(shape)":0.049876018129286985}},{"type":"Feature","geometry":{"type":"Polygon","coordinates":[[[75.7184,26.9231],[75.7303,26.9209],[75.7308,26.9324],[75.7188,26.931],[75.7184,26.9231]]]},"properties":{"objectid":167526,"statename":"Rajasthan","statecode":"8","districtname":"","districtcode":"110","ulbname":"Nagar Nigam Greater Jaipur (Mc)","ulbcode":"900600","wardname":"Ward 48","wardcode":"48","id":null,"remark":"","st_area(shape)":0.00011734678376507774,"st_perimeter(shape)":0.043880914338536525}},{"type":"Feature","geometry":{"type":"Polygon","coordinates":[[[75.7894,26.8185],[75.7885,26.81],[75.7834,26.8094],[75.7826,26.799],[75.7939,26.8019],[75.7927,26.8064],[75.7941,26.8068],[75.7945,26.8092],[75.7894,26.8185]]]},"properties":{"objectid":167527,"statename":"Rajasthan","statecode":"8","districtname":"","districtcode":"110","ulbname":"Nagar Nigam Greater Jaipur (Mc)","ulbcode":"900600","wardname":"Ward 94","wardcode":"94","id":null,"remark":"","st_area(shape)":0.00012373162243008506,"st_perimeter(shape)":0.058579821655383855}},{"type":"Feature","geometry":{"type":"Polygon","coordinates":[[[75.7948,26.7991],[75.803,26.7784],[75.8148,26.7731],[75.816,26.7906],[75.8145,26.7927],[75.8102,26.794],[75.8014,26.8006],[75.7948,26.7991]]]},"properties":{"objectid":167528,"statename":"Rajasthan","statecode":"8","districtname":"","districtcode":"110","ulbname":"Nagar Nigam Greater Jaipur (Mc)","ulbcode":"900600","wardname":"Ward 98","wardcode":"98","id":null,"remark":"","st_area(shape)":0.0003330554081948789,"st_perimeter(shape)":0.07942584258471289}},{"type":"Feature","geometry":{"type":"Polygon","coordinates":[[[75.7757,26.8576],[75.7754,26.8543],[75.7781,26.8551],[75.7785,26.8537],[75.7747,26.851],[75.7757,26.8494],[75.7783,26.8492],[75.779,26.8526],[75.7862,26.8518],[75.7872,26.8547],[75.7869,26.8641],[75.7813,26.8641],[75.7774,26.862],[75.7757,26.8576]]]},"properties":{"objectid":167531,"statename":"Rajasthan","statecode":"8","districtname":"","districtcode":"110","ulbname":"Nagar Nigam Greater Jaipur (Mc)","ulbcode":"900600","wardname":"Ward 81","wardcode":"81","id":null,"remark":"","st_area(shape)":0.00012123976961493794,"st_perimeter(shape)":0.05911268165989269}},{"type":"Feature","geometry":{"type":"Polygon","coordinates":[[[75.7719,26.8279],[75.7687,26.8291],[75.7717,26.8324],[75.7646,26.8462],[75.7509,26.823],[75.7715,26.8178],[75.773,26.8186],[75.7765,26.8256],[75.7719,26.8279]]]},"properties":{"objectid":167532,"statename":"Rajasthan","statecode":"8","districtname":"","districtcode":"110","ulbname":"Nagar Nigam Greater Jaipur (Mc)","ulbcode":"900600","wardname":"Ward 83","wardcode":"83","id":null,"remark":"","st_area(shape)":0.00035135478498071244,"st_perimeter(shape)":0.08783582251624374}},{"type":"Feature","geometry":{"type":"Polygon","coordinates":[[[75.7746,26.8402],[75.7706,26.8407],[75.7679,26.8396],[75.7717,26.8324],[75.7687,26.8291],[75.7765,26.8256],[75.7812,26.8323],[75.7806,26.8372],[75.7795,26.8395],[75.7746,26.8402]]]},"properties":{"objectid":167533,"statename":"Rajasthan","statecode":"8","districtname":"","districtcode":"110","ulbname":"Nagar Nigam Greater Jaipur (Mc)","ulbcode":"900600","wardname":"Ward 84","wardcode":"84","id":null,"remark":"","st_area(shape)":0.0001364781818562158,"st_perimeter(shape)":0.049908171630669365}},{"type":"Feature","geometry":{"type":"Polygon","coordinates":[[[75.7749,26.8231],[75.7731,26.8194],[75.7731,26.8135],[75.7806,26.8117],[75.7819,26.819],[75.778,26.8265],[75.7773,26.8269],[75.7749,26.8231]]]},"properties":{"objectid":167534,"statename":"Rajasthan","statecode":"8","districtname":"","districtcode":"110","ulbname":"Nagar Nigam Greater Jaipur (Mc)","ulbcode":"900600","wardname":"Ward 89","wardcode":"89","id":null,"remark":"","st_area(shape)":9.249544028203693e-05,"st_perimeter(shape)":0.03912326386766897}},{"type":"Feature","geometry":{"type":"Polygon","coordinates":[[[75.7795,26.8751],[75.7784,26.8725],[75.787,26.8649],[75.7878,26.8754],[75.7801,26.8769],[75.7795,26.8751]]]},"properties":{"objectid":167535,"statename":"Rajasthan","statecode":"8","districtname":"","districtcode":"110","ulbname":"Nagar Nigam Greater Jaipur (Mc)","ulbcode":"900600","wardname":"Ward 79","wardcode":"79","id":null,"remark":"","st_area(shape)":6.020157045781105e-05,"st_perimeter(shape)":0.03520818523260702}},{"type":"Feature","geometry":{"type":"Polygon","coordinates":[[[75.7473,26.9154],[75.7436,26.915],[75.7428,26.9055],[75.7527,26.9059],[75.7535,26.9027],[75.7583,26.8987],[75.7622,26.8986],[75.7623,26.9021],[75.7688,26.9051],[75.7662,26.9152],[75.7566,26.9172],[75.7554,26.9154],[75.7473,26.9154]]]},"properties":{"objectid":167536,"statename":"Rajasthan","statecode":"8","districtname":"","districtcode":"110","ulbname":"Nagar Nigam Greater Jaipur (Mc)","ulbcode":"900600","wardname":"Ward 55","wardcode":"55","id":null,"remark":"","st_area(shape)":0.00030768969999979396,"st_perimeter(shape)":0.07922027129449064}},{"type":"Feature","geometry":{"type":"Polygon","coordinates":[[[75.6744,26.8624],[75.6762,26.8611],[75.6787,26.8541],[75.6795,26.8455],[75.6941,26.8407],[75.7039,26.8409],[75.7052,26.8407],[75.7051,26.8393],[75.7112,26.839],[75.7131,26.8404],[75.7158,26.8403],[75.725,26.8379],[75.7295,26.853],[75.7353,26.8521],[75.737,26.8609],[75.7386,26.8637],[75.7403,26.8636],[75.7408,26.8712],[75.7395,26.8758],[75.7404,26.8798],[75.7356,26.88],[75.7298,26.8759],[75.7188,26.8731],[75.7167,26.8786],[75.6744,26.8624]]]},"properties":{"objectid":167537,"statename":"Rajasthan","statecode":"8","districtname":"","districtcode":"110","ulbname":"Nagar Nigam Greater Jaipur (Mc)","ulbcode":"900600","wardname":"Ward 67","wardcode":"67","id":null,"remark":"","st_area(shape)":0.0018013152314748336,"st_perimeter(shape)":0.19748176657111452}},{"type":"Feature","geometry":{"type":"Polygon","coordinates":[[[75.7428,26.9055],[75.7287,26.9058],[75.7285,26.9038],[75.7335,26.8952],[75.7392,26.8969],[75.7389,26.9019],[75.7442,26.9019],[75.7438,26.9054],[75.7428,26.9055]]]},"properties":{"objectid":167538,"statename":"Rajasthan","statecode":"8","districtname":"","districtcode":"110","ulbname":"Nagar Nigam Greater Jaipur (Mc)","ulbcode":"900600","wardname":"Ward 57","wardcode":"57","id":null,"remark":"","st_area(shape)":0.00010480365162274035,"st_perimeter(shape)":0.046915055559661134}},{"type":"Feature","geometry":{"type":"Polygon","coordinates":[[[75.71,26.8957],[75.7083,26.8952],[75.7208,26.8805],[75.7292,26.8847],[75.7289,26.8921],[75.7264,26.892],[75.7276,26.8984],[75.7195,26.8988],[75.71,26.8957]]]},"properties":{"objectid":167539,"statename":"Rajasthan","statecode":"8","districtname":"","districtcode":"110","ulbname":"Nagar Nigam Greater Jaipur (Mc)","ulbcode":"900600","wardname":"Ward 59","wardcode":"59","id":null,"remark":"","st_area(shape)":0.0002400389844335121,"st_perimeter(shape)":0.06504660684757349}},{"type":"Feature","geometry":{"type":"Polygon","coordinates":[[[75.8239,26.8772],[75.8326,26.8822],[75.8273,26.8869],[75.8145,26.8919],[75.8127,26.8845],[75.8187,26.8832],[75.8214,26.872],[75.8251,26.8729],[75.8239,26.8772]]]},"properties":{"objectid":167879,"statename":"Rajasthan","statecode":"8","districtname":"","districtcode":"110","ulbname":"Nagar Nigam Greater Jaipur (Mc)","ulbcode":"900600","wardname":"Ward 139","wardcode":"139","id":null,"remark":"","st_area(shape)":0.0001688155981099984,"st_perimeter(shape)":0.06478768224621047}},{"type":"Feature","geometry":{"type":"Polygon","coordinates":[[[75.7413,26.9741],[75.7398,26.9744],[75.7385,26.9729],[75.7378,26.9677],[75.7408,26.9668],[75.7422,26.9642],[75.7506,26.9711],[75.7409,26.972],[75.7413,26.9741]]]},"properties":{"objectid":167880,"statename":"Rajasthan","statecode":"8","districtname":"","districtcode":"110","ulbname":"Nagar Nigam Greater Jaipur (Mc)","ulbcode":"900600","wardname":"Ward 13","wardcode":"13","id":null,"remark":"","st_area(shape)":5.9437092499949405e-05,"st_perimeter(shape)":0.039062366216983016}},{"type":"Feature","geometry":{"type":"Polygon","coordinates":[[[75.7604,26.9745],[75.7603,26.9702],[75.7655,26.9703],[75.7654,26.9745],[75.7604,26.9745]]]},"properties":{"objectid":167881,"statename":"Rajasthan","statecode":"8","districtname":"","districtcode":"110","ulbname":"Nagar Nigam Greater Jaipur (Mc)","ulbcode":"900600","wardname":"Ward 16","wardcode":"16","id":null,"remark":"","st_area(shape)":2.1560249999993367e-05,"st_perimeter(shape)":0.018663027095887907}},{"type":"Feature","geometry":{"type":"Polygon","coordinates":[[[75.8277,26.8384],[75.8201,26.8419],[75.8186,26.8383],[75.8215,26.8351],[75.8216,26.8307],[75.8242,26.834],[75.8272,26.8353],[75.8277,26.8384]]]},"properties":{"objectid":167884,"statename":"Rajasthan","statecode":"8","districtname":"","districtcode":"110","ulbname":"Nagar Nigam Greater Jaipur (Mc)","ulbcode":"900600","wardname":"Ward 108","wardcode":"108","id":null,"remark":"","st_area(shape)":4.902942697837948e-05,"st_perimeter(shape)":0.03243717748916063}},{"type":"Feature","geometry":{"type":"Polygon","coordinates":[[[75.7452,26.893],[75.7463,26.8935],[75.7437,26.8982],[75.7443,26.902],[75.7389,26.9019],[75.7392,26.8969],[75.7335,26.8952],[75.7368,26.8888],[75.7452,26.893]]]},"properties":{"objectid":167886,"statename":"Rajasthan","statecode":"8","districtname":"","districtcode":"110","ulbname":"Nagar Nigam Greater Jaipur (Mc)","ulbcode":"900600","wardname":"Ward 61","wardcode":"61","id":null,"remark":"","st_area(shape)":8.79790973100193e-05,"st_perimeter(shape)":0.04427215239897032}},{"type":"Feature","geometry":{"type":"Polygon","coordinates":[[[75.6973,26.8709],[75.7167,26.8786],[75.7038,26.8799],[75.698,26.882],[75.6983,26.8776],[75.6957,26.8727],[75.6973,26.8709]]]},"properties":{"objectid":167887,"statename":"Rajasthan","statecode":"8","districtname":"","districtcode":"110","ulbname":"Nagar Nigam Greater Jaipur (Mc)","ulbcode":"900600","wardname":"Ward 66","wardcode":"66","id":null,"remark":"","st_area(shape)":0.00010656639661313746,"st_perimeter(shape)":0.05484423957367526}},{"type":"Feature","geometry":{"type":"Polygon","coordinates":[[[75.7467,26.9713],[75.7506,26.9711],[75.7422,26.9642],[75.7459,26.9612],[75.7495,26.9645],[75.7571,26.9638],[75.7485,26.9768],[75.7464,26.9754],[75.7467,26.9713]]]},"properties":{"objectid":168279,"statename":"Rajasthan","statecode":"8","districtname":"","districtcode":"110","ulbname":"Nagar Nigam Greater Jaipur (Mc)","ulbcode":"900600","wardname":"Ward 14","wardcode":"14","id":null,"remark":"","st_area(shape)":9.094621159991368e-05,"st_perimeter(shape)":0.0558875697613889}},{"type":"Feature","geometry":{"type":"Polygon","coordinates":[[[75.7407,26.9668],[75.7367,26.9681],[75.7353,26.9593],[75.7632,26.948],[75.7564,26.9636],[75.7494,26.9645],[75.7458,26.9612],[75.7411,26.9646],[75.7407,26.9668]]]},"properties":{"objectid":168281,"statename":"Rajasthan","statecode":"8","districtname":"","districtcode":"110","ulbname":"Nagar Nigam Greater Jaipur (Mc)","ulbcode":"900600","wardname":"Ward 19","wardcode":"19","id":null,"remark":"","st_area(shape)":0.000249967659999967,"st_perimeter(shape)":0.08243197672204258}},{"type":"Feature","geometry":{"type":"Polygon","coordinates":[[[75.8699,26.8903],[75.8812,26.8781],[75.8836,26.8733],[75.891,26.8676],[75.8926,26.8714],[75.8899,26.876],[75.8936,26.8858],[75.8707,26.8918],[75.8699,26.8903]]]},"properties":{"objectid":168282,"statename":"Rajasthan","statecode":"8","districtname":"","districtcode":"110","ulbname":"Nagar Nigam Greater Jaipur (Mc)","ulbcode":"900600","wardname":"Ward 124","wardcode":"124","id":null,"remark":"","st_area(shape)":0.0002435412634802887,"st_perimeter(shape)":0.07736178461845719}},{"type":"Feature","geometry":{"type":"Polygon","coordinates":[[[75.7688,26.9381],[75.7714,26.9317],[75.7909,26.9184],[75.785,26.9235],[75.7848,26.9313],[75.7863,26.9392],[75.7855,26.9402],[75.7802,26.9413],[75.7795,26.9448],[75.7734,26.9441],[75.7737,26.9402],[75.7635,26.9427],[75.7617,26.941],[75.7618,26.9386],[75.7688,26.9381]]]},"properties":{"objectid":168283,"statename":"Rajasthan","statecode":"8","districtname":"","districtcode":"110","ulbname":"Nagar Nigam Greater Jaipur (Mc)","ulbcode":"900600","wardname":"Ward 35","wardcode":"35","id":null,"remark":"","st_area(shape)":0.0002563799875000248,"st_perimeter(shape)":0.09899010396205239}},{"type":"Feature","geometry":{"type":"Polygon","coordinates":[[[75.7044,26.9005],[75.701,26.9093],[75.7022,26.9199],[75.6969,26.9207],[75.6975,26.9245],[75.6737,26.9209],[75.66,26.921],[75.6608,26.9142],[75.6598,26.9083],[75.661,26.9072],[75.6588,26.8992],[75.6609,26.8985],[75.6591,26.886],[75.6631,26.8796],[75.6616,26.8677],[75.6719,26.8663],[75.6752,26.8757],[75.6786,26.8739],[75.6885,26.875],[75.6957,26.8727],[75.6983,26.8776],[75.698,26.8819],[75.7062,26.8802],[75.7066,26.8777],[75.7105,26.8772],[75.7105,26.8756],[75.7207,26.8807],[75.7044,26.9005]]]},"properties":{"objectid":168284,"statename":"Rajasthan","statecode":"8","districtname":"","districtcode":"110","ulbname":"Nagar Nigam Greater Jaipur (Mc)","ulbcode":"900600","wardname":"Ward 49","wardcode":"49","id":null,"remark":"","st_area(shape)":0.002257617507999872,"st_perimeter(shape)":0.2329652947058553}}]}