{"type":"FeatureCollection","features":[{"type":"Feature","geometry":{"type":"Polygon","coordinates":[[[80.3473,26.4666],[80.3453,26.4661],[80.3421,26.4691],[80.3411,26.468],[80.3426,26.4667],[80.3417,26.4653],[80.3428,26.4641],[80.3405,26.4624],[80.3367,26.4624],[80.3412,26.4608],[80.3473,26.4666]]]},"properties":{"objectid":300221,"statename":"Uttar Pradesh","statecode":"9","districtname":"Kanpur","districtcode":"164","ulbname":"Kanpur (M. Corp)","ulbcode":"801005","wardname":"Anwar Ganj","wardcode":"56","id":null,"remark":"","st_area(shape)":2.4203691412917647e-05,"st_perimeter(shape)":0.035195388657327444}},{"type":"Feature","geometry":{"type":"Polygon","coordinates":[[[80.3341,26.4626],[80.3288,26.463],[80.3294,26.4608],[80.3283,26.4594],[80.334,26.4557],[80.3367,26.4624],[80.3341,26.4626]]]},"properties":{"objectid":300222,"statename":"Uttar Pradesh","statecode":"9","districtname":"Kanpur","districtcode":"164","ulbname":"Kanpur (M. Corp)","ulbcode":"801005","wardname":"Raipurwa","wardcode":"32","id":null,"remark":"","st_area(shape)":3.7469019983846124e-05,"st_perimeter(shape)":0.026047926909164357}},{"type":"Feature","geometry":{"type":"Polygon","coordinates":[[[80.3597,26.463],[80.3656,26.4672],[80.3614,26.4693],[80.3645,26.4713],[80.3627,26.4736],[80.3653,26.4743],[80.3591,26.4789],[80.3516,26.4824],[80.351,26.4811],[80.3491,26.4811],[80.3495,26.48],[80.3451,26.482],[80.3455,26.4759],[80.3503,26.4741],[80.3521,26.4763],[80.3533,26.475],[80.3517,26.4729],[80.3574,26.4715],[80.3592,26.4698],[80.3597,26.463]]]},"properties":{"objectid":300223,"statename":"Uttar Pradesh","statecode":"9","districtname":"Kanpur","districtcode":"164","ulbname":"Kanpur (M. Corp)","ulbcode":"801005","wardname":"Civil Lines","wardcode":"78","id":null,"remark":"","st_area(shape)":0.00015519474789033171,"st_perimeter(shape)":0.08166583506817125}},{"type":"Feature","geometry":{"type":"Polygon","coordinates":[[[80.3367,26.4624],[80.3393,26.4665],[80.337,26.4691],[80.3326,26.4711],[80.3364,26.4659],[80.3341,26.4626],[80.3367,26.4624]]]},"properties":{"objectid":300224,"statename":"Uttar Pradesh","statecode":"9","districtname":"Kanpur","districtcode":"164","ulbname":"Kanpur (M. Corp)","ulbcode":"801005","wardname":"Chaman Ganj","wardcode":"107","id":null,"remark":"","st_area(shape)":2.175143387308801e-05,"st_perimeter(shape)":0.02703606007946063}},{"type":"Feature","geometry":{"type":"Polygon","coordinates":[[[80.349,26.4697],[80.3505,26.4716],[80.3444,26.4729],[80.345,26.4715],[80.3438,26.4697],[80.3453,26.4661],[80.347,26.467],[80.3455,26.4701],[80.3461,26.4714],[80.349,26.4697]]]},"properties":{"objectid":300225,"statename":"Uttar Pradesh","statecode":"9","districtname":"Kanpur","districtcode":"164","ulbname":"Kanpur (M. Corp)","ulbcode":"801005","wardname":"Parede","wardcode":"103","id":null,"remark":"","st_area(shape)":1.822744597028567e-05,"st_perimeter(shape)":0.02868624896453942}},{"type":"Feature","geometry":{"type":"Polygon","coordinates":[[[80.36,26.4686],[80.3568,26.4716],[80.3542,26.4672],[80.3578,26.4656],[80.3596,26.4662],[80.36,26.4686]]]},"properties":{"objectid":300226,"statename":"Uttar Pradesh","statecode":"9","districtname":"Kanpur","districtcode":"164","ulbname":"Kanpur (M. Corp)","ulbcode":"801005","wardname":"Patkapur","wardcode":"94","id":null,"remark":"","st_area(shape)":2.1521717413035736e-05,"st_perimeter(shape)":0.020014296828741146}},{"type":"Feature","geometry":{"type":"Polygon","coordinates":[[[80.3405,26.4438],[80.3433,26.4462],[80.3436,26.4486],[80.3403,26.4514],[80.3301,26.4473],[80.3329,26.4457],[80.3319,26.4448],[80.3338,26.4427],[80.3318,26.4407],[80.3339,26.438],[80.3367,26.4374],[80.3405,26.4438]]]},"properties":{"objectid":300227,"statename":"Uttar Pradesh","statecode":"9","districtname":"Kanpur","districtcode":"164","ulbname":"Kanpur (M. Corp)","ulbcode":"801005","wardname":"T P Nagar","wardcode":"39","id":null,"remark":"","st_area(shape)":9.717213361643771e-05,"st_perimeter(shape)":0.04601485184607601}},{"type":"Feature","geometry":{"type":"Polygon","coordinates":[[[80.342,26.469],[80.3411,26.4704],[80.3353,26.4699],[80.3388,26.4669],[80.342,26.469]]]},"properties":{"objectid":300228,"statename":"Uttar Pradesh","statecode":"9","districtname":"Kanpur","districtcode":"164","ulbname":"Kanpur (M. Corp)","ulbcode":"801005","wardname":"Nazira Bag","wardcode":"109","id":null,"remark":"","st_area(shape)":1.3282005751664349e-05,"st_perimeter(shape)":0.018474741488167905}},{"type":"Feature","geometry":{"type":"Polygon","coordinates":[[[80.3533,26.4619],[80.3526,26.4606],[80.3494,26.4639],[80.3458,26.4592],[80.3474,26.4574],[80.3499,26.4572],[80.3493,26.4562],[80.3519,26.4559],[80.353,26.457],[80.3514,26.4584],[80.3558,26.4608],[80.3533,26.4619]]]},"properties":{"objectid":300229,"statename":"Uttar Pradesh","statecode":"9","districtname":"Kanpur","districtcode":"164","ulbname":"Kanpur (M. Corp)","ulbcode":"801005","wardname":"Collector Ganj","wardcode":"106","id":null,"remark":"","st_area(shape)":3.4749535100121855e-05,"st_perimeter(shape)":0.033919926582848}},{"type":"Feature","geometry":{"type":"Polygon","coordinates":[[[80.359,26.3788],[80.3397,26.3835],[80.3226,26.392],[80.3195,26.3952],[80.3179,26.3911],[80.3132,26.3927],[80.3143,26.3972],[80.3133,26.3974],[80.307,26.3707],[80.3089,26.3689],[80.31,26.3702],[80.3118,26.3698],[80.3158,26.3664],[80.3202,26.3657],[80.3433,26.3684],[80.3748,26.3685],[80.3736,26.3724],[80.359,26.3788]]]},"properties":{"objectid":300230,"statename":"Uttar Pradesh","statecode":"9","districtname":"Kanpur","districtcode":"164","ulbname":"Kanpur (M. Corp)","ulbcode":"801005","wardname":"Awas Vikas","wardcode":"22","id":null,"remark":"","st_area(shape)":0.0010495161982595467,"st_perimeter(shape)":0.17731612948941608}},{"type":"Feature","geometry":{"type":"Polygon","coordinates":[[[80.3367,26.4374],[80.3322,26.4398],[80.3318,26.4407],[80.3338,26.4427],[80.3319,26.4448],[80.3329,26.4457],[80.3301,26.4473],[80.3242,26.446],[80.3279,26.4439],[80.3252,26.4394],[80.3307,26.435],[80.3367,26.433],[80.3367,26.4374]]]},"properties":{"objectid":300231,"statename":"Uttar Pradesh","statecode":"9","districtname":"Kanpur","districtcode":"164","ulbname":"Kanpur (M. Corp)","ulbcode":"801005","wardname":"Kidwai Nagar Sabzi Mandi","wardcode":"14","id":null,"remark":"","st_area(shape)":8.764668559204235e-05,"st_perimeter(shape)":0.0504560507562358}},{"type":"Feature","geometry":{"type":"Polygon","coordinates":[[[80.3461,26.4349],[80.3451,26.4364],[80.3418,26.4369],[80.3404,26.4332],[80.3367,26.433],[80.3366,26.4314],[80.339,26.4312],[80.3401,26.4299],[80.336,26.4293],[80.3354,26.4275],[80.3368,26.4273],[80.3369,26.4243],[80.3419,26.42],[80.3433,26.4208],[80.3448,26.4182],[80.3513,26.4217],[80.3487,26.4231],[80.3493,26.4244],[80.3436,26.4301],[80.3477,26.4342],[80.3461,26.4349]]]},"properties":{"objectid":300232,"statename":"Uttar Pradesh","statecode":"9","districtname":"Kanpur","districtcode":"164","ulbname":"Kanpur (M. Corp)","ulbcode":"801005","wardname":"Babu Purwa","wardcode":"80","id":null,"remark":"","st_area(shape)":0.0001414769485526432,"st_perimeter(shape)":0.06924251081152366}},{"type":"Feature","geometry":{"type":"Polygon","coordinates":[[[80.2497,26.5074],[80.234,26.5287],[80.2304,26.527],[80.2315,26.529],[80.2263,26.5324],[80.2222,26.528],[80.221,26.5287],[80.2174,26.5271],[80.2097,26.5202],[80.222,26.5047],[80.2235,26.5056],[80.2294,26.5018],[80.2301,26.5029],[80.2326,26.5009],[80.2379,26.5056],[80.2436,26.5016],[80.245,26.5025],[80.2459,26.5016],[80.2497,26.5074]]]},"properties":{"objectid":300233,"statename":"Uttar Pradesh","statecode":"9","districtname":"Kanpur","districtcode":"164","ulbname":"Kanpur (M. Corp)","ulbcode":"801005","wardname":"Nankari","wardcode":"27","id":null,"remark":"","st_area(shape)":0.0006957857183389839,"st_perimeter(shape)":0.12003479439878302}},{"type":"Feature","geometry":{"type":"Polygon","coordinates":[[[80.3354,26.4275],[80.3318,26.4284],[80.3333,26.4305],[80.3305,26.432],[80.3288,26.4297],[80.3178,26.4356],[80.3161,26.4336],[80.3214,26.4318],[80.3192,26.4214],[80.3353,26.4151],[80.3389,26.4174],[80.3411,26.4162],[80.3446,26.4181],[80.3438,26.4213],[80.3418,26.4201],[80.3373,26.4242],[80.3373,26.4273],[80.3354,26.4275]]]},"properties":{"objectid":300234,"statename":"Uttar Pradesh","statecode":"9","districtname":"Kanpur","districtcode":"164","ulbname":"Kanpur (M. Corp)","ulbcode":"801005","wardname":"Kidwai Nagar South","wardcode":"92","id":null,"remark":"","st_area(shape)":0.00026299220243266723,"st_perimeter(shape)":0.08958138439715706}},{"type":"Feature","geometry":{"type":"Polygon","coordinates":[[[80.3164,26.4072],[80.3196,26.424],[80.3122,26.4261],[80.3128,26.4091],[80.3098,26.4114],[80.3081,26.4084],[80.3142,26.4025],[80.3128,26.4082],[80.3164,26.4072]]]},"properties":{"objectid":300235,"statename":"Uttar Pradesh","statecode":"9","districtname":"Kanpur","districtcode":"164","ulbname":"Kanpur (M. Corp)","ulbcode":"801005","wardname":"Basant Vihar","wardcode":"88","id":null,"remark":"","st_area(shape)":0.00011065988034708872,"st_perimeter(shape)":0.06872632994966962}},{"type":"Feature","geometry":{"type":"Polygon","coordinates":[[[80.2583,26.499],[80.2552,26.5007],[80.2497,26.5074],[80.2459,26.5016],[80.245,26.5025],[80.2436,26.5016],[80.2379,26.5056],[80.2353,26.5032],[80.2432,26.4982],[80.256,26.4958],[80.2583,26.499]]]},"properties":{"objectid":300236,"statename":"Uttar Pradesh","statecode":"9","districtname":"Kanpur","districtcode":"164","ulbname":"Kanpur (M. Corp)","ulbcode":"801005","wardname":"Kalyanpur Uttari","wardcode":"35","id":null,"remark":"","st_area(shape)":0.00011335799455282725,"st_perimeter(shape)":0.05985877677172196}},{"type":"Feature","geometry":{"type":"Polygon","coordinates":[[[80.3197,26.4454],[80.3198,26.447],[80.3124,26.4473],[80.3123,26.4454],[80.3155,26.4455],[80.3121,26.4395],[80.316,26.4368],[80.3211,26.4428],[80.3197,26.4454]]]},"properties":{"objectid":300237,"statename":"Uttar Pradesh","statecode":"9","districtname":"Kanpur","districtcode":"164","ulbname":"Kanpur (M. Corp)","ulbcode":"801005","wardname":"Juhi Kala","wardcode":"84","id":null,"remark":"","st_area(shape)":5.447352194974832e-05,"st_perimeter(shape)":0.03652129692841267}},{"type":"Feature","geometry":{"type":"Polygon","coordinates":[[[80.3059,26.4219],[80.3082,26.4269],[80.3065,26.4278],[80.3084,26.4331],[80.3043,26.4385],[80.3027,26.4375],[80.3042,26.4357],[80.2993,26.4313],[80.3006,26.4306],[80.2989,26.4257],[80.3059,26.4219]]]},"properties":{"objectid":300238,"statename":"Uttar Pradesh","statecode":"9","districtname":"Kanpur","districtcode":"164","ulbname":"Kanpur (M. Corp)","ulbcode":"801005","wardname":"Barra Poorvi","wardcode":"77","id":null,"remark":"","st_area(shape)":9.207673008773451e-05,"st_perimeter(shape)":0.046274189710125514}},{"type":"Feature","geometry":{"type":"Polygon","coordinates":[[[80.3451,26.441],[80.3509,26.4495],[80.3572,26.4466],[80.3613,26.4577],[80.3528,26.4558],[80.349,26.4566],[80.3432,26.4482],[80.3433,26.4462],[80.3405,26.4438],[80.3419,26.4425],[80.3404,26.4401],[80.3423,26.4386],[80.3417,26.4371],[80.3427,26.4385],[80.3445,26.4376],[80.3456,26.4387],[80.3463,26.44],[80.3451,26.441]]]},"properties":{"objectid":300239,"statename":"Uttar Pradesh","statecode":"9","districtname":"Kanpur","districtcode":"164","ulbname":"Kanpur (M. Corp)","ulbcode":"801005","wardname":"Babu Purwa","wardcode":"105","id":null,"remark":"","st_area(shape)":0.0001647025720845898,"st_perimeter(shape)":0.07612271855949237}},{"type":"Feature","geometry":{"type":"Polygon","coordinates":[[[80.2908,26.4271],[80.2851,26.4276],[80.285,26.4262],[80.2869,26.4256],[80.2837,26.4231],[80.2815,26.4238],[80.2826,26.4209],[80.279,26.4169],[80.2801,26.4153],[80.2792,26.4133],[80.282,26.4094],[80.2861,26.406],[80.291,26.4053],[80.2946,26.4114],[80.2963,26.4103],[80.3007,26.4159],[80.2971,26.4194],[80.2989,26.4257],[80.2963,26.4271],[80.2941,26.424],[80.2908,26.4271]]]},"properties":{"objectid":300240,"statename":"Uttar Pradesh","statecode":"9","districtname":"Kanpur","districtcode":"164","ulbname":"Kanpur (M. Corp)","ulbcode":"801005","wardname":"Jarauli","wardcode":"82","id":null,"remark":"","st_area(shape)":0.0003132097624166323,"st_perimeter(shape)":0.08425094029936088}},{"type":"Feature","geometry":{"type":"Polygon","coordinates":[[[80.3367,26.433],[80.3326,26.4338],[80.3252,26.4394],[80.3219,26.4331],[80.3288,26.4297],[80.3305,26.432],[80.3333,26.4305],[80.3318,26.4284],[80.3354,26.4275],[80.336,26.4293],[80.3402,26.4302],[80.3366,26.4314],[80.3367,26.433]]]},"properties":{"objectid":300241,"statename":"Uttar Pradesh","statecode":"9","districtname":"Kanpur","districtcode":"164","ulbname":"Kanpur (M. Corp)","ulbcode":"801005","wardname":"Kidwai Nagar Uttari","wardcode":"100","id":null,"remark":"","st_area(shape)":8.136847558865442e-05,"st_perimeter(shape)":0.05356257156718602}},{"type":"Feature","geometry":{"type":"Polygon","coordinates":[[[80.3359,26.4838],[80.3318,26.4867],[80.3307,26.4896],[80.3277,26.4905],[80.3272,26.4897],[80.3301,26.4877],[80.3306,26.4841],[80.3287,26.4824],[80.3353,26.4792],[80.3346,26.4815],[80.3359,26.4838]]]},"properties":{"objectid":300242,"statename":"Uttar Pradesh","statecode":"9","districtname":"Kanpur","districtcode":"164","ulbname":"Kanpur (M. Corp)","ulbcode":"801005","wardname":"Gwaltoli","wardcode":"4","id":null,"remark":".","st_area(shape)":3.476026647046521e-05,"st_perimeter(shape)":0.035246455152825096}},{"type":"Feature","geometry":{"type":"Polygon","coordinates":[[[80.3059,26.4219],[80.2989,26.4257],[80.2971,26.4194],[80.3039,26.4126],[80.3086,26.4204],[80.3059,26.4219]]]},"properties":{"objectid":300243,"statename":"Uttar Pradesh","statecode":"9","districtname":"Kanpur","districtcode":"164","ulbname":"Kanpur (M. Corp)","ulbcode":"801005","wardname":"Karrahi","wardcode":"70","id":null,"remark":"","st_area(shape)":7.699772499148961e-05,"st_perimeter(shape)":0.03639164053627053}},{"type":"Feature","geometry":{"type":"Polygon","coordinates":[[[80.3448,26.4742],[80.3345,26.4778],[80.3327,26.4754],[80.3299,26.4746],[80.3321,26.4716],[80.3378,26.4743],[80.341,26.4735],[80.3412,26.4745],[80.3435,26.4729],[80.3448,26.4742]]]},"properties":{"objectid":300244,"statename":"Uttar Pradesh","statecode":"9","districtname":"Kanpur","districtcode":"164","ulbname":"Kanpur (M. Corp)","ulbcode":"801005","wardname":"Chunniganj","wardcode":"3","id":null,"remark":"","st_area(shape)":3.7769068860467266e-05,"st_perimeter(shape)":0.03725781745350414}},{"type":"Feature","geometry":{"type":"Polygon","coordinates":[[[80.3353,26.4792],[80.3287,26.4824],[80.3306,26.4839],[80.3299,26.487],[80.3252,26.4846],[80.3274,26.4833],[80.3262,26.4824],[80.3247,26.4832],[80.3233,26.482],[80.3242,26.4812],[80.3221,26.48],[80.325,26.4762],[80.3302,26.4745],[80.3327,26.4754],[80.3337,26.4774],[80.3359,26.4776],[80.3353,26.4792]]]},"properties":{"objectid":300245,"statename":"Uttar Pradesh","statecode":"9","districtname":"Kanpur","districtcode":"164","ulbname":"Kanpur (M. Corp)","ulbcode":"801005","wardname":"Macrobertganj","wardcode":"15","id":null,"remark":"","st_area(shape)":8.511720108446189e-05,"st_perimeter(shape)":0.049032636029714916}},{"type":"Feature","geometry":{"type":"Polygon","coordinates":[[[80.3272,26.4689],[80.3304,26.4726],[80.3255,26.4727],[80.3265,26.4757],[80.3211,26.4647],[80.3232,26.463],[80.3246,26.4702],[80.3272,26.4689]]]},"properties":{"objectid":300246,"statename":"Uttar Pradesh","statecode":"9","districtname":"Kanpur","districtcode":"164","ulbname":"Kanpur (M. Corp)","ulbcode":"801005","wardname":"Jawahr Nagar","wardcode":"5","id":null,"remark":"","st_area(shape)":2.887391626853111e-05,"st_perimeter(shape)":0.038826420321327826}},{"type":"Feature","geometry":{"type":"Polygon","coordinates":[[[80.3516,26.4824],[80.3401,26.4891],[80.3385,26.4851],[80.3368,26.483],[80.3359,26.4838],[80.3345,26.4805],[80.3359,26.4776],[80.3448,26.4742],[80.3459,26.4769],[80.3451,26.4819],[80.3495,26.48],[80.3491,26.4811],[80.351,26.4811],[80.3516,26.4824]]]},"properties":{"objectid":300247,"statename":"Uttar Pradesh","statecode":"9","districtname":"Kanpur","districtcode":"164","ulbname":"Kanpur (M. Corp)","ulbcode":"801005","wardname":"Parmat","wardcode":"42","id":null,"remark":"","st_area(shape)":0.0001327894726080493,"st_perimeter(shape)":0.05642551090240229}},{"type":"Feature","geometry":{"type":"Polygon","coordinates":[[[80.3349,26.467],[80.3317,26.473],[80.3268,26.4756],[80.3255,26.4727],[80.3304,26.4726],[80.3272,26.4689],[80.3302,26.468],[80.3294,26.4664],[80.3324,26.468],[80.3349,26.467]]]},"properties":{"objectid":300248,"statename":"Uttar Pradesh","statecode":"9","districtname":"Kanpur","districtcode":"164","ulbname":"Kanpur (M. Corp)","ulbcode":"801005","wardname":"Seesamau Uttari","wardcode":"59","id":null,"remark":"","st_area(shape)":3.66177978863567e-05,"st_perimeter(shape)":0.03842621147350003}},{"type":"Feature","geometry":{"type":"Polygon","coordinates":[[[80.33,26.468],[80.3246,26.4702],[80.3232,26.463],[80.3296,26.463],[80.3308,26.4659],[80.3294,26.4664],[80.33,26.468]]]},"properties":{"objectid":300249,"statename":"Uttar Pradesh","statecode":"9","districtname":"Kanpur","districtcode":"164","ulbname":"Kanpur (M. Corp)","ulbcode":"801005","wardname":"Gandhi Nagar","wardcode":"49","id":null,"remark":"","st_area(shape)":3.7776947883789525e-05,"st_perimeter(shape)":0.026288009069868175}},{"type":"Feature","geometry":{"type":"Polygon","coordinates":[[[80.3529,26.4648],[80.3485,26.469],[80.3479,26.4673],[80.3463,26.4683],[80.349,26.4635],[80.3526,26.4606],[80.3532,26.4624],[80.3516,26.464],[80.3529,26.4648]]]},"properties":{"objectid":300250,"statename":"Uttar Pradesh","statecode":"9","districtname":"Kanpur","districtcode":"164","ulbname":"Kanpur (M. Corp)","ulbcode":"801005","wardname":"Grneral Ganj","wardcode":"104","id":null,"remark":"","st_area(shape)":2.361291394062053e-05,"st_perimeter(shape)":0.027534940072488}},{"type":"Feature","geometry":{"type":"Polygon","coordinates":[[[80.3382,26.4707],[80.335,26.4733],[80.3321,26.4716],[80.3353,26.4699],[80.3382,26.4707]]]},"properties":{"objectid":300251,"statename":"Uttar Pradesh","statecode":"9","districtname":"Kanpur","districtcode":"164","ulbname":"Kanpur (M. Corp)","ulbcode":"801005","wardname":"Becan Ganj","wardcode":"97","id":null,"remark":"","st_area(shape)":1.0695934878247707e-05,"st_perimeter(shape)":0.016204307717050382}},{"type":"Feature","geometry":{"type":"Polygon","coordinates":[[[80.3187,26.479],[80.3061,26.4798],[80.3211,26.4647],[80.3266,26.4757],[80.3222,26.4786],[80.3187,26.479]]]},"properties":{"objectid":300252,"statename":"Uttar Pradesh","statecode":"9","districtname":"Kanpur","districtcode":"164","ulbname":"Kanpur (M. Corp)","ulbcode":"801005","wardname":"Ashok Nagar","wardcode":"37","id":null,"remark":"","st_area(shape)":0.00014078114566832276,"st_perimeter(shape)":0.05540068700816417}},{"type":"Feature","geometry":{"type":"Polygon","coordinates":[[[80.3168,26.4689],[80.3156,26.4681],[80.3126,26.4708],[80.3085,26.4672],[80.3124,26.4634],[80.32,26.4642],[80.3168,26.4689]]]},"properties":{"objectid":300253,"statename":"Uttar Pradesh","statecode":"9","districtname":"Kanpur","districtcode":"164","ulbname":"Kanpur (M. Corp)","ulbcode":"801005","wardname":"Kaushalpuri","wardcode":"81","id":null,"remark":"","st_area(shape)":4.799697603139965e-05,"st_perimeter(shape)":0.03253755399189694}},{"type":"Feature","geometry":{"type":"Polygon","coordinates":[[[80.3157,26.5018],[80.3091,26.5051],[80.295,26.5075],[80.3027,26.5052],[80.3062,26.4978],[80.3073,26.4973],[80.3094,26.5005],[80.3114,26.4994],[80.3132,26.4964],[80.3122,26.4954],[80.3163,26.491],[80.3183,26.4921],[80.3183,26.4933],[80.3181,26.4962],[80.3152,26.4992],[80.3163,26.5005],[80.3157,26.5018]]]},"properties":{"objectid":300254,"statename":"Uttar Pradesh","statecode":"9","districtname":"Kanpur","districtcode":"164","ulbname":"Kanpur (M. Corp)","ulbcode":"801005","wardname":"Azad Nagar","wardcode":"40","id":null,"remark":"","st_area(shape)":0.00010319530645250682,"st_perimeter(shape)":0.07225780896598508}},{"type":"Feature","geometry":{"type":"Polygon","coordinates":[[[80.2871,26.4708],[80.2891,26.4613],[80.2942,26.4616],[80.2938,26.4648],[80.2901,26.4709],[80.2871,26.4708]]]},"properties":{"objectid":300255,"statename":"Uttar Pradesh","statecode":"9","districtname":"Kanpur","districtcode":"164","ulbname":"Kanpur (M. Corp)","ulbcode":"801005","wardname":"Vijay Nagar","wardcode":"33","id":null,"remark":"","st_area(shape)":4.4156781274778916e-05,"st_perimeter(shape)":0.0280765223682715}},{"type":"Feature","geometry":{"type":"Polygon","coordinates":[[[80.2294,26.531],[80.2315,26.529],[80.2304,26.527],[80.234,26.5287],[80.245,26.5127],[80.255,26.5008],[80.2579,26.4991],[80.2695,26.4958],[80.2742,26.5073],[80.2788,26.5057],[80.2816,26.5106],[80.284,26.5123],[80.2798,26.516],[80.2766,26.521],[80.2767,26.5247],[80.2692,26.5253],[80.2604,26.5295],[80.2601,26.5273],[80.2533,26.5331],[80.2346,26.5341],[80.2329,26.532],[80.232,26.5329],[80.2294,26.531]]]},"properties":{"objectid":300256,"statename":"Uttar Pradesh","statecode":"9","districtname":"Kanpur","districtcode":"164","ulbname":"Kanpur (M. Corp)","ulbcode":"801005","wardname":"Naramau","wardcode":"17","id":null,"remark":"","st_area(shape)":0.0010659681324562927,"st_perimeter(shape)":0.1562206665130069}},{"type":"Feature","geometry":{"type":"Polygon","coordinates":[[[80.2862,26.475],[80.2832,26.4774],[80.2813,26.4752],[80.2771,26.477],[80.2746,26.4753],[80.2707,26.4768],[80.2738,26.4721],[80.2775,26.4719],[80.2805,26.4694],[80.2868,26.4715],[80.2901,26.4709],[80.2862,26.475]]]},"properties":{"objectid":300257,"statename":"Uttar Pradesh","statecode":"9","districtname":"Kanpur","districtcode":"164","ulbname":"Kanpur (M. Corp)","ulbcode":"801005","wardname":"M Block Kakadev","wardcode":"25","id":null,"remark":"","st_area(shape)":7.798728455996051e-05,"st_perimeter(shape)":0.049410824072990155}},{"type":"Feature","geometry":{"type":"Polygon","coordinates":[[[80.295,26.4556],[80.2942,26.4619],[80.2894,26.4613],[80.287,26.4717],[80.2626,26.4608],[80.2741,26.4539],[80.2859,26.4492],[80.299,26.4531],[80.2995,26.4523],[80.3117,26.453],[80.3119,26.4547],[80.3093,26.4554],[80.295,26.4556]]]},"properties":{"objectid":300258,"statename":"Uttar Pradesh","statecode":"9","districtname":"Kanpur","districtcode":"164","ulbname":"Kanpur (M. Corp)","ulbcode":"801005","wardname":"Govind Nagar Kachhi Basti","wardcode":"2","id":null,"remark":"","st_area(shape)":0.0004413887360318481,"st_perimeter(shape)":0.12145159538110242}},{"type":"Feature","geometry":{"type":"Polygon","coordinates":[[[80.3444,26.4729],[80.3412,26.4745],[80.3392,26.4706],[80.3421,26.47],[80.3439,26.4681],[80.3444,26.4729]]]},"properties":{"objectid":300259,"statename":"Uttar Pradesh","statecode":"9","districtname":"Kanpur","districtcode":"164","ulbname":"Kanpur (M. Corp)","ulbcode":"801005","wardname":"Talak Mahal","wardcode":"108","id":null,"remark":"","st_area(shape)":1.8040759247681334e-05,"st_perimeter(shape)":0.021183058664954738}},{"type":"Feature","geometry":{"type":"Polygon","coordinates":[[[80.2991,26.4479],[80.3043,26.4477],[80.3039,26.4449],[80.309,26.4447],[80.3123,26.4454],[80.3124,26.4473],[80.3198,26.447],[80.3198,26.4487],[80.2992,26.4497],[80.2991,26.4479]]]},"properties":{"objectid":300260,"statename":"Uttar Pradesh","statecode":"9","districtname":"Kanpur","districtcode":"164","ulbname":"Kanpur (M. Corp)","ulbcode":"801005","wardname":"Govind Nagar Dakshini","wardcode":"48","id":null,"remark":"","st_area(shape)":5.648008669756243e-05,"st_perimeter(shape)":0.05069502463748873}},{"type":"Feature","geometry":{"type":"Polygon","coordinates":[[[80.3492,26.4563],[80.3499,26.4572],[80.3367,26.4624],[80.334,26.4557],[80.3438,26.4486],[80.3492,26.4563]]]},"properties":{"objectid":300261,"statename":"Uttar Pradesh","statecode":"9","districtname":"Kanpur","districtcode":"164","ulbname":"Kanpur (M. Corp)","ulbcode":"801005","wardname":"Laxmi Purwa","wardcode":"1","id":null,"remark":".","st_area(shape)":0.00011216444012155588,"st_perimeter(shape)":0.04473466801287435}},{"type":"Feature","geometry":{"type":"Polygon","coordinates":[[[80.2901,26.4712],[80.2968,26.4776],[80.2938,26.4799],[80.2959,26.4809],[80.2952,26.4814],[80.2974,26.4839],[80.295,26.4853],[80.2916,26.481],[80.2869,26.4818],[80.2893,26.4794],[80.2862,26.475],[80.2901,26.4712]]]},"properties":{"objectid":300262,"statename":"Uttar Pradesh","statecode":"9","districtname":"Kanpur","districtcode":"164","ulbname":"Kanpur (M. Corp)","ulbcode":"801005","wardname":"Ambedkar Nagar","wardcode":"30","id":null,"remark":"","st_area(shape)":7.69328237438988e-05,"st_perimeter(shape)":0.04856332040898866}},{"type":"Feature","geometry":{"type":"Polygon","coordinates":[[[80.2859,26.4492],[80.2721,26.4551],[80.2687,26.4554],[80.2646,26.446],[80.2678,26.4423],[80.2671,26.4411],[80.2784,26.446],[80.2804,26.4418],[80.2828,26.441],[80.2859,26.4492]]]},"properties":{"objectid":300263,"statename":"Uttar Pradesh","statecode":"9","districtname":"Kanpur","districtcode":"164","ulbname":"Kanpur (M. Corp)","ulbcode":"801005","wardname":"Dabauli","wardcode":"72","id":null,"remark":"","st_area(shape)":0.00018021561859924763,"st_perimeter(shape)":0.06426623732095507}},{"type":"Feature","geometry":{"type":"Polygon","coordinates":[[[80.3272,26.463],[80.3116,26.4624],[80.3114,26.4565],[80.3153,26.4551],[80.3119,26.455],[80.3113,26.4526],[80.3329,26.4518],[80.3375,26.45],[80.3403,26.4514],[80.3283,26.4594],[80.3294,26.4608],[80.3288,26.463],[80.3272,26.463]]]},"properties":{"objectid":300264,"statename":"Uttar Pradesh","statecode":"9","districtname":"Kanpur","districtcode":"164","ulbname":"Kanpur (M. Corp)","ulbcode":"801005","wardname":"Bhannan Purwa","wardcode":"6","id":null,"remark":"","st_area(shape)":0.00022919012100355336,"st_perimeter(shape)":0.08246134203848687}},{"type":"Feature","geometry":{"type":"Polygon","coordinates":[[[80.252,26.4854],[80.252,26.4903],[80.256,26.4958],[80.2508,26.4969],[80.2471,26.4921],[80.2469,26.4878],[80.2437,26.4886],[80.2404,26.4876],[80.2411,26.4854],[80.2386,26.4837],[80.247,26.474],[80.2489,26.4758],[80.2506,26.4807],[80.2483,26.4846],[80.252,26.4854]]]},"properties":{"objectid":300265,"statename":"Uttar Pradesh","statecode":"9","districtname":"Kanpur","districtcode":"164","ulbname":"Kanpur (M. Corp)","ulbcode":"801005","wardname":"Awas Vikas 3","wardcode":"23","id":null,"remark":"","st_area(shape)":0.00016035576746185827,"st_perimeter(shape)":0.06969592452796036}},{"type":"Feature","geometry":{"type":"Polygon","coordinates":[[[80.2828,26.441],[80.2804,26.4418],[80.2784,26.446],[80.2671,26.4411],[80.2717,26.4385],[80.282,26.4367],[80.2836,26.4407],[80.2828,26.441]]]},"properties":{"objectid":300266,"statename":"Uttar Pradesh","statecode":"9","districtname":"Kanpur","districtcode":"164","ulbname":"Kanpur (M. Corp)","ulbcode":"801005","wardname":"Gujaini","wardcode":"55","id":null,"remark":"","st_area(shape)":8.050422672810743e-05,"st_perimeter(shape)":0.04039262689950048}},{"type":"Feature","geometry":{"type":"Polygon","coordinates":[[[80.2965,26.4427],[80.2946,26.4436],[80.2957,26.4467],[80.2865,26.449],[80.282,26.4367],[80.291,26.4353],[80.2923,26.4378],[80.2865,26.4392],[80.2887,26.4404],[80.2904,26.4395],[80.2905,26.4411],[80.2944,26.4397],[80.2963,26.4406],[80.2965,26.4427]]]},"properties":{"objectid":300267,"statename":"Uttar Pradesh","statecode":"9","districtname":"Kanpur","districtcode":"164","ulbname":"Kanpur (M. Corp)","ulbcode":"801005","wardname":"Ratan Lal Nagar","wardcode":"34","id":null,"remark":"","st_area(shape)":0.00011770751015546998,"st_perimeter(shape)":0.06676693153042743}},{"type":"Feature","geometry":{"type":"Polygon","coordinates":[[[80.2952,26.4334],[80.2997,26.441],[80.299,26.4419],[80.2965,26.4427],[80.2963,26.4406],[80.2944,26.4397],[80.2905,26.4411],[80.2904,26.4395],[80.2887,26.4404],[80.2865,26.4392],[80.2913,26.4386],[80.2923,26.4378],[80.291,26.4353],[80.2952,26.4334]]]},"properties":{"objectid":300268,"statename":"Uttar Pradesh","statecode":"9","districtname":"Kanpur","districtcode":"164","ulbname":"Kanpur (M. Corp)","ulbcode":"801005","wardname":"Barra Pachhimi","wardcode":"67","id":null,"remark":"","st_area(shape)":4.865073303411897e-05,"st_perimeter(shape)":0.04603310139467126}},{"type":"Feature","geometry":{"type":"Polygon","coordinates":[[[80.2336,26.49],[80.222,26.5047],[80.2131,26.5029],[80.2093,26.5042],[80.2105,26.5005],[80.2091,26.4987],[80.2088,26.4948],[80.2105,26.4927],[80.2079,26.4857],[80.2084,26.4824],[80.2061,26.4826],[80.2028,26.4786],[80.2225,26.4644],[80.2218,26.4631],[80.2249,26.4621],[80.2287,26.4659],[80.2408,26.4704],[80.2382,26.473],[80.2248,26.4799],[80.2295,26.4828],[80.2288,26.4839],[80.2307,26.4849],[80.2336,26.49]]]},"properties":{"objectid":300269,"statename":"Uttar Pradesh","statecode":"9","districtname":"Kanpur","districtcode":"164","ulbname":"Kanpur (M. Corp)","ulbcode":"801005","wardname":"Panki","wardcode":"50","id":null,"remark":"","st_area(shape)":0.0008133425237899082,"st_perimeter(shape)":0.1455476378603079}},{"type":"Feature","geometry":{"type":"Polygon","coordinates":[[[80.3228,26.463],[80.3186,26.4672],[80.32,26.4642],[80.3133,26.4633],[80.3117,26.4646],[80.3054,26.4643],[80.3071,26.4623],[80.2942,26.4616],[80.2942,26.4557],[80.3147,26.455],[80.3145,26.4561],[80.3114,26.4565],[80.3116,26.4624],[80.3228,26.463]]]},"properties":{"objectid":300270,"statename":"Uttar Pradesh","statecode":"9","districtname":"Kanpur","districtcode":"164","ulbname":"Kanpur (M. Corp)","ulbcode":"801005","wardname":"Fazalganj","wardcode":"20","id":null,"remark":"","st_area(shape)":0.0001397772725856945,"st_perimeter(shape)":0.09204956695994658}},{"type":"Feature","geometry":{"type":"Polygon","coordinates":[[[80.2696,26.4872],[80.2655,26.49],[80.2638,26.4863],[80.2598,26.4898],[80.258,26.4865],[80.2483,26.4846],[80.2506,26.4807],[80.2489,26.4758],[80.2469,26.474],[80.2598,26.4626],[80.2711,26.4757],[80.2706,26.4775],[80.2656,26.4787],[80.2696,26.4872]]]},"properties":{"objectid":300271,"statename":"Uttar Pradesh","statecode":"9","districtname":"Kanpur","districtcode":"164","ulbname":"Kanpur (M. Corp)","ulbcode":"801005","wardname":"Maswanpur","wardcode":"8","id":null,"remark":"","st_area(shape)":0.00038673801326478816,"st_perimeter(shape)":0.09504840552302692}},{"type":"Feature","geometry":{"type":"Polygon","coordinates":[[[80.2949,26.5071],[80.2891,26.5085],[80.284,26.5123],[80.2816,26.5106],[80.2788,26.5057],[80.2742,26.5073],[80.2695,26.4958],[80.278,26.4933],[80.2809,26.4974],[80.2879,26.4951],[80.291,26.5026],[80.2943,26.5052],[80.2949,26.5071]]]},"properties":{"objectid":300272,"statename":"Uttar Pradesh","statecode":"9","districtname":"Kanpur","districtcode":"164","ulbname":"Kanpur (M. Corp)","ulbcode":"801005","wardname":"Khyora","wardcode":"44","id":null,"remark":"","st_area(shape)":0.0002572672504998813,"st_perimeter(shape)":0.07490713032930435}},{"type":"Feature","geometry":{"type":"Polygon","coordinates":[[[80.2353,26.5032],[80.2326,26.5009],[80.2301,26.5029],[80.2294,26.5018],[80.2269,26.5027],[80.2235,26.5056],[80.222,26.5047],[80.2355,26.4877],[80.2354,26.485],[80.2373,26.4853],[80.2386,26.4837],[80.2411,26.4854],[80.2404,26.4876],[80.2438,26.4886],[80.2469,26.4878],[80.2471,26.4921],[80.2508,26.4969],[80.2418,26.4988],[80.2353,26.5032]]]},"properties":{"objectid":300273,"statename":"Uttar Pradesh","statecode":"9","districtname":"Kanpur","districtcode":"164","ulbname":"Kanpur (M. Corp)","ulbcode":"801005","wardname":"Kalyanpur Dakshini","wardcode":"19","id":null,"remark":"","st_area(shape)":0.00025095096965239023,"st_perimeter(shape)":0.0873292979434472}},{"type":"Feature","geometry":{"type":"Polygon","coordinates":[[[80.3031,26.467],[80.3005,26.466],[80.2982,26.4669],[80.297,26.4655],[80.2946,26.468],[80.2923,26.4675],[80.2942,26.4616],[80.3071,26.4623],[80.3054,26.4643],[80.3115,26.4645],[80.3085,26.4672],[80.3054,26.4643],[80.3031,26.467]]]},"properties":{"objectid":300274,"statename":"Uttar Pradesh","statecode":"9","districtname":"Kanpur","districtcode":"164","ulbname":"Kanpur (M. Corp)","ulbcode":"801005","wardname":"Sarojini Nagar","wardcode":"69","id":null,"remark":"","st_area(shape)":6.4206451397049e-05,"st_perimeter(shape)":0.053047909820136026}},{"type":"Feature","geometry":{"type":"Polygon","coordinates":[[[80.3063,26.4799],[80.2974,26.4839],[80.2952,26.4814],[80.2959,26.4809],[80.2938,26.4799],[80.2968,26.4776],[80.2901,26.4709],[80.3014,26.4719],[80.3111,26.4747],[80.3063,26.4799]]]},"properties":{"objectid":300275,"statename":"Uttar Pradesh","statecode":"9","districtname":"Kanpur","districtcode":"164","ulbname":"Kanpur (M. Corp)","ulbcode":"801005","wardname":"Sarvodai Nagar","wardcode":"64","id":null,"remark":"","st_area(shape)":0.00013815811554877862,"st_perimeter(shape)":0.05933750093853402}},{"type":"Feature","geometry":{"type":"Polygon","coordinates":[[[80.2872,26.4822],[80.2916,26.481],[80.295,26.4853],[80.2829,26.4919],[80.278,26.486],[80.2872,26.4822]]]},"properties":{"objectid":300276,"statename":"Uttar Pradesh","statecode":"9","districtname":"Kanpur","districtcode":"164","ulbname":"Kanpur (M. Corp)","ulbcode":"801005","wardname":"Geeta Nagar","wardcode":"52","id":null,"remark":"","st_area(shape)":9.791540100426277e-05,"st_perimeter(shape)":0.041977890674007964}},{"type":"Feature","geometry":{"type":"Polygon","coordinates":[[[80.2829,26.4771],[80.277,26.4812],[80.2684,26.4842],[80.2656,26.4787],[80.2744,26.4753],[80.2765,26.477],[80.2813,26.4752],[80.2829,26.4771]]]},"properties":{"objectid":300277,"statename":"Uttar Pradesh","statecode":"9","districtname":"Kanpur","districtcode":"164","ulbname":"Kanpur (M. Corp)","ulbcode":"801005","wardname":"Rawatpur","wardcode":"60","id":null,"remark":"","st_area(shape)":7.887373862040989e-05,"st_perimeter(shape)":0.04357561320224401}},{"type":"Feature","geometry":{"type":"Polygon","coordinates":[[[80.3031,26.467],[80.3018,26.4719],[80.3035,26.4723],[80.2901,26.4709],[80.2923,26.4675],[80.2946,26.468],[80.297,26.4655],[80.2982,26.4669],[80.3005,26.466],[80.3031,26.467]]]},"properties":{"objectid":300278,"statename":"Uttar Pradesh","statecode":"9","districtname":"Kanpur","districtcode":"164","ulbname":"Kanpur (M. Corp)","ulbcode":"801005","wardname":"Shastri Nagar","wardcode":"91","id":null,"remark":"","st_area(shape)":5.011633223080479e-05,"st_perimeter(shape)":0.03790605003166996}},{"type":"Feature","geometry":{"type":"Polygon","coordinates":[[[80.2785,26.4854],[80.2829,26.4919],[80.2583,26.499],[80.2518,26.4896],[80.252,26.4854],[80.258,26.4865],[80.2598,26.4898],[80.2638,26.4863],[80.2655,26.49],[80.2696,26.4872],[80.2678,26.4844],[80.2752,26.4816],[80.2764,26.4814],[80.2759,26.4833],[80.2785,26.4854]]]},"properties":{"objectid":300279,"statename":"Uttar Pradesh","statecode":"9","districtname":"Kanpur","districtcode":"164","ulbname":"Kanpur (M. Corp)","ulbcode":"801005","wardname":"Vinayakpur","wardcode":"54","id":null,"remark":"","st_area(shape)":0.0002795434090657449,"st_perimeter(shape)":0.09484354474882475}},{"type":"Feature","geometry":{"type":"Polygon","coordinates":[[[80.3218,26.4521],[80.3217,26.4509],[80.32,26.4511],[80.3197,26.4454],[80.3304,26.4473],[80.3375,26.45],[80.3329,26.4518],[80.3218,26.4521]]]},"properties":{"objectid":300280,"statename":"Uttar Pradesh","statecode":"9","districtname":"Kanpur","districtcode":"164","ulbname":"Kanpur (M. Corp)","ulbcode":"801005","wardname":"Param Purwa","wardcode":"16","id":null,"remark":"","st_area(shape)":7.491568210729626e-05,"st_perimeter(shape)":0.04359990098115971}},{"type":"Feature","geometry":{"type":"Polygon","coordinates":[[[80.3404,26.3832],[80.3494,26.3811],[80.3498,26.3823],[80.3496,26.3846],[80.344,26.3872],[80.3425,26.3899],[80.338,26.3929],[80.3317,26.3945],[80.3201,26.4001],[80.321,26.4021],[80.3197,26.403],[80.3227,26.4088],[80.3207,26.4094],[80.3164,26.4072],[80.3133,26.3974],[80.3143,26.3972],[80.3132,26.3927],[80.3179,26.3911],[80.3195,26.3952],[80.3226,26.392],[80.3404,26.3832]]]},"properties":{"objectid":300281,"statename":"Uttar Pradesh","statecode":"9","districtname":"Kanpur","districtcode":"164","ulbname":"Kanpur (M. Corp)","ulbcode":"801005","wardname":"Hanspuram","wardcode":"41","id":null,"remark":"","st_area(shape)":0.0002986769220285141,"st_perimeter(shape)":0.11600966623306043}},{"type":"Feature","geometry":{"type":"Polygon","coordinates":[[[80.34,26.4133],[80.3192,26.4214],[80.3164,26.4072],[80.3288,26.4142],[80.3319,26.4122],[80.3344,26.4138],[80.3375,26.4112],[80.34,26.4133]]]},"properties":{"objectid":300282,"statename":"Uttar Pradesh","statecode":"9","districtname":"Kanpur","districtcode":"164","ulbname":"Kanpur (M. Corp)","ulbcode":"801005","wardname":"Pashupati Nagar","wardcode":"66","id":null,"remark":"","st_area(shape)":0.0001252999435030575,"st_perimeter(shape)":0.06530918811783881}},{"type":"Feature","geometry":{"type":"Polygon","coordinates":[[[80.3494,26.3811],[80.359,26.3788],[80.3718,26.3735],[80.3758,26.3842],[80.3822,26.3927],[80.3829,26.396],[80.389,26.391],[80.3925,26.3957],[80.3816,26.4066],[80.3774,26.403],[80.373,26.4012],[80.3647,26.4015],[80.3598,26.3924],[80.3535,26.3943],[80.3524,26.3936],[80.3529,26.3925],[80.3503,26.3894],[80.3514,26.3888],[80.3497,26.3859],[80.3494,26.3811]]]},"properties":{"objectid":300283,"statename":"Uttar Pradesh","statecode":"9","districtname":"Kanpur","districtcode":"164","ulbname":"Kanpur (M. Corp)","ulbcode":"801005","wardname":"Swarn Jayanti Bihar","wardcode":"62","id":null,"remark":"","st_area(shape)":0.0006758918529136849,"st_perimeter(shape)":0.13177002890588219}},{"type":"Feature","geometry":{"type":"Polygon","coordinates":[[[80.4389,26.3391],[80.3954,26.3677],[80.3966,26.3747],[80.4143,26.3837],[80.4127,26.3855],[80.4155,26.3871],[80.4184,26.3965],[80.4149,26.3988],[80.4088,26.3955],[80.4082,26.3936],[80.4055,26.3957],[80.4061,26.3969],[80.4051,26.3981],[80.404,26.3956],[80.4068,26.3924],[80.4014,26.3873],[80.3925,26.3957],[80.389,26.391],[80.3828,26.396],[80.3822,26.3927],[80.3758,26.3842],[80.3718,26.3735],[80.3736,26.3724],[80.3756,26.3632],[80.3775,26.36],[80.3831,26.3565],[80.3917,26.3551],[80.3995,26.3486],[80.4006,26.3439],[80.3988,26.3395],[80.405,26.3345],[80.4169,26.3346],[80.4233,26.3367],[80.4389,26.3391]]]},"properties":{"objectid":300284,"statename":"Uttar Pradesh","statecode":"9","districtname":"Kanpur","districtcode":"164","ulbname":"Kanpur (M. Corp)","ulbcode":"801005","wardname":"Sanigavan","wardcode":"31","id":null,"remark":"","st_area(shape)":0.001696921720011906,"st_perimeter(shape)":0.27524097951008275}},{"type":"Feature","geometry":{"type":"Polygon","coordinates":[[[80.3385,26.3999],[80.3397,26.4012],[80.3307,26.4087],[80.3261,26.4045],[80.3231,26.4081],[80.3196,26.4027],[80.321,26.4021],[80.3201,26.4001],[80.3209,26.3994],[80.3273,26.3969],[80.3307,26.4025],[80.3349,26.4026],[80.3385,26.3999]]]},"properties":{"objectid":300285,"statename":"Uttar Pradesh","statecode":"9","districtname":"Kanpur","districtcode":"164","ulbname":"Kanpur (M. Corp)","ulbcode":"801005","wardname":"Rajeev Nagar Naubasta","wardcode":"68","id":null,"remark":"","st_area(shape)":0.00010626260249781209,"st_perimeter(shape)":0.058635541637626756}},{"type":"Feature","geometry":{"type":"Polygon","coordinates":[[[80.3319,26.4122],[80.3288,26.4142],[80.3207,26.4094],[80.3227,26.4088],[80.3261,26.4045],[80.3307,26.4087],[80.3397,26.4012],[80.3385,26.3999],[80.341,26.3974],[80.3436,26.3963],[80.3461,26.4024],[80.3319,26.4122]]]},"properties":{"objectid":300286,"statename":"Uttar Pradesh","statecode":"9","districtname":"Kanpur","districtcode":"164","ulbname":"Kanpur (M. Corp)","ulbcode":"801005","wardname":"Yashoda Nagar","wardcode":"95","id":null,"remark":"","st_area(shape)":0.00013787815791160675,"st_perimeter(shape)":0.0712049868650794}},{"type":"Feature","geometry":{"type":"Polygon","coordinates":[[[80.3665,26.4217],[80.3507,26.438],[80.3436,26.4302],[80.3492,26.4244],[80.349,26.4227],[80.3542,26.4212],[80.3593,26.4173],[80.3564,26.4111],[80.358,26.4097],[80.3638,26.4151],[80.3774,26.403],[80.3816,26.4066],[80.3665,26.4217]]]},"properties":{"objectid":300287,"statename":"Uttar Pradesh","statecode":"9","districtname":"Kanpur","districtcode":"164","ulbname":"Kanpur (M. Corp)","ulbcode":"801005","wardname":"Shyam Nagar","wardcode":"74","id":null,"remark":"","st_area(shape)":0.00038115159215210685,"st_perimeter(shape)":0.11781269208796558}},{"type":"Feature","geometry":{"type":"Polygon","coordinates":[[[80.3944,26.42],[80.4007,26.4183],[80.412,26.4087],[80.4127,26.4101],[80.4155,26.4108],[80.4144,26.4177],[80.4154,26.4208],[80.4026,26.4288],[80.3944,26.42]]]},"properties":{"objectid":300288,"statename":"Uttar Pradesh","statecode":"9","districtname":"Kanpur","districtcode":"164","ulbname":"Kanpur (M. Corp)","ulbcode":"801005","wardname":"Tiwari Pur","wardcode":"58","id":null,"remark":"","st_area(shape)":0.0002090017297280797,"st_perimeter(shape)":0.06747156887323413}},{"type":"Feature","geometry":{"type":"Polygon","coordinates":[[[80.3998,26.4401],[80.3915,26.4469],[80.3882,26.4456],[80.385,26.4417],[80.3759,26.4376],[80.3754,26.434],[80.391,26.4383],[80.3898,26.4367],[80.3923,26.4334],[80.3892,26.4286],[80.3924,26.426],[80.3944,26.4276],[80.3985,26.424],[80.4026,26.4288],[80.3945,26.4359],[80.3977,26.4362],[80.3998,26.4401]]]},"properties":{"objectid":300289,"statename":"Uttar Pradesh","statecode":"9","districtname":"Kanpur","districtcode":"164","ulbname":"Kanpur (M. Corp)","ulbcode":"801005","wardname":"Jajmau South","wardcode":"73","id":null,"remark":"","st_area(shape)":0.000230543434369314,"st_perimeter(shape)":0.10035485977269319}},{"type":"Feature","geometry":{"type":"Polygon","coordinates":[[[80.3923,26.426],[80.3892,26.4286],[80.3923,26.4334],[80.3898,26.4367],[80.3912,26.4383],[80.3754,26.4341],[80.3757,26.4325],[80.3797,26.4304],[80.378,26.4291],[80.3825,26.4261],[80.383,26.4281],[80.3851,26.4263],[80.3833,26.4233],[80.3858,26.4236],[80.3883,26.4274],[80.3923,26.426]]]},"properties":{"objectid":300290,"statename":"Uttar Pradesh","statecode":"9","districtname":"Kanpur","districtcode":"164","ulbname":"Kanpur (M. Corp)","ulbcode":"801005","wardname":"Om Purwa","wardcode":"29","id":null,"remark":"","st_area(shape)":0.00013405504525601522,"st_perimeter(shape)":0.06924332784648321}},{"type":"Feature","geometry":{"type":"Polygon","coordinates":[[[80.3985,26.424],[80.3944,26.4276],[80.3921,26.4258],[80.3883,26.4274],[80.3858,26.4236],[80.3875,26.4225],[80.3842,26.4197],[80.3865,26.4178],[80.3844,26.4151],[80.3913,26.418],[80.3929,26.4165],[80.3947,26.4207],[80.3985,26.424]]]},"properties":{"objectid":300291,"statename":"Uttar Pradesh","statecode":"9","districtname":"Kanpur","districtcode":"164","ulbname":"Kanpur (M. Corp)","ulbcode":"801005","wardname":"Harjindra Nagar","wardcode":"28","id":null,"remark":"","st_area(shape)":9.650152451319936e-05,"st_perimeter(shape)":0.05129601791491418}},{"type":"Feature","geometry":{"type":"Polygon","coordinates":[[[80.3842,26.4197],[80.3803,26.4165],[80.3758,26.4202],[80.3746,26.4184],[80.378,26.4159],[80.3748,26.4134],[80.4008,26.3874],[80.4041,26.3889],[80.4068,26.3924],[80.3836,26.414],[80.3865,26.4178],[80.3842,26.4197]]]},"properties":{"objectid":300292,"statename":"Uttar Pradesh","statecode":"9","districtname":"Kanpur","districtcode":"164","ulbname":"Kanpur (M. Corp)","ulbcode":"801005","wardname":"Gandhi Gram","wardcode":"26","id":null,"remark":"","st_area(shape)":0.0003049219521817862,"st_perimeter(shape)":0.10840847959559352}},{"type":"Feature","geometry":{"type":"Polygon","coordinates":[[[80.3596,26.4662],[80.3578,26.4656],[80.3538,26.4675],[80.3552,26.4644],[80.3516,26.464],[80.3556,26.4611],[80.3596,26.4637],[80.3596,26.4662]]]},"properties":{"objectid":300293,"statename":"Uttar Pradesh","statecode":"9","districtname":"Kanpur","districtcode":"164","ulbname":"Kanpur (M. Corp)","ulbcode":"801005","wardname":"Chatai Mohal","wardcode":"79","id":null,"remark":"","st_area(shape)":2.7295182722605376e-05,"st_perimeter(shape)":0.0283490681576396}},{"type":"Feature","geometry":{"type":"Polygon","coordinates":[[[80.3552,26.4557],[80.3614,26.4578],[80.3596,26.4637],[80.3556,26.4611],[80.358,26.4593],[80.3552,26.4557]]]},"properties":{"objectid":300294,"statename":"Uttar Pradesh","statecode":"9","districtname":"Kanpur","districtcode":"164","ulbname":"Kanpur (M. Corp)","ulbcode":"801005","wardname":"Harbansh Mohol","wardcode":"76","id":null,"remark":"","st_area(shape)":2.4240082542656353e-05,"st_perimeter(shape)":0.026110864185854912}},{"type":"Feature","geometry":{"type":"Polygon","coordinates":[[[80.3043,26.4385],[80.3002,26.4436],[80.2952,26.4334],[80.2993,26.4313],[80.3042,26.4357],[80.3027,26.4375],[80.3043,26.4385]]]},"properties":{"objectid":300295,"statename":"Uttar Pradesh","statecode":"9","districtname":"Kanpur","districtcode":"164","ulbname":"Kanpur (M. Corp)","ulbcode":"801005","wardname":"Barra","wardcode":"51","id":null,"remark":"","st_area(shape)":5.5093604434806455e-05,"st_perimeter(shape)":0.03470187007723819}},{"type":"Feature","geometry":{"type":"Polygon","coordinates":[[[80.3247,26.4916],[80.3124,26.4902],[80.2985,26.4835],[80.3047,26.4802],[80.3187,26.479],[80.3188,26.4804],[80.3211,26.482],[80.3204,26.4833],[80.3247,26.4916]]]},"properties":{"objectid":300296,"statename":"Uttar Pradesh","statecode":"9","districtname":"Kanpur","districtcode":"164","ulbname":"Kanpur (M. Corp)","ulbcode":"801005","wardname":"Tilak Nagar","wardcode":"61","id":null,"remark":"","st_area(shape)":0.0001920790753147784,"st_perimeter(shape)":0.06442791808288235}},{"type":"Feature","geometry":{"type":"Polygon","coordinates":[[[80.3162,26.491],[80.3122,26.4954],[80.3132,26.4964],[80.3114,26.4994],[80.3094,26.5005],[80.3073,26.4973],[80.3062,26.4978],[80.3027,26.5052],[80.2954,26.5072],[80.2911,26.5028],[80.2879,26.4951],[80.2809,26.4974],[80.278,26.4933],[80.2856,26.4911],[80.2985,26.4835],[80.3098,26.4892],[80.3162,26.491]]]},"properties":{"objectid":300297,"statename":"Uttar Pradesh","statecode":"9","districtname":"Kanpur","districtcode":"164","ulbname":"Kanpur (M. Corp)","ulbcode":"801005","wardname":"Nawabganj","wardcode":"43","id":null,"remark":"","st_area(shape)":0.0004432675204272508,"st_perimeter(shape)":0.10576436033058131}},{"type":"Feature","geometry":{"type":"Polygon","coordinates":[[[80.3113,26.4526],[80.2946,26.4523],[80.2957,26.448],[80.2991,26.4479],[80.2992,26.4497],[80.3198,26.4487],[80.32,26.4511],[80.3217,26.4509],[80.3218,26.4521],[80.3113,26.4526]]]},"properties":{"objectid":300298,"statename":"Uttar Pradesh","statecode":"9","districtname":"Kanpur","districtcode":"164","ulbname":"Kanpur (M. Corp)","ulbcode":"801005","wardname":"Govind Nagar Uttari","wardcode":"93","id":null,"remark":"","st_area(shape)":8.805677368646576e-05,"st_perimeter(shape)":0.06368916158702498}},{"type":"Feature","geometry":{"type":"Polygon","coordinates":[[[80.3461,26.4349],[80.3477,26.4341],[80.3504,26.4377],[80.3591,26.4425],[80.3572,26.4468],[80.3533,26.449],[80.3496,26.4487],[80.3474,26.4432],[80.3451,26.441],[80.3459,26.4391],[80.3445,26.4376],[80.3427,26.4385],[80.3417,26.4371],[80.3451,26.4364],[80.3461,26.4349]]]},"properties":{"objectid":300299,"statename":"Uttar Pradesh","statecode":"9","districtname":"Kanpur","districtcode":"164","ulbname":"Kanpur (M. Corp)","ulbcode":"801005","wardname":"Begum Purwa","wardcode":"102","id":null,"remark":"","st_area(shape)":0.00011554472774016216,"st_perimeter(shape)":0.053055856923034064}},{"type":"Feature","geometry":{"type":"Polygon","coordinates":[[[80.352,26.4082],[80.3565,26.411],[80.3594,26.4173],[80.3543,26.4212],[80.3513,26.4219],[80.3411,26.4162],[80.3389,26.4174],[80.3353,26.4151],[80.34,26.4133],[80.3375,26.4112],[80.3344,26.4138],[80.3319,26.4122],[80.3461,26.4024],[80.3436,26.3963],[80.3514,26.3912],[80.3535,26.3943],[80.3598,26.3924],[80.3647,26.4015],[80.352,26.4082]]]},"properties":{"objectid":300300,"statename":"Uttar Pradesh","statecode":"9","districtname":"Kanpur","districtcode":"164","ulbname":"Kanpur (M. Corp)","ulbcode":"801005","wardname":"Yashoda Nagar","wardcode":"109","id":null,"remark":"","st_area(shape)":0.0004820263563104841,"st_perimeter(shape)":0.12581649641490003}},{"type":"Feature","geometry":{"type":"Polygon","coordinates":[[[80.4389,26.3391],[80.4514,26.3294],[80.4467,26.3399],[80.4542,26.341],[80.4504,26.346],[80.457,26.3467],[80.4665,26.3503],[80.4694,26.3543],[80.457,26.3655],[80.4552,26.3718],[80.4592,26.3714],[80.4703,26.3766],[80.4735,26.3732],[80.4761,26.375],[80.4779,26.3797],[80.4807,26.3804],[80.4818,26.3822],[80.4773,26.3865],[80.4723,26.3882],[80.4488,26.4063],[80.4204,26.4219],[80.4084,26.4341],[80.4026,26.4289],[80.4154,26.4208],[80.415,26.4163],[80.4166,26.4169],[80.4194,26.4148],[80.4192,26.413],[80.4223,26.4111],[80.4226,26.4079],[80.425,26.4067],[80.4327,26.4069],[80.4328,26.4032],[80.4318,26.4022],[80.42,26.4036],[80.4182,26.4029],[80.4149,26.3988],[80.4184,26.3965],[80.4155,26.3871],[80.4127,26.3855],[80.4143,26.3837],[80.3966,26.3747],[80.3954,26.3677],[80.4389,26.3391]]]},"properties":{"objectid":300301,"statename":"Uttar Pradesh","statecode":"9","districtname":"Kanpur","districtcode":"164","ulbname":"Kanpur (M. Corp)","ulbcode":"801005","wardname":"Chakeri","wardcode":"12","id":null,"remark":"","st_area(shape)":0.0036980105802026544,"st_perimeter(shape)":0.3923494620677794}},{"type":"Feature","geometry":{"type":"Polygon","coordinates":[[[80.349,26.4635],[80.3473,26.4666],[80.3412,26.4608],[80.3465,26.4591],[80.349,26.4635]]]},"properties":{"objectid":301066,"statename":"Uttar Pradesh","statecode":"9","districtname":"Kanpur","districtcode":"164","ulbname":"Kanpur (M. Corp)","ulbcode":"801005","wardname":"Coperganj","wardcode":"89","id":null,"remark":"","st_area(shape)":2.719700075072409e-05,"st_perimeter(shape)":0.023126388318720627}},{"type":"Feature","geometry":{"type":"Polygon","coordinates":[[[80.3579,26.4304],[80.3859,26.4517],[80.373,26.4676],[80.3653,26.4744],[80.3627,26.4736],[80.3644,26.4713],[80.3614,26.4693],[80.3655,26.4672],[80.3593,26.463],[80.3611,26.4578],[80.3568,26.4465],[80.3588,26.4426],[80.3505,26.438],[80.3532,26.4346],[80.3477,26.4262],[80.3499,26.4235],[80.3507,26.4282],[80.355,26.4284],[80.3579,26.4304]]]},"properties":{"objectid":301067,"statename":"Uttar Pradesh","statecode":"9","districtname":"Kanpur","districtcode":"164","ulbname":"Kanpur (M. Corp)","ulbcode":"801005","wardname":"Chandari","wardcode":"99","id":null,"remark":"","st_area(shape)":0.000721787458889985,"st_perimeter(shape)":0.15051609745933348}},{"type":"Feature","geometry":{"type":"Polygon","coordinates":[[[80.3415,26.4392],[80.3404,26.4401],[80.3419,26.4425],[80.3405,26.4438],[80.3369,26.4383],[80.3367,26.433],[80.3404,26.4332],[80.3423,26.4386],[80.3415,26.4392]]]},"properties":{"objectid":301068,"statename":"Uttar Pradesh","statecode":"9","districtname":"Kanpur","districtcode":"164","ulbname":"Kanpur (M. Corp)","ulbcode":"801005","wardname":"Ajeet Ganj","wardcode":"36","id":null,"remark":"","st_area(shape)":3.9550776724377334e-05,"st_perimeter(shape)":0.02916343287172055}},{"type":"Feature","geometry":{"type":"Polygon","coordinates":[[[80.231,26.4667],[80.2249,26.4621],[80.2218,26.4631],[80.2225,26.4644],[80.2028,26.4786],[80.2002,26.4742],[80.1972,26.4723],[80.1986,26.4702],[80.203,26.4699],[80.2018,26.4666],[80.2044,26.4663],[80.2056,26.4635],[80.2072,26.4649],[80.21,26.4635],[80.2097,26.4599],[80.2123,26.4583],[80.2125,26.4559],[80.2156,26.4554],[80.2171,26.4568],[80.2211,26.457],[80.2243,26.455],[80.2286,26.4547],[80.2294,26.4533],[80.2317,26.454],[80.2315,26.4516],[80.2339,26.4501],[80.2299,26.4483],[80.2309,26.446],[80.2289,26.4449],[80.2318,26.4451],[80.238,26.4425],[80.2378,26.4394],[80.2397,26.442],[80.2418,26.4401],[80.2456,26.4396],[80.2444,26.4373],[80.2467,26.4367],[80.2483,26.4378],[80.2538,26.4357],[80.2552,26.4332],[80.2566,26.4346],[80.2591,26.4336],[80.2599,26.435],[80.2646,26.4344],[80.2678,26.4423],[80.2646,26.446],[80.2687,26.4554],[80.2722,26.4553],[80.2638,26.4601],[80.2479,26.4595],[80.2381,26.4694],[80.231,26.4667]]]},"properties":{"objectid":301069,"statename":"Uttar Pradesh","statecode":"9","districtname":"Kanpur","districtcode":"164","ulbname":"Kanpur (M. Corp)","ulbcode":"801005","wardname":"Saraymita","wardcode":"53","id":null,"remark":"","st_area(shape)":0.0012163228667610452,"st_perimeter(shape)":0.24289844942336178}},{"type":"Feature","geometry":{"type":"Polygon","coordinates":[[[80.3411,26.468],[80.3393,26.4676],[80.3367,26.4624],[80.3405,26.4624],[80.3428,26.4641],[80.3417,26.4653],[80.3426,26.4667],[80.3411,26.468]]]},"properties":{"objectid":301764,"statename":"Uttar Pradesh","statecode":"9","districtname":"Kanpur","districtcode":"164","ulbname":"Kanpur (M. Corp)","ulbcode":"801005","wardname":"Dalel Purwa","wardcode":"83","id":null,"remark":"","st_area(shape)":2.1286361342750066e-05,"st_perimeter(shape)":0.02146593449245017}},{"type":"Feature","geometry":{"type":"Polygon","coordinates":[[[80.3341,26.4626],[80.3364,26.4659],[80.3325,26.468],[80.3307,26.4675],[80.3296,26.463],[80.3341,26.4626]]]},"properties":{"objectid":301765,"statename":"Uttar Pradesh","statecode":"9","districtname":"Kanpur","districtcode":"164","ulbname":"Kanpur (M. Corp)","ulbcode":"801005","wardname":"Seesamau South","wardcode":"71","id":null,"remark":"","st_area(shape)":2.4093949328675123e-05,"st_perimeter(shape)":0.020977844080487903}},{"type":"Feature","geometry":{"type":"Polygon","coordinates":[[[80.3542,26.4672],[80.3548,26.4692],[80.3522,26.4711],[80.35,26.4679],[80.3549,26.4643],[80.3535,26.4668],[80.3542,26.4672]]]},"properties":{"objectid":301766,"statename":"Uttar Pradesh","statecode":"9","districtname":"Kanpur","districtcode":"164","ulbname":"Kanpur (M. Corp)","ulbcode":"801005","wardname":"Maheshwari Mohal","wardcode":"98","id":null,"remark":"","st_area(shape)":1.860805532491844e-05,"st_perimeter(shape)":0.02169698278231853}},{"type":"Feature","geometry":{"type":"Polygon","coordinates":[[[80.3552,26.4557],[80.358,26.4593],[80.3558,26.4608],[80.3514,26.4584],[80.353,26.457],[80.3519,26.4559],[80.3552,26.4557]]]},"properties":{"objectid":301767,"statename":"Uttar Pradesh","statecode":"9","districtname":"Kanpur","districtcode":"164","ulbname":"Kanpur (M. Corp)","ulbcode":"801005","wardname":"Danakhori","wardcode":"90","id":null,"remark":"","st_area(shape)":1.7924653551678406e-05,"st_perimeter(shape)":0.020547558253215144}},{"type":"Feature","geometry":{"type":"Polygon","coordinates":[[[80.3252,26.4394],[80.3279,26.4439],[80.3243,26.446],[80.3197,26.4454],[80.3211,26.4428],[80.316,26.4368],[80.3219,26.4331],[80.3252,26.4394]]]},"properties":{"objectid":301768,"statename":"Uttar Pradesh","statecode":"9","districtname":"Kanpur","districtcode":"164","ulbname":"Kanpur (M. Corp)","ulbcode":"801005","wardname":"Juhi Hameerpur Road","wardcode":"38","id":null,"remark":"","st_area(shape)":7.562055297437548e-05,"st_perimeter(shape)":0.039191715764441575}},{"type":"Feature","geometry":{"type":"Polygon","coordinates":[[[80.3121,26.4395],[80.309,26.4416],[80.3085,26.4333],[80.3065,26.4278],[80.3126,26.4248],[80.3122,26.4261],[80.3196,26.424],[80.3214,26.4318],[80.3161,26.4336],[80.3178,26.4356],[80.3121,26.4395]]]},"properties":{"objectid":301769,"statename":"Uttar Pradesh","statecode":"9","districtname":"Kanpur","districtcode":"164","ulbname":"Kanpur (M. Corp)","ulbcode":"801005","wardname":"Usmanpur","wardcode":"18","id":null,"remark":"","st_area(shape)":0.00014865997810585687,"st_perimeter(shape)":0.057185196037602186}},{"type":"Feature","geometry":{"type":"Polygon","coordinates":[[[80.3081,26.4084],[80.3098,26.4114],[80.3128,26.4091],[80.3134,26.4141],[80.3126,26.4248],[80.3082,26.4269],[80.3059,26.4219],[80.3086,26.4204],[80.304,26.4127],[80.3081,26.4084]]]},"properties":{"objectid":301770,"statename":"Uttar Pradesh","statecode":"9","districtname":"Kanpur","districtcode":"164","ulbname":"Kanpur (M. Corp)","ulbcode":"801005","wardname":"Naubasta Pachhimi","wardcode":"65","id":null,"remark":"","st_area(shape)":0.00010756275892741401,"st_perimeter(shape)":0.05379305921827629}},{"type":"Feature","geometry":{"type":"Polygon","coordinates":[[[80.3261,26.495],[80.3207,26.4991],[80.3153,26.5012],[80.3163,26.5006],[80.3156,26.4984],[80.3181,26.4958],[80.3183,26.4921],[80.3163,26.491],[80.3245,26.4916],[80.3261,26.495]]]},"properties":{"objectid":301771,"statename":"Uttar Pradesh","statecode":"9","districtname":"Kanpur","districtcode":"164","ulbname":"Kanpur (M. Corp)","ulbcode":"801005","wardname":"Purana Kanpur","wardcode":"13","id":null,"remark":"","st_area(shape)":5.852877254658414e-05,"st_perimeter(shape)":0.040008887253722245}},{"type":"Feature","geometry":{"type":"Polygon","coordinates":[[[80.3228,26.4783],[80.3221,26.48],[80.3242,26.4812],[80.3233,26.482],[80.3274,26.4833],[80.3252,26.4846],[80.3301,26.4877],[80.3253,26.4917],[80.3204,26.4833],[80.3211,26.482],[80.3188,26.4804],[80.3187,26.479],[80.3228,26.4783]]]},"properties":{"objectid":301772,"statename":"Uttar Pradesh","statecode":"9","districtname":"Kanpur","districtcode":"164","ulbname":"Kanpur (M. Corp)","ulbcode":"801005","wardname":"Benajhabar","wardcode":"10","id":null,"remark":"","st_area(shape)":5.878622797622937e-05,"st_perimeter(shape)":0.046488707976118586}},{"type":"Feature","geometry":{"type":"Polygon","coordinates":[[[80.2991,26.4479],[80.2957,26.448],[80.2946,26.4523],[80.2859,26.4492],[80.2957,26.4467],[80.2946,26.4436],[80.2968,26.4425],[80.2987,26.442],[80.3003,26.4436],[80.3084,26.4331],[80.309,26.4416],[80.3121,26.4395],[80.3155,26.4455],[80.3039,26.4449],[80.3043,26.4477],[80.2991,26.4479]]]},"properties":{"objectid":301773,"statename":"Uttar Pradesh","statecode":"9","districtname":"Kanpur","districtcode":"164","ulbname":"Kanpur (M. Corp)","ulbcode":"801005","wardname":"Nirala Nagar","wardcode":"7","id":null,"remark":"","st_area(shape)":0.00015238629146323643,"st_perimeter(shape)":0.09074732585535848}},{"type":"Feature","geometry":{"type":"Polygon","coordinates":[[[80.341,26.4735],[80.3378,26.4743],[80.3351,26.4733],[80.3392,26.4706],[80.341,26.4735]]]},"properties":{"objectid":301774,"statename":"Uttar Pradesh","statecode":"9","districtname":"Kanpur","districtcode":"164","ulbname":"Kanpur (M. Corp)","ulbcode":"801005","wardname":"Colonel Ganj","wardcode":"110","id":null,"remark":"","st_area(shape)":1.2475659991414939e-05,"st_perimeter(shape)":0.015776329869399888}},{"type":"Feature","geometry":{"type":"Polygon","coordinates":[[[80.3401,26.4891],[80.3261,26.495],[80.3242,26.4926],[80.3307,26.4896],[80.3318,26.4867],[80.3368,26.483],[80.3401,26.4891]]]},"properties":{"objectid":301775,"statename":"Uttar Pradesh","statecode":"9","districtname":"Kanpur","districtcode":"164","ulbname":"Kanpur (M. Corp)","ulbcode":"801005","wardname":"Sooterganj","wardcode":"75","id":null,"remark":"","st_area(shape)":6.943943554547855e-05,"st_perimeter(shape)":0.044539680581647444}},{"type":"Feature","geometry":{"type":"Polygon","coordinates":[[[80.3517,26.4729],[80.3533,26.475],[80.3521,26.4763],[80.3502,26.4741],[80.3455,26.4759],[80.3447,26.4729],[80.3505,26.4716],[80.349,26.4697],[80.3461,26.4714],[80.3463,26.4683],[80.3479,26.4673],[80.3485,26.469],[80.35,26.468],[80.3522,26.4711],[80.3548,26.4692],[80.3568,26.4716],[80.3517,26.4729]]]},"properties":{"objectid":301776,"statename":"Uttar Pradesh","statecode":"9","districtname":"Kanpur","districtcode":"164","ulbname":"Kanpur (M. Corp)","ulbcode":"801005","wardname":"Chauk Sarrafa","wardcode":"101","id":null,"remark":"","st_area(shape)":4.423228511359831e-05,"st_perimeter(shape)":0.053493981602515527}},{"type":"Feature","geometry":{"type":"Polygon","coordinates":[[[80.3168,26.4689],[80.3111,26.4747],[80.3018,26.4719],[80.3024,26.4683],[80.3054,26.4643],[80.3126,26.4708],[80.3156,26.4681],[80.3168,26.4689]]]},"properties":{"objectid":301777,"statename":"Uttar Pradesh","statecode":"9","districtname":"Kanpur","districtcode":"164","ulbname":"Kanpur (M. Corp)","ulbcode":"801005","wardname":"Lajpat Nagar","wardcode":"85","id":null,"remark":"","st_area(shape)":7.084485015646274e-05,"st_perimeter(shape)":0.041946978571042806}},{"type":"Feature","geometry":{"type":"Polygon","coordinates":[[[80.2908,26.4271],[80.2941,26.424],[80.2963,26.4271],[80.2989,26.4257],[80.3006,26.4306],[80.2961,26.4329],[80.2946,26.4305],[80.2906,26.4321],[80.2908,26.4271]]]},"properties":{"objectid":301778,"statename":"Uttar Pradesh","statecode":"9","districtname":"Kanpur","districtcode":"164","ulbname":"Kanpur (M. Corp)","ulbcode":"801005","wardname":"Barra Gaon","wardcode":"45","id":null,"remark":"","st_area(shape)":5.247251033164749e-05,"st_perimeter(shape)":0.0341998438645452}},{"type":"Feature","geometry":{"type":"Polygon","coordinates":[[[80.2872,26.4822],[80.2785,26.4854],[80.2759,26.4833],[80.2764,26.4814],[80.2862,26.475],[80.2893,26.4794],[80.2872,26.4822]],[[80.2853,26.4828],[80.2853,26.4828],[80.2853,26.4828],[80.2853,26.4828],[80.2853,26.4828],[80.2853,26.4828],[80.2853,26.4828],[80.2853,26.4828],[80.2853,26.4828]]]},"properties":{"objectid":301779,"statename":"Uttar Pradesh","statecode":"9","districtname":"Kanpur","districtcode":"164","ulbname":"Kanpur (M. Corp)","ulbcode":"801005","wardname":"P Block Kakadev","wardcode":"86","id":null,"remark":"","st_area(shape)":6.721419592976198e-05,"st_perimeter(shape)":0.03715817235775168}},{"type":"Feature","geometry":{"type":"Polygon","coordinates":[[[80.304,26.4127],[80.3007,26.4159],[80.2963,26.4103],[80.2994,26.4072],[80.3138,26.3992],[80.3164,26.4072],[80.3128,26.4082],[80.3142,26.4025],[80.304,26.4127]]]},"properties":{"objectid":301780,"statename":"Uttar Pradesh","statecode":"9","districtname":"Kanpur","districtcode":"164","ulbname":"Kanpur (M. Corp)","ulbcode":"801005","wardname":"Khadepur","wardcode":"21","id":null,"remark":"","st_area(shape)":0.00012160766837972784,"st_perimeter(shape)":0.06783232506227911}},{"type":"Feature","geometry":{"type":"Polygon","coordinates":[[[80.3726,26.4063],[80.3638,26.4151],[80.358,26.4097],[80.3564,26.4111],[80.352,26.4082],[80.3624,26.4022],[80.3686,26.4008],[80.377,26.4027],[80.3726,26.4063]]]},"properties":{"objectid":301781,"statename":"Uttar Pradesh","statecode":"9","districtname":"Kanpur","districtcode":"164","ulbname":"Kanpur (M. Corp)","ulbcode":"801005","wardname":"Dehli Sujanpur","wardcode":"47","id":null,"remark":"","st_area(shape)":0.00017161459427542547,"st_perimeter(shape)":0.06072109716541155}},{"type":"Feature","geometry":{"type":"Polygon","coordinates":[[[80.3385,26.3999],[80.3349,26.4026],[80.3307,26.4025],[80.3273,26.3969],[80.338,26.3929],[80.3425,26.3899],[80.344,26.3872],[80.3496,26.3846],[80.3514,26.3912],[80.3385,26.3999]]]},"properties":{"objectid":301782,"statename":"Uttar Pradesh","statecode":"9","districtname":"Kanpur","districtcode":"164","ulbname":"Kanpur (M. Corp)","ulbcode":"801005","wardname":"Naubasta Poorvi","wardcode":"63","id":null,"remark":"","st_area(shape)":0.00016824765442647363,"st_perimeter(shape)":0.06638230396403148}},{"type":"Feature","geometry":{"type":"Polygon","coordinates":[[[80.3998,26.4401],[80.3977,26.4362],[80.3945,26.4359],[80.4026,26.4289],[80.4084,26.4341],[80.3998,26.4401]]]},"properties":{"objectid":301783,"statename":"Uttar Pradesh","statecode":"9","districtname":"Kanpur","districtcode":"164","ulbname":"Kanpur (M. Corp)","ulbcode":"801005","wardname":"Jajmau Uttari","wardcode":"96","id":null,"remark":"","st_area(shape)":6.996975489974393e-05,"st_perimeter(shape)":0.037956669277957066}},{"type":"Feature","geometry":{"type":"Polygon","coordinates":[[[80.4154,26.417],[80.4154,26.4108],[80.4119,26.4088],[80.4012,26.4181],[80.3959,26.4201],[80.3944,26.4201],[80.3923,26.4162],[80.3914,26.418],[80.3835,26.414],[80.404,26.3955],[80.4052,26.3979],[80.4054,26.3956],[80.4082,26.3935],[80.4088,26.3954],[80.4145,26.3981],[80.4191,26.4036],[80.4316,26.4021],[80.4329,26.4031],[80.4329,26.4069],[80.4236,26.4073],[80.4223,26.4083],[80.4218,26.4122],[80.4193,26.413],[80.4195,26.4147],[80.4175,26.4165],[80.4154,26.417]]]},"properties":{"objectid":301784,"statename":"Uttar Pradesh","statecode":"9","districtname":"Kanpur","districtcode":"164","ulbname":"Kanpur (M. Corp)","ulbcode":"801005","wardname":"Safipur","wardcode":"11","id":null,"remark":"","st_area(shape)":0.0005598366670250247,"st_perimeter(shape)":0.1473974819220847}},{"type":"Feature","geometry":{"type":"Polygon","coordinates":[[[80.2963,26.4103],[80.2946,26.4114],[80.291,26.4053],[80.2918,26.4029],[80.2941,26.4027],[80.2937,26.3996],[80.2963,26.3965],[80.292,26.3926],[80.2957,26.3899],[80.2939,26.3881],[80.296,26.3838],[80.2947,26.3824],[80.2951,26.3797],[80.2997,26.3789],[80.2983,26.3739],[80.3001,26.3705],[80.307,26.3707],[80.3138,26.3992],[80.2994,26.4072],[80.2963,26.4103]]]},"properties":{"objectid":301785,"statename":"Uttar Pradesh","statecode":"9","districtname":"Kanpur","districtcode":"164","ulbname":"Kanpur (M. Corp)","ulbcode":"801005","wardname":"Bingawan","wardcode":"87","id":null,"remark":"","st_area(shape)":0.0005289178068350419,"st_perimeter(shape)":0.12117055223092095}},{"type":"Feature","geometry":{"type":"Polygon","coordinates":[[[80.2386,26.4837],[80.2373,26.4853],[80.2354,26.485],[80.2358,26.4871],[80.2336,26.49],[80.2307,26.4849],[80.2288,26.4839],[80.2295,26.4828],[80.2248,26.4799],[80.2383,26.4729],[80.2408,26.4704],[80.2381,26.4694],[80.2479,26.4595],[80.2637,26.4601],[80.2626,26.4608],[80.2805,26.4694],[80.2709,26.4758],[80.2598,26.4628],[80.248,26.4729],[80.2386,26.4837]]]},"properties":{"objectid":301786,"statename":"Uttar Pradesh","statecode":"9","districtname":"Kanpur","districtcode":"164","ulbname":"Kanpur (M. Corp)","ulbcode":"801005","wardname":"Swaraj Nagar","wardcode":"57","id":null,"remark":"","st_area(shape)":0.0004808942244133457,"st_perimeter(shape)":0.15782131632539176}},{"type":"Feature","geometry":{"type":"Polygon","coordinates":[[[80.3858,26.4236],[80.3831,26.4235],[80.3852,26.4263],[80.383,26.4282],[80.3825,26.4261],[80.3781,26.4292],[80.38,26.4304],[80.3754,26.4331],[80.3762,26.4375],[80.3851,26.4416],[80.3885,26.4456],[80.3913,26.4468],[80.3858,26.4517],[80.3576,26.4302],[80.3748,26.4134],[80.378,26.4159],[80.3745,26.419],[80.3758,26.4202],[80.3803,26.4165],[80.3875,26.4225],[80.3858,26.4236]]]},"properties":{"objectid":302529,"statename":"Uttar Pradesh","statecode":"9","districtname":"Kanpur","districtcode":"164","ulbname":"Kanpur (M. Corp)","ulbcode":"801005","wardname":"Krishna Nagar","wardcode":"24","id":null,"remark":"","st_area(shape)":0.0004938617057276511,"st_perimeter(shape)":0.144608109562153}},{"type":"Feature","geometry":{"type":"Polygon","coordinates":[[[80.2952,26.4334],[80.2905,26.4355],[80.2721,26.4384],[80.2673,26.441],[80.2646,26.4344],[80.2708,26.4324],[80.2724,26.4329],[80.2756,26.4299],[80.2778,26.4302],[80.279,26.4273],[80.2795,26.4303],[80.2833,26.4285],[80.2845,26.4295],[80.2851,26.4276],[80.2899,26.4267],[80.2908,26.4271],[80.2906,26.4321],[80.2946,26.4305],[80.2961,26.4329],[80.2952,26.4334]]]},"properties":{"objectid":302530,"statename":"Uttar Pradesh","statecode":"9","districtname":"Kanpur","districtcode":"164","ulbname":"Kanpur (M. Corp)","ulbcode":"801005","wardname":"Ravidas Puram","wardcode":"9","id":null,"remark":"","st_area(shape)":0.00020001128237688115,"st_perimeter(shape)":0.0861314651340012}}]}