{"type":"FeatureCollection","features":[{"type":"Feature","geometry":{"type":"Polygon","coordinates":[[[80.8834,26.8409],[80.8847,26.8505],[80.8825,26.852],[80.8718,26.8479],[80.8777,26.8458],[80.8767,26.8407],[80.8792,26.8408],[80.8791,26.8439],[80.8804,26.844],[80.8812,26.8409],[80.8834,26.8409]]]},"properties":{"objectid":104561,"statename":"Uttar Pradesh","statecode":"9","districtname":"Lucknow","districtcode":"157","ulbname":"Lucknow M.Corp","ulbcode":"800951","wardname":"Harideen Rai Nagar","wardcode":"74","id":null,"remark":"Ok","st_area(shape)":7.753580798807443e-05,"st_perimeter(shape)":0.04782027989477593}},{"type":"Feature","geometry":{"type":"Polygon","coordinates":[[[80.9409,26.8334],[80.9391,26.8368],[80.9363,26.8369],[80.9361,26.8401],[80.9346,26.8396],[80.9324,26.834],[80.9241,26.8354],[80.9243,26.8324],[80.9321,26.8334],[80.9323,26.83],[80.9426,26.8305],[80.9409,26.8334]]]},"properties":{"objectid":104562,"statename":"Uttar Pradesh","statecode":"9","districtname":"Lucknow","districtcode":"157","ulbname":"Lucknow M.Corp","ulbcode":"800951","wardname":"Babu Banarasi Das","wardcode":"55","id":null,"remark":"Ok","st_area(shape)":8.00956101079107e-05,"st_perimeter(shape)":0.056125754148663325}},{"type":"Feature","geometry":{"type":"Polygon","coordinates":[[[80.8962,26.8723],[80.8944,26.8728],[80.8931,26.8699],[80.8956,26.8686],[80.8957,26.8697],[80.8983,26.869],[80.9002,26.8648],[80.9029,26.8632],[80.9038,26.8644],[80.9023,26.8659],[80.9049,26.8668],[80.9057,26.8696],[80.8962,26.8723]]]},"properties":{"objectid":104563,"statename":"Uttar Pradesh","statecode":"9","districtname":"Lucknow","districtcode":"157","ulbname":"Lucknow M.Corp","ulbcode":"800951","wardname":"Acharya Narendra Dev","wardcode":"95","id":null,"remark":"Ok","st_area(shape)":4.9933648799637765e-05,"st_perimeter(shape)":0.041495931525072714}},{"type":"Feature","geometry":{"type":"Polygon","coordinates":[[[80.8744,26.7984],[80.8755,26.7958],[80.8784,26.7947],[80.8778,26.7938],[80.8795,26.7945],[80.8782,26.7932],[80.8802,26.7943],[80.8825,26.7923],[80.882,26.7912],[80.8891,26.7896],[80.896,26.802],[80.8917,26.8043],[80.8884,26.8083],[80.8744,26.7984]]]},"properties":{"objectid":104564,"statename":"Uttar Pradesh","statecode":"9","districtname":"Lucknow","districtcode":"157","ulbname":"Lucknow M.Corp","ulbcode":"800951","wardname":"Chitragupta Nagar","wardcode":"47","id":null,"remark":"Ok","st_area(shape)":0.00021792111845039494,"st_perimeter(shape)":0.07144710405528203}},{"type":"Feature","geometry":{"type":"Polygon","coordinates":[[[80.9619,26.7864],[80.9627,26.789],[80.9565,26.7915],[80.9563,26.7906],[80.9396,26.7912],[80.943,26.7779],[80.945,26.7769],[80.9469,26.7795],[80.9483,26.7793],[80.95,26.7829],[80.952,26.7818],[80.9536,26.7844],[80.9545,26.7833],[80.9554,26.7863],[80.9619,26.7864]]]},"properties":{"objectid":104565,"statename":"Uttar Pradesh","statecode":"9","districtname":"Lucknow","districtcode":"157","ulbname":"Lucknow M.Corp","ulbcode":"800951","wardname":"Kharika 1","wardcode":"50","id":null,"remark":"Ok","st_area(shape)":0.00017244187333912965,"st_perimeter(shape)":0.07147157352386639}},{"type":"Feature","geometry":{"type":"Polygon","coordinates":[[[80.9169,26.8518],[80.9124,26.842],[80.9208,26.837],[80.9169,26.8518]]]},"properties":{"objectid":104566,"statename":"Uttar Pradesh","statecode":"9","districtname":"Lucknow","districtcode":"157","ulbname":"Lucknow M.Corp","ulbcode":"800951","wardname":"Rajendra Nagar","wardcode":"83","id":null,"remark":"Ok","st_area(shape)":4.927084727946011e-05,"st_perimeter(shape)":0.03642772688990329}},{"type":"Feature","geometry":{"type":"Polygon","coordinates":[[[80.9014,26.7923],[80.9031,26.7993],[80.896,26.802],[80.8887,26.7887],[80.8905,26.788],[80.8896,26.7861],[80.8952,26.7826],[80.9014,26.7923]]]},"properties":{"objectid":104567,"statename":"Uttar Pradesh","statecode":"9","districtname":"Lucknow","districtcode":"157","ulbname":"Lucknow M.Corp","ulbcode":"800951","wardname":"Hind Nagar","wardcode":"28","id":null,"remark":"Ok","st_area(shape)":0.0001537153538676249,"st_perimeter(shape)":0.052208248126187996}},{"type":"Feature","geometry":{"type":"Polygon","coordinates":[[[80.9065,26.8339],[80.904,26.8362],[80.8929,26.84],[80.891,26.8368],[80.8939,26.8297],[80.8977,26.8287],[80.9062,26.8321],[80.9065,26.8339]]]},"properties":{"objectid":104568,"statename":"Uttar Pradesh","statecode":"9","districtname":"Lucknow","districtcode":"157","ulbname":"Lucknow M.Corp","ulbcode":"800951","wardname":"Ambedkar Nagar","wardcode":"1","id":null,"remark":"Ok","st_area(shape)":0.00010831033733603402,"st_perimeter(shape)":0.042513657705589465}},{"type":"Feature","geometry":{"type":"Polygon","coordinates":[[[80.8895,26.8549],[80.8834,26.8535],[80.8801,26.8548],[80.8783,26.8514],[80.8769,26.8524],[80.8763,26.8516],[80.8709,26.8571],[80.8699,26.8562],[80.8668,26.8571],[80.8636,26.8536],[80.8603,26.8519],[80.859,26.8525],[80.8581,26.851],[80.8591,26.8502],[80.8578,26.8493],[80.8652,26.8438],[80.8742,26.8496],[80.8909,26.8539],[80.8895,26.8549]]]},"properties":{"objectid":104569,"statename":"Uttar Pradesh","statecode":"9","districtname":"Lucknow","districtcode":"157","ulbname":"Lucknow M.Corp","ulbcode":"800951","wardname":"Sahadatganj","wardcode":"13","id":null,"remark":"Ok","st_area(shape)":0.00016577860539107527,"st_perimeter(shape)":0.08667007450802497}},{"type":"Feature","geometry":{"type":"Polygon","coordinates":[[[80.9263,26.7625],[80.924,26.7622],[80.8916,26.7752],[80.8822,26.777],[80.8633,26.7474],[80.8659,26.7361],[80.885,26.7367],[80.8962,26.7325],[80.9133,26.7384],[80.9234,26.7388],[80.9286,26.7439],[80.9292,26.7532],[80.9311,26.7546],[80.9324,26.7588],[80.9309,26.7641],[80.9263,26.7625]]]},"properties":{"objectid":104570,"statename":"Uttar Pradesh","statecode":"9","districtname":"Lucknow","districtcode":"157","ulbname":"Lucknow M.Corp","ulbcode":"800951","wardname":"Raja Bijli Pasi 2","wardcode":"2","id":null,"remark":"Ok","st_area(shape)":0.0020216597453006587,"st_perimeter(shape)":0.1884994424253759}},{"type":"Feature","geometry":{"type":"Polygon","coordinates":[[[80.9112,26.8647],[80.9107,26.8719],[80.9079,26.8731],[80.9072,26.8693],[80.9057,26.8696],[80.9049,26.8668],[80.9023,26.8659],[80.9038,26.8644],[80.9029,26.8632],[80.9056,26.8598],[80.9089,26.8652],[80.9112,26.8647]]]},"properties":{"objectid":104571,"statename":"Uttar Pradesh","statecode":"9","districtname":"Lucknow","districtcode":"157","ulbname":"Lucknow M.Corp","ulbcode":"800951","wardname":"Chauk - Bazar Kaliji","wardcode":"108","id":null,"remark":"Ok","st_area(shape)":5.868136231937209e-05,"st_perimeter(shape)":0.039826925341345805}},{"type":"Feature","geometry":{"type":"Polygon","coordinates":[[[80.8713,26.8367],[80.8566,26.8341],[80.8521,26.8406],[80.8441,26.8376],[80.8466,26.8328],[80.8519,26.8332],[80.8522,26.832],[80.8592,26.8294],[80.8636,26.8255],[80.8597,26.8202],[80.8603,26.8183],[80.8582,26.8154],[80.8599,26.8141],[80.8584,26.8098],[80.8599,26.8049],[80.8591,26.8031],[80.8651,26.8006],[80.8677,26.8016],[80.868,26.8053],[80.8819,26.8238],[80.8822,26.8256],[80.8759,26.8229],[80.8738,26.8239],[80.875,26.8256],[80.8725,26.8268],[80.8732,26.8292],[80.8706,26.8308],[80.8714,26.8339],[80.8689,26.8342],[80.8713,26.8367]]]},"properties":{"objectid":104572,"statename":"Uttar Pradesh","statecode":"9","districtname":"Lucknow","districtcode":"157","ulbname":"Lucknow M.Corp","ulbcode":"800951","wardname":"Haiderganji 3","wardcode":"11","id":null,"remark":"Ok","st_area(shape)":0.0005420503163665015,"st_perimeter(shape)":0.16329825323733954}},{"type":"Feature","geometry":{"type":"Polygon","coordinates":[[[80.942,26.8429],[80.9379,26.8457],[80.9415,26.8495],[80.9353,26.8541],[80.9336,26.8533],[80.9298,26.8472],[80.9347,26.8436],[80.9377,26.8455],[80.9384,26.8447],[80.9366,26.8422],[80.9374,26.8406],[80.942,26.8429]]]},"properties":{"objectid":104573,"statename":"Uttar Pradesh","statecode":"9","districtname":"Lucknow","districtcode":"157","ulbname":"Lucknow M.Corp","ulbcode":"800951","wardname":"J.C,Bose","wardcode":"44","id":null,"remark":"Ok","st_area(shape)":8.053618927308445e-05,"st_perimeter(shape)":0.0489153464211037}},{"type":"Feature","geometry":{"type":"Polygon","coordinates":[[[80.91,26.8264],[80.9076,26.8277],[80.904,26.8255],[80.8963,26.8155],[80.8884,26.8083],[80.8917,26.8043],[80.8959,26.802],[80.9011,26.8124],[80.9085,26.8199],[80.91,26.8264]]]},"properties":{"objectid":104574,"statename":"Uttar Pradesh","statecode":"9","districtname":"Lucknow","districtcode":"157","ulbname":"Lucknow M.Corp","ulbcode":"800951","wardname":"Ramji Lal - Sardar Patel Nagar","wardcode":"29","id":null,"remark":"Ok","st_area(shape)":0.00018877904385979823,"st_perimeter(shape)":0.06922991051332067}},{"type":"Feature","geometry":{"type":"Polygon","coordinates":[[[80.9601,26.8462],[80.9652,26.8504],[80.9659,26.854],[80.9695,26.8555],[80.9691,26.8573],[80.9647,26.8612],[80.9554,26.8625],[80.9515,26.8553],[80.9539,26.8532],[80.9559,26.848],[80.9601,26.8462]]]},"properties":{"objectid":104575,"statename":"Uttar Pradesh","statecode":"9","districtname":"Lucknow","districtcode":"157","ulbname":"Lucknow M.Corp","ulbcode":"800951","wardname":"Rajaram Mohan Rai","wardcode":"33","id":null,"remark":"Ok","st_area(shape)":0.00017211400268590655,"st_perimeter(shape)":0.05376660107531868}},{"type":"Feature","geometry":{"type":"Polygon","coordinates":[[[80.9619,26.7864],[80.9554,26.7863],[80.9545,26.7833],[80.9536,26.7844],[80.952,26.7818],[80.95,26.7829],[80.9483,26.7793],[80.9469,26.7795],[80.945,26.7769],[80.943,26.7779],[80.9442,26.7731],[80.9494,26.7729],[80.9492,26.7741],[80.9522,26.7736],[80.9587,26.7761],[80.9577,26.7773],[80.9638,26.7828],[80.9611,26.7852],[80.9619,26.7864]]]},"properties":{"objectid":104576,"statename":"Uttar Pradesh","statecode":"9","districtname":"Lucknow","districtcode":"157","ulbname":"Lucknow M.Corp","ulbcode":"800951","wardname":"Kharika 2","wardcode":"30","id":null,"remark":"Ok","st_area(shape)":0.00015040467774275182,"st_perimeter(shape)":0.06692760349883989}},{"type":"Feature","geometry":{"type":"Polygon","coordinates":[[[80.963,26.8869],[80.9617,26.8875],[80.9626,26.8897],[80.9591,26.8917],[80.9589,26.8903],[80.9547,26.8915],[80.9542,26.8903],[80.9566,26.8898],[80.9555,26.886],[80.9598,26.8843],[80.9577,26.8733],[80.9598,26.874],[80.9608,26.8707],[80.9682,26.8702],[80.9659,26.8735],[80.9655,26.8804],[80.9671,26.8845],[80.9691,26.8861],[80.963,26.8869]]]},"properties":{"objectid":104577,"statename":"Uttar Pradesh","statecode":"9","districtname":"Lucknow","districtcode":"157","ulbname":"Lucknow M.Corp","ulbcode":"800951","wardname":"Mahanagar","wardcode":"67","id":null,"remark":"Ok","st_area(shape)":0.00014847227168108667,"st_perimeter(shape)":0.07756176545410814}},{"type":"Feature","geometry":{"type":"Polygon","coordinates":[[[80.8891,26.7896],[80.882,26.7912],[80.8825,26.7923],[80.8802,26.7943],[80.8782,26.7932],[80.8795,26.7945],[80.8778,26.7938],[80.8784,26.7947],[80.8755,26.7958],[80.8744,26.7984],[80.8521,26.7821],[80.8509,26.7754],[80.8574,26.7707],[80.8636,26.7688],[80.8694,26.764],[80.8718,26.7674],[80.8753,26.7659],[80.8891,26.7896]]]},"properties":{"objectid":104578,"statename":"Uttar Pradesh","statecode":"9","districtname":"Lucknow","districtcode":"157","ulbname":"Lucknow M.Corp","ulbcode":"800951","wardname":"Sarojni Nagar 2","wardcode":"9","id":null,"remark":"Ok","st_area(shape)":0.0007128834819100563,"st_perimeter(shape)":0.1223730394953561}},{"type":"Feature","geometry":{"type":"Polygon","coordinates":[[[80.8962,26.8723],[80.8974,26.8749],[80.9012,26.8735],[80.9025,26.8742],[80.9018,26.8759],[80.8977,26.8765],[80.8984,26.8805],[80.8932,26.8817],[80.893,26.8762],[80.8944,26.8755],[80.8944,26.8728],[80.8962,26.8723]]]},"properties":{"objectid":104579,"statename":"Uttar Pradesh","statecode":"9","districtname":"Lucknow","districtcode":"157","ulbname":"Lucknow M.Corp","ulbcode":"800951","wardname":"Mallahitola 2","wardcode":"87","id":null,"remark":"Ok","st_area(shape)":4.544887903725359e-05,"st_perimeter(shape)":0.035758627871433864}},{"type":"Feature","geometry":{"type":"Polygon","coordinates":[[[80.9239,26.7816],[80.9263,26.7869],[80.9235,26.7963],[80.9192,26.7954],[80.9191,26.7837],[80.9164,26.7747],[80.9103,26.775],[80.9108,26.7763],[80.9071,26.7776],[80.9063,26.7758],[80.8864,26.7846],[80.8822,26.777],[80.8916,26.7752],[80.9257,26.7623],[80.9245,26.7653],[80.9182,26.7705],[80.9239,26.7816]]]},"properties":{"objectid":104580,"statename":"Uttar Pradesh","statecode":"9","districtname":"Lucknow","districtcode":"157","ulbname":"Lucknow M.Corp","ulbcode":"800951","wardname":"Raja Bijli Pasi","wardcode":"3","id":null,"remark":"Ok","st_area(shape)":0.0004162385787517542,"st_perimeter(shape)":0.15651578220805484}},{"type":"Feature","geometry":{"type":"Polygon","coordinates":[[[81.0107,26.8591],[80.9943,26.8624],[80.9849,26.8586],[80.9839,26.8556],[80.985,26.855],[80.9833,26.8525],[80.9857,26.8519],[80.989,26.8551],[81.0043,26.8523],[81.005,26.856],[81.0014,26.857],[81.003,26.86],[81.0104,26.8583],[81.0082,26.8515],[81.0209,26.8514],[81.022,26.8567],[81.0107,26.8591]]]},"properties":{"objectid":104581,"statename":"Uttar Pradesh","statecode":"9","districtname":"Lucknow","districtcode":"157","ulbname":"Lucknow M.Corp","ulbcode":"800951","wardname":"Rajeev Gandhi 1","wardcode":"69","id":null,"remark":"Ok","st_area(shape)":0.00022392330493844147,"st_perimeter(shape)":0.115848624095092}},{"type":"Feature","geometry":{"type":"Polygon","coordinates":[[[80.9347,26.8585],[80.9284,26.8646],[80.9273,26.8636],[80.9279,26.8524],[80.9224,26.8453],[80.9244,26.8438],[80.9263,26.8462],[80.928,26.8455],[80.9294,26.8468],[80.9318,26.8514],[80.9356,26.8548],[80.9347,26.8585]]]},"properties":{"objectid":104582,"statename":"Uttar Pradesh","statecode":"9","districtname":"Lucknow","districtcode":"157","ulbname":"Lucknow M.Corp","ulbcode":"800951","wardname":"Rani Laxmibai","wardcode":"42","id":null,"remark":"Ok","st_area(shape)":0.00010399198936186346,"st_perimeter(shape)":0.05665367918811382}},{"type":"Feature","geometry":{"type":"Polygon","coordinates":[[[80.931,26.7971],[80.9233,26.8013],[80.9237,26.7939],[80.9263,26.7869],[80.9239,26.7816],[80.926,26.7807],[80.9342,26.7803],[80.9357,26.7816],[80.9327,26.7944],[80.931,26.7971]]]},"properties":{"objectid":104583,"statename":"Uttar Pradesh","statecode":"9","districtname":"Lucknow","districtcode":"157","ulbname":"Lucknow M.Corp","ulbcode":"800951","wardname":"Sharda Nagar 1","wardcode":"6","id":null,"remark":"Ok","st_area(shape)":0.00016906118816861123,"st_perimeter(shape)":0.05946919385747745}},{"type":"Feature","geometry":{"type":"Polygon","coordinates":[[[80.9676,26.8341],[80.9672,26.8392],[80.9694,26.8421],[80.9704,26.8473],[80.9695,26.8555],[80.9659,26.854],[80.9652,26.8504],[80.9567,26.8434],[80.952,26.842],[80.9463,26.8465],[80.9467,26.844],[80.9441,26.8417],[80.9436,26.8367],[80.9409,26.8334],[80.9426,26.8305],[80.965,26.8317],[80.9708,26.8293],[80.9718,26.8311],[80.9676,26.8341]]]},"properties":{"objectid":104584,"statename":"Uttar Pradesh","statecode":"9","districtname":"Lucknow","districtcode":"157","ulbname":"Lucknow M.Corp","ulbcode":"800951","wardname":"Vikramaditya","wardcode":"27","id":null,"remark":"Ok","st_area(shape)":0.0003978582361659267,"st_perimeter(shape)":0.10927692116821398}},{"type":"Feature","geometry":{"type":"Polygon","coordinates":[[[80.8864,26.7846],[80.9063,26.7758],[80.9071,26.7776],[80.9108,26.7763],[80.9103,26.775],[80.9164,26.7747],[80.9191,26.7837],[80.9192,26.7954],[80.9126,26.7941],[80.9096,26.7891],[80.9118,26.7877],[80.9073,26.7782],[80.8944,26.783],[80.8896,26.786],[80.8905,26.788],[80.8887,26.7887],[80.8864,26.7846]]]},"properties":{"objectid":104585,"statename":"Uttar Pradesh","statecode":"9","districtname":"Lucknow","districtcode":"157","ulbname":"Lucknow M.Corp","ulbcode":"800951","wardname":"Vidayawati 1","wardcode":"56","id":null,"remark":"Ok","st_area(shape)":0.00021907738367547708,"st_perimeter(shape)":0.11112396822081434}},{"type":"Feature","geometry":{"type":"Polygon","coordinates":[[[80.9029,26.8632],[80.9002,26.8648],[80.8983,26.869],[80.8958,26.8697],[80.8942,26.8665],[80.8952,26.8652],[80.8924,26.8634],[80.893,26.8619],[80.9011,26.8614],[80.902,26.8584],[80.9056,26.8598],[80.9029,26.8632]]]},"properties":{"objectid":104586,"statename":"Uttar Pradesh","statecode":"9","districtname":"Lucknow","districtcode":"157","ulbname":"Lucknow M.Corp","ulbcode":"800951","wardname":"Maulana Kalbe Abid 2","wardcode":"110","id":null,"remark":"Ok","st_area(shape)":5.7821946648385176e-05,"st_perimeter(shape)":0.04578410720452543}},{"type":"Feature","geometry":{"type":"Polygon","coordinates":[[[81.0001,26.853],[80.989,26.8551],[80.9845,26.8517],[80.9833,26.8525],[80.985,26.855],[80.9839,26.8556],[80.9849,26.8586],[80.9695,26.8555],[80.9704,26.8473],[80.9694,26.8421],[80.9672,26.8392],[80.967,26.835],[80.9676,26.8341],[80.998,26.8418],[80.998,26.8463],[81.0001,26.853]]]},"properties":{"objectid":104587,"statename":"Uttar Pradesh","statecode":"9","districtname":"Lucknow","districtcode":"157","ulbname":"Lucknow M.Corp","ulbcode":"800951","wardname":"Rafi Ahmad Kidwai","wardcode":"45","id":null,"remark":"Ok","st_area(shape)":0.000499754295219644,"st_perimeter(shape)":0.108450706629613}},{"type":"Feature","geometry":{"type":"Polygon","coordinates":[[[80.8947,26.8459],[80.8847,26.8505],[80.8832,26.8381],[80.8913,26.8378],[80.8968,26.8452],[80.8947,26.8459]]]},"properties":{"objectid":104588,"statename":"Uttar Pradesh","statecode":"9","districtname":"Lucknow","districtcode":"157","ulbname":"Lucknow M.Corp","ulbcode":"800951","wardname":"Labour Colony","wardcode":"71","id":null,"remark":"Ok","st_area(shape)":0.00010538005539787578,"st_perimeter(shape)":0.04393675170189726}},{"type":"Feature","geometry":{"type":"Polygon","coordinates":[[[80.9276,26.9065],[80.9263,26.9005],[80.9221,26.8977],[80.9228,26.8961],[80.9253,26.8955],[80.9259,26.8969],[80.9308,26.8975],[80.9331,26.9017],[80.9384,26.8999],[80.939,26.906],[80.9379,26.9134],[80.9338,26.9138],[80.9316,26.9166],[80.9304,26.911],[80.9276,26.9065]]]},"properties":{"objectid":105336,"statename":"Uttar Pradesh","statecode":"9","districtname":"Lucknow","districtcode":"157","ulbname":"Lucknow M.Corp","ulbcode":"800951","wardname":"Faizullaganj 3","wardcode":"73","id":null,"remark":"Ok","st_area(shape)":0.00016447409704372902,"st_perimeter(shape)":0.0675495628912762}},{"type":"Feature","geometry":{"type":"Polygon","coordinates":[[[80.9025,26.8742],[80.9058,26.8744],[80.9052,26.8776],[80.9018,26.8804],[80.905,26.8854],[80.8962,26.8882],[80.8932,26.8817],[80.8984,26.8805],[80.8977,26.8765],[80.9018,26.8759],[80.9025,26.8742]]]},"properties":{"objectid":105337,"statename":"Uttar Pradesh","statecode":"9","districtname":"Lucknow","districtcode":"157","ulbname":"Lucknow M.Corp","ulbcode":"800951","wardname":"Daulat Ganj","wardcode":"90","id":null,"remark":"Ok","st_area(shape)":9.211103418312027e-05,"st_perimeter(shape)":0.05230211846116262}},{"type":"Feature","geometry":{"type":"Polygon","coordinates":[[[80.9025,26.853],[80.8959,26.8534],[80.895,26.8506],[80.8917,26.8491],[80.8955,26.8479],[80.8947,26.8459],[80.8968,26.8452],[80.9025,26.853]]]},"properties":{"objectid":105338,"statename":"Uttar Pradesh","statecode":"9","districtname":"Lucknow","districtcode":"157","ulbname":"Lucknow M.Corp","ulbcode":"800951","wardname":"Bhawani Ganj","wardcode":"107","id":null,"remark":"Ok","st_area(shape)":4.0094156228151725e-05,"st_perimeter(shape)":0.033633488266118186}},{"type":"Feature","geometry":{"type":"Polygon","coordinates":[[[81.0405,26.8824],[81.0355,26.8844],[81.0357,26.882],[81.0329,26.8835],[81.0306,26.8834],[81.029,26.8814],[81.0259,26.8835],[81.0217,26.8833],[81.022,26.8863],[81.0183,26.8884],[81.0191,26.89],[81.0169,26.8917],[81.0112,26.889],[81.0119,26.8855],[81.0096,26.8792],[81.0074,26.8794],[81.007,26.8765],[81.0026,26.8778],[81.004,26.8756],[81.0028,26.8733],[81.0262,26.8747],[81.0396,26.8809],[81.0405,26.8824]]]},"properties":{"objectid":105339,"statename":"Uttar Pradesh","statecode":"9","districtname":"Lucknow","districtcode":"157","ulbname":"Lucknow M.Corp","ulbcode":"800951","wardname":"Ismailganj 2","wardcode":"53","id":null,"remark":"Ok","st_area(shape)":0.00031698269031843105,"st_perimeter(shape)":0.11304518742064155}},{"type":"Feature","geometry":{"type":"Polygon","coordinates":[[[80.9687,26.8856],[80.966,26.8824],[80.9655,26.8769],[80.9659,26.8735],[80.9692,26.87],[80.9724,26.8705],[80.9719,26.8738],[80.9743,26.8773],[80.9731,26.879],[80.9749,26.8824],[80.9687,26.8856]]]},"properties":{"objectid":105340,"statename":"Uttar Pradesh","statecode":"9","districtname":"Lucknow","districtcode":"157","ulbname":"Lucknow M.Corp","ulbcode":"800951","wardname":"Lal Bahadur Shastri 2","wardcode":"91","id":null,"remark":"Ok","st_area(shape)":9.888077333345028e-05,"st_perimeter(shape)":0.04468527950004813}},{"type":"Feature","geometry":{"type":"Polygon","coordinates":[[[81.0082,26.8515],[81.0104,26.8583],[81.0023,26.8596],[81.0014,26.857],[81.0052,26.8552],[81.0043,26.8523],[81.0001,26.853],[80.998,26.8463],[80.998,26.8418],[81.0092,26.8444],[81.0076,26.8492],[81.0082,26.8515]]]},"properties":{"objectid":105341,"statename":"Uttar Pradesh","statecode":"9","districtname":"Lucknow","districtcode":"157","ulbname":"Lucknow M.Corp","ulbcode":"800951","wardname":"Rajeev Gandhi 2","wardcode":"96","id":null,"remark":"Ok","st_area(shape)":0.00013183815985611446,"st_perimeter(shape)":0.06264306719578724}},{"type":"Feature","geometry":{"type":"Polygon","coordinates":[[[80.9321,26.7585],[80.9375,26.7564],[80.9363,26.7501],[80.9466,26.7474],[80.9504,26.7477],[80.9501,26.7504],[80.9513,26.7503],[80.9536,26.739],[80.9583,26.7327],[80.9594,26.733],[80.9645,26.7356],[80.9675,26.7401],[80.9675,26.7506],[80.974,26.7509],[80.9728,26.7721],[80.952,26.7707],[80.9499,26.7631],[80.9471,26.7641],[80.9455,26.7682],[80.9309,26.7641],[80.9321,26.7585]]]},"properties":{"objectid":105342,"statename":"Uttar Pradesh","statecode":"9","districtname":"Lucknow","districtcode":"157","ulbname":"Lucknow M.Corp","ulbcode":"800951","wardname":"Ibrahimpur 2","wardcode":"14","id":null,"remark":"Ok","st_area(shape)":0.0009738763195031642,"st_perimeter(shape)":0.16187645621557306}},{"type":"Feature","geometry":{"type":"Polygon","coordinates":[[[80.9121,26.8123],[80.9119,26.8087],[80.9069,26.8028],[80.9077,26.7993],[80.916,26.8017],[80.9166,26.8108],[80.9121,26.8123]]]},"properties":{"objectid":105343,"statename":"Uttar Pradesh","statecode":"9","districtname":"Lucknow","districtcode":"157","ulbname":"Lucknow M.Corp","ulbcode":"800951","wardname":"Geetapalli","wardcode":"60","id":null,"remark":"Ok","st_area(shape)":7.568063100336265e-05,"st_perimeter(shape)":0.041233382717365645}},{"type":"Feature","geometry":{"type":"Polygon","coordinates":[[[80.9409,26.8711],[80.9297,26.8716],[80.9246,26.8681],[80.9327,26.8596],[80.9371,26.8585],[80.9409,26.8711]]]},"properties":{"objectid":105344,"statename":"Uttar Pradesh","statecode":"9","districtname":"Lucknow","districtcode":"157","ulbname":"Lucknow M.Corp","ulbcode":"800951","wardname":"Mankameshwar Mandir","wardcode":"62","id":null,"remark":"Ok","st_area(shape)":0.00013564313510627257,"st_perimeter(shape)":0.047530728269619696}},{"type":"Feature","geometry":{"type":"Polygon","coordinates":[[[80.8989,26.8534],[80.8998,26.8566],[80.8825,26.852],[80.889,26.8477],[80.8947,26.8459],[80.8955,26.8479],[80.8918,26.8499],[80.8936,26.8494],[80.8959,26.8534],[80.8981,26.8525],[80.8989,26.8534]]]},"properties":{"objectid":105345,"statename":"Uttar Pradesh","statecode":"9","districtname":"Lucknow","districtcode":"157","ulbname":"Lucknow M.Corp","ulbcode":"800951","wardname":"Sheetladevi","wardcode":"82","id":null,"remark":"Ok","st_area(shape)":7.278979989998029e-05,"st_perimeter(shape)":0.053827446481289204}},{"type":"Feature","geometry":{"type":"Polygon","coordinates":[[[80.9843,26.8815],[80.9795,26.8813],[80.9771,26.8719],[80.9959,26.873],[80.9959,26.8804],[80.9878,26.8801],[80.9841,26.8806],[80.9843,26.8815]]]},"properties":{"objectid":105346,"statename":"Uttar Pradesh","statecode":"9","districtname":"Lucknow","districtcode":"157","ulbname":"Lucknow M.Corp","ulbcode":"800951","wardname":"Maithili Sharan Gupt","wardcode":"68","id":null,"remark":"Ok","st_area(shape)":0.00014357528364454867,"st_perimeter(shape)":0.054585857447094106}},{"type":"Feature","geometry":{"type":"Polygon","coordinates":[[[80.9374,26.8406],[80.9366,26.8422],[80.9384,26.8447],[80.9377,26.8455],[80.9347,26.8436],[80.9303,26.8468],[80.9312,26.8444],[80.9303,26.8417],[80.9344,26.8395],[80.9374,26.8406]]]},"properties":{"objectid":105347,"statename":"Uttar Pradesh","statecode":"9","districtname":"Lucknow","districtcode":"157","ulbname":"Lucknow M.Corp","ulbcode":"800951","wardname":"Nazarbagh","wardcode":"92","id":null,"remark":"Ok","st_area(shape)":3.114789117247511e-05,"st_perimeter(shape)":0.028740554975878387}},{"type":"Feature","geometry":{"type":"Polygon","coordinates":[[[80.9349,26.8909],[80.9287,26.8945],[80.9251,26.8932],[80.9231,26.8825],[80.9261,26.8818],[80.9275,26.8788],[80.9311,26.8804],[80.9349,26.8909]]]},"properties":{"objectid":105348,"statename":"Uttar Pradesh","statecode":"9","districtname":"Lucknow","districtcode":"157","ulbname":"Lucknow M.Corp","ulbcode":"800951","wardname":"Triveni Nagar","wardcode":"72","id":null,"remark":"Ok","st_area(shape)":0.00011411855404431622,"st_perimeter(shape)":0.044490881065941505}},{"type":"Feature","geometry":{"type":"Polygon","coordinates":[[[80.8753,26.7659],[80.8718,26.7674],[80.8694,26.764],[80.8635,26.7689],[80.8574,26.7707],[80.8467,26.7778],[80.8341,26.7674],[80.8213,26.7595],[80.8206,26.7544],[80.8243,26.7485],[80.824,26.7445],[80.8255,26.7405],[80.8245,26.7378],[80.8268,26.7368],[80.8269,26.7346],[80.8299,26.7338],[80.831,26.732],[80.8305,26.7282],[80.8455,26.7202],[80.8567,26.7372],[80.8577,26.7367],[80.8569,26.7353],[80.8604,26.7336],[80.8625,26.7361],[80.8659,26.7361],[80.8633,26.7474],[80.8753,26.7659]]]},"properties":{"objectid":105349,"statename":"Uttar Pradesh","statecode":"9","districtname":"Lucknow","districtcode":"157","ulbname":"Lucknow M.Corp","ulbcode":"800951","wardname":"Sarojni Nagar 1","wardcode":"4","id":null,"remark":"Ok","st_area(shape)":0.001791583616639141,"st_perimeter(shape)":0.19930434254174773}},{"type":"Feature","geometry":{"type":"Polygon","coordinates":[[[80.9011,26.8593],[80.9011,26.8614],[80.8986,26.8623],[80.8973,26.861],[80.8954,26.8624],[80.8928,26.862],[80.8913,26.8599],[80.8932,26.8599],[80.8934,26.8576],[80.8966,26.8585],[80.8989,26.8577],[80.9011,26.8593]]]},"properties":{"objectid":105350,"statename":"Uttar Pradesh","statecode":"9","districtname":"Lucknow","districtcode":"157","ulbname":"Lucknow M.Corp","ulbcode":"800951","wardname":"Mulana Kalbeabid 1","wardcode":"101","id":null,"remark":"Ok","st_area(shape)":3.121133115102586e-05,"st_perimeter(shape)":0.02876557265850116}},{"type":"Feature","geometry":{"type":"Polygon","coordinates":[[[80.9216,26.8679],[80.9149,26.8649],[80.9138,26.8624],[80.9149,26.8581],[80.9118,26.8586],[80.9091,26.8558],[80.9167,26.8519],[80.9158,26.8564],[80.9195,26.8612],[80.9216,26.8679]]]},"properties":{"objectid":105351,"statename":"Uttar Pradesh","statecode":"9","districtname":"Lucknow","districtcode":"157","ulbname":"Lucknow M.Corp","ulbcode":"800951","wardname":"Yahiyaganj - Neta Subhash Chandra Bose","wardcode":"104","id":null,"remark":"Ok","st_area(shape)":6.723689948551036e-05,"st_perimeter(shape)":0.04955180623923484}},{"type":"Feature","geometry":{"type":"Polygon","coordinates":[[[80.9434,26.8971],[80.9465,26.9015],[80.9485,26.902],[80.9482,26.9032],[80.9437,26.9029],[80.939,26.9054],[80.9386,26.9006],[80.9312,26.88],[80.9357,26.8821],[80.9434,26.8971]]]},"properties":{"objectid":105352,"statename":"Uttar Pradesh","statecode":"9","districtname":"Lucknow","districtcode":"157","ulbname":"Lucknow M.Corp","ulbcode":"800951","wardname":"Mahakavi Jaishankar Prasad","wardcode":"40","id":null,"remark":"Ok","st_area(shape)":0.0001337621511568956,"st_perimeter(shape)":0.07010516756856314}},{"type":"Feature","geometry":{"type":"Polygon","coordinates":[[[81.0405,26.8824],[81.0432,26.8873],[81.0373,26.8925],[81.0394,26.8957],[81.0326,26.8975],[81.0239,26.9051],[81.0194,26.9046],[81.0167,26.9071],[81.0097,26.8985],[81.0109,26.8976],[81.0074,26.8922],[81.0104,26.8917],[81.0098,26.8898],[81.0111,26.8889],[81.0169,26.8917],[81.0185,26.8909],[81.0183,26.8884],[81.022,26.8863],[81.0217,26.8833],[81.0259,26.8835],[81.029,26.8814],[81.0306,26.8834],[81.0329,26.8835],[81.0357,26.882],[81.0355,26.8844],[81.0405,26.8824]]]},"properties":{"objectid":105353,"statename":"Uttar Pradesh","statecode":"9","districtname":"Lucknow","districtcode":"157","ulbname":"Lucknow M.Corp","ulbcode":"800951","wardname":"Shaheed Bhagat Singh","wardcode":"7","id":null,"remark":"Ok","st_area(shape)":0.0004919121520332304,"st_perimeter(shape)":0.11945668064181326}},{"type":"Feature","geometry":{"type":"Polygon","coordinates":[[[80.9284,26.8646],[80.9246,26.8681],[80.9223,26.8626],[80.9192,26.859],[80.9224,26.8557],[80.9215,26.8556],[80.9224,26.8546],[80.9217,26.8495],[80.9242,26.8482],[80.9279,26.8524],[80.9272,26.8634],[80.9284,26.8646]]]},"properties":{"objectid":105354,"statename":"Uttar Pradesh","statecode":"9","districtname":"Lucknow","districtcode":"157","ulbname":"Lucknow M.Corp","ulbcode":"800951","wardname":"Golaganj","wardcode":"78","id":null,"remark":"Ok","st_area(shape)":0.00010297109364813983,"st_perimeter(shape)":0.05079150233006448}},{"type":"Feature","geometry":{"type":"Polygon","coordinates":[[[80.8834,26.8409],[80.8812,26.8409],[80.8804,26.844],[80.8791,26.8439],[80.8792,26.8408],[80.8767,26.8407],[80.8767,26.8377],[80.8741,26.8373],[80.8794,26.834],[80.8884,26.8313],[80.8872,26.8285],[80.885,26.8275],[80.8876,26.8264],[80.8891,26.8238],[80.8899,26.8285],[80.892,26.83],[80.894,26.8296],[80.8913,26.8378],[80.8832,26.8381],[80.8834,26.8409]]]},"properties":{"objectid":105355,"statename":"Uttar Pradesh","statecode":"9","districtname":"Lucknow","districtcode":"157","ulbname":"Lucknow M.Corp","ulbcode":"800951","wardname":"Rajaji Puram","wardcode":"81","id":null,"remark":"Ok","st_area(shape)":0.0001307258610757194,"st_perimeter(shape)":0.07593860604416146}},{"type":"Feature","geometry":{"type":"Polygon","coordinates":[[[80.9833,26.901],[80.9817,26.9043],[80.9812,26.916],[80.9808,26.9146],[80.9777,26.9152],[80.9783,26.916],[80.974,26.9183],[80.9717,26.9156],[80.9646,26.919],[80.963,26.9169],[80.9688,26.9148],[80.977,26.9073],[80.9728,26.902],[80.9679,26.8981],[80.977,26.8894],[80.9793,26.8902],[80.9803,26.8889],[80.9817,26.8908],[80.9783,26.893],[80.9772,26.8921],[80.9768,26.8934],[80.9865,26.8965],[80.9833,26.901]]]},"properties":{"objectid":105356,"statename":"Uttar Pradesh","statecode":"9","districtname":"Lucknow","districtcode":"157","ulbname":"Lucknow M.Corp","ulbcode":"800951","wardname":"Shankar Purwa 1","wardcode":"85","id":null,"remark":"Ok","st_area(shape)":0.00026586291397009265,"st_perimeter(shape)":0.11540932148605251}},{"type":"Feature","geometry":{"type":"Polygon","coordinates":[[[81.0026,26.8778],[81.007,26.8765],[81.0074,26.8794],[81.0096,26.8792],[81.0119,26.8855],[81.0112,26.889],[81.0006,26.8887],[80.9998,26.8778],[81.0026,26.8778]]]},"properties":{"objectid":105357,"statename":"Uttar Pradesh","statecode":"9","districtname":"Lucknow","districtcode":"157","ulbname":"Lucknow M.Corp","ulbcode":"800951","wardname":"Ismailganj 1","wardcode":"52","id":null,"remark":"Ok","st_area(shape)":0.00011218611952402663,"st_perimeter(shape)":0.0460872955650847}},{"type":"Feature","geometry":{"type":"Polygon","coordinates":[[[80.9091,26.8558],[80.9096,26.8542],[80.9114,26.8535],[80.9096,26.849],[80.908,26.8494],[80.9084,26.8446],[80.9124,26.842],[80.916,26.8482],[80.9167,26.8519],[80.9091,26.8558]]]},"properties":{"objectid":105358,"statename":"Uttar Pradesh","statecode":"9","districtname":"Lucknow","districtcode":"157","ulbname":"Lucknow M.Corp","ulbcode":"800951","wardname":"Tilak Nagar - Kundri Rakabganj","wardcode":"34","id":null,"remark":"Ok","st_area(shape)":6.73535295510526e-05,"st_perimeter(shape)":0.04085651920645913}},{"type":"Feature","geometry":{"type":"Polygon","coordinates":[[[80.9588,26.8848],[80.9572,26.8821],[80.9583,26.8818],[80.9577,26.8798],[80.956,26.8801],[80.9511,26.8851],[80.9428,26.8771],[80.9409,26.8711],[80.9608,26.8707],[80.9598,26.874],[80.9577,26.8733],[80.9598,26.8843],[80.9588,26.8848]]]},"properties":{"objectid":105359,"statename":"Uttar Pradesh","statecode":"9","districtname":"Lucknow","districtcode":"157","ulbname":"Lucknow M.Corp","ulbcode":"800951","wardname":"Vivekanandpuri","wardcode":"94","id":null,"remark":"Ok","st_area(shape)":0.00018115344190992828,"st_perimeter(shape)":0.07185880439870322}},{"type":"Feature","geometry":{"type":"Polygon","coordinates":[[[80.9349,26.8909],[80.937,26.8961],[80.9352,26.8967],[80.9223,26.8923],[80.9128,26.8815],[80.9152,26.8802],[80.9156,26.8828],[80.9182,26.881],[80.9211,26.8862],[80.9238,26.8853],[80.9251,26.8932],[80.9287,26.8945],[80.9349,26.8909]]]},"properties":{"objectid":106461,"statename":"Uttar Pradesh","statecode":"9","districtname":"Lucknow","districtcode":"157","ulbname":"Lucknow M.Corp","ulbcode":"800951","wardname":"Ayodhyadas 2","wardcode":"51","id":null,"remark":"Ok","st_area(shape)":9.160154329568537e-05,"st_perimeter(shape)":0.0735897835048641}},{"type":"Feature","geometry":{"type":"Polygon","coordinates":[[[80.918,26.8171],[80.917,26.8189],[80.9178,26.8227],[80.9201,26.8211],[80.9198,26.8199],[80.9225,26.8201],[80.9223,26.8218],[80.9261,26.8201],[80.9258,26.8214],[80.9292,26.8243],[80.9293,26.8265],[80.9314,26.8267],[80.9321,26.8334],[80.9102,26.831],[80.9079,26.8192],[80.9137,26.8183],[80.915,26.8195],[80.9162,26.8168],[80.918,26.8171]]]},"properties":{"objectid":106462,"statename":"Uttar Pradesh","statecode":"9","districtname":"Lucknow","districtcode":"157","ulbname":"Lucknow M.Corp","ulbcode":"800951","wardname":"Guru Govind Singh","wardcode":"36","id":null,"remark":"Ok","st_area(shape)":0.00025178789214030424,"st_perimeter(shape)":0.08849609386877573}},{"type":"Feature","geometry":{"type":"Polygon","coordinates":[[[81.0142,26.904],[81.0102,26.9062],[81.0088,26.9056],[81.0072,26.9079],[81.0135,26.9137],[81.0114,26.9151],[81.0065,26.9142],[81.0037,26.9162],[81.0007,26.9135],[80.9994,26.9145],[80.9953,26.9126],[80.994,26.9091],[80.9923,26.9088],[80.9929,26.9059],[80.9916,26.9068],[80.9839,26.9017],[80.9833,26.901],[80.9865,26.8965],[80.9767,26.8927],[80.9894,26.8888],[80.9951,26.8931],[80.9958,26.891],[81.0096,26.8895],[81.0104,26.8917],[81.0074,26.8922],[81.0109,26.8976],[81.0097,26.8985],[81.0142,26.904]]]},"properties":{"objectid":106463,"statename":"Uttar Pradesh","statecode":"9","districtname":"Lucknow","districtcode":"157","ulbname":"Lucknow M.Corp","ulbcode":"800951","wardname":"Indira Priyadarshini","wardcode":"26","id":null,"remark":"Ok","st_area(shape)":0.0005462799892860305,"st_perimeter(shape)":0.1426563829527217}},{"type":"Feature","geometry":{"type":"Polygon","coordinates":[[[80.8989,26.8534],[80.9025,26.853],[80.9112,26.8647],[80.9089,26.8652],[80.9061,26.86],[80.9,26.8571],[80.8989,26.8534]]]},"properties":{"objectid":107715,"statename":"Uttar Pradesh","statecode":"9","districtname":"Lucknow","districtcode":"157","ulbname":"Lucknow M.Corp","ulbcode":"800951","wardname":"Ahrafabad","wardcode":"100","id":null,"remark":"Ok","st_area(shape)":3.946788680165406e-05,"st_perimeter(shape)":0.03751774588716261}},{"type":"Feature","geometry":{"type":"Polygon","coordinates":[[[80.9433,26.8777],[80.9381,26.8817],[80.9334,26.8816],[80.924,26.871],[80.9228,26.8716],[80.9215,26.8702],[80.9246,26.8681],[80.9297,26.8716],[80.9409,26.8711],[80.9433,26.8777]]]},"properties":{"objectid":107716,"statename":"Uttar Pradesh","statecode":"9","districtname":"Lucknow","districtcode":"157","ulbname":"Lucknow M.Corp","ulbcode":"800951","wardname":"Daligaj - Nirala Nagar","wardcode":"32","id":null,"remark":"Ok","st_area(shape)":0.00014825346854167496,"st_perimeter(shape)":0.0575069751069598}},{"type":"Feature","geometry":{"type":"Polygon","coordinates":[[[80.8767,26.8407],[80.8777,26.8458],[80.8718,26.8479],[80.8652,26.8438],[80.8741,26.8373],[80.8767,26.8377],[80.8767,26.8407]]]},"properties":{"objectid":107717,"statename":"Uttar Pradesh","statecode":"9","districtname":"Lucknow","districtcode":"157","ulbname":"Lucknow M.Corp","ulbcode":"800951","wardname":"Kunwar Jyoti Prsad","wardcode":"70","id":null,"remark":"Ok","st_area(shape)":7.479864101930561e-05,"st_perimeter(shape)":0.03591192858706293}},{"type":"Feature","geometry":{"type":"Polygon","coordinates":[[[80.9215,26.8702],[80.9141,26.8736],[80.911,26.8727],[80.9116,26.8654],[80.9057,26.8573],[80.9091,26.8558],[80.9118,26.8586],[80.9149,26.8581],[80.9138,26.8624],[80.9149,26.8649],[80.9205,26.867],[80.9228,26.8696],[80.9215,26.8702]]]},"properties":{"objectid":107718,"statename":"Uttar Pradesh","statecode":"9","districtname":"Lucknow","districtcode":"157","ulbname":"Lucknow M.Corp","ulbcode":"800951","wardname":"Raja Bazar","wardcode":"105","id":null,"remark":"Ok","st_area(shape)":0.0001123285211459504,"st_perimeter(shape)":0.059703713951543995}},{"type":"Feature","geometry":{"type":"Polygon","coordinates":[[[80.9124,26.842],[80.9115,26.8425],[80.9062,26.8321],[80.902,26.8311],[80.899,26.8285],[80.8939,26.8297],[80.8986,26.8186],[80.904,26.8255],[80.9076,26.8277],[80.91,26.8264],[80.9103,26.8311],[80.9243,26.8324],[80.9241,26.8372],[80.9196,26.8374],[80.9124,26.842]]]},"properties":{"objectid":107719,"statename":"Uttar Pradesh","statecode":"9","districtname":"Lucknow","districtcode":"157","ulbname":"Lucknow M.Corp","ulbcode":"800951","wardname":"Motilal Nehru - Chandra Bhanu Gupta Nagar","wardcode":"46","id":null,"remark":"Ok","st_area(shape)":0.00021471795890484242,"st_perimeter(shape)":0.09177232660938268}},{"type":"Feature","geometry":{"type":"Polygon","coordinates":[[[80.9238,26.8853],[80.9211,26.8862],[80.9189,26.8816],[80.9156,26.8828],[80.9152,26.8802],[80.9108,26.8823],[80.9095,26.8793],[80.9111,26.8763],[80.916,26.8786],[80.9179,26.8772],[80.9242,26.8774],[80.9275,26.8788],[80.9261,26.8818],[80.9231,26.8825],[80.9238,26.8853]]]},"properties":{"objectid":108965,"statename":"Uttar Pradesh","statecode":"9","districtname":"Lucknow","districtcode":"157","ulbname":"Lucknow M.Corp","ulbcode":"800951","wardname":"Ayodhyadas 1","wardcode":"106","id":null,"remark":"Ok","st_area(shape)":8.34238832486854e-05,"st_perimeter(shape)":0.05547987475849963}},{"type":"Feature","geometry":{"type":"Polygon","coordinates":[[[81.0209,26.8514],[81.026,26.8515],[81.0256,26.8503],[81.0281,26.8496],[81.034,26.8511],[81.0363,26.8544],[81.0402,26.855],[81.0362,26.8677],[81.0271,26.8749],[80.9994,26.8732],[80.9989,26.864],[81.0115,26.8615],[81.0107,26.8591],[81.022,26.8567],[81.0209,26.8514]]]},"properties":{"objectid":108966,"statename":"Uttar Pradesh","statecode":"9","districtname":"Lucknow","districtcode":"157","ulbname":"Lucknow M.Corp","ulbcode":"800951","wardname":"Chinhat 2","wardcode":"49","id":null,"remark":"Ok","st_area(shape)":0.0006334551409426647,"st_perimeter(shape)":0.1186319723446876}},{"type":"Feature","geometry":{"type":"Polygon","coordinates":[[[80.9303,26.8468],[80.928,26.8455],[80.9263,26.8462],[80.9229,26.8416],[80.9276,26.8377],[80.9344,26.8395],[80.9303,26.8417],[80.9312,26.8444],[80.9303,26.8468]]]},"properties":{"objectid":108967,"statename":"Uttar Pradesh","statecode":"9","districtname":"Lucknow","districtcode":"157","ulbname":"Lucknow M.Corp","ulbcode":"800951","wardname":"Yadunath Sanyal","wardcode":"88","id":null,"remark":"Ok","st_area(shape)":5.2997042716155775e-05,"st_perimeter(shape)":0.03577226913907323}},{"type":"Feature","geometry":{"type":"Polygon","coordinates":[[[81.0098,26.8898],[80.9958,26.891],[80.9951,26.8931],[80.9905,26.8889],[80.9822,26.8906],[80.9803,26.8889],[80.9793,26.8902],[80.977,26.8894],[80.9787,26.8873],[80.9821,26.8863],[80.9958,26.8852],[80.9958,26.8891],[81.0056,26.8882],[81.0111,26.8889],[81.0098,26.8898]]]},"properties":{"objectid":108968,"statename":"Uttar Pradesh","statecode":"9","districtname":"Lucknow","districtcode":"157","ulbname":"Lucknow M.Corp","ulbcode":"800951","wardname":"Babu Jagjeevan Ram","wardcode":"57","id":null,"remark":"Ok","st_area(shape)":0.00010683413137301862,"st_perimeter(shape)":0.08128823430159293}},{"type":"Feature","geometry":{"type":"Polygon","coordinates":[[[80.8809,26.8598],[80.8734,26.8595],[80.8741,26.8613],[80.8701,26.8625],[80.871,26.8589],[80.8694,26.8564],[80.871,26.857],[80.8763,26.8516],[80.8769,26.8524],[80.8783,26.8514],[80.8801,26.8548],[80.8834,26.8535],[80.8895,26.8549],[80.8898,26.8556],[80.8853,26.8571],[80.8866,26.8592],[80.8809,26.8598]]]},"properties":{"objectid":108969,"statename":"Uttar Pradesh","statecode":"9","districtname":"Lucknow","districtcode":"157","ulbname":"Lucknow M.Corp","ulbcode":"800951","wardname":"Haiderganj 1","wardcode":"76","id":null,"remark":"Ok","st_area(shape)":0.00010281595814881129,"st_perimeter(shape)":0.0650117359882321}},{"type":"Feature","geometry":{"type":"Polygon","coordinates":[[[80.9316,26.9166],[80.9312,26.9181],[80.9271,26.9193],[80.9275,26.92],[80.9237,26.9233],[80.9224,26.9218],[80.9154,26.9264],[80.9165,26.9287],[80.9139,26.9306],[80.9127,26.9312],[80.9108,26.9285],[80.9101,26.9268],[80.9115,26.9253],[80.9118,26.9184],[80.9261,26.9071],[80.9276,26.9065],[80.929,26.908],[80.9316,26.9166]]]},"properties":{"objectid":108970,"statename":"Uttar Pradesh","statecode":"9","districtname":"Lucknow","districtcode":"157","ulbname":"Lucknow M.Corp","ulbcode":"800951","wardname":"Faizullaganj 4","wardcode":"75","id":null,"remark":"Ok","st_area(shape)":0.000239768578165929,"st_perimeter(shape)":0.07967793388800247}},{"type":"Feature","geometry":{"type":"Polygon","coordinates":[[[80.8817,26.8728],[80.8743,26.8729],[80.8743,26.8703],[80.8724,26.8684],[80.8701,26.8625],[80.8741,26.8613],[80.8734,26.8595],[80.8809,26.8598],[80.8803,26.8703],[80.8817,26.8728]]]},"properties":{"objectid":108971,"statename":"Uttar Pradesh","statecode":"9","districtname":"Lucknow","districtcode":"157","ulbname":"Lucknow M.Corp","ulbcode":"800951","wardname":"Kanhaiya Madhopur 1","wardcode":"37","id":null,"remark":"Ok","st_area(shape)":0.0001049614288505009,"st_perimeter(shape)":0.048472687418221555}},{"type":"Feature","geometry":{"type":"Polygon","coordinates":[[[80.9108,26.8823],[80.9139,26.886],[80.9105,26.8894],[80.9044,26.8864],[80.9042,26.8831],[80.9018,26.8804],[80.9052,26.8776],[80.9056,26.8742],[80.9039,26.8749],[80.9012,26.8735],[80.8974,26.8749],[80.8962,26.8723],[80.9072,26.8693],[80.9079,26.8731],[80.9122,26.8725],[80.9125,26.8742],[80.9095,26.8793],[80.9108,26.8823]]]},"properties":{"objectid":108972,"statename":"Uttar Pradesh","statecode":"9","districtname":"Lucknow","districtcode":"157","ulbname":"Lucknow M.Corp","ulbcode":"800951","wardname":"Hussainabad","wardcode":"89","id":null,"remark":"Ok","st_area(shape)":0.00014912841691920389,"st_perimeter(shape)":0.07717844844057249}},{"type":"Feature","geometry":{"type":"Polygon","coordinates":[[[80.8931,26.87],[80.8945,26.8714],[80.8944,26.8755],[80.8928,26.877],[80.8933,26.882],[80.8962,26.8882],[80.8915,26.8883],[80.8916,26.8848],[80.8907,26.8839],[80.8891,26.8855],[80.8817,26.8728],[80.8878,26.8729],[80.8877,26.8714],[80.8931,26.87]]]},"properties":{"objectid":108973,"statename":"Uttar Pradesh","statecode":"9","districtname":"Lucknow","districtcode":"157","ulbname":"Lucknow M.Corp","ulbcode":"800951","wardname":"Mallahitola 1","wardcode":"79","id":null,"remark":"Ok","st_area(shape)":0.000123261532118547,"st_perimeter(shape)":0.06403761964680056}},{"type":"Feature","geometry":{"type":"Polygon","coordinates":[[[80.95,26.9106],[80.949,26.9108],[80.9485,26.9049],[80.9521,26.9034],[80.9531,26.8993],[80.9514,26.8981],[80.955,26.8947],[80.9568,26.909],[80.95,26.9106]]]},"properties":{"objectid":108974,"statename":"Uttar Pradesh","statecode":"9","districtname":"Lucknow","districtcode":"157","ulbname":"Lucknow M.Corp","ulbcode":"800951","wardname":"Lala Lajpat Rai","wardcode":"59","id":null,"remark":"Ok","st_area(shape)":6.788816801643423e-05,"st_perimeter(shape)":0.04420662602811021}},{"type":"Feature","geometry":{"type":"Polygon","coordinates":[[[80.9096,26.7891],[80.9014,26.7923],[80.8952,26.7826],[80.9073,26.7782],[80.9118,26.7877],[80.9096,26.7891]]]},"properties":{"objectid":108975,"statename":"Uttar Pradesh","statecode":"9","districtname":"Lucknow","districtcode":"157","ulbname":"Lucknow M.Corp","ulbcode":"800951","wardname":"Vidyawati 2","wardcode":"38","id":null,"remark":"Ok","st_area(shape)":0.00013599919706300975,"st_perimeter(shape)":0.04639456261483579}},{"type":"Feature","geometry":{"type":"Polygon","coordinates":[[[80.8822,26.8255],[80.8872,26.8285],[80.8884,26.8313],[80.8794,26.834],[80.8741,26.8373],[80.8713,26.8367],[80.8689,26.8343],[80.8714,26.8339],[80.8706,26.8308],[80.8732,26.8292],[80.8725,26.8268],[80.875,26.8256],[80.8738,26.8239],[80.8759,26.8229],[80.8822,26.8255]]]},"properties":{"objectid":109250,"statename":"Uttar Pradesh","statecode":"9","districtname":"Lucknow","districtcode":"157","ulbname":"Lucknow M.Corp","ulbcode":"800951","wardname":"Alamnagar","wardcode":"20","id":null,"remark":"Ok","st_area(shape)":0.00014151349033939258,"st_perimeter(shape)":0.06171903679137674}},{"type":"Feature","geometry":{"type":"Polygon","coordinates":[[[81.0092,26.8444],[81.0323,26.85],[81.0425,26.8547],[81.0433,26.8566],[81.0412,26.8579],[81.0463,26.8603],[81.0482,26.8628],[81.0455,26.8641],[81.0405,26.8637],[81.0449,26.8737],[81.0413,26.8817],[81.027,26.8747],[81.0362,26.8677],[81.0402,26.855],[81.0363,26.8544],[81.034,26.8511],[81.0281,26.8496],[81.0256,26.8503],[81.026,26.8515],[81.0082,26.8515],[81.0076,26.8492],[81.0092,26.8444]]]},"properties":{"objectid":109251,"statename":"Uttar Pradesh","statecode":"9","districtname":"Lucknow","districtcode":"157","ulbname":"Lucknow M.Corp","ulbcode":"800951","wardname":"Chinhat 1","wardcode":"35","id":null,"remark":"Ok","st_area(shape)":0.00032992547949089237,"st_perimeter(shape)":0.1650124081697507}},{"type":"Feature","geometry":{"type":"Polygon","coordinates":[[[80.9382,26.9134],[80.9377,26.9097],[80.939,26.9054],[80.9437,26.9029],[80.9482,26.9032],[80.9485,26.902],[80.9465,26.9015],[80.9434,26.8971],[80.9498,26.8935],[80.9524,26.8968],[80.9514,26.8981],[80.9531,26.8993],[80.9521,26.9034],[80.9485,26.9049],[80.949,26.9108],[80.9382,26.9134]]]},"properties":{"objectid":109252,"statename":"Uttar Pradesh","statecode":"9","districtname":"Lucknow","districtcode":"157","ulbname":"Lucknow M.Corp","ulbcode":"800951","wardname":"Bhartendu Harishchndra","wardcode":"65","id":null,"remark":"Ok","st_area(shape)":0.00014475020335242607,"st_perimeter(shape)":0.06954665094188188}},{"type":"Feature","geometry":{"type":"Polygon","coordinates":[[[80.935,26.9308],[80.926,26.9307],[80.9201,26.9342],[80.9145,26.9334],[80.9127,26.9312],[80.9165,26.9287],[80.915,26.9268],[80.9201,26.9229],[80.9224,26.9218],[80.9237,26.9233],[80.9275,26.92],[80.9271,26.9193],[80.9312,26.9181],[80.9335,26.914],[80.9382,26.9134],[80.935,26.9308]]]},"properties":{"objectid":109253,"statename":"Uttar Pradesh","statecode":"9","districtname":"Lucknow","districtcode":"157","ulbname":"Lucknow M.Corp","ulbcode":"800951","wardname":"Faizullaganj 1","wardcode":"54","id":null,"remark":"Ok","st_area(shape)":0.00026010336783599064,"st_perimeter(shape)":0.08473926987955223}},{"type":"Feature","geometry":{"type":"Polygon","coordinates":[[[80.9077,26.7993],[80.9063,26.803],[80.9071,26.8049],[80.9057,26.8056],[80.9064,26.8074],[80.9012,26.8124],[80.8959,26.802],[80.9022,26.7995],[80.9077,26.7993]]]},"properties":{"objectid":109254,"statename":"Uttar Pradesh","statecode":"9","districtname":"Lucknow","districtcode":"157","ulbname":"Lucknow M.Corp","ulbcode":"800951","wardname":"Guru Nanak Nagar","wardcode":"19","id":null,"remark":"Ok","st_area(shape)":9.208928408155204e-05,"st_perimeter(shape)":0.043546880444176386}},{"type":"Feature","geometry":{"type":"Polygon","coordinates":[[[80.902,26.8584],[80.9011,26.8593],[80.8989,26.8577],[80.8966,26.8585],[80.8934,26.8576],[80.8932,26.8599],[80.8892,26.8596],[80.8878,26.8563],[80.8909,26.8539],[80.8998,26.8566],[80.902,26.8584]]]},"properties":{"objectid":109255,"statename":"Uttar Pradesh","statecode":"9","districtname":"Lucknow","districtcode":"157","ulbname":"Lucknow M.Corp","ulbcode":"800951","wardname":"Kashmiri Mohalla","wardcode":"103","id":null,"remark":"Ok","st_area(shape)":4.140556302570197e-05,"st_perimeter(shape)":0.039122606388889536}},{"type":"Feature","geometry":{"type":"Polygon","coordinates":[[[80.918,26.8171],[80.9162,26.8168],[80.915,26.8195],[80.9137,26.8183],[80.9079,26.8192],[80.9072,26.8184],[80.9079,26.8158],[80.9126,26.814],[80.9121,26.8123],[80.9153,26.8118],[80.9153,26.8109],[80.917,26.8114],[80.9191,26.8159],[80.9194,26.817],[80.918,26.8171]]]},"properties":{"objectid":109256,"statename":"Uttar Pradesh","statecode":"9","districtname":"Lucknow","districtcode":"157","ulbname":"Lucknow M.Corp","ulbcode":"800951","wardname":"Babu Kunj Bihari","wardcode":"48","id":null,"remark":"Ok","st_area(shape)":5.558070868275258e-05,"st_perimeter(shape)":0.040816527631748284}},{"type":"Feature","geometry":{"type":"Polygon","coordinates":[[[80.9554,26.8625],[80.9571,26.8707],[80.9411,26.8711],[80.9368,26.8597],[80.9375,26.8585],[80.9554,26.8625]]]},"properties":{"objectid":109257,"statename":"Uttar Pradesh","statecode":"9","districtname":"Lucknow","districtcode":"157","ulbname":"Lucknow M.Corp","ulbcode":"800951","wardname":"Colvin College","wardcode":"41","id":null,"remark":"Ok","st_area(shape)":0.00016643171418558635,"st_perimeter(shape)":0.05699063469777528}},{"type":"Feature","geometry":{"type":"Polygon","coordinates":[[[80.8986,26.8186],[80.894,26.8296],[80.892,26.83],[80.8899,26.8285],[80.8891,26.8238],[80.8876,26.8264],[80.8847,26.8274],[80.8822,26.8255],[80.881,26.8214],[80.868,26.8053],[80.8683,26.8004],[80.8719,26.7964],[80.8913,26.8105],[80.8986,26.8186]]]},"properties":{"objectid":109258,"statename":"Uttar Pradesh","statecode":"9","districtname":"Lucknow","districtcode":"157","ulbname":"Lucknow M.Corp","ulbcode":"800951","wardname":"Keshri Khera","wardcode":"22","id":null,"remark":"Ok","st_area(shape)":0.00047162110949776814,"st_perimeter(shape)":0.10233411964246922}},{"type":"Feature","geometry":{"type":"Polygon","coordinates":[[[80.9344,26.8395],[80.9276,26.8377],[80.9235,26.8414],[80.9245,26.8402],[80.9231,26.8386],[80.9215,26.8392],[80.9208,26.837],[80.9241,26.8372],[80.9241,26.8354],[80.9324,26.834],[80.9344,26.8395]]]},"properties":{"objectid":109259,"statename":"Uttar Pradesh","statecode":"9","districtname":"Lucknow","districtcode":"157","ulbname":"Lucknow M.Corp","ulbcode":"800951","wardname":"Lalkuwan","wardcode":"24","id":null,"remark":"Ok","st_area(shape)":4.3972821724484726e-05,"st_perimeter(shape)":0.04242094311625804}},{"type":"Feature","geometry":{"type":"Polygon","coordinates":[[[80.9121,26.8123],[80.9126,26.814],[80.9079,26.8158],[80.9072,26.8184],[80.9012,26.8124],[80.9064,26.8074],[80.9057,26.8056],[80.9071,26.8049],[80.9069,26.8028],[80.9119,26.8087],[80.9121,26.8123]]]},"properties":{"objectid":109260,"statename":"Uttar Pradesh","statecode":"9","districtname":"Lucknow","districtcode":"157","ulbname":"Lucknow M.Corp","ulbcode":"800951","wardname":"Om Nagar","wardcode":"39","id":null,"remark":"Ok","st_area(shape)":8.238933815822133e-05,"st_perimeter(shape)":0.046677875314470936}},{"type":"Feature","geometry":{"type":"Polygon","coordinates":[[[80.9242,26.8482],[80.9217,26.8495],[80.9221,26.8543],[80.9192,26.8535],[80.9209,26.8499],[80.9169,26.8518],[80.9184,26.8457],[80.9216,26.845],[80.9237,26.8461],[80.9242,26.8482]]]},"properties":{"objectid":109261,"statename":"Uttar Pradesh","statecode":"9","districtname":"Lucknow","districtcode":"157","ulbname":"Lucknow M.Corp","ulbcode":"800951","wardname":"Maulviganj","wardcode":"99","id":null,"remark":"Ok","st_area(shape)":3.4123659362193776e-05,"st_perimeter(shape)":0.03729779756827345}},{"type":"Feature","geometry":{"type":"Polygon","coordinates":[[[80.9679,26.8981],[80.9568,26.9089],[80.9553,26.9014],[80.9589,26.9007],[80.9683,26.8951],[80.963,26.8869],[80.969,26.8863],[80.9683,26.8851],[80.9736,26.8823],[80.9778,26.8841],[80.9764,26.8878],[80.9771,26.8893],[80.9679,26.8981]]]},"properties":{"objectid":109262,"statename":"Uttar Pradesh","statecode":"9","districtname":"Lucknow","districtcode":"157","ulbname":"Lucknow M.Corp","ulbcode":"800951","wardname":"Shankar Purwa 3","wardcode":"63","id":null,"remark":"Ok","st_area(shape)":0.00017958963021939318,"st_perimeter(shape)":0.08609784490894624}},{"type":"Feature","geometry":{"type":"Polygon","coordinates":[[[80.943,26.7779],[80.9396,26.7912],[80.9317,26.7977],[80.931,26.7971],[80.9327,26.7944],[80.9357,26.7816],[80.9342,26.7803],[80.9239,26.7816],[80.9182,26.7705],[80.9233,26.7667],[80.9263,26.7625],[80.9455,26.7682],[80.943,26.7779]]]},"properties":{"objectid":109263,"statename":"Uttar Pradesh","statecode":"9","districtname":"Lucknow","districtcode":"157","ulbname":"Lucknow M.Corp","ulbcode":"800951","wardname":"Sharda Nagar 2","wardcode":"12","id":null,"remark":"Ok","st_area(shape)":0.0004399617868447477,"st_perimeter(shape)":0.10893472053443186}},{"type":"Feature","geometry":{"type":"Polygon","coordinates":[[[80.9233,26.8013],[80.918,26.8022],[80.9065,26.7991],[80.9031,26.7993],[80.9014,26.7923],[80.9096,26.7891],[80.9126,26.7941],[80.9235,26.7963],[80.9233,26.8013]]]},"properties":{"objectid":109992,"statename":"Uttar Pradesh","statecode":"9","districtname":"Lucknow","districtcode":"157","ulbname":"Lucknow M.Corp","ulbcode":"800951","wardname":"Vidyawati 3","wardcode":"64","id":null,"remark":"Ok","st_area(shape)":0.0001608825942930599,"st_perimeter(shape)":0.05881875238463595}},{"type":"Feature","geometry":{"type":"Polygon","coordinates":[[[80.8866,26.9041],[80.8854,26.9059],[80.8829,26.9017],[80.8766,26.9014],[80.8696,26.9049],[80.8692,26.9072],[80.8638,26.9101],[80.8508,26.8967],[80.8471,26.8952],[80.8435,26.8899],[80.8516,26.8857],[80.8478,26.8786],[80.8702,26.8734],[80.8817,26.8728],[80.8878,26.8837],[80.8888,26.8835],[80.8891,26.8855],[80.8907,26.8839],[80.8921,26.8862],[80.8915,26.8883],[80.8851,26.8895],[80.8842,26.8916],[80.8866,26.9041]]]},"properties":{"objectid":109993,"statename":"Uttar Pradesh","statecode":"9","districtname":"Lucknow","districtcode":"157","ulbname":"Lucknow M.Corp","ulbcode":"800951","wardname":"Balaganj","wardcode":"15","id":null,"remark":"Ok","st_area(shape)":0.0011013148210597366,"st_perimeter(shape)":0.15838133009829386}},{"type":"Feature","geometry":{"type":"Polygon","coordinates":[[[80.955,26.8947],[80.9524,26.8968],[80.9476,26.8902],[80.9525,26.8874],[80.9511,26.8851],[80.956,26.8801],[80.9577,26.8798],[80.9583,26.8818],[80.9572,26.8821],[80.9588,26.8848],[80.9555,26.886],[80.9566,26.8898],[80.9542,26.8903],[80.9547,26.8915],[80.9589,26.8903],[80.9591,26.8917],[80.955,26.8947]]]},"properties":{"objectid":109994,"statename":"Uttar Pradesh","statecode":"9","districtname":"Lucknow","districtcode":"157","ulbname":"Lucknow M.Corp","ulbcode":"800951","wardname":"Begum Hazrat Mahal - Bajrangbali","wardcode":"98","id":null,"remark":"Ok","st_area(shape)":8.73261895782825e-05,"st_perimeter(shape)":0.058515780708779476}},{"type":"Feature","geometry":{"type":"Polygon","coordinates":[[[80.9244,26.8438],[80.922,26.8458],[80.9184,26.8457],[80.9207,26.8373],[80.9215,26.8392],[80.9231,26.8386],[80.9245,26.8402],[80.9229,26.8416],[80.9244,26.8438]]]},"properties":{"objectid":109995,"statename":"Uttar Pradesh","statecode":"9","districtname":"Lucknow","districtcode":"157","ulbname":"Lucknow M.Corp","ulbcode":"800951","wardname":"Bashreeratganj - Ganeshganj","wardcode":"84","id":null,"remark":"Ok","st_area(shape)":2.839223111999536e-05,"st_perimeter(shape)":0.028347767771977513}},{"type":"Feature","geometry":{"type":"Polygon","coordinates":[[[81.0006,26.8887],[80.9958,26.8891],[80.9958,26.8852],[80.9849,26.886],[80.9841,26.8806],[80.9959,26.8804],[80.9959,26.873],[81.0028,26.8733],[81.004,26.8756],[81.0026,26.8778],[80.9998,26.8778],[81.0006,26.8887]]]},"properties":{"objectid":109996,"statename":"Uttar Pradesh","statecode":"9","districtname":"Lucknow","districtcode":"157","ulbname":"Lucknow M.Corp","ulbcode":"800951","wardname":"Indira Nagar","wardcode":"86","id":null,"remark":"Ok","st_area(shape)":0.00014162485618043717,"st_perimeter(shape)":0.07161313008061035}},{"type":"Feature","geometry":{"type":"Polygon","coordinates":[[[80.9118,26.9187],[80.9066,26.9179],[80.9018,26.9103],[80.8976,26.907],[80.8923,26.9048],[80.8866,26.9041],[80.8842,26.8923],[80.8851,26.8895],[80.8973,26.8882],[80.9028,26.8856],[80.9113,26.8893],[80.9138,26.8865],[80.9108,26.8823],[80.9128,26.8815],[80.9218,26.8921],[80.9333,26.8964],[80.937,26.8961],[80.9384,26.8999],[80.9331,26.9017],[80.9308,26.8975],[80.9259,26.8969],[80.9253,26.8955],[80.9224,26.8964],[80.9221,26.8977],[80.9263,26.9005],[80.9276,26.9065],[80.9217,26.9098],[80.9118,26.9187]]]},"properties":{"objectid":109997,"statename":"Uttar Pradesh","statecode":"9","districtname":"Lucknow","districtcode":"157","ulbname":"Lucknow M.Corp","ulbcode":"800951","wardname":"Faizullaganj 2","wardcode":"43","id":null,"remark":"Ok","st_area(shape)":0.0009575066435534164,"st_perimeter(shape)":0.17467559221416398}},{"type":"Feature","geometry":{"type":"Polygon","coordinates":[[[80.8698,26.8619],[80.8691,26.8644],[80.8647,26.8681],[80.8629,26.8656],[80.8619,26.8591],[80.8562,26.8504],[80.8494,26.8554],[80.8476,26.8517],[80.8514,26.8495],[80.8486,26.847],[80.8501,26.8451],[80.8479,26.842],[80.8499,26.841],[80.8493,26.8397],[80.8521,26.8406],[80.8566,26.8341],[80.8741,26.8373],[80.8578,26.8493],[80.8591,26.8502],[80.8581,26.851],[80.859,26.8525],[80.8603,26.8519],[80.8636,26.8536],[80.8668,26.8571],[80.87,26.8571],[80.871,26.8589],[80.8698,26.8619]]]},"properties":{"objectid":109998,"statename":"Uttar Pradesh","statecode":"9","districtname":"Lucknow","districtcode":"157","ulbname":"Lucknow M.Corp","ulbcode":"800951","wardname":"Haiderganj 2","wardcode":"17","id":null,"remark":"Ok","st_area(shape)":0.00035111759944371485,"st_perimeter(shape)":0.13697493244700035}},{"type":"Feature","geometry":{"type":"Polygon","coordinates":[[[80.963,26.8869],[80.9683,26.8951],[80.9589,26.9007],[80.9553,26.9014],[80.955,26.8947],[80.9626,26.8897],[80.9617,26.8875],[80.963,26.8869]]]},"properties":{"objectid":109999,"statename":"Uttar Pradesh","statecode":"9","districtname":"Lucknow","districtcode":"157","ulbname":"Lucknow M.Corp","ulbcode":"800951","wardname":"Lohiya Nagar","wardcode":"77","id":null,"remark":"Ok","st_area(shape)":9.571953524586171e-05,"st_perimeter(shape)":0.045756824057592384}},{"type":"Feature","geometry":{"type":"Polygon","coordinates":[[[80.9682,26.8702],[80.9571,26.8707],[80.9554,26.8625],[80.9647,26.8612],[80.9691,26.8573],[80.9695,26.8555],[80.9898,26.8598],[80.9943,26.8624],[80.968,26.8677],[80.9682,26.8702]]]},"properties":{"objectid":110000,"statename":"Uttar Pradesh","statecode":"9","districtname":"Lucknow","districtcode":"157","ulbname":"Lucknow M.Corp","ulbcode":"800951","wardname":"Papermill","wardcode":"23","id":null,"remark":"Ok","st_area(shape)":0.0002910817847237965,"st_perimeter(shape)":0.09217246317236126}},{"type":"Feature","geometry":{"type":"Polygon","coordinates":[[[80.9679,26.8981],[80.9728,26.902],[80.977,26.9073],[80.9688,26.9148],[80.963,26.9169],[80.9568,26.9089],[80.9679,26.8981]]]},"properties":{"objectid":110001,"statename":"Uttar Pradesh","statecode":"9","districtname":"Lucknow","districtcode":"157","ulbname":"Lucknow M.Corp","ulbcode":"800951","wardname":"Shankar Purwa 2","wardcode":"31","id":null,"remark":"Ok","st_area(shape)":0.00020340839674800007,"st_perimeter(shape)":0.0565114286593181}},{"type":"Feature","geometry":{"type":"Polygon","coordinates":[[[80.8478,26.8786],[80.8461,26.879],[80.8457,26.8772],[80.8484,26.8747],[80.85,26.875],[80.8505,26.8725],[80.8518,26.8719],[80.85,26.8698],[80.847,26.8715],[80.8417,26.8619],[80.8394,26.8617],[80.8395,26.8604],[80.8415,26.8612],[80.8562,26.8504],[80.8619,26.8591],[80.8629,26.8656],[80.8647,26.8681],[80.8691,26.8644],[80.8698,26.8619],[80.8724,26.8684],[80.8743,26.8703],[80.8743,26.8729],[80.8478,26.8786]]]},"properties":{"objectid":110002,"statename":"Uttar Pradesh","statecode":"9","districtname":"Lucknow","districtcode":"157","ulbname":"Lucknow M.Corp","ulbcode":"800951","wardname":"Kanhairya - Madhopur 2","wardcode":"25","id":null,"remark":"Ok","st_area(shape)":0.0004706522230442719,"st_perimeter(shape)":0.12715753726325107}},{"type":"Feature","geometry":{"type":"Polygon","coordinates":[[[80.9463,26.8465],[80.9411,26.8423],[80.9361,26.8401],[80.9363,26.8369],[80.9391,26.8368],[80.9409,26.8334],[80.9436,26.8367],[80.9441,26.8417],[80.9467,26.844],[80.9463,26.8465]]]},"properties":{"objectid":110003,"statename":"Uttar Pradesh","statecode":"9","districtname":"Lucknow","districtcode":"157","ulbname":"Lucknow M.Corp","ulbcode":"800951","wardname":"Mahatma Gandhi","wardcode":"66","id":null,"remark":"Ok","st_area(shape)":5.458692256794925e-05,"st_perimeter(shape)":0.039798461956866316}},{"type":"Feature","geometry":{"type":"Polygon","coordinates":[[[80.9084,26.8446],[80.8993,26.8487],[80.8929,26.84],[80.904,26.8362],[80.9065,26.8339],[80.9115,26.8425],[80.9084,26.8446]]]},"properties":{"objectid":110004,"statename":"Uttar Pradesh","statecode":"9","districtname":"Lucknow","districtcode":"157","ulbname":"Lucknow M.Corp","ulbcode":"800951","wardname":"Malaviya Nagar","wardcode":"10","id":null,"remark":"Ok","st_area(shape)":0.00013942578761392958,"st_perimeter(shape)":0.049731141087135215}},{"type":"Feature","geometry":{"type":"Polygon","coordinates":[[[80.9088,26.8559],[80.9057,26.8573],[80.8993,26.8487],[80.9084,26.8446],[80.908,26.8494],[80.9096,26.849],[80.9114,26.8535],[80.9088,26.8559]]]},"properties":{"objectid":110379,"statename":"Uttar Pradesh","statecode":"9","districtname":"Lucknow","districtcode":"157","ulbname":"Lucknow M.Corp","ulbcode":"800951","wardname":"Aishbagh","wardcode":"18","id":null,"remark":"Ok","st_area(shape)":8.120924092728785e-05,"st_perimeter(shape)":0.04047715895221661}},{"type":"Feature","geometry":{"type":"Polygon","coordinates":[[[80.8943,26.8665],[80.8929,26.8652],[80.8902,26.8662],[80.8904,26.8676],[80.8891,26.8684],[80.8884,26.8656],[80.8862,26.8637],[80.8806,26.8663],[80.8809,26.8598],[80.8866,26.8592],[80.8853,26.8571],[80.8878,26.8563],[80.8884,26.8588],[80.8911,26.8597],[80.8928,26.862],[80.8925,26.8639],[80.8952,26.8652],[80.8943,26.8665]]]},"properties":{"objectid":110380,"statename":"Uttar Pradesh","statecode":"9","districtname":"Lucknow","districtcode":"157","ulbname":"Lucknow M.Corp","ulbcode":"800951","wardname":"Amberganj","wardcode":"97","id":null,"remark":"Ok","st_area(shape)":8.11305913711683e-05,"st_perimeter(shape)":0.05687596473690511}},{"type":"Feature","geometry":{"type":"Polygon","coordinates":[[[80.9728,26.7721],[80.971,26.7765],[80.9653,26.7783],[80.9762,26.7926],[80.9755,26.7939],[80.9743,26.7924],[80.9739,26.7939],[80.9724,26.7936],[80.9709,26.7957],[80.9679,26.7953],[80.968,26.7941],[80.9639,26.7928],[80.9633,26.7903],[80.9622,26.7901],[80.9625,26.7876],[80.9611,26.7853],[80.9638,26.7828],[80.9577,26.7773],[80.9587,26.7761],[80.9522,26.7736],[80.9492,26.7741],[80.9494,26.7729],[80.9442,26.7731],[80.9471,26.7641],[80.9499,26.7631],[80.952,26.7707],[80.9728,26.7721]]]},"properties":{"objectid":110381,"statename":"Uttar Pradesh","statecode":"9","districtname":"Lucknow","districtcode":"157","ulbname":"Lucknow M.Corp","ulbcode":"800951","wardname":"Ibrahimpur 1","wardcode":"5","id":null,"remark":"Ok","st_area(shape)":0.00030354056777837053,"st_perimeter(shape)":0.1355023400629559}},{"type":"Feature","geometry":{"type":"Polygon","coordinates":[[[80.9601,26.8462],[80.9559,26.848],[80.9539,26.8532],[80.9515,26.8553],[80.9554,26.8625],[80.9347,26.8585],[80.9353,26.8541],[80.9415,26.8495],[80.9379,26.8457],[80.942,26.8429],[80.9462,26.8465],[80.952,26.842],[80.9567,26.8434],[80.9601,26.8462]]]},"properties":{"objectid":110382,"statename":"Uttar Pradesh","statecode":"9","districtname":"Lucknow","districtcode":"157","ulbname":"Lucknow M.Corp","ulbcode":"800951","wardname":"Hazratganj-Ramtirath","wardcode":"21","id":null,"remark":"Ok","st_area(shape)":0.00029561463992699104,"st_perimeter(shape)":0.08887627033993357}},{"type":"Feature","geometry":{"type":"Polygon","coordinates":[[[80.9498,26.8935],[80.9434,26.8971],[80.9357,26.8821],[80.9393,26.8811],[80.9433,26.8777],[80.9469,26.88],[80.9525,26.8874],[80.9476,26.8902],[80.9498,26.8935]]]},"properties":{"objectid":110383,"statename":"Uttar Pradesh","statecode":"9","districtname":"Lucknow","districtcode":"157","ulbname":"Lucknow M.Corp","ulbcode":"800951","wardname":"Aliganj","wardcode":"109","id":null,"remark":"Ok","st_area(shape)":0.00016262676582211958,"st_perimeter(shape)":0.057617553405066}},{"type":"Feature","geometry":{"type":"Polygon","coordinates":[[[81.0107,26.8591],[81.0115,26.8615],[80.9989,26.864],[80.9994,26.8732],[80.9771,26.8719],[80.9684,26.8702],[80.968,26.8677],[81.0107,26.8591]]]},"properties":{"objectid":110384,"statename":"Uttar Pradesh","statecode":"9","districtname":"Lucknow","districtcode":"157","ulbname":"Lucknow M.Corp","ulbcode":"800951","wardname":"Gomti Nagar","wardcode":"61","id":null,"remark":"Ok","st_area(shape)":0.00026566559776048954,"st_perimeter(shape)":0.1019612118515847}},{"type":"Feature","geometry":{"type":"Polygon","coordinates":[[[80.9646,26.919],[80.9691,26.924],[80.9656,26.9273],[80.9679,26.9325],[80.9667,26.9333],[80.9636,26.9317],[80.9628,26.9335],[80.9593,26.9308],[80.9572,26.9263],[80.9529,26.9264],[80.9528,26.9212],[80.95,26.9106],[80.9568,26.909],[80.9646,26.919]]]},"properties":{"objectid":110385,"statename":"Uttar Pradesh","statecode":"9","districtname":"Lucknow","districtcode":"157","ulbname":"Lucknow M.Corp","ulbcode":"800951","wardname":"Jankipuram 2","wardcode":"58","id":null,"remark":"Ok","st_area(shape)":0.00024812373576166584,"st_perimeter(shape)":0.07700956233820659}},{"type":"Feature","geometry":{"type":"Polygon","coordinates":[[[80.8956,26.8686],[80.8877,26.8714],[80.8878,26.8729],[80.8817,26.8728],[80.8803,26.8703],[80.8806,26.8663],[80.8862,26.8637],[80.8884,26.8656],[80.8891,26.8684],[80.8904,26.8676],[80.8902,26.8662],[80.8929,26.8652],[80.8956,26.8686]]]},"properties":{"objectid":110386,"statename":"Uttar Pradesh","statecode":"9","districtname":"Lucknow","districtcode":"157","ulbname":"Lucknow M.Corp","ulbcode":"800951","wardname":"Garthi Peer Khan","wardcode":"93","id":null,"remark":"Ok","st_area(shape)":8.302050724538648e-05,"st_perimeter(shape)":0.04820349600261865}},{"type":"Feature","geometry":{"type":"Polygon","coordinates":[[[80.9628,26.9335],[80.9592,26.9392],[80.9498,26.9415],[80.9451,26.9303],[80.9439,26.9309],[80.9414,26.9285],[80.9393,26.9293],[80.9389,26.9312],[80.935,26.9308],[80.938,26.9136],[80.95,26.9106],[80.9528,26.9212],[80.9529,26.9264],[80.9572,26.9263],[80.9593,26.9308],[80.9628,26.9335]]]},"properties":{"objectid":110387,"statename":"Uttar Pradesh","statecode":"9","districtname":"Lucknow","districtcode":"157","ulbname":"Lucknow M.Corp","ulbcode":"800951","wardname":"Jankipuram 1","wardcode":"16","id":null,"remark":"Ok","st_area(shape)":0.0004349054659474396,"st_perimeter(shape)":0.104665844865437}},{"type":"Feature","geometry":{"type":"Polygon","coordinates":[[[80.9246,26.8681],[80.9223,26.869],[80.9195,26.8612],[80.9158,26.8564],[80.9167,26.8519],[80.9209,26.8499],[80.9192,26.8535],[80.9214,26.8533],[80.9224,26.8557],[80.9192,26.859],[80.9223,26.8626],[80.9246,26.8681]]]},"properties":{"objectid":110388,"statename":"Uttar Pradesh","statecode":"9","districtname":"Lucknow","districtcode":"157","ulbname":"Lucknow M.Corp","ulbcode":"800951","wardname":"Mashakganj - Wazirganj","wardcode":"102","id":null,"remark":"Ok","st_area(shape)":5.849496526513364e-05,"st_perimeter(shape)":0.05442834059706275}},{"type":"Feature","geometry":{"type":"Polygon","coordinates":[[[80.9215,26.8702],[80.9228,26.8716],[80.924,26.871],[80.9311,26.8804],[80.9242,26.8774],[80.9179,26.8772],[80.916,26.8786],[80.9111,26.8763],[80.9128,26.8732],[80.9141,26.8736],[80.9215,26.8702]]]},"properties":{"objectid":110389,"statename":"Uttar Pradesh","statecode":"9","districtname":"Lucknow","districtcode":"157","ulbname":"Lucknow M.Corp","ulbcode":"800951","wardname":"Kadam Rasool","wardcode":"80","id":null,"remark":"Ok","st_area(shape)":9.040354511319933e-05,"st_perimeter(shape)":0.051155234335624904}},{"type":"Feature","geometry":{"type":"Polygon","coordinates":[[[80.9745,26.8827],[80.9731,26.879],[80.9743,26.8773],[80.9719,26.8738],[80.9724,26.8705],[80.9771,26.8719],[80.9795,26.8813],[80.9843,26.8815],[80.9849,26.886],[80.9792,26.887],[80.9771,26.8893],[80.9764,26.8878],[80.9779,26.8843],[80.9745,26.8827]]]},"properties":{"objectid":110390,"statename":"Uttar Pradesh","statecode":"9","districtname":"Lucknow","districtcode":"157","ulbname":"Lucknow M.Corp","ulbcode":"800951","wardname":"Lal Bahadur Shastri 1","wardcode":"8","id":null,"remark":"Ok","st_area(shape)":9.461556871477231e-05,"st_perimeter(shape)":0.058295010581149206}}]}