{"type":"FeatureCollection","features":[{"type":"Feature","geometry":{"type":"Polygon","coordinates":[[[73.8139,18.5899],[73.8129,18.5898],[73.8112,18.5829],[73.8088,18.5836],[73.8086,18.5789],[73.8057,18.5805],[73.8026,18.5774],[73.8064,18.5736],[73.808,18.5738],[73.8089,18.5765],[73.8106,18.5764],[73.8095,18.5784],[73.8138,18.5763],[73.8139,18.5777],[73.8157,18.5775],[73.8155,18.5818],[73.8188,18.581],[73.8199,18.589],[73.8167,18.5893],[73.8169,18.5909],[73.8139,18.5899]]]},"properties":{"objectid":237426,"statename":"Maharashtra","statecode":"27","districtname":"Pune","districtcode":"521","ulbname":"Pimpri Chinchwad","ulbcode":"802811","wardname":"31","wardcode":"31","id":null,"remark":"","st_area(shape)":0.00012158232023980007,"st_perimeter(shape)":0.0712564528062925}},{"type":"Feature","geometry":{"type":"Polygon","coordinates":[[[73.8256,18.5828],[73.8288,18.5878],[73.8283,18.5896],[73.8256,18.5935],[73.8194,18.5944],[73.8182,18.5962],[73.8212,18.6036],[73.819,18.605],[73.8127,18.6048],[73.812,18.5955],[73.8161,18.5952],[73.8145,18.5938],[73.8139,18.5899],[73.8169,18.5909],[73.8167,18.5893],[73.8199,18.589],[73.8199,18.5853],[73.8256,18.5828]]]},"properties":{"objectid":237427,"statename":"Maharashtra","statecode":"27","districtname":"Pune","districtcode":"521","ulbname":"Pimpri Chinchwad","ulbcode":"802811","wardname":"29","wardcode":"29","id":null,"remark":"","st_area(shape)":0.00017833303088305715,"st_perimeter(shape)":0.07840560491025694}},{"type":"Feature","geometry":{"type":"Polygon","coordinates":[[[73.8199,18.5853],[73.8191,18.5854],[73.8188,18.581],[73.8155,18.5818],[73.8153,18.5754],[73.8169,18.5755],[73.8168,18.5722],[73.813,18.5716],[73.813,18.5684],[73.8215,18.5698],[73.829,18.5688],[73.8314,18.5731],[73.8283,18.5763],[73.8239,18.5752],[73.8199,18.5778],[73.8205,18.5798],[73.825,18.5813],[73.8256,18.5828],[73.8199,18.5853]]]},"properties":{"objectid":237428,"statename":"Maharashtra","statecode":"27","districtname":"Pune","districtcode":"521","ulbname":"Pimpri Chinchwad","ulbcode":"802811","wardname":"32","wardcode":"32","id":null,"remark":"","st_area(shape)":0.00015071672594852727,"st_perimeter(shape)":0.07830327142806397}},{"type":"Feature","geometry":{"type":"Polygon","coordinates":[[[73.7853,18.6145],[73.788,18.6143],[73.7882,18.6124],[73.7968,18.6114],[73.7961,18.6164],[73.7976,18.6222],[73.7911,18.6278],[73.7889,18.6269],[73.789,18.6214],[73.7849,18.6168],[73.7853,18.6145]]]},"properties":{"objectid":237429,"statename":"Maharashtra","statecode":"27","districtname":"Pune","districtcode":"521","ulbname":"Pimpri Chinchwad","ulbcode":"802811","wardname":"22","wardcode":"22","id":null,"remark":"","st_area(shape)":0.00013256066034269832,"st_perimeter(shape)":0.05165521948400993}},{"type":"Feature","geometry":{"type":"Polygon","coordinates":[[[73.8416,18.6162],[73.8458,18.6154],[73.8491,18.6117],[73.8493,18.6162],[73.8514,18.6164],[73.8518,18.6178],[73.8579,18.6176],[73.8584,18.619],[73.851,18.6215],[73.8522,18.6267],[73.8432,18.6275],[73.8434,18.6227],[73.8406,18.6235],[73.8402,18.6214],[73.8424,18.6188],[73.8416,18.6162]]]},"properties":{"objectid":237430,"statename":"Maharashtra","statecode":"27","districtname":"Pune","districtcode":"521","ulbname":"Pimpri Chinchwad","ulbcode":"802811","wardname":"7","wardcode":"7","id":null,"remark":"","st_area(shape)":0.00012900310737968737,"st_perimeter(shape)":0.06544046789209627}},{"type":"Feature","geometry":{"type":"Polygon","coordinates":[[[73.8162,18.6862],[73.8143,18.6886],[73.8144,18.6968],[73.812,18.7033],[73.809,18.7043],[73.8036,18.7013],[73.8004,18.7016],[73.7984,18.6972],[73.7986,18.6939],[73.7913,18.6785],[73.7909,18.677],[73.7928,18.6766],[73.7913,18.6702],[73.7984,18.6702],[73.8073,18.6761],[73.8162,18.6862]]]},"properties":{"objectid":237431,"statename":"Maharashtra","statecode":"27","districtname":"Pune","districtcode":"521","ulbname":"Pimpri Chinchwad","ulbcode":"802811","wardname":"1","wardcode":"1","id":null,"remark":"","st_area(shape)":0.0005267008576748884,"st_perimeter(shape)":0.10059427732424993}},{"type":"Feature","geometry":{"type":"Polygon","coordinates":[[[73.8012,18.7017],[73.7878,18.7155],[73.7873,18.7208],[73.7831,18.7203],[73.7836,18.7183],[73.779,18.7017],[73.7867,18.6991],[73.7862,18.6961],[73.7877,18.69],[73.7867,18.6866],[73.7842,18.6858],[73.7831,18.6804],[73.7789,18.6786],[73.7774,18.6723],[73.7856,18.6681],[73.7893,18.6692],[73.7896,18.6705],[73.7913,18.6702],[73.7928,18.6766],[73.7909,18.677],[73.7913,18.6785],[73.7986,18.6939],[73.7986,18.698],[73.8012,18.7017]]]},"properties":{"objectid":237432,"statename":"Maharashtra","statecode":"27","districtname":"Pune","districtcode":"521","ulbname":"Pimpri Chinchwad","ulbcode":"802811","wardname":"12","wardcode":"12","id":null,"remark":"","st_area(shape)":0.000590935001317372,"st_perimeter(shape)":0.14620771174774072}},{"type":"Feature","geometry":{"type":"Polygon","coordinates":[[[73.7796,18.6009],[73.782,18.6011],[73.7828,18.5998],[73.7875,18.599],[73.7874,18.6046],[73.8007,18.6018],[73.7978,18.6033],[73.7952,18.6084],[73.7966,18.611],[73.7882,18.6124],[73.788,18.6143],[73.7853,18.6145],[73.7771,18.6036],[73.7796,18.6009]]]},"properties":{"objectid":237433,"statename":"Maharashtra","statecode":"27","districtname":"Pune","districtcode":"521","ulbname":"Pimpri Chinchwad","ulbcode":"802811","wardname":"27","wardcode":"27","id":null,"remark":"","st_area(shape)":0.00017138546410637028,"st_perimeter(shape)":0.07236535520303564}},{"type":"Feature","geometry":{"type":"Polygon","coordinates":[[[73.7842,18.6448],[73.7811,18.6314],[73.7825,18.6274],[73.7913,18.6306],[73.7938,18.6297],[73.7929,18.6271],[73.7949,18.6252],[73.8001,18.6218],[73.8028,18.6214],[73.8009,18.6246],[73.8028,18.6297],[73.7952,18.6387],[73.7928,18.6377],[73.7889,18.6428],[73.7842,18.6448]]]},"properties":{"objectid":237434,"statename":"Maharashtra","statecode":"27","districtname":"Pune","districtcode":"521","ulbname":"Pimpri Chinchwad","ulbcode":"802811","wardname":"19","wardcode":"19","id":null,"remark":"","st_area(shape)":0.00024788002957913365,"st_perimeter(shape)":0.08239752631045676}},{"type":"Feature","geometry":{"type":"Polygon","coordinates":[[[73.7665,18.6468],[73.7693,18.6441],[73.7678,18.6373],[73.7647,18.6395],[73.7543,18.6395],[73.754,18.6328],[73.7581,18.6292],[73.768,18.6247],[73.7752,18.6283],[73.7776,18.631],[73.7741,18.6313],[73.7747,18.6371],[73.776,18.638],[73.7739,18.6408],[73.7794,18.6409],[73.7821,18.6362],[73.7842,18.6448],[73.7728,18.6441],[73.7665,18.6468]]]},"properties":{"objectid":241451,"statename":"Maharashtra","statecode":"27","districtname":"Pune","districtcode":"521","ulbname":"Pimpri Chinchwad","ulbcode":"802811","wardname":"17","wardcode":"17","id":null,"remark":"","st_area(shape)":0.0003226034217172126,"st_perimeter(shape)":0.12037537940063835}},{"type":"Feature","geometry":{"type":"Polygon","coordinates":[[[73.823,18.6619],[73.8267,18.6595],[73.8247,18.6484],[73.8256,18.6461],[73.8246,18.6434],[73.8261,18.6408],[73.8239,18.6371],[73.8239,18.6317],[73.8244,18.6307],[73.8276,18.6328],[73.8289,18.6314],[73.8302,18.6324],[73.8402,18.6214],[73.8406,18.6235],[73.8434,18.6227],[73.8426,18.6269],[73.8439,18.6274],[73.844,18.6315],[73.8475,18.6331],[73.85,18.6326],[73.8507,18.6483],[73.8485,18.6617],[73.8244,18.6641],[73.823,18.6619]]]},"properties":{"objectid":241452,"statename":"Maharashtra","statecode":"27","districtname":"Pune","districtcode":"521","ulbname":"Pimpri Chinchwad","ulbcode":"802811","wardname":"8","wardcode":"8","id":null,"remark":"","st_area(shape)":0.0008420449727329887,"st_perimeter(shape)":0.14016008820750536}},{"type":"Feature","geometry":{"type":"Polygon","coordinates":[[[73.8056,18.6263],[73.8084,18.6231],[73.8148,18.6286],[73.8195,18.6297],[73.8193,18.6276],[73.8223,18.6274],[73.8243,18.6301],[73.8239,18.6371],[73.8262,18.6413],[73.8246,18.6434],[73.8256,18.6461],[73.8248,18.6509],[73.8267,18.6595],[73.8247,18.6615],[73.8141,18.6629],[73.8129,18.6619],[73.8059,18.638],[73.8079,18.6391],[73.8094,18.6383],[73.8091,18.6365],[73.8068,18.6351],[73.808,18.6333],[73.8077,18.6268],[73.8056,18.6263]]]},"properties":{"objectid":241453,"statename":"Maharashtra","statecode":"27","districtname":"Pune","districtcode":"521","ulbname":"Pimpri Chinchwad","ulbcode":"802811","wardname":"9","wardcode":"9","id":null,"remark":"","st_area(shape)":0.0005645800987922385,"st_perimeter(shape)":0.11964744847471973}},{"type":"Feature","geometry":{"type":"Polygon","coordinates":[[[73.7665,18.6468],[73.7595,18.6528],[73.7542,18.6611],[73.7438,18.6661],[73.7406,18.6738],[73.7369,18.6775],[73.7335,18.6743],[73.7302,18.6748],[73.7279,18.6718],[73.7226,18.6699],[73.7219,18.6714],[73.718,18.6708],[73.7165,18.6819],[73.7104,18.6878],[73.7121,18.685],[73.711,18.6603],[73.7146,18.6564],[73.7203,18.6536],[73.7233,18.6479],[73.7296,18.6462],[73.7344,18.6424],[73.7382,18.6456],[73.7439,18.6411],[73.7528,18.6421],[73.7556,18.6389],[73.762,18.6399],[73.7678,18.6373],[73.7693,18.6441],[73.7665,18.6468]]]},"properties":{"objectid":241454,"statename":"Maharashtra","statecode":"27","districtname":"Pune","districtcode":"521","ulbname":"Pimpri Chinchwad","ulbcode":"802811","wardname":"16","wardcode":"16","id":null,"remark":"","st_area(shape)":0.001261614445070116,"st_perimeter(shape)":0.21008361806912473}},{"type":"Feature","geometry":{"type":"Polygon","coordinates":[[[73.7974,18.6235],[73.7984,18.6205],[73.7967,18.6166],[73.7976,18.612],[73.7964,18.609],[73.7979,18.6041],[73.8004,18.6029],[73.8026,18.6033],[73.8038,18.6107],[73.8073,18.6146],[73.8053,18.6148],[73.8062,18.619],[73.8031,18.6222],[73.8015,18.6213],[73.7974,18.6235]]]},"properties":{"objectid":241455,"statename":"Maharashtra","statecode":"27","districtname":"Pune","districtcode":"521","ulbname":"Pimpri Chinchwad","ulbcode":"802811","wardname":"21","wardcode":"21","id":null,"remark":"","st_area(shape)":0.00013242767629275198,"st_perimeter(shape)":0.06102590538630869}},{"type":"Feature","geometry":{"type":"Polygon","coordinates":[[[73.814,18.6629],[73.816,18.6738],[73.8115,18.6746],[73.8109,18.6791],[73.7984,18.6702],[73.7896,18.6705],[73.7893,18.6692],[73.7856,18.6683],[73.7865,18.6641],[73.7904,18.662],[73.7918,18.6616],[73.793,18.6644],[73.7952,18.6644],[73.8073,18.6586],[73.8075,18.6595],[73.8123,18.658],[73.814,18.6629]]]},"properties":{"objectid":241456,"statename":"Maharashtra","statecode":"27","districtname":"Pune","districtcode":"521","ulbname":"Pimpri Chinchwad","ulbcode":"802811","wardname":"11","wardcode":"11","id":null,"remark":"","st_area(shape)":0.00031824583199068656,"st_perimeter(shape)":0.09300127498059625}},{"type":"Feature","geometry":{"type":"Polygon","coordinates":[[[73.7774,18.6591],[73.7736,18.6558],[73.7761,18.6492],[73.7813,18.6499],[73.7816,18.6451],[73.7882,18.6433],[73.7928,18.6377],[73.7952,18.6387],[73.7937,18.6403],[73.802,18.6452],[73.7955,18.6526],[73.7999,18.654],[73.8001,18.6567],[73.7957,18.6595],[73.7865,18.6641],[73.7774,18.6591]]]},"properties":{"objectid":241457,"statename":"Maharashtra","statecode":"27","districtname":"Pune","districtcode":"521","ulbname":"Pimpri Chinchwad","ulbcode":"802811","wardname":"14","wardcode":"14","id":null,"remark":"","st_area(shape)":0.0004006860884342693,"st_perimeter(shape)":0.09546670201762093}},{"type":"Feature","geometry":{"type":"Polygon","coordinates":[[[73.8244,18.6307],[73.8223,18.6274],[73.8193,18.6276],[73.8195,18.6297],[73.8148,18.6286],[73.8084,18.6231],[73.8028,18.6297],[73.8009,18.6246],[73.8064,18.6188],[73.8197,18.6093],[73.8239,18.6038],[73.8273,18.5954],[73.8289,18.5961],[73.831,18.5947],[73.8293,18.5974],[73.8299,18.599],[73.8276,18.6011],[73.8272,18.6049],[73.8251,18.6076],[73.8229,18.6081],[73.8259,18.6172],[73.8302,18.6188],[73.8416,18.6162],[73.8424,18.6188],[73.8302,18.6324],[73.8289,18.6314],[73.8276,18.6328],[73.8244,18.6307]]]},"properties":{"objectid":241458,"statename":"Maharashtra","statecode":"27","districtname":"Pune","districtcode":"521","ulbname":"Pimpri Chinchwad","ulbcode":"802811","wardname":"20","wardcode":"20","id":null,"remark":"","st_area(shape)":0.0005090337601042724,"st_perimeter(shape)":0.1557241717660411}},{"type":"Feature","geometry":{"type":"Polygon","coordinates":[[[73.8311,18.5948],[73.8289,18.5961],[73.8273,18.5954],[73.8237,18.6041],[73.8175,18.6112],[73.8182,18.6096],[73.8159,18.6087],[73.8158,18.6055],[73.82,18.6053],[73.822,18.6028],[73.8187,18.5978],[73.8191,18.5955],[73.8254,18.594],[73.8294,18.5885],[73.8256,18.5812],[73.8209,18.5794],[73.8206,18.578],[73.8242,18.5757],[73.8288,18.5768],[73.8316,18.5737],[73.8361,18.5759],[73.8337,18.5874],[73.8316,18.5908],[73.8325,18.5944],[73.8311,18.5948]]]},"properties":{"objectid":241459,"statename":"Maharashtra","statecode":"27","districtname":"Pune","districtcode":"521","ulbname":"Pimpri Chinchwad","ulbcode":"802811","wardname":"30","wardcode":"30","id":null,"remark":"","st_area(shape)":0.00022884362034381284,"st_perimeter(shape)":0.13869653460556072}},{"type":"Feature","geometry":{"type":"Polygon","coordinates":[[[73.7673,18.6243],[73.7539,18.6309],[73.7533,18.6414],[73.7504,18.6413],[73.7487,18.6397],[73.7441,18.6402],[73.7381,18.6449],[73.7352,18.6417],[73.7319,18.6434],[73.7224,18.6175],[73.7402,18.6135],[73.7375,18.605],[73.7399,18.5992],[73.7443,18.5945],[73.749,18.5921],[73.7508,18.5878],[73.7538,18.5878],[73.756,18.5845],[73.7597,18.5877],[73.7632,18.5888],[73.7627,18.5923],[73.7651,18.6078],[73.7612,18.6079],[73.7613,18.6089],[73.764,18.6173],[73.7662,18.6189],[73.7673,18.6243]]]},"properties":{"objectid":246210,"statename":"Maharashtra","statecode":"27","districtname":"Pune","districtcode":"521","ulbname":"Pimpri Chinchwad","ulbcode":"802811","wardname":"25","wardcode":"25","id":null,"remark":"","st_area(shape)":0.001455067188971212,"st_perimeter(shape)":0.1953214327238178}},{"type":"Feature","geometry":{"type":"Polygon","coordinates":[[[73.7849,18.6168],[73.7829,18.6169],[73.778,18.6235],[73.7777,18.6274],[73.7755,18.6278],[73.7762,18.6179],[73.7728,18.6071],[73.7771,18.6036],[73.7843,18.6123],[73.7857,18.6157],[73.7849,18.6168]]]},"properties":{"objectid":246211,"statename":"Maharashtra","statecode":"27","districtname":"Pune","districtcode":"521","ulbname":"Pimpri Chinchwad","ulbcode":"802811","wardname":"23","wardcode":"23","id":null,"remark":"","st_area(shape)":0.0001390825615443231,"st_perimeter(shape)":0.06128848921923665}},{"type":"Feature","geometry":{"type":"Polygon","coordinates":[[[73.7856,18.6681],[73.7774,18.6723],[73.7712,18.6659],[73.7774,18.6591],[73.781,18.6619],[73.7861,18.6635],[73.7856,18.6681]]]},"properties":{"objectid":246212,"statename":"Maharashtra","statecode":"27","districtname":"Pune","districtcode":"521","ulbname":"Pimpri Chinchwad","ulbcode":"802811","wardname":"13","wardcode":"13","id":null,"remark":"","st_area(shape)":0.00010937043711721825,"st_perimeter(shape)":0.04282184434562683}},{"type":"Feature","geometry":{"type":"Polygon","coordinates":[[[73.8006,18.6021],[73.7874,18.6046],[73.7875,18.599],[73.7828,18.5998],[73.782,18.6011],[73.7796,18.6009],[73.7851,18.5923],[73.7868,18.5939],[73.7886,18.5937],[73.7883,18.5922],[73.8,18.589],[73.7999,18.5877],[73.8013,18.5873],[73.8039,18.5882],[73.8039,18.5894],[73.8058,18.5894],[73.8058,18.5912],[73.8088,18.5946],[73.8093,18.6029],[73.8006,18.6021]]]},"properties":{"objectid":246213,"statename":"Maharashtra","statecode":"27","districtname":"Pune","districtcode":"521","ulbname":"Pimpri Chinchwad","ulbcode":"802811","wardname":"28","wardcode":"28","id":null,"remark":"","st_area(shape)":0.0003059893956215137,"st_perimeter(shape)":0.09265078692545846}},{"type":"Feature","geometry":{"type":"Polygon","coordinates":[[[73.8098,18.6789],[73.8111,18.6789],[73.8119,18.6773],[73.8115,18.6746],[73.816,18.6738],[73.814,18.6629],[73.823,18.6619],[73.8244,18.6641],[73.8485,18.6617],[73.8483,18.671],[73.8498,18.678],[73.8472,18.6833],[73.8464,18.6888],[73.8419,18.6871],[73.8329,18.6898],[73.8225,18.687],[73.8193,18.6848],[73.8162,18.6862],[73.8098,18.6789]]]},"properties":{"objectid":247054,"statename":"Maharashtra","statecode":"27","districtname":"Pune","districtcode":"521","ulbname":"Pimpri Chinchwad","ulbcode":"802811","wardname":"2","wardcode":"2","id":null,"remark":"","st_area(shape)":0.0008635787917632779,"st_perimeter(shape)":0.1292574297115421}},{"type":"Feature","geometry":{"type":"Polygon","coordinates":[[[73.8586,18.6258],[73.8597,18.6427],[73.8576,18.6452],[73.8578,18.6485],[73.8507,18.6476],[73.85,18.6326],[73.8475,18.6331],[73.844,18.6315],[73.8439,18.6274],[73.8522,18.6267],[73.8514,18.6237],[73.8545,18.6261],[73.8586,18.6258]]]},"properties":{"objectid":247055,"statename":"Maharashtra","statecode":"27","districtname":"Pune","districtcode":"521","ulbname":"Pimpri Chinchwad","ulbcode":"802811","wardname":"6","wardcode":"6","id":null,"remark":"","st_area(shape)":0.00023235095972168088,"st_perimeter(shape)":0.08034676767401372}},{"type":"Feature","geometry":{"type":"Polygon","coordinates":[[[73.7816,18.6451],[73.7813,18.6499],[73.7761,18.6492],[73.7736,18.6558],[73.7774,18.6591],[73.7716,18.6655],[73.7612,18.6665],[73.7585,18.6693],[73.7603,18.6652],[73.7555,18.6596],[73.7601,18.6522],[73.7705,18.6446],[73.7816,18.6451]]]},"properties":{"objectid":247056,"statename":"Maharashtra","statecode":"27","districtname":"Pune","districtcode":"521","ulbname":"Pimpri Chinchwad","ulbcode":"802811","wardname":"15","wardcode":"15","id":null,"remark":"","st_area(shape)":0.00034889713801464434,"st_perimeter(shape)":0.09147929298697514}},{"type":"Feature","geometry":{"type":"Polygon","coordinates":[[[73.8514,18.6237],[73.851,18.6215],[73.8633,18.6178],[73.8682,18.629],[73.8622,18.6259],[73.8545,18.6261],[73.8514,18.6237]]]},"properties":{"objectid":247057,"statename":"Maharashtra","statecode":"27","districtname":"Pune","districtcode":"521","ulbname":"Pimpri Chinchwad","ulbcode":"802811","wardname":"5","wardcode":"5","id":null,"remark":"","st_area(shape)":9.202351334451322e-05,"st_perimeter(shape)":0.047404198134201124}},{"type":"Feature","geometry":{"type":"Polygon","coordinates":[[[73.7904,18.662],[73.8001,18.6567],[73.7999,18.654],[73.7955,18.6526],[73.802,18.6452],[73.7937,18.6403],[73.8056,18.6263],[73.8077,18.6268],[73.808,18.6333],[73.8068,18.6351],[73.8091,18.6365],[73.8094,18.6383],[73.8079,18.6391],[73.8059,18.638],[73.8123,18.658],[73.8075,18.6595],[73.8073,18.6586],[73.7952,18.6644],[73.793,18.6644],[73.7918,18.6616],[73.7904,18.662]]]},"properties":{"objectid":247058,"statename":"Maharashtra","statecode":"27","districtname":"Pune","districtcode":"521","ulbname":"Pimpri Chinchwad","ulbcode":"802811","wardname":"10","wardcode":"10","id":null,"remark":"","st_area(shape)":0.000356706015662321,"st_perimeter(shape)":0.12599429513428764}},{"type":"Feature","geometry":{"type":"Polygon","coordinates":[[[73.8753,18.6335],[73.8751,18.6376],[73.8806,18.6455],[73.8843,18.6449],[73.8852,18.6428],[73.889,18.6411],[73.8891,18.642],[73.8911,18.6417],[73.8925,18.639],[73.8959,18.6378],[73.8959,18.6337],[73.899,18.6337],[73.8985,18.6298],[73.9001,18.63],[73.8997,18.6274],[73.9048,18.6278],[73.9016,18.6186],[73.906,18.6166],[73.9105,18.6181],[73.9149,18.6168],[73.9227,18.6189],[73.9231,18.6208],[73.9299,18.6207],[73.9308,18.6232],[73.9336,18.6255],[73.9319,18.6305],[73.9339,18.6348],[73.9304,18.651],[73.9273,18.6519],[73.9216,18.6512],[73.9169,18.655],[73.9067,18.6575],[73.8993,18.668],[73.895,18.6673],[73.8937,18.6645],[73.8848,18.6694],[73.8881,18.6773],[73.8834,18.6782],[73.8757,18.6859],[73.8682,18.6868],[73.8622,18.6802],[73.8604,18.6798],[73.8561,18.6823],[73.8511,18.6885],[73.8464,18.6888],[73.8472,18.6833],[73.8498,18.678],[73.8483,18.671],[73.8484,18.6601],[73.8507,18.6476],[73.8578,18.6485],[73.8576,18.6452],[73.8597,18.6427],[73.864,18.6427],[73.864,18.6339],[73.8598,18.6339],[73.8585,18.6327],[73.8596,18.6317],[73.8586,18.6258],[73.8622,18.6259],[73.8753,18.6335]]]},"properties":{"objectid":247059,"statename":"Maharashtra","statecode":"27","districtname":"Pune","districtcode":"521","ulbname":"Pimpri Chinchwad","ulbcode":"802811","wardname":"3","wardcode":"3","id":null,"remark":"","st_area(shape)":0.003229425605628413,"st_perimeter(shape)":0.35717833899346035}},{"type":"Feature","geometry":{"type":"Polygon","coordinates":[[[73.7929,18.6271],[73.7938,18.6297],[73.7904,18.6307],[73.7825,18.6274],[73.781,18.6305],[73.782,18.6371],[73.7794,18.6409],[73.7739,18.6408],[73.776,18.638],[73.7747,18.6371],[73.7741,18.6313],[73.7776,18.631],[73.7754,18.6284],[73.7781,18.628],[73.7785,18.6236],[73.7835,18.6169],[73.7881,18.6203],[73.7887,18.6275],[73.7908,18.6285],[73.7929,18.6271]]]},"properties":{"objectid":247060,"statename":"Maharashtra","statecode":"27","districtname":"Pune","districtcode":"521","ulbname":"Pimpri Chinchwad","ulbcode":"802811","wardname":"18","wardcode":"18","id":null,"remark":"","st_area(shape)":0.00018491957526483912,"st_perimeter(shape)":0.09371819534205392}},{"type":"Feature","geometry":{"type":"Polygon","coordinates":[[[73.7648,18.6047],[73.7702,18.6037],[73.772,18.6077],[73.7728,18.6071],[73.7762,18.6179],[73.7755,18.6278],[73.7667,18.6238],[73.7662,18.6189],[73.764,18.6173],[73.7613,18.6089],[73.7612,18.6079],[73.7651,18.6078],[73.7648,18.6047]]]},"properties":{"objectid":247061,"statename":"Maharashtra","statecode":"27","districtname":"Pune","districtcode":"521","ulbname":"Pimpri Chinchwad","ulbcode":"802811","wardname":"24","wardcode":"24","id":null,"remark":"","st_area(shape)":0.0002202037145786346,"st_perimeter(shape)":0.06994703949526768}},{"type":"Feature","geometry":{"type":"MultiPolygon","coordinates":[[[[73.7728,18.6071],[73.772,18.6077],[73.7702,18.6037],[73.7648,18.6047],[73.763,18.5891],[73.769,18.5874],[73.7749,18.5887],[73.7774,18.5878],[73.7816,18.5781],[73.7903,18.5714],[73.7903,18.5686],[73.7887,18.5665],[73.7892,18.5648],[73.793,18.5643],[73.7961,18.5671],[73.7955,18.5748],[73.7925,18.575],[73.7925,18.5771],[73.7888,18.5777],[73.7866,18.5798],[73.7876,18.5814],[73.7847,18.5864],[73.7854,18.5919],[73.7786,18.6023],[73.7728,18.6071]]],[[[73.7971,18.5811],[73.793,18.5835],[73.7918,18.5816],[73.796,18.5792],[73.7971,18.5811]]],[[[73.7998,18.5801],[73.7985,18.5812],[73.798,18.579],[73.7995,18.5773],[73.7998,18.5801]]]]},"properties":{"objectid":247062,"statename":"Maharashtra","statecode":"27","districtname":"Pune","districtcode":"521","ulbname":"Pimpri Chinchwad","ulbcode":"802811","wardname":"26","wardcode":"26","id":null,"remark":"","st_area(shape)":0.00048199520228569995,"st_perimeter(shape)":0.15813998803460227}},{"type":"Feature","geometry":{"type":"MultiPolygon","coordinates":[[[[73.8753,18.6335],[73.8682,18.629],[73.8642,18.6202],[73.8688,18.6196],[73.8683,18.6156],[73.8717,18.6147],[73.8717,18.6127],[73.8739,18.613],[73.8775,18.6112],[73.8774,18.6124],[73.8794,18.6119],[73.8801,18.6136],[73.8802,18.6153],[73.8789,18.6155],[73.8799,18.6215],[73.8758,18.6217],[73.8765,18.6238],[73.8746,18.6236],[73.8753,18.6335]]],[[[73.8628,18.5886],[73.864,18.5939],[73.8697,18.6029],[73.8704,18.6084],[73.8634,18.6072],[73.8608,18.6015],[73.8623,18.596],[73.86,18.5918],[73.8603,18.588],[73.8548,18.5872],[73.8528,18.5855],[73.8528,18.5825],[73.8607,18.5844],[73.8598,18.5874],[73.8628,18.5886]]]]},"properties":{"objectid":247063,"statename":"Maharashtra","statecode":"27","districtname":"Pune","districtcode":"521","ulbname":"Pimpri Chinchwad","ulbcode":"802811","wardname":"4","wardcode":"4","id":null,"remark":"","st_area(shape)":0.00031770831285579004,"st_perimeter(shape)":0.14954530097330754}}]}