{"type":"FeatureCollection","features":[{"type":"Feature","geometry":{"type":"Polygon","coordinates":[[[73.8793,18.5302],[73.8748,18.53],[73.8733,18.541],[73.8653,18.5377],[73.8606,18.5318],[73.8607,18.5286],[73.8633,18.5287],[73.8675,18.5255],[73.8687,18.5131],[73.8723,18.5093],[73.8768,18.5076],[73.873,18.5173],[73.8763,18.5184],[73.8774,18.5216],[73.8789,18.5208],[73.8806,18.5242],[73.8787,18.5246],[73.8793,18.5302]]]},"properties":{"objectid":32049,"statename":"Maharashtra","statecode":"27","districtname":"Pune","districtcode":"521","ulbname":"Pune","ulbcode":"802814","wardname":"Prabhag No. 20","wardcode":"20","id":null,"remark":"Ward 20","st_area(shape)":0.0003043641768377235,"st_perimeter(shape)":0.10117282123873178}},{"type":"Feature","geometry":{"type":"Polygon","coordinates":[[[73.843,18.5137],[73.8369,18.5069],[73.8368,18.501],[73.8416,18.501],[73.8416,18.502],[73.8454,18.5028],[73.8457,18.5011],[73.8505,18.4996],[73.8491,18.4961],[73.8472,18.4969],[73.8462,18.4955],[73.8472,18.4927],[73.8577,18.4924],[73.8584,18.5011],[73.843,18.5137]]]},"properties":{"objectid":32050,"statename":"Maharashtra","statecode":"27","districtname":"Pune","districtcode":"521","ulbname":"Pune","ulbcode":"802814","wardname":"Prabhag No. 29","wardcode":"29","id":null,"remark":"Ward 29","st_area(shape)":0.00023265813579852274,"st_perimeter(shape)":0.08277339952251561}},{"type":"Feature","geometry":{"type":"Polygon","coordinates":[[[73.9097,18.4822],[73.9091,18.4807],[73.8974,18.4818],[73.8947,18.4807],[73.8933,18.4778],[73.8904,18.4779],[73.889,18.4704],[73.8897,18.4647],[73.9022,18.466],[73.9037,18.4635],[73.9193,18.4625],[73.9203,18.4605],[73.9226,18.46],[73.9247,18.4575],[73.9309,18.4647],[73.9403,18.4671],[73.9445,18.4803],[73.932,18.4891],[73.9315,18.4829],[73.9269,18.4835],[73.9261,18.48],[73.9228,18.4779],[73.9224,18.4757],[73.9163,18.4752],[73.9153,18.4774],[73.9104,18.4801],[73.9097,18.4822]]]},"properties":{"objectid":32051,"statename":"Maharashtra","statecode":"27","districtname":"Pune","districtcode":"521","ulbname":"Pune","ulbcode":"802814","wardname":"Prabhag No. 26","wardcode":"26","id":null,"remark":"Ward 26","st_area(shape)":0.000913075876305516,"st_perimeter(shape)":0.16384479820296155}},{"type":"Feature","geometry":{"type":"Polygon","coordinates":[[[73.8368,18.501],[73.8365,18.506],[73.84,18.5101],[73.8372,18.5116],[73.8361,18.5139],[73.8251,18.5162],[73.8241,18.512],[73.8276,18.5069],[73.8146,18.5015],[73.8133,18.4945],[73.8151,18.4931],[73.8181,18.4945],[73.8184,18.4927],[73.8268,18.4899],[73.8278,18.4884],[73.8368,18.501]]]},"properties":{"objectid":32052,"statename":"Maharashtra","statecode":"27","districtname":"Pune","districtcode":"521","ulbname":"Pune","ulbcode":"802814","wardname":"Prabhag No. 13","wardcode":"13","id":null,"remark":"Ward 13","st_area(shape)":0.00038379574834344486,"st_perimeter(shape)":0.09558377625831076}},{"type":"Feature","geometry":{"type":"Polygon","coordinates":[[[73.8043,18.4926],[73.8054,18.4921],[73.8046,18.4834],[73.8019,18.4829],[73.8094,18.4746],[73.8124,18.4793],[73.8198,18.4826],[73.8246,18.483],[73.8278,18.4884],[73.8268,18.4899],[73.8184,18.4927],[73.8181,18.4945],[73.8132,18.4924],[73.8043,18.4926]]]},"properties":{"objectid":32053,"statename":"Maharashtra","statecode":"27","districtname":"Pune","districtcode":"521","ulbname":"Pune","ulbcode":"802814","wardname":"Prabhag No. 31","wardcode":"31","id":null,"remark":"Ward 31","st_area(shape)":0.00026460794171618494,"st_perimeter(shape)":0.07729472978635854}},{"type":"Feature","geometry":{"type":"Polygon","coordinates":[[[73.8154,18.5256],[73.8223,18.5209],[73.8271,18.5193],[73.8295,18.523],[73.8297,18.5251],[73.8271,18.5239],[73.827,18.5281],[73.8271,18.5292],[73.83,18.529],[73.8297,18.5399],[73.8306,18.5408],[73.8432,18.532],[73.8529,18.5294],[73.8554,18.5303],[73.8542,18.5324],[73.8606,18.5318],[73.8653,18.5377],[73.8733,18.541],[73.8729,18.5428],[73.8661,18.5421],[73.8649,18.539],[73.8632,18.5392],[73.866,18.5421],[73.8599,18.5432],[73.8541,18.5423],[73.8569,18.5506],[73.8546,18.5521],[73.8477,18.5459],[73.8481,18.5444],[73.8345,18.5454],[73.8348,18.5512],[73.8329,18.5571],[73.8305,18.5557],[73.8286,18.5627],[73.8169,18.5628],[73.815,18.5604],[73.8181,18.5562],[73.8167,18.5556],[73.8165,18.5473],[73.8292,18.5418],[73.8189,18.5333],[73.8154,18.5256]]]},"properties":{"objectid":32054,"statename":"Maharashtra","statecode":"27","districtname":"Pune","districtcode":"521","ulbname":"Pune","ulbcode":"802814","wardname":"Prabhag No. 7","wardcode":"7","id":null,"remark":"Ward 7","st_area(shape)":0.0009054121408625143,"st_perimeter(shape)":0.25592823375635704}},{"type":"Feature","geometry":{"type":"Polygon","coordinates":[[[73.8904,18.4779],[73.8912,18.4821],[73.8895,18.4861],[73.8766,18.4819],[73.8776,18.4718],[73.8749,18.4721],[73.8775,18.4647],[73.8897,18.4647],[73.889,18.4704],[73.8904,18.4779]]]},"properties":{"objectid":32463,"statename":"Maharashtra","statecode":"27","districtname":"Pune","districtcode":"521","ulbname":"Pune","ulbcode":"802814","wardname":"Prabhag No. 27","wardcode":"27","id":null,"remark":"Ward 27","st_area(shape)":0.000255151640787793,"st_perimeter(shape)":0.06989728680232811}},{"type":"Feature","geometry":{"type":"Polygon","coordinates":[[[73.8889,18.5437],[73.9235,18.5387],[73.9316,18.5362],[73.9319,18.5374],[73.9287,18.5527],[73.9252,18.5527],[73.9263,18.5577],[73.9227,18.5585],[73.9215,18.558],[73.9208,18.5546],[73.9189,18.5549],[73.9187,18.561],[73.8963,18.5521],[73.8888,18.5458],[73.8889,18.5437]]]},"properties":{"objectid":32464,"statename":"Maharashtra","statecode":"27","districtname":"Pune","districtcode":"521","ulbname":"Pune","ulbcode":"802814","wardname":"Prabhag No. 5","wardcode":"5","id":null,"remark":"Ward 5","st_area(shape)":0.0005970273090554394,"st_perimeter(shape)":0.12337351264888524}},{"type":"Feature","geometry":{"type":"Polygon","coordinates":[[[73.8062,18.5073],[73.8194,18.5105],[73.8248,18.5061],[73.8276,18.5069],[73.8241,18.512],[73.8249,18.5161],[73.8271,18.5193],[73.8223,18.5209],[73.8154,18.5256],[73.8123,18.5242],[73.8047,18.5243],[73.7987,18.523],[73.7939,18.5181],[73.7958,18.5173],[73.7987,18.5118],[73.8059,18.5128],[73.8062,18.5073]]]},"properties":{"objectid":32465,"statename":"Maharashtra","statecode":"27","districtname":"Pune","districtcode":"521","ulbname":"Pune","ulbcode":"802814","wardname":"Prabhag No. 11","wardcode":"11","id":null,"remark":"Ward 11","st_area(shape)":0.00038883188136450494,"st_perimeter(shape)":0.09928745461876427}},{"type":"Feature","geometry":{"type":"Polygon","coordinates":[[[73.7992,18.4667],[73.8016,18.457],[73.797,18.4563],[73.7948,18.4516],[73.7958,18.4514],[73.7969,18.4469],[73.8067,18.4474],[73.8077,18.4437],[73.8102,18.4472],[73.8207,18.4472],[73.8174,18.4565],[73.8136,18.4592],[73.8314,18.4616],[73.832,18.4648],[73.8366,18.4654],[73.8377,18.4696],[73.8278,18.4733],[73.8276,18.4714],[73.825,18.4689],[73.8188,18.4677],[73.8162,18.4653],[73.8134,18.4684],[73.8139,18.4706],[73.8127,18.4718],[73.8115,18.4707],[73.8071,18.4717],[73.7992,18.4667]]]},"properties":{"objectid":32466,"statename":"Maharashtra","statecode":"27","districtname":"Pune","districtcode":"521","ulbname":"Pune","ulbcode":"802814","wardname":"Prabhag No. 33","wardcode":"33","id":null,"remark":"Ward 33","st_area(shape)":0.0005944314172580469,"st_perimeter(shape)":0.1559975540092489}},{"type":"Feature","geometry":{"type":"Polygon","coordinates":[[[73.9414,18.5767],[73.9435,18.5759],[73.9435,18.5744],[73.9378,18.5736],[73.9374,18.5758],[73.9346,18.5758],[73.9361,18.5734],[73.9342,18.5724],[73.9314,18.5748],[73.9305,18.5728],[73.9315,18.572],[73.9282,18.5715],[73.9274,18.5697],[73.9275,18.5684],[73.9344,18.5683],[73.9345,18.5633],[73.9279,18.5628],[73.9282,18.5574],[73.9263,18.5577],[73.9252,18.5527],[73.9287,18.5527],[73.9316,18.5415],[73.9316,18.5362],[73.9394,18.5361],[73.9435,18.5436],[73.9461,18.5454],[73.9609,18.5462],[73.9629,18.5484],[73.9627,18.5502],[73.9597,18.5518],[73.959,18.558],[73.9546,18.5624],[73.9511,18.5687],[73.9436,18.5647],[73.9481,18.5677],[73.9436,18.5739],[73.9468,18.5739],[73.9468,18.5765],[73.9414,18.5767]]]},"properties":{"objectid":32875,"statename":"Maharashtra","statecode":"27","districtname":"Pune","districtcode":"521","ulbname":"Pune","ulbcode":"802814","wardname":"Prabhag No. 4","wardcode":"4","id":null,"remark":"Ward 4","st_area(shape)":0.0008456414642458695,"st_perimeter(shape)":0.18412196422347446}},{"type":"Feature","geometry":{"type":"Polygon","coordinates":[[[73.8749,18.4721],[73.8776,18.4718],[73.8766,18.4819],[73.8724,18.4808],[73.8701,18.4895],[73.8631,18.4895],[73.863,18.4854],[73.859,18.4854],[73.8575,18.4871],[73.8562,18.4755],[73.8577,18.4684],[73.8612,18.4689],[73.8616,18.4664],[73.8645,18.4669],[73.8637,18.4711],[73.8664,18.4714],[73.872,18.4693],[73.8737,18.4697],[73.8737,18.4721],[73.8749,18.4721]]]},"properties":{"objectid":32876,"statename":"Maharashtra","statecode":"27","districtname":"Pune","districtcode":"521","ulbname":"Pune","ulbcode":"802814","wardname":"Prabhag No. 36","wardcode":"36","id":null,"remark":"Ward 36","st_area(shape)":0.0003218773305946918,"st_perimeter(shape)":0.09141968649655441}},{"type":"Feature","geometry":{"type":"Polygon","coordinates":[[[73.8727,18.5719],[73.8713,18.5662],[73.8726,18.5586],[73.8811,18.5555],[73.8788,18.5543],[73.8794,18.5528],[73.8896,18.5527],[73.8915,18.5592],[73.8973,18.5578],[73.8986,18.5622],[73.8943,18.5651],[73.8999,18.5729],[73.8993,18.5754],[73.8957,18.5748],[73.8964,18.5832],[73.8853,18.5779],[73.884,18.5734],[73.8781,18.5727],[73.8792,18.5691],[73.8727,18.5719]]]},"properties":{"objectid":32878,"statename":"Maharashtra","statecode":"27","districtname":"Pune","districtcode":"521","ulbname":"Pune","ulbcode":"802814","wardname":"Prabhag No. 2","wardcode":"2","id":null,"remark":"Ward 2","st_area(shape)":0.0005093613108003105,"st_perimeter(shape)":0.12048286458337837}},{"type":"Feature","geometry":{"type":"Polygon","coordinates":[[[73.7939,18.5181],[73.7918,18.516],[73.7864,18.5167],[73.7828,18.5231],[73.7835,18.5243],[73.7784,18.5272],[73.7766,18.5264],[73.7776,18.5237],[73.7753,18.5208],[73.7768,18.5171],[73.7746,18.5132],[73.769,18.5126],[73.769,18.5098],[73.7665,18.5095],[73.7678,18.5085],[73.7662,18.5065],[73.7622,18.5056],[73.7618,18.5042],[73.7603,18.5039],[73.7605,18.5023],[73.7672,18.4964],[73.7651,18.4924],[73.7691,18.4847],[73.7741,18.4887],[73.777,18.4956],[73.7832,18.5004],[73.7921,18.4963],[73.7971,18.4926],[73.8,18.4922],[73.8016,18.4934],[73.8025,18.5055],[73.8028,18.507],[73.8062,18.5073],[73.8059,18.5128],[73.7987,18.5118],[73.7958,18.5173],[73.7939,18.5181]]]},"properties":{"objectid":32879,"statename":"Maharashtra","statecode":"27","districtname":"Pune","districtcode":"521","ulbname":"Pune","ulbcode":"802814","wardname":"Prabhag No. 10","wardcode":"10","id":null,"remark":"Ward 10","st_area(shape)":0.0008827637177322106,"st_perimeter(shape)":0.17432004791741676}},{"type":"Feature","geometry":{"type":"Polygon","coordinates":[[[73.8645,18.4669],[73.8651,18.4631],[73.8675,18.461],[73.8777,18.4612],[73.8749,18.4722],[73.8737,18.4721],[73.8737,18.4697],[73.872,18.4693],[73.8664,18.4714],[73.8637,18.4711],[73.8645,18.4669]]]},"properties":{"objectid":33170,"statename":"Maharashtra","statecode":"27","districtname":"Pune","districtcode":"521","ulbname":"Pune","ulbcode":"802814","wardname":"Prabhag No. 37","wardcode":"37","id":null,"remark":"Ward 37","st_area(shape)":0.00011199396216971829,"st_perimeter(shape)":0.04825010643599039}},{"type":"Feature","geometry":{"type":"Polygon","coordinates":[[[73.9572,18.495],[73.9587,18.5041],[73.9439,18.5036],[73.945,18.5101],[73.9324,18.5104],[73.9339,18.5156],[73.9334,18.5217],[73.935,18.5238],[73.9403,18.5245],[73.9356,18.5336],[73.9369,18.5357],[73.917,18.5393],[73.9174,18.5197],[73.919,18.5201],[73.9219,18.5093],[73.9246,18.5079],[73.9245,18.5032],[73.944,18.5001],[73.944,18.4981],[73.9516,18.4972],[73.9572,18.495]]]},"properties":{"objectid":33171,"statename":"Maharashtra","statecode":"27","districtname":"Pune","districtcode":"521","ulbname":"Pune","ulbcode":"802814","wardname":"Prabhag No. 22","wardcode":"22","id":null,"remark":"Ward 22","st_area(shape)":0.0007480206158472051,"st_perimeter(shape)":0.17437111353557164}},{"type":"Feature","geometry":{"type":"Polygon","coordinates":[[[73.9414,18.5767],[73.9417,18.5795],[73.9437,18.5802],[73.9435,18.5894],[73.9458,18.5922],[73.9316,18.5959],[73.9271,18.5944],[73.925,18.5962],[73.9229,18.5936],[73.9167,18.5916],[73.9125,18.5872],[73.9114,18.5874],[73.9116,18.5907],[73.9094,18.5907],[73.9094,18.5917],[73.9003,18.5889],[73.8979,18.5835],[73.8964,18.5832],[73.8957,18.5748],[73.8993,18.5754],[73.8999,18.5727],[73.8943,18.5651],[73.8986,18.5622],[73.8973,18.5578],[73.8915,18.5592],[73.8888,18.5458],[73.8963,18.5521],[73.9059,18.5551],[73.9104,18.5582],[73.9182,18.5609],[73.9183,18.5552],[73.9193,18.5548],[73.9208,18.5546],[73.9215,18.558],[73.9227,18.5585],[73.9282,18.5574],[73.9279,18.5628],[73.9345,18.5633],[73.9344,18.5684],[73.9275,18.5684],[73.9282,18.5715],[73.9315,18.572],[73.9305,18.5728],[73.9314,18.5748],[73.9342,18.5724],[73.9361,18.5734],[73.9346,18.5758],[73.9374,18.5758],[73.9378,18.5736],[73.9435,18.5744],[73.9435,18.5759],[73.9414,18.5767]]]},"properties":{"objectid":33172,"statename":"Maharashtra","statecode":"27","districtname":"Pune","districtcode":"521","ulbname":"Pune","ulbcode":"802814","wardname":"Prabhag No. 3","wardcode":"3","id":null,"remark":"Ward 3","st_area(shape)":0.001472389708101301,"st_perimeter(shape)":0.25038829204059815}},{"type":"Feature","geometry":{"type":"Polygon","coordinates":[[[73.917,18.5393],[73.8902,18.5438],[73.8794,18.5429],[73.8733,18.541],[73.8748,18.53],[73.8857,18.5316],[73.8855,18.53],[73.8868,18.5298],[73.8871,18.5313],[73.8973,18.5272],[73.9073,18.5138],[73.9152,18.5058],[73.9245,18.5032],[73.9247,18.5078],[73.9219,18.5093],[73.919,18.5201],[73.9096,18.5199],[73.9096,18.5291],[73.9174,18.5281],[73.917,18.5393]],[[73.9026,18.5371],[73.9044,18.5381],[73.9042,18.5368],[73.9069,18.5364],[73.9062,18.5295],[73.901,18.5304],[73.901,18.5365],[73.9026,18.5371]],[[73.8993,18.5274],[73.9016,18.5289],[73.9011,18.525],[73.8981,18.5272],[73.8993,18.5274]]]},"properties":{"objectid":33173,"statename":"Maharashtra","statecode":"27","districtname":"Pune","districtcode":"521","ulbname":"Pune","ulbcode":"802814","wardname":"Prabhag No. 21","wardcode":"21","id":null,"remark":"Ward 21","st_area(shape)":0.0007708319784241746,"st_perimeter(shape)":0.22009794929784451}},{"type":"Feature","geometry":{"type":"Polygon","coordinates":[[[73.8278,18.4884],[73.8314,18.4866],[73.8363,18.4882],[73.8403,18.4877],[73.8408,18.4912],[73.8428,18.4936],[73.8472,18.4969],[73.8491,18.4961],[73.8505,18.4996],[73.8457,18.5011],[73.8454,18.5028],[73.8416,18.502],[73.8416,18.501],[73.8368,18.501],[73.8278,18.4884]]]},"properties":{"objectid":33605,"statename":"Maharashtra","statecode":"27","districtname":"Pune","districtcode":"521","ulbname":"Pune","ulbcode":"802814","wardname":"Prabhag No. 30","wardcode":"30","id":null,"remark":"Ward 30","st_area(shape)":0.0001765548323375316,"st_perimeter(shape)":0.06480290259407372}},{"type":"Feature","geometry":{"type":"Polygon","coordinates":[[[73.8577,18.4684],[73.8562,18.4755],[73.8577,18.4924],[73.8472,18.4927],[73.8453,18.4955],[73.8408,18.4912],[73.8403,18.4877],[73.8424,18.4861],[73.8439,18.4816],[73.8453,18.482],[73.8436,18.4721],[73.8447,18.4684],[73.8577,18.4684]]]},"properties":{"objectid":33606,"statename":"Maharashtra","statecode":"27","districtname":"Pune","districtcode":"521","ulbname":"Pune","ulbcode":"802814","wardname":"Prabhag No. 35","wardcode":"35","id":null,"remark":"Ward 35","st_area(shape)":0.00035174013959498034,"st_perimeter(shape)":0.08634423802689843}},{"type":"Feature","geometry":{"type":"Polygon","coordinates":[[[73.7741,18.4887],[73.7771,18.4855],[73.7777,18.4805],[73.7926,18.4789],[73.7956,18.4757],[73.7871,18.4689],[73.7933,18.4712],[73.7981,18.4695],[73.7992,18.4667],[73.8089,18.4733],[73.8094,18.4746],[73.8019,18.4829],[73.8046,18.4834],[73.8054,18.4921],[73.8043,18.4926],[73.8014,18.4934],[73.8,18.4922],[73.7971,18.4926],[73.7921,18.4963],[73.7832,18.5004],[73.777,18.4956],[73.7741,18.4887]]]},"properties":{"objectid":33607,"statename":"Maharashtra","statecode":"27","districtname":"Pune","districtcode":"521","ulbname":"Pune","ulbcode":"802814","wardname":"Prabhag No. 32","wardcode":"32","id":null,"remark":"Ward 32","st_area(shape)":0.0006064601308495385,"st_perimeter(shape)":0.135416085746475}},{"type":"Feature","geometry":{"type":"Polygon","coordinates":[[[73.9445,18.4803],[73.9501,18.4938],[73.9569,18.4933],[73.9572,18.495],[73.9516,18.4972],[73.944,18.4981],[73.944,18.5001],[73.9285,18.5022],[73.9274,18.4935],[73.932,18.4889],[73.9445,18.4803]]]},"properties":{"objectid":33608,"statename":"Maharashtra","statecode":"27","districtname":"Pune","districtcode":"521","ulbname":"Pune","ulbcode":"802814","wardname":"Prabhag No. 23","wardcode":"23","id":null,"remark":"Ward 23","st_area(shape)":0.0003259187883166053,"st_perimeter(shape)":0.08626635962963271}},{"type":"Feature","geometry":{"type":"Polygon","coordinates":[[[73.8576,18.5127],[73.8591,18.5042],[73.8585,18.5006],[73.8653,18.5],[73.8649,18.5061],[73.8685,18.5063],[73.8683,18.5105],[73.8621,18.5105],[73.8618,18.5131],[73.8576,18.5127]]]},"properties":{"objectid":33609,"statename":"Maharashtra","statecode":"27","districtname":"Pune","districtcode":"521","ulbname":"Pune","ulbcode":"802814","wardname":"Prabhag No. 18","wardcode":"18","id":null,"remark":"Ward 18","st_area(shape)":9.391295728312163e-05,"st_perimeter(shape)":0.04728659174844882}},{"type":"Feature","geometry":{"type":"Polygon","coordinates":[[[73.858,18.4603],[73.8577,18.4684],[73.8464,18.4686],[73.8447,18.4684],[73.8456,18.4651],[73.8419,18.4647],[73.8411,18.4585],[73.846,18.4591],[73.8464,18.4576],[73.8484,18.4578],[73.8495,18.4565],[73.8525,18.4614],[73.8529,18.4601],[73.858,18.4603]]]},"properties":{"objectid":33610,"statename":"Maharashtra","statecode":"27","districtname":"Pune","districtcode":"521","ulbname":"Pune","ulbcode":"802814","wardname":"Prabhag No. 39","wardcode":"39","id":null,"remark":"Ward 39","st_area(shape)":0.00013750431609358497,"st_perimeter(shape)":0.05912841296934789}},{"type":"Feature","geometry":{"type":"Polygon","coordinates":[[[73.8285,18.5421],[73.8085,18.5388],[73.8089,18.5502],[73.8049,18.5511],[73.803,18.5608],[73.7977,18.5599],[73.796,18.561],[73.7947,18.563],[73.7962,18.5642],[73.7961,18.5669],[73.7927,18.5634],[73.7885,18.5646],[73.7898,18.5714],[73.7815,18.5778],[73.7785,18.5858],[73.7763,18.5881],[73.7694,18.5873],[73.761,18.5881],[73.7627,18.5703],[73.765,18.5695],[73.7637,18.5513],[73.7677,18.5472],[73.7677,18.5437],[73.7585,18.5396],[73.7582,18.5374],[73.7503,18.5331],[73.7496,18.5306],[73.7583,18.5283],[73.7784,18.5272],[73.7835,18.5243],[73.7828,18.5231],[73.7864,18.5167],[73.7918,18.516],[73.7988,18.523],[73.8047,18.5243],[73.8123,18.5242],[73.8153,18.5255],[73.8189,18.5333],[73.8246,18.537],[73.8285,18.5421]]]},"properties":{"objectid":34064,"statename":"Maharashtra","statecode":"27","districtname":"Pune","districtcode":"521","ulbname":"Pune","ulbcode":"802814","wardname":"Prabhag No. 9","wardcode":"9","id":null,"remark":"Ward 9","st_area(shape)":0.002501339691853956,"st_perimeter(shape)":0.290306268723259}},{"type":"Feature","geometry":{"type":"Polygon","coordinates":[[[73.8645,18.4669],[73.8616,18.4664],[73.8612,18.4689],[73.8577,18.4684],[73.858,18.4603],[73.8643,18.4593],[73.8658,18.456],[73.8629,18.4501],[73.8639,18.4482],[73.862,18.4478],[73.8622,18.4452],[73.8596,18.4423],[73.8606,18.4369],[73.8596,18.4342],[73.863,18.4353],[73.8652,18.4323],[73.8675,18.4329],[73.8696,18.4375],[73.8695,18.4402],[73.8674,18.4422],[73.8677,18.4482],[73.8705,18.4493],[73.8694,18.4585],[73.8777,18.461],[73.8675,18.461],[73.8651,18.4631],[73.8645,18.4669]]]},"properties":{"objectid":34434,"statename":"Maharashtra","statecode":"27","districtname":"Pune","districtcode":"521","ulbname":"Pune","ulbcode":"802814","wardname":"Prabhag No. 38","wardcode":"38","id":null,"remark":"Ward 38","st_area(shape)":0.00024959618830060237,"st_perimeter(shape)":0.12656811959834274}},{"type":"Feature","geometry":{"type":"Polygon","coordinates":[[[73.7961,18.5669],[73.7952,18.5621],[73.7977,18.5599],[73.803,18.5608],[73.8049,18.5511],[73.8089,18.5502],[73.8085,18.5388],[73.8285,18.5421],[73.8165,18.5473],[73.8167,18.5556],[73.8181,18.5562],[73.815,18.5602],[73.8158,18.5621],[73.8286,18.5627],[73.8305,18.5557],[73.8329,18.5571],[73.8327,18.5586],[73.8403,18.5629],[73.8389,18.565],[73.8408,18.5676],[73.8436,18.5676],[73.8442,18.5727],[73.8366,18.5754],[73.8324,18.5735],[73.8282,18.5682],[73.8216,18.5695],[73.8107,18.5679],[73.8019,18.5695],[73.7961,18.5669]]]},"properties":{"objectid":34435,"statename":"Maharashtra","statecode":"27","districtname":"Pune","districtcode":"521","ulbname":"Pune","ulbcode":"802814","wardname":"Prabhag No. 8","wardcode":"8","id":null,"remark":"Ward 8","st_area(shape)":0.0006798008490000414,"st_perimeter(shape)":0.19263022321453868}},{"type":"Feature","geometry":{"type":"Polygon","coordinates":[[[73.8547,18.5223],[73.8562,18.5186],[73.8624,18.5196],[73.8684,18.5188],[73.8675,18.5255],[73.8633,18.5287],[73.8607,18.5286],[73.8547,18.5223]]]},"properties":{"objectid":34436,"statename":"Maharashtra","statecode":"27","districtname":"Pune","districtcode":"521","ulbname":"Pune","ulbcode":"802814","wardname":"Prabhag No. 16","wardcode":"16","id":null,"remark":"Ward 16","st_area(shape)":9.043915990266073e-05,"st_perimeter(shape)":0.041292138762840484}},{"type":"Feature","geometry":{"type":"Polygon","coordinates":[[[73.8683,18.5105],[73.8684,18.5188],[73.8624,18.5196],[73.8562,18.5186],[73.8576,18.5127],[73.8618,18.5131],[73.8621,18.5105],[73.8683,18.5105]]]},"properties":{"objectid":34437,"statename":"Maharashtra","statecode":"27","districtname":"Pune","districtcode":"521","ulbname":"Pune","ulbcode":"802814","wardname":"Prabhag No. 17","wardcode":"17","id":null,"remark":"Ward 17","st_area(shape)":8.939014182376928e-05,"st_perimeter(shape)":0.04101229848082196}},{"type":"Feature","geometry":{"type":"Polygon","coordinates":[[[73.8768,18.5076],[73.8723,18.5093],[73.8687,18.5131],[73.8685,18.5063],[73.8649,18.5061],[73.8653,18.5],[73.8749,18.502],[73.8733,18.5055],[73.8768,18.5076]]]},"properties":{"objectid":34438,"statename":"Maharashtra","statecode":"27","districtname":"Pune","districtcode":"521","ulbname":"Pune","ulbcode":"802814","wardname":"Prabhag No. 19","wardcode":"19","id":null,"remark":"Ward 19","st_area(shape)":7.398965647263814e-05,"st_perimeter(shape)":0.047104669377008274}},{"type":"Feature","geometry":{"type":"Polygon","coordinates":[[[73.8151,18.4931],[73.8133,18.4945],[73.8145,18.5014],[73.8255,18.506],[73.8194,18.5105],[73.8028,18.507],[73.8016,18.4934],[73.8081,18.4921],[73.8151,18.4931]]]},"properties":{"objectid":34439,"statename":"Maharashtra","statecode":"27","districtname":"Pune","districtcode":"521","ulbname":"Pune","ulbcode":"802814","wardname":"Prabhag No. 12","wardcode":"12","id":null,"remark":"Ward 12","st_area(shape)":0.0002466516835021898,"st_perimeter(shape)":0.07466865336465152}},{"type":"Feature","geometry":{"type":"Polygon","coordinates":[[[73.8278,18.4884],[73.8246,18.483],[73.8194,18.4825],[73.8118,18.4788],[73.8071,18.4717],[73.8115,18.4707],[73.8127,18.4718],[73.8139,18.4706],[73.8134,18.4684],[73.8162,18.4653],[73.8188,18.4677],[73.825,18.4689],[73.8276,18.4714],[73.8278,18.4733],[73.8377,18.4696],[73.8364,18.4657],[73.8399,18.4629],[73.8422,18.4631],[73.8419,18.4647],[73.8456,18.4651],[73.8436,18.4721],[73.8453,18.482],[73.8439,18.4816],[73.8424,18.4861],[73.8404,18.4877],[73.8363,18.4882],[73.8314,18.4866],[73.8278,18.4884]]]},"properties":{"objectid":34440,"statename":"Maharashtra","statecode":"27","districtname":"Pune","districtcode":"521","ulbname":"Pune","ulbcode":"802814","wardname":"Prabhag No. 34","wardcode":"34","id":null,"remark":"Ward 34","st_area(shape)":0.0005500457664188969,"st_perimeter(shape)":0.12797673272085755}},{"type":"Feature","geometry":{"type":"Polygon","coordinates":[[[73.8888,18.5458],[73.8896,18.5527],[73.8794,18.5528],[73.8788,18.5543],[73.8811,18.5554],[73.8753,18.557],[73.8699,18.5473],[73.8736,18.5464],[73.8733,18.541],[73.8889,18.5437],[73.8888,18.5458]]]},"properties":{"objectid":34602,"statename":"Maharashtra","statecode":"27","districtname":"Pune","districtcode":"521","ulbname":"Pune","ulbcode":"802814","wardname":"Prabhag No. 6","wardcode":"6","id":null,"remark":"Ward 6","st_area(shape)":0.0001914140022839611,"st_perimeter(shape)":0.06681008793799888}},{"type":"Feature","geometry":{"type":"Polygon","coordinates":[[[73.9246,18.5958],[73.9223,18.5975],[73.9076,18.597],[73.9083,18.6029],[73.9062,18.61],[73.906,18.6166],[73.8932,18.6218],[73.8887,18.6098],[73.8866,18.5994],[73.8731,18.5997],[73.8686,18.6019],[73.864,18.594],[73.8626,18.5878],[73.8598,18.5874],[73.8609,18.5831],[73.8647,18.5824],[73.8708,18.5757],[73.8727,18.5719],[73.8781,18.5688],[73.8792,18.5691],[73.8781,18.5727],[73.884,18.5734],[73.8853,18.5779],[73.8929,18.581],[73.8955,18.5832],[73.8978,18.5834],[73.9003,18.5889],[73.9094,18.5917],[73.9094,18.5907],[73.9116,18.5907],[73.9114,18.5874],[73.9125,18.5872],[73.9167,18.5916],[73.9229,18.5936],[73.9246,18.5958]]]},"properties":{"objectid":34605,"statename":"Maharashtra","statecode":"27","districtname":"Pune","districtcode":"521","ulbname":"Pune","ulbcode":"802814","wardname":"Prabhag No. 1","wardcode":"1","id":null,"remark":"Ward 1","st_area(shape)":0.0013455447794213803,"st_perimeter(shape)":0.21283501810954494}},{"type":"Feature","geometry":{"type":"Polygon","coordinates":[[[73.9152,18.5058],[73.9073,18.5138],[73.901,18.5231],[73.8981,18.516],[73.9004,18.513],[73.8996,18.5066],[73.9026,18.5065],[73.9041,18.5042],[73.8999,18.5044],[73.8984,18.4981],[73.8962,18.4963],[73.8975,18.4929],[73.8949,18.4882],[73.893,18.4879],[73.893,18.4826],[73.891,18.4828],[73.8904,18.4779],[73.8933,18.4778],[73.8947,18.4807],[73.8974,18.4818],[73.9091,18.4807],[73.9118,18.484],[73.912,18.4964],[73.9105,18.4988],[73.9124,18.5027],[73.9126,18.5063],[73.9152,18.5058]]]},"properties":{"objectid":34606,"statename":"Maharashtra","statecode":"27","districtname":"Pune","districtcode":"521","ulbname":"Pune","ulbcode":"802814","wardname":"Prabhag No. 25","wardcode":"25","id":null,"remark":"Ward 25","st_area(shape)":0.0005102474070763217,"st_perimeter(shape)":0.13875223407328585}},{"type":"Feature","geometry":{"type":"Polygon","coordinates":[[[73.8562,18.5186],[73.8547,18.5223],[73.8492,18.5209],[73.843,18.5137],[73.8584,18.5011],[73.8591,18.5042],[73.8562,18.5186]]]},"properties":{"objectid":34607,"statename":"Maharashtra","statecode":"27","districtname":"Pune","districtcode":"521","ulbname":"Pune","ulbcode":"802814","wardname":"Prabhag No. 15","wardcode":"15","id":null,"remark":"Ward 15","st_area(shape)":0.00017442367696695173,"st_perimeter(shape)":0.05825387079840135}},{"type":"Feature","geometry":{"type":"Polygon","coordinates":[[[73.858,18.4603],[73.8529,18.4601],[73.8525,18.4614],[73.8495,18.4565],[73.8484,18.4578],[73.8464,18.4576],[73.846,18.4591],[73.8411,18.4585],[73.8396,18.4538],[73.8434,18.4527],[73.8413,18.4492],[73.8402,18.4494],[73.8453,18.4412],[73.8487,18.44],[73.8472,18.4411],[73.8485,18.4413],[73.8492,18.4443],[73.8508,18.4444],[73.8534,18.438],[73.8606,18.4369],[73.8596,18.4423],[73.8622,18.4452],[73.862,18.4478],[73.8639,18.4482],[73.8629,18.4501],[73.8658,18.456],[73.8643,18.4593],[73.858,18.4603]]]},"properties":{"objectid":34608,"statename":"Maharashtra","statecode":"27","districtname":"Pune","districtcode":"521","ulbname":"Pune","ulbcode":"802814","wardname":"Prabhag No. 40","wardcode":"40","id":null,"remark":"Ward 40","st_area(shape)":0.00040036095591347625,"st_perimeter(shape)":0.1122776040120361}},{"type":"Feature","geometry":{"type":"Polygon","coordinates":[[[73.8607,18.5286],[73.8606,18.5318],[73.8542,18.5324],[73.8554,18.5303],[73.8529,18.5294],[73.8432,18.532],[73.8306,18.5408],[73.8297,18.5399],[73.83,18.529],[73.8271,18.5292],[73.827,18.5281],[73.8271,18.5239],[73.8297,18.5251],[73.8295,18.523],[73.8251,18.5162],[73.8361,18.5139],[73.8372,18.5116],[73.84,18.5101],[73.8485,18.5205],[73.8553,18.5227],[73.8607,18.5286]]]},"properties":{"objectid":34609,"statename":"Maharashtra","statecode":"27","districtname":"Pune","districtcode":"521","ulbname":"Pune","ulbcode":"802814","wardname":"Prabhag No. 14","wardcode":"14","id":null,"remark":"Ward 14","st_area(shape)":0.000512415822792717,"st_perimeter(shape)":0.12138178610078781}},{"type":"Feature","geometry":{"type":"Polygon","coordinates":[[[73.8777,18.4612],[73.8747,18.4608],[73.8735,18.4589],[73.8694,18.4585],[73.8705,18.4493],[73.8677,18.4482],[73.8674,18.442],[73.8724,18.4378],[73.8759,18.44],[73.8776,18.4378],[73.879,18.4284],[73.8918,18.4093],[73.9028,18.4093],[73.9044,18.4131],[73.902,18.4174],[73.902,18.4355],[73.9003,18.4413],[73.898,18.4445],[73.898,18.4511],[73.8991,18.4599],[73.9016,18.4604],[73.9083,18.4578],[73.9084,18.4595],[73.9059,18.4626],[73.9032,18.4638],[73.9022,18.466],[73.8948,18.4647],[73.8775,18.4647],[73.8777,18.4612]]]},"properties":{"objectid":34610,"statename":"Maharashtra","statecode":"27","districtname":"Pune","districtcode":"521","ulbname":"Pune","ulbcode":"802814","wardname":"Prabhag No. 41","wardcode":"41","id":null,"remark":"Ward 41","st_area(shape)":0.0013318356278609097,"st_perimeter(shape)":0.19354984462580763}},{"type":"Feature","geometry":{"type":"Polygon","coordinates":[[[73.9097,18.4822],[73.9104,18.4801],[73.9153,18.4774],[73.9163,18.4752],[73.919,18.4749],[73.9225,18.4758],[73.9228,18.4779],[73.9261,18.48],[73.9269,18.4835],[73.9315,18.4829],[73.932,18.4889],[73.9274,18.4935],[73.9285,18.5022],[73.9126,18.5063],[73.9124,18.5027],[73.9105,18.4988],[73.912,18.4964],[73.9118,18.484],[73.9097,18.4822]]]},"properties":{"objectid":227715,"statename":"Maharashtra","statecode":"27","districtname":"Pune","districtcode":"521","ulbname":"Pune","ulbcode":"802814","wardname":"Prabhag No. 24","wardcode":"24","id":null,"remark":"Ward 24","st_area(shape)":0.0004718549758905123,"st_perimeter(shape)":0.09796023589053918}},{"type":"Feature","geometry":{"type":"Polygon","coordinates":[[[73.9511,18.5687],[73.9542,18.57],[73.9557,18.5742],[73.9568,18.5898],[73.9591,18.5978],[73.9614,18.5983],[73.9617,18.6064],[73.9661,18.6075],[73.9648,18.6188],[73.9631,18.6207],[73.9574,18.62],[73.9539,18.6212],[73.9526,18.6202],[73.9405,18.6199],[73.9254,18.6215],[73.9181,18.619],[73.906,18.6172],[73.9062,18.61],[73.9083,18.6029],[73.9076,18.597],[73.9224,18.5975],[73.9271,18.5944],[73.9316,18.5959],[73.9458,18.5922],[73.9435,18.5894],[73.9437,18.5802],[73.9417,18.5795],[73.9414,18.5767],[73.9468,18.5765],[73.9468,18.5739],[73.9436,18.5739],[73.9481,18.5677],[73.9435,18.5649],[73.9511,18.5687]]]},"properties":{"objectid":227716,"statename":"Maharashtra","statecode":"27","districtname":"Pune","districtcode":"521","ulbname":"Pune","ulbcode":"802814","wardname":"Prabhag No. 42","wardcode":"42","id":null,"remark":"Ward 42","st_area(shape)":0.0016978571042335702,"st_perimeter(shape)":0.23732865250988222}},{"type":"Feature","geometry":{"type":"Polygon","coordinates":[[[73.8748,18.5019],[73.8646,18.4999],[73.8585,18.5006],[73.8574,18.4881],[73.859,18.4854],[73.863,18.4854],[73.8631,18.4895],[73.8701,18.4895],[73.8724,18.4808],[73.8895,18.4861],[73.8887,18.49],[73.8835,18.4902],[73.8775,18.4887],[73.8775,18.4971],[73.8734,18.5002],[73.8748,18.5006],[73.8748,18.5019]]]},"properties":{"objectid":229310,"statename":"Maharashtra","statecode":"27","districtname":"Pune","districtcode":"521","ulbname":"Pune","ulbcode":"802814","wardname":"Prabhag No. 28","wardcode":"28","id":null,"remark":"Ward 28","st_area(shape)":0.000354890344784588,"st_perimeter(shape)":0.10753215263125655}}]}