{"type":"FeatureCollection","features":[{"type":"Feature","geometry":{"type":"Polygon","coordinates":[[[72.8213,21.2239],[72.8217,21.2305],[72.8198,21.2403],[72.8142,21.2391],[72.8134,21.2401],[72.8108,21.2398],[72.8093,21.2415],[72.8109,21.2434],[72.8081,21.2459],[72.8036,21.2403],[72.8017,21.2343],[72.7997,21.2344],[72.7997,21.2324],[72.7965,21.2324],[72.8036,21.2228],[72.8049,21.2232],[72.809,21.2152],[72.8194,21.2034],[72.824,21.2056],[72.8246,21.2075],[72.8225,21.2119],[72.8213,21.2239]]]},"properties":{"objectid":37363,"statename":"Gujarat","statecode":"24","districtname":null,"districtcode":"492","ulbname":"Surat","ulbcode":"802629","wardname":"Dabholi-Singanpor","wardcode":"8","id":null,"remark":"Ok","st_area(shape)":0.0005867404632816224,"st_perimeter(shape)":0.1242345221104544}},{"type":"Feature","geometry":{"type":"Polygon","coordinates":[[[72.8552,21.1553],[72.8526,21.1635],[72.8513,21.162],[72.8481,21.1617],[72.8483,21.1594],[72.8433,21.1584],[72.8443,21.1557],[72.8382,21.1542],[72.8383,21.1513],[72.8271,21.1515],[72.8276,21.1449],[72.826,21.1395],[72.8316,21.1394],[72.8304,21.1447],[72.8357,21.144],[72.8385,21.1463],[72.841,21.1443],[72.8422,21.1449],[72.8419,21.1463],[72.8479,21.1475],[72.8554,21.1258],[72.8623,21.1092],[72.8632,21.1093],[72.8639,21.111],[72.8697,21.1113],[72.8709,21.1146],[72.8697,21.1193],[72.8738,21.1193],[72.8741,21.123],[72.8721,21.1313],[72.8683,21.1387],[72.8641,21.139],[72.8592,21.1416],[72.8552,21.1553]]]},"properties":{"objectid":38124,"statename":"Gujarat","statecode":"24","districtname":null,"districtcode":"492","ulbname":"Surat","ulbcode":"802629","wardname":"Pandesara-Bhestan","wardcode":"28","id":null,"remark":"Ok","st_area(shape)":0.0008279562885079525,"st_perimeter(shape)":0.2018204823461147}},{"type":"Feature","geometry":{"type":"Polygon","coordinates":[[[72.9067,21.2125],[72.9057,21.219],[72.9175,21.2206],[72.9179,21.2193],[72.9257,21.2206],[72.9385,21.2204],[72.9392,21.2155],[72.9421,21.2155],[72.9437,21.2121],[72.9538,21.213],[72.954,21.2168],[72.9617,21.2157],[72.9684,21.2175],[72.9686,21.2261],[72.9561,21.2269],[72.9531,21.2343],[72.9491,21.2371],[72.9431,21.2369],[72.9409,21.2465],[72.9432,21.2478],[72.9432,21.2492],[72.9467,21.2495],[72.947,21.254],[72.9459,21.2558],[72.9442,21.2554],[72.9429,21.2599],[72.933,21.26],[72.9335,21.2628],[72.9299,21.2789],[72.9211,21.274],[72.9118,21.2629],[72.9079,21.2484],[72.9023,21.2405],[72.8981,21.2388],[72.8926,21.233],[72.8792,21.2247],[72.8804,21.2161],[72.885,21.2181],[72.8864,21.2203],[72.894,21.2233],[72.8976,21.2088],[72.9067,21.2125]]]},"properties":{"objectid":39982,"statename":"Gujarat","statecode":"24","districtname":null,"districtcode":"492","ulbname":"Surat","ulbcode":"802629","wardname":"Varachha-Sarthana-Simada-Laskana","wardcode":"3","id":null,"remark":"Ok","st_area(shape)":0.002615940438058036,"st_perimeter(shape)":0.3262118559327879}},{"type":"Feature","geometry":{"type":"Polygon","coordinates":[[[72.8802,21.2162],[72.8789,21.2248],[72.8664,21.221],[72.8578,21.2216],[72.8578,21.2172],[72.863,21.2159],[72.8557,21.212],[72.8567,21.21],[72.8679,21.2131],[72.8691,21.2114],[72.8721,21.2126],[72.8732,21.2151],[72.8752,21.2142],[72.8784,21.2167],[72.8802,21.2162]]]},"properties":{"objectid":39983,"statename":"Gujarat","statecode":"24","districtname":null,"districtcode":"492","ulbname":"Surat","ulbcode":"802629","wardname":"Kapodra","wardcode":"4","id":null,"remark":"Ok","st_area(shape)":0.00019578789450014334,"st_perimeter(shape)":0.08269032314366437}},{"type":"Feature","geometry":{"type":"Polygon","coordinates":[[[72.8628,21.2211],[72.854,21.2234],[72.8483,21.2272],[72.8427,21.234],[72.8412,21.2329],[72.8389,21.2309],[72.8424,21.227],[72.841,21.2244],[72.8463,21.2235],[72.8407,21.2143],[72.8414,21.2039],[72.8567,21.21],[72.8557,21.212],[72.863,21.2159],[72.8578,21.2172],[72.8578,21.2216],[72.8628,21.2211]]]},"properties":{"objectid":39984,"statename":"Gujarat","statecode":"24","districtname":null,"districtcode":"492","ulbname":"Surat","ulbcode":"802629","wardname":"Fulpada-Ashwinikumar","wardcode":"5","id":null,"remark":"Ok","st_area(shape)":0.0003400553716236646,"st_perimeter(shape)":0.11216594360698341}},{"type":"Feature","geometry":{"type":"Polygon","coordinates":[[[72.8414,21.2039],[72.8407,21.2143],[72.8463,21.2235],[72.841,21.2244],[72.8424,21.227],[72.8364,21.2326],[72.8333,21.2314],[72.8347,21.2277],[72.8312,21.2267],[72.8316,21.2246],[72.8213,21.2239],[72.8214,21.2223],[72.8222,21.2186],[72.8275,21.2185],[72.8277,21.215],[72.8291,21.2146],[72.8274,21.2115],[72.8289,21.2109],[72.8273,21.2093],[72.8277,21.2066],[72.8295,21.2067],[72.8295,21.2044],[72.8282,21.2038],[72.831,21.2041],[72.831,21.2065],[72.8356,21.2062],[72.8393,21.203],[72.8414,21.2039]]]},"properties":{"objectid":39985,"statename":"Gujarat","statecode":"24","districtname":null,"districtcode":"492","ulbname":"Surat","ulbcode":"802629","wardname":"Katargam","wardcode":"6","id":null,"remark":"Ok","st_area(shape)":0.0003584472526018746,"st_perimeter(shape)":0.11846543961464222}},{"type":"Feature","geometry":{"type":"Polygon","coordinates":[[[72.8427,21.234],[72.8289,21.248],[72.8212,21.2518],[72.8147,21.2513],[72.8066,21.2449],[72.8081,21.2459],[72.8109,21.2434],[72.8093,21.2415],[72.8108,21.2398],[72.8134,21.2401],[72.8142,21.2391],[72.8198,21.2403],[72.8217,21.2305],[72.8213,21.2239],[72.8316,21.2246],[72.8312,21.2267],[72.8347,21.2277],[72.8336,21.2317],[72.8364,21.2326],[72.8389,21.2309],[72.8427,21.234]]]},"properties":{"objectid":39986,"statename":"Gujarat","statecode":"24","districtname":null,"districtcode":"492","ulbname":"Surat","ulbcode":"802629","wardname":"Katargam-Vedroad","wardcode":"7","id":null,"remark":"Ok","st_area(shape)":0.0004930459479234498,"st_perimeter(shape)":0.11760395883396621}},{"type":"Feature","geometry":{"type":"Polygon","coordinates":[[[72.8047,21.2128],[72.7927,21.2286],[72.7907,21.2359],[72.7717,21.2346],[72.7702,21.2257],[72.7655,21.2245],[72.7679,21.2157],[72.7649,21.2132],[72.7644,21.2102],[72.7683,21.21],[72.769,21.206],[72.7707,21.2053],[72.7711,21.2032],[72.7785,21.2072],[72.7849,21.2083],[72.7852,21.2046],[72.7871,21.2048],[72.787,21.2067],[72.7893,21.207],[72.7895,21.2112],[72.7903,21.2114],[72.7852,21.215],[72.7916,21.2148],[72.7943,21.2169],[72.7964,21.2148],[72.7989,21.2161],[72.8009,21.2133],[72.8047,21.2128]]]},"properties":{"objectid":39987,"statename":"Gujarat","statecode":"24","districtname":null,"districtcode":"492","ulbname":"Surat","ulbcode":"802629","wardname":"Rander-Jahangirabad-Palanpur","wardcode":"9","id":null,"remark":"Ok","st_area(shape)":0.0007472362070982873,"st_perimeter(shape)":0.15500521675848575}},{"type":"Feature","geometry":{"type":"Polygon","coordinates":[[[72.7305,21.1979],[72.7239,21.191],[72.7389,21.1903],[72.7454,21.1945],[72.7525,21.1922],[72.7451,21.1832],[72.7442,21.1838],[72.7427,21.1804],[72.7373,21.178],[72.7389,21.1734],[72.7382,21.1695],[72.7442,21.1687],[72.7462,21.1545],[72.7419,21.1522],[72.7338,21.1446],[72.7284,21.1427],[72.7325,21.1434],[72.7448,21.1502],[72.7483,21.154],[72.7473,21.1553],[72.7526,21.16],[72.7535,21.1584],[72.756,21.1589],[72.7639,21.1634],[72.7661,21.1656],[72.7721,21.1775],[72.7791,21.1811],[72.7941,21.1835],[72.8004,21.1865],[72.799,21.1886],[72.7944,21.1905],[72.795,21.1918],[72.7937,21.1917],[72.7951,21.1931],[72.7945,21.1968],[72.7957,21.1979],[72.794,21.2034],[72.7894,21.2028],[72.7893,21.207],[72.787,21.2067],[72.7871,21.2048],[72.7852,21.2046],[72.7849,21.2083],[72.7785,21.2072],[72.7711,21.2032],[72.7707,21.2053],[72.769,21.206],[72.7683,21.21],[72.7541,21.208],[72.7533,21.2064],[72.7543,21.2035],[72.7522,21.2011],[72.7549,21.2014],[72.7498,21.2],[72.7507,21.1959],[72.7495,21.1955],[72.7487,21.1986],[72.7445,21.1997],[72.7425,21.1977],[72.7364,21.1957],[72.7305,21.1979]]]},"properties":{"objectid":39988,"statename":"Gujarat","statecode":"24","districtname":null,"districtcode":"492","ulbname":"Surat","ulbcode":"802629","wardname":"Adajan-Pal-Ichchhapor","wardcode":"10","id":null,"remark":"Ok","st_area(shape)":0.001926420651792201,"st_perimeter(shape)":0.34683512283150825}},{"type":"Feature","geometry":{"type":"Polygon","coordinates":[[[72.8047,21.2128],[72.8009,21.2133],[72.7989,21.2161],[72.7964,21.2148],[72.7943,21.2169],[72.7916,21.2148],[72.7852,21.215],[72.7903,21.2114],[72.7895,21.2112],[72.7894,21.2028],[72.794,21.2034],[72.7957,21.1979],[72.7945,21.1968],[72.7951,21.1931],[72.7937,21.1917],[72.795,21.1918],[72.7944,21.1905],[72.799,21.1886],[72.8004,21.1865],[72.8096,21.1916],[72.8128,21.1951],[72.8114,21.2042],[72.8047,21.2128]]]},"properties":{"objectid":39989,"statename":"Gujarat","statecode":"24","districtname":null,"districtcode":"492","ulbname":"Surat","ulbcode":"802629","wardname":"Adajan-Gorat","wardcode":"11","id":null,"remark":"Ok","st_area(shape)":0.00046289120277320035,"st_perimeter(shape)":0.1066044249951723}},{"type":"Feature","geometry":{"type":"Polygon","coordinates":[[[72.8414,21.2039],[72.8298,21.198],[72.8264,21.1988],[72.8194,21.1968],[72.8191,21.1956],[72.8237,21.1949],[72.8232,21.1919],[72.8242,21.191],[72.82,21.1907],[72.8202,21.1883],[72.8185,21.1872],[72.815,21.1876],[72.8106,21.186],[72.8185,21.1806],[72.8194,21.1841],[72.8297,21.192],[72.8295,21.1904],[72.8324,21.1895],[72.8345,21.184],[72.8391,21.187],[72.8434,21.1948],[72.8451,21.1945],[72.8414,21.2039]]]},"properties":{"objectid":39990,"statename":"Gujarat","statecode":"24","districtname":null,"districtcode":"492","ulbname":"Surat","ulbcode":"802629","wardname":"Wadi Falia-Navapura-Begumpura-Salabatpura","wardcode":"13","id":null,"remark":"Ok","st_area(shape)":0.00030281616860023286,"st_perimeter(shape)":0.12212642751826745}},{"type":"Feature","geometry":{"type":"Polygon","coordinates":[[[72.8623,21.2011],[72.8641,21.2052],[72.8673,21.2076],[72.8674,21.209],[72.8692,21.2094],[72.8679,21.2131],[72.8564,21.2099],[72.8572,21.2069],[72.8546,21.2055],[72.8548,21.2042],[72.8578,21.204],[72.8589,21.2024],[72.8577,21.2015],[72.8592,21.2],[72.855,21.198],[72.8482,21.1977],[72.8484,21.1942],[72.8566,21.1918],[72.8567,21.1929],[72.8591,21.1933],[72.8591,21.1958],[72.8644,21.197],[72.8634,21.1971],[72.8623,21.2011]]]},"properties":{"objectid":39991,"statename":"Gujarat","statecode":"24","districtname":null,"districtcode":"492","ulbname":"Surat","ulbcode":"802629","wardname":"Karanj-Magob","wardcode":"15","id":null,"remark":"Ok","st_area(shape)":0.00016334211472216105,"st_perimeter(shape)":0.09333091915128051}},{"type":"Feature","geometry":{"type":"Polygon","coordinates":[[[72.8752,21.2142],[72.8732,21.2151],[72.8721,21.2126],[72.8691,21.2114],[72.8692,21.2094],[72.8674,21.209],[72.8673,21.2076],[72.8641,21.2052],[72.8622,21.2012],[72.8673,21.2022],[72.8685,21.1967],[72.8752,21.1945],[72.8751,21.192],[72.8814,21.1921],[72.8837,21.1941],[72.8839,21.1964],[72.8758,21.2],[72.8747,21.205],[72.8749,21.21],[72.8759,21.2103],[72.8752,21.2142]]]},"properties":{"objectid":39992,"statename":"Gujarat","statecode":"24","districtname":null,"districtcode":"492","ulbname":"Surat","ulbcode":"802629","wardname":"Puna(West)","wardcode":"16","id":null,"remark":"Ok","st_area(shape)":0.00020020203146441413,"st_perimeter(shape)":0.08309748411912954}},{"type":"Feature","geometry":{"type":"Polygon","coordinates":[[[72.8368,21.1859],[72.8345,21.184],[72.8324,21.1895],[72.8295,21.1904],[72.8297,21.192],[72.8194,21.1841],[72.8185,21.1806],[72.8147,21.1825],[72.8127,21.1821],[72.8134,21.1801],[72.8121,21.1797],[72.8134,21.1782],[72.8101,21.1763],[72.8076,21.177],[72.8079,21.1752],[72.8004,21.1725],[72.8015,21.1634],[72.8029,21.1624],[72.8111,21.1629],[72.8158,21.1708],[72.8199,21.172],[72.8207,21.1677],[72.8268,21.1724],[72.8269,21.1707],[72.831,21.1755],[72.8343,21.1728],[72.836,21.1759],[72.8327,21.1804],[72.8396,21.1833],[72.8368,21.1859]]]},"properties":{"objectid":39993,"statename":"Gujarat","statecode":"24","districtname":null,"districtcode":"492","ulbname":"Surat","ulbcode":"802629","wardname":"Khatodara-Majura-Sagrampura","wardcode":"20","id":null,"remark":"Ok","st_area(shape)":0.00047778285430965487,"st_perimeter(shape)":0.14527012934979464}},{"type":"Feature","geometry":{"type":"Polygon","coordinates":[[[72.8543,21.1755],[72.8535,21.1792],[72.8478,21.1794],[72.8468,21.1749],[72.8391,21.1725],[72.8412,21.1626],[72.8389,21.1633],[72.8352,21.1619],[72.8287,21.1633],[72.8301,21.1509],[72.8383,21.1513],[72.8382,21.1542],[72.8443,21.1557],[72.8433,21.1584],[72.8483,21.1594],[72.8481,21.1617],[72.8532,21.163],[72.8503,21.1741],[72.8543,21.1755]]]},"properties":{"objectid":39994,"statename":"Gujarat","statecode":"24","districtname":null,"districtcode":"492","ulbname":"Surat","ulbcode":"802629","wardname":"Udhna(South) ","wardcode":"24","id":null,"remark":"Ok","st_area(shape)":0.0003297562085969617,"st_perimeter(shape)":0.11247875522088416}},{"type":"Feature","geometry":{"type":"Polygon","coordinates":[[[72.8684,21.1763],[72.8673,21.1793],[72.8503,21.1741],[72.8552,21.1553],[72.8561,21.1554],[72.8565,21.1613],[72.8586,21.164],[72.8589,21.1679],[72.8658,21.1698],[72.8657,21.1711],[72.8674,21.1714],[72.8666,21.1751],[72.8688,21.1751],[72.8684,21.1763]]]},"properties":{"objectid":39995,"statename":"Gujarat","statecode":"24","districtname":null,"districtcode":"492","ulbname":"Surat","ulbcode":"802629","wardname":"Limbayat-Udhna Yard","wardcode":"25","id":null,"remark":"Ok","st_area(shape)":0.00017589917382403818,"st_perimeter(shape)":0.07691776079335727}},{"type":"Feature","geometry":{"type":"Polygon","coordinates":[[[72.8794,21.1766],[72.8741,21.1773],[72.8684,21.1763],[72.8688,21.1751],[72.8666,21.1751],[72.8674,21.1714],[72.8657,21.1711],[72.8658,21.1698],[72.8589,21.1679],[72.8581,21.163],[72.8846,21.16],[72.8824,21.1754],[72.8794,21.1766]]]},"properties":{"objectid":39996,"statename":"Gujarat","statecode":"24","districtname":null,"districtcode":"492","ulbname":"Surat","ulbcode":"802629","wardname":"Godadara-Dindoli(North) ","wardcode":"26","id":null,"remark":"Ok","st_area(shape)":0.000307738105273606,"st_perimeter(shape)":0.0803562415577368}},{"type":"Feature","geometry":{"type":"Polygon","coordinates":[[[72.8673,21.1387],[72.8669,21.1431],[72.8734,21.1439],[72.8802,21.1438],[72.8821,21.1379],[72.8873,21.1389],[72.885,21.1456],[72.8846,21.16],[72.8571,21.1631],[72.8561,21.1554],[72.8552,21.1553],[72.8592,21.1416],[72.8673,21.1387]]]},"properties":{"objectid":39997,"statename":"Gujarat","statecode":"24","districtname":null,"districtcode":"492","ulbname":"Surat","ulbcode":"802629","wardname":"Dindoli(South)","wardcode":"27","id":null,"remark":"Ok","st_area(shape)":0.0005599623666786205,"st_perimeter(shape)":0.11265110283111636}},{"type":"Feature","geometry":{"type":"Polygon","coordinates":[[[72.7998,21.1437],[72.7968,21.1441],[72.7955,21.1422],[72.796,21.1367],[72.7937,21.1353],[72.7943,21.1294],[72.796,21.1285],[72.7974,21.1299],[72.7991,21.1284],[72.7999,21.1224],[72.7956,21.123],[72.7895,21.1204],[72.7786,21.1217],[72.7786,21.1279],[72.7679,21.1259],[72.7675,21.1272],[72.7636,21.128],[72.7621,21.13],[72.7484,21.1271],[72.7479,21.1041],[72.7464,21.0949],[72.7433,21.0897],[72.7448,21.0896],[72.747,21.0768],[72.7613,21.0768],[72.7702,21.0788],[72.7904,21.0784],[72.7916,21.0799],[72.7972,21.0812],[72.7981,21.0823],[72.7976,21.0864],[72.7993,21.0892],[72.8033,21.0897],[72.8085,21.0868],[72.8085,21.0881],[72.8154,21.087],[72.8133,21.0824],[72.8085,21.0794],[72.8049,21.0725],[72.8026,21.0711],[72.8057,21.0688],[72.81,21.0705],[72.8124,21.0651],[72.8166,21.0661],[72.8167,21.064],[72.824,21.0662],[72.8347,21.0617],[72.8419,21.0557],[72.8555,21.0565],[72.8688,21.0612],[72.871,21.0588],[72.875,21.0598],[72.8797,21.0586],[72.8853,21.0592],[72.8843,21.067],[72.8828,21.0695],[72.8844,21.071],[72.8837,21.0717],[72.8853,21.0734],[72.8861,21.0773],[72.8887,21.0763],[72.8899,21.0778],[72.8962,21.0796],[72.8955,21.0885],[72.8868,21.0882],[72.886,21.0897],[72.8846,21.0974],[72.8861,21.0983],[72.8861,21.1009],[72.8713,21.0992],[72.8689,21.1057],[72.8697,21.1113],[72.8639,21.111],[72.8623,21.1092],[72.8587,21.1183],[72.8476,21.117],[72.8458,21.1183],[72.8461,21.1197],[72.8421,21.1209],[72.8419,21.1223],[72.8314,21.1199],[72.8167,21.1201],[72.8127,21.1185],[72.8078,21.12],[72.8084,21.1262],[72.8067,21.1304],[72.808,21.133],[72.8074,21.1393],[72.8008,21.1401],[72.7998,21.1437]]]},"properties":{"objectid":39998,"statename":"Gujarat","statecode":"24","districtname":null,"districtcode":"492","ulbname":"Surat","ulbcode":"802629","wardname":"Kansad-Sachin-Unn-Aabhva","wardcode":"30","id":null,"remark":"Ok","st_area(shape)":0.007189727937940611,"st_perimeter(shape)":0.5558300562816545}},{"type":"Feature","geometry":{"type":"Polygon","coordinates":[[[72.8427,21.2368],[72.8506,21.229],[72.8523,21.2303],[72.8584,21.2269],[72.8629,21.226],[72.873,21.2273],[72.8823,21.2316],[72.8925,21.239],[72.8981,21.2493],[72.8991,21.2487],[72.9033,21.2553],[72.9134,21.2738],[72.9173,21.2783],[72.9383,21.2866],[72.9455,21.2852],[72.9466,21.2863],[72.9455,21.2876],[72.9475,21.2875],[72.9469,21.2905],[72.9483,21.2898],[72.9491,21.291],[72.9533,21.2914],[72.9544,21.2949],[72.9528,21.3026],[72.9423,21.3031],[72.9416,21.3063],[72.944,21.3075],[72.9443,21.3123],[72.9385,21.3111],[72.9333,21.3186],[72.9277,21.3146],[72.9261,21.3151],[72.9274,21.3143],[72.9232,21.3114],[72.9241,21.3149],[72.9208,21.3143],[72.9214,21.3084],[72.9168,21.3034],[72.9049,21.3098],[72.9017,21.3101],[72.9003,21.306],[72.8831,21.3088],[72.8813,21.3043],[72.8861,21.2998],[72.8884,21.2897],[72.8934,21.2888],[72.8943,21.2841],[72.8894,21.2806],[72.863,21.2766],[72.8623,21.2754],[72.8504,21.2728],[72.8504,21.2652],[72.8457,21.2626],[72.8484,21.2553],[72.8509,21.2553],[72.8515,21.2527],[72.8548,21.253],[72.8553,21.2551],[72.8585,21.2558],[72.8602,21.2655],[72.868,21.2631],[72.8714,21.2602],[72.8749,21.2603],[72.8763,21.2522],[72.8704,21.249],[72.8689,21.2349],[72.8633,21.2345],[72.8628,21.2364],[72.8596,21.2369],[72.852,21.2362],[72.8511,21.241],[72.8466,21.2393],[72.8451,21.2399],[72.8427,21.2368]]]},"properties":{"objectid":40382,"statename":"Gujarat","statecode":"24","districtname":null,"districtcode":"492","ulbname":"Surat","ulbcode":"802629","wardname":"Amroli-Mota Varachha-Kathor","wardcode":"2","id":null,"remark":"Ok","st_area(shape)":0.003822200848439002,"st_perimeter(shape)":0.5034695149095841}},{"type":"Feature","geometry":{"type":"Polygon","coordinates":[[[72.8524,21.1934],[72.8484,21.1942],[72.8482,21.1977],[72.855,21.198],[72.8592,21.2],[72.8577,21.2015],[72.8589,21.2024],[72.8578,21.204],[72.8548,21.2042],[72.8546,21.2055],[72.8572,21.2069],[72.8565,21.2098],[72.8414,21.2039],[72.8451,21.1945],[72.8434,21.1948],[72.8394,21.1874],[72.8368,21.1859],[72.8394,21.1835],[72.8435,21.1874],[72.8456,21.1866],[72.8476,21.1892],[72.8515,21.19],[72.8499,21.1917],[72.8524,21.1934]]]},"properties":{"objectid":40383,"statename":"Gujarat","statecode":"24","districtname":null,"districtcode":"492","ulbname":"Surat","ulbcode":"802629","wardname":"Umarwada-Matawadi","wardcode":"14","id":null,"remark":"Ok","st_area(shape)":0.00021535261489886122,"st_perimeter(shape)":0.10162219391168548}},{"type":"Feature","geometry":{"type":"Polygon","coordinates":[[[72.8976,21.2088],[72.8939,21.2233],[72.8864,21.2203],[72.885,21.2181],[72.8812,21.2162],[72.8785,21.2167],[72.8754,21.215],[72.8759,21.2103],[72.8749,21.21],[72.8747,21.205],[72.8758,21.2],[72.8844,21.1966],[72.8854,21.1986],[72.8918,21.2004],[72.8935,21.2034],[72.897,21.2058],[72.8976,21.2088]]]},"properties":{"objectid":40384,"statename":"Gujarat","statecode":"24","districtname":null,"districtcode":"492","ulbname":"Surat","ulbcode":"802629","wardname":"Puna(East)","wardcode":"17","id":null,"remark":"Ok","st_area(shape)":0.0004109953985589066,"st_perimeter(shape)":0.08849495486233888}},{"type":"Feature","geometry":{"type":"Polygon","coordinates":[[[72.8147,21.1825],[72.8106,21.186],[72.815,21.1876],[72.8185,21.1872],[72.8202,21.1883],[72.82,21.1907],[72.8242,21.191],[72.8232,21.1919],[72.8237,21.1949],[72.8167,21.1957],[72.8158,21.1926],[72.798,21.1806],[72.7782,21.1739],[72.772,21.1634],[72.7659,21.1602],[72.7672,21.1568],[72.7732,21.1592],[72.7779,21.159],[72.7785,21.1573],[72.7827,21.1576],[72.791,21.161],[72.8023,21.1626],[72.8004,21.1725],[72.8079,21.1752],[72.8076,21.177],[72.8101,21.1763],[72.8134,21.1782],[72.8121,21.1797],[72.8134,21.1801],[72.8127,21.1821],[72.8147,21.1825]]]},"properties":{"objectid":40385,"statename":"Gujarat","statecode":"24","districtname":null,"districtcode":"492","ulbname":"Surat","ulbcode":"802629","wardname":"Soni Falia-Nanpura-Athwa-Piplod","wardcode":"21","id":null,"remark":"Ok","st_area(shape)":0.0006980689438414863,"st_perimeter(shape)":0.18919348048916873}},{"type":"Feature","geometry":{"type":"Polygon","coordinates":[[[72.8391,21.1725],[72.8359,21.1758],[72.8337,21.1727],[72.831,21.1755],[72.8269,21.1707],[72.8268,21.1724],[72.8207,21.1677],[72.8199,21.172],[72.8158,21.1708],[72.8122,21.1642],[72.814,21.163],[72.8173,21.1642],[72.8187,21.1594],[72.8206,21.1593],[72.8163,21.1545],[72.8166,21.1526],[72.8136,21.1504],[72.8192,21.1494],[72.8273,21.1502],[72.8271,21.1515],[72.8301,21.1509],[72.8287,21.1633],[72.8352,21.1619],[72.8389,21.1633],[72.8412,21.1626],[72.8391,21.1725]]]},"properties":{"objectid":40386,"statename":"Gujarat","statecode":"24","districtname":null,"districtcode":"492","ulbname":"Surat","ulbcode":"802629","wardname":"Bamroli-Udhna(North)","wardcode":"23","id":null,"remark":"Ok","st_area(shape)":0.00039831902137403953,"st_perimeter(shape)":0.12951068223114193}},{"type":"Feature","geometry":{"type":"Polygon","coordinates":[[[72.8391,21.203],[72.8356,21.2062],[72.831,21.2065],[72.831,21.2041],[72.8282,21.2038],[72.8295,21.2044],[72.8295,21.2067],[72.8277,21.2066],[72.8274,21.2083],[72.8276,21.2105],[72.8289,21.2109],[72.8274,21.2115],[72.8291,21.2146],[72.8277,21.215],[72.8276,21.2183],[72.8222,21.2186],[72.8225,21.2119],[72.8245,21.2072],[72.824,21.2056],[72.82,21.2036],[72.8194,21.1999],[72.8167,21.1957],[72.819,21.1955],[72.8194,21.1968],[72.8252,21.1987],[72.8298,21.198],[72.8391,21.203]]]},"properties":{"objectid":40771,"statename":"Gujarat","statecode":"24","districtname":null,"districtcode":"492","ulbname":"Surat","ulbcode":"802629","wardname":"Nanavat-Saiyadpura-Kubernagar-Mahidharpura","wardcode":"12","id":null,"remark":"Ok","st_area(shape)":0.00018339591371507787,"st_perimeter(shape)":0.09849934107082649}},{"type":"Feature","geometry":{"type":"Polygon","coordinates":[[[72.8502,21.1801],[72.8539,21.1835],[72.8574,21.1842],[72.8573,21.1827],[72.8554,21.1825],[72.8552,21.1804],[72.8568,21.1796],[72.8567,21.1813],[72.8591,21.1798],[72.862,21.1838],[72.8651,21.1823],[72.8674,21.1854],[72.8654,21.1862],[72.8638,21.1928],[72.8614,21.1967],[72.859,21.1957],[72.8591,21.1933],[72.8567,21.1929],[72.8566,21.1918],[72.8527,21.1934],[72.8505,21.1928],[72.8499,21.1916],[72.8515,21.19],[72.8476,21.1892],[72.8456,21.1866],[72.8435,21.1874],[72.8381,21.1821],[72.8327,21.1804],[72.8391,21.1725],[72.8468,21.1749],[72.847,21.1785],[72.8502,21.1801]]]},"properties":{"objectid":40772,"statename":"Gujarat","statecode":"24","districtname":null,"districtcode":"492","ulbname":"Surat","ulbcode":"802629","wardname":"Aanjana-Dumbhal","wardcode":"19","id":null,"remark":"Ok","st_area(shape)":0.00034027870394942817,"st_perimeter(shape)":0.12483378769825587}},{"type":"Feature","geometry":{"type":"Polygon","coordinates":[[[72.8136,21.1504],[72.8112,21.1494],[72.8099,21.1534],[72.8105,21.1552],[72.809,21.1559],[72.8071,21.1561],[72.8061,21.1546],[72.8061,21.1561],[72.8049,21.156],[72.7973,21.1532],[72.8008,21.1401],[72.8074,21.1393],[72.808,21.133],[72.8067,21.1304],[72.8085,21.1245],[72.8077,21.12],[72.8127,21.1185],[72.8167,21.1201],[72.8314,21.1199],[72.8419,21.1223],[72.8421,21.1209],[72.8461,21.1197],[72.8458,21.1183],[72.8476,21.117],[72.8587,21.1183],[72.8479,21.1475],[72.8419,21.1463],[72.8422,21.1449],[72.841,21.1443],[72.8385,21.1463],[72.8357,21.144],[72.8304,21.1447],[72.8316,21.1394],[72.826,21.1395],[72.8276,21.1449],[72.8273,21.1502],[72.8192,21.1494],[72.8136,21.1504]]]},"properties":{"objectid":40773,"statename":"Gujarat","statecode":"24","districtname":null,"districtcode":"492","ulbname":"Surat","ulbcode":"802629","wardname":"Althan-Bamroli-Vadod","wardcode":"29","id":null,"remark":"Ok","st_area(shape)":0.0013854023888768738,"st_perimeter(shape)":0.22115425399460092}},{"type":"Feature","geometry":{"type":"Polygon","coordinates":[[[72.7137,21.1373],[72.7078,21.1284],[72.7065,21.118],[72.7081,21.1124],[72.7062,21.1061],[72.7026,21.1049],[72.7015,21.1029],[72.7017,21.0987],[72.7108,21.0823],[72.7243,21.0789],[72.7316,21.0791],[72.7431,21.0897],[72.7459,21.0949],[72.7473,21.1039],[72.7471,21.1212],[72.7481,21.1272],[72.7621,21.13],[72.7636,21.128],[72.7658,21.1281],[72.768,21.126],[72.7788,21.128],[72.7787,21.1218],[72.7894,21.1206],[72.7959,21.1231],[72.7994,21.1225],[72.7986,21.1279],[72.7974,21.1295],[72.7958,21.1281],[72.7941,21.1286],[72.7935,21.1311],[72.7933,21.1351],[72.7957,21.1367],[72.7952,21.1423],[72.7966,21.1442],[72.7996,21.1438],[72.7971,21.1533],[72.8046,21.156],[72.8063,21.1561],[72.8062,21.1547],[72.807,21.1561],[72.8094,21.1559],[72.8106,21.1552],[72.81,21.1534],[72.8113,21.1496],[72.8203,21.1593],[72.8185,21.1593],[72.8172,21.1641],[72.814,21.1629],[72.812,21.165],[72.8111,21.1628],[72.7975,21.1624],[72.7824,21.1573],[72.7782,21.157],[72.7776,21.1587],[72.7731,21.1589],[72.7676,21.1563],[72.7658,21.1591],[72.7615,21.1566],[72.7608,21.1538],[72.7574,21.1509],[72.7406,21.1407],[72.7328,21.138],[72.717,21.1393],[72.7137,21.1373]]]},"properties":{"objectid":40786,"statename":"Gujarat","statecode":"24","districtname":null,"districtcode":"492","ulbname":"Surat","ulbcode":"802629","wardname":"Bhatar-Vesu-Dumas","wardcode":"22","id":null,"remark":"","st_area(shape)":0.003972314450660758,"st_perimeter(shape)":0.4134608207850955}},{"type":"Feature","geometry":{"type":"Polygon","coordinates":[[[72.8502,21.1801],[72.8535,21.1792],[72.8543,21.1755],[72.8645,21.1788],[72.8671,21.1784],[72.8673,21.1793],[72.8689,21.1763],[72.8741,21.1773],[72.8794,21.1766],[72.8796,21.1786],[72.8824,21.1779],[72.9002,21.1802],[72.9033,21.1795],[72.903,21.1864],[72.9011,21.1928],[72.9038,21.1928],[72.9097,21.1959],[72.9112,21.1936],[72.9152,21.1979],[72.9127,21.2137],[72.897,21.2087],[72.897,21.2058],[72.8935,21.2034],[72.8918,21.2004],[72.8854,21.1986],[72.8829,21.1928],[72.8814,21.1921],[72.8751,21.192],[72.8752,21.1945],[72.8685,21.1967],[72.8673,21.2022],[72.8623,21.2011],[72.8634,21.1971],[72.8644,21.197],[72.8618,21.1964],[72.8654,21.1862],[72.8674,21.1854],[72.8651,21.1823],[72.862,21.1838],[72.8591,21.1798],[72.8567,21.1813],[72.8568,21.1796],[72.8552,21.1804],[72.8554,21.1825],[72.8573,21.1827],[72.8574,21.1842],[72.8539,21.1835],[72.8502,21.1801]]]},"properties":{"objectid":41942,"statename":"Gujarat","statecode":"24","districtname":null,"districtcode":"492","ulbname":"Surat","ulbcode":"802629","wardname":"Limbayat-Parvat-Kumbhariya","wardcode":"18","id":null,"remark":"","st_area(shape)":0.0010691072091728417,"st_perimeter(shape)":0.24633523588250114}},{"type":"Feature","geometry":{"type":"Polygon","coordinates":[[[72.8813,21.3043],[72.8676,21.3023],[72.861,21.3075],[72.8578,21.3005],[72.8464,21.2994],[72.8382,21.3003],[72.8377,21.304],[72.835,21.3048],[72.8259,21.3041],[72.8135,21.3062],[72.8131,21.2863],[72.8137,21.2831],[72.815,21.2831],[72.8165,21.2722],[72.8104,21.2711],[72.8108,21.2651],[72.8086,21.2648],[72.8089,21.2633],[72.7949,21.2615],[72.7956,21.2552],[72.7806,21.2537],[72.7802,21.256],[72.7665,21.2555],[72.7442,21.2521],[72.7449,21.2446],[72.7474,21.2396],[72.7506,21.2392],[72.7527,21.228],[72.748,21.2274],[72.7403,21.224],[72.7426,21.212],[72.7423,21.2056],[72.7268,21.2051],[72.7263,21.2027],[72.7305,21.1979],[72.7347,21.1958],[72.7425,21.1977],[72.7445,21.1997],[72.7487,21.1986],[72.7495,21.1955],[72.7507,21.1959],[72.7498,21.2],[72.7549,21.2015],[72.7522,21.2011],[72.7543,21.2035],[72.7533,21.2064],[72.7541,21.208],[72.7644,21.2102],[72.7649,21.2132],[72.7676,21.2151],[72.7655,21.2245],[72.7702,21.2257],[72.7717,21.2346],[72.7908,21.2359],[72.7912,21.2393],[72.7917,21.2385],[72.7943,21.244],[72.8078,21.2543],[72.8153,21.2577],[72.819,21.258],[72.826,21.2544],[72.8427,21.2368],[72.8451,21.2399],[72.8466,21.2393],[72.8511,21.241],[72.852,21.2362],[72.8596,21.2369],[72.8628,21.2364],[72.8633,21.2345],[72.8689,21.2349],[72.8704,21.249],[72.8763,21.2522],[72.8749,21.2603],[72.8714,21.2602],[72.868,21.2631],[72.8602,21.2655],[72.8585,21.2558],[72.8553,21.2551],[72.8548,21.253],[72.8515,21.2527],[72.8509,21.2553],[72.8484,21.2553],[72.8457,21.2626],[72.8504,21.2652],[72.8504,21.2728],[72.8623,21.2754],[72.863,21.2766],[72.8894,21.2806],[72.8943,21.2841],[72.8934,21.2888],[72.8884,21.2897],[72.8861,21.2998],[72.8813,21.3043]]]},"properties":{"objectid":43345,"statename":"Gujarat","statecode":"24","districtname":null,"districtcode":"492","ulbname":"Surat","ulbcode":"802629","wardname":"Jahangirpura-Variyav-Chhaprabhatha-Kosad","wardcode":"1","id":null,"remark":"","st_area(shape)":0.00545738218684784,"st_perimeter(shape)":0.693142541942655}}]}